{"type":"FeatureCollection","features":[{"type":"Feature","properties":{"date":"2026-04-08T00:00:00.000Z","year":2026,"description":"Eplan. Site improvements for Recreation and Parks. Scope includes: 1) Grading and excavation for turf grid, fencing, light pole foundations, concrete headers, irrigation, and driveway.","metadescription":"Grading. 1 or 2 Family Dwelling. Eplan. Site improvements for Recreation and Parks. Scope includes: 1) Grading and excavation for turf grid, fencing, light pole foundations, concrete headers, irrigation, and driveway.. Quality Review Completed. 1061 N CARY AVE","address":"1061 N CARY AVE","ct":"2946.10","ev":"N","apc":"Harbor","cpa":"Wilmington - Harbor City","zone":"R1-1XL-O-CUGU","solar":"N","pin_nbr":"033B209   747","status_date":"05/15/2026","permit_group":"Building","refresh_time":"06/10/2026","type_lat_lon":"ADDRESS","business_unit":"Regular Plan Check"},"geometry":{"type":"Point","coordinates":[-118.25743,33.78462]}},{"type":"Feature","properties":{"date":"2026-02-12T00:00:00.000Z","year":2026,"description":"RECREATION AND PARKS FACILITY LANDSCAPING, IRRIGATION, GRADING AND DRAINAGE 3 OF 3","metadescription":"Grading. Commercial. RECREATION AND PARKS FACILITY LANDSCAPING, IRRIGATION, GRADING AND DRAINAGE 3 OF 3. Issued. 12455 W WICKS ST","address":"12455 W WICKS ST","ct":"1210.10","ev":"N","apc":"North Valley","cpa":"Sun Valley - La Tuna Canyon","zone":"OS-1XL-G","solar":"N","pin_nbr":"192B165    76","use_code":"60","status_date":"02/12/2026","permit_group":"Building","refresh_time":"06/10/2026","type_lat_lon":"ADDRESS","business_unit":"Regular Plan Check"},"geometry":{"type":"Point","coordinates":[-118.40457,34.22624]}},{"type":"Feature","properties":{"date":"2025-12-10T00:00:00.000Z","year":2025,"description":"ePlan: Exterior site work only - New accessible parking; Remove portion of existing asphalt paving & replace with new; Provide slurry seal coat over portions of existing site asphalt; Relocate existing driveway apron; Provide new landscaping & irrigation","metadescription":"Nonbldg-Alter/Repair. Commercial. ePlan: Exterior site work only - New accessible parking; Remove portion of existing asphalt paving & replace with new; Provide slurry seal coat over portions of existing site asphalt; Relocate existing driveway apron; Provide new landscaping & irrigation. Issued. 8823 N SUNLAND BLVD","address":"8823 N SUNLAND BLVD","ct":"1211.02","ev":"N","apc":"North Valley","cpa":"Sun Valley - La Tuna Canyon","zone":"C2-1VL-CUGU","solar":"N","pin_nbr":"195B173   389","use_code":"16","status_date":"12/10/2025","permit_group":"Building","refresh_time":"06/10/2026","type_lat_lon":"ADDRESS","business_unit":"Regular Plan Check"},"geometry":{"type":"Point","coordinates":[-118.36664,34.22933]}},{"type":"Feature","properties":{"date":"2025-11-21T00:00:00.000Z","year":2025,"description":"*** Attn: KAVIAN *** site grading and irrigation system for new parking lot, 270 cy  (ref # 24020-30000-01693)","metadescription":"Grading. Commercial. *** Attn: KAVIAN *** site grading and irrigation system for new parking lot, 270 cy  (ref # 24020-30000-01693). Permit Finaled. 1959 S LA CIENEGA BLVD","address":"1959 S LA CIENEGA BLVD","ct":"2696.01","ev":"N","apc":"South Los Angeles","cpa":"West Adams - Baldwin Hills - Leimert","zone":"C2-1VL-CPIO","solar":"N","pin_nbr":"126B173   692","use_code":"60","status_date":"12/30/2025","permit_group":"Building","refresh_time":"06/10/2026","type_lat_lon":"ADDRESS","business_unit":"Regular Plan Check"},"geometry":{"type":"Point","coordinates":[-118.37696,34.04111]}},{"type":"Feature","properties":{"date":"2025-11-06T00:00:00.000Z","year":2025,"description":"***2025 Wildfire - Ineligible Project *** 20,000 gallon underground cistern for storage of freshwater for irrigation, no indoor use.","metadescription":"Nonbldg-New. 1 or 2 Family Dwelling. ***2025 Wildfire - Ineligible Project *** 20,000 gallon underground cistern for storage of freshwater for irrigation, no indoor use.. Issued. 205 N CHAUTAUQUA BLVD","address":"205 N CHAUTAUQUA BLVD","ct":"2627.06","ev":"N","hl":"YES","apc":"West Los Angeles","zone":"R1-1-O","solar":"N","pin_nbr":"123B129   856","use_code":"23","status_date":"11/06/2025","permit_group":"Building","refresh_time":"06/10/2026","type_lat_lon":"ADDRESS","business_unit":"Expanded Counter Plan Check"},"geometry":{"type":"Point","coordinates":[-118.51883,34.02952]}},{"type":"Feature","properties":{"date":"2025-10-02T00:00:00.000Z","year":2025,"description":"(eplan) EXISTING SITE TO BE IMPROVED WITH NEW PLANTER AREAS, IRRIGATION SYSTEM, NEW DRIVE WAY CUT. NEW SITE LIGHT POLES WITH LED FIXTURE HEADS. NEW PARKING STALL STRIPPING, NEW EVCS STALLS AND NEW ADA PATH OF TRAVEL FROM PUBLIC WAY.","metadescription":"Bldg-Alter/Repair. Commercial. (eplan) EXISTING SITE TO BE IMPROVED WITH NEW PLANTER AREAS, IRRIGATION SYSTEM, NEW DRIVE WAY CUT. NEW SITE LIGHT POLES WITH LED FIXTURE HEADS. NEW PARKING STALL STRIPPING, NEW EVCS STALLS AND NEW ADA PATH OF TRAVEL FROM PUBLIC WAY.. PC Info Complete. 15447 W DEVONSHIRE ST","address":"15447 W DEVONSHIRE ST","ct":"1096.04","ev":"N","apc":"North Valley","cpa":"Mission Hills - Panorama City - North Hills","zone":"C2-1, P-1","solar":"N","pin_nbr":"204B145   114","use_code":"13","status_date":"12/22/2025","permit_group":"Building","refresh_time":"06/10/2026","type_lat_lon":"ADDRESS","business_unit":"Regular Plan Check"},"geometry":{"type":"Point","coordinates":[-118.46926,34.25746]}},{"type":"Feature","properties":{"date":"2025-05-06T00:00:00.000Z","year":2025,"description":"ATTN:  QUAN NGHIEMUSE OF LAND permit update submittal due to reduction is total site parking from 375 parking spaces to 371 parking spaces.  4 parking spaces were eliminated due to power pole location and accommodation of LADWP transformer.  There is no change in disabled access path-of-travel and/or designation of parking spaces.  There is no change in site landscaping, irrigation, or vehicular circulation.PRIOR PERMITS:  17020-10000-03629, 17020-10000-03630, 17020-10002-03629","metadescription":"Nonbldg-Alter/Repair. Commercial. ATTN:  QUAN NGHIEMUSE OF LAND permit update submittal due to reduction is total site parking from 375 parking spaces to 371 parking spaces.  4 parking spaces were eliminated due to power pole location and accommodation of LADWP transformer.  There is no change in disabled access path-of-travel and/or designation of parking spaces.  There is no change in site landscaping, irrigation, or vehicular circulation.PRIOR PERMITS:  17020-10000-03629, 17020-10000-03630, 17020-10002-03629. Issued. 6823 S LA CIENEGA BLVD","address":"6823 S LA CIENEGA BLVD","ct":"2761.02","ev":"N","apc":"West Los Angeles","cpa":"Westchester - Playa del Rey","zone":"C2-1VL","solar":"N","pin_nbr":"102B173  7211","use_code":"61","status_date":"05/06/2025","construction":"Type V-B Construction","permit_group":"Building","refresh_time":"06/10/2026","type_lat_lon":"ADDRESS","business_unit":"Expanded Counter Plan Check","square_footage":"0"},"geometry":{"type":"Point","coordinates":[-118.37052,33.97634]}},{"type":"Feature","properties":{"date":"2025-05-06T00:00:00.000Z","year":2025,"description":"SUPPLEMENTAL PERMIT TO 18010-20000-04052 TO REVISE LANDSCAPE AND IRRIGATION PLANS","metadescription":"Bldg-Alter/Repair. 1 or 2 Family Dwelling. SUPPLEMENTAL PERMIT TO 18010-20000-04052 TO REVISE LANDSCAPE AND IRRIGATION PLANS. Permit Finaled. 2801 S SANBORN AVE","address":"2801 S SANBORN AVE","ct":"2739.02","ev":"N","apc":"West Los Angeles","cpa":"Venice","zone":"R1-1-O","solar":"N","pin_nbr":"105A145   233","use_code":"1","status_date":"07/02/2025","permit_group":"Building","refresh_time":"06/10/2026","type_lat_lon":"ADDRESS","business_unit":"Plan Check at Counter"},"geometry":{"type":"Point","coordinates":[-118.4656,33.98204]}},{"type":"Feature","properties":{"date":"2025-03-26T00:00:00.000Z","year":2025,"description":"(N) 10' WIDE MULTI USE CONCRETE PATH LANDSCAPING WITH IRRIGATION LIGHT POLES WITH SECURITY CAMERAS 4' HT AND 8' HT CHAIN LINK FENCE","metadescription":"Nonbldg-New. Commercial. (N) 10' WIDE MULTI USE CONCRETE PATH LANDSCAPING WITH IRRIGATION LIGHT POLES WITH SECURITY CAMERAS 4' HT AND 8' HT CHAIN LINK FENCE. Permit Finaled. 1420 N GAFFEY ST","address":"1420 N GAFFEY ST","ct":"2951.03","ev":"N","hl":"YES","apc":"Harbor","cpa":"San Pedro","zone":"M2-2D-CPIO","solar":"N","pin_nbr":"024B197   542","use_code":"23","status_date":"06/02/2026","permit_group":"Building","refresh_time":"06/10/2026","type_lat_lon":"ADDRESS","business_unit":"Plan Check at Counter","square_footage":"0"},"geometry":{"type":"Point","coordinates":[-118.29207,33.75745]}},{"type":"Feature","properties":{"date":"2024-11-19T00:00:00.000Z","year":2024,"description":"A retaining wall has been proposed to support the installation of a new water storage tank for irrigation purposes within the maintenance yard of the Hillcrest Country Club Golf Course.","metadescription":"Grading. Commercial. A retaining wall has been proposed to support the installation of a new water storage tank for irrigation purposes within the maintenance yard of the Hillcrest Country Club Golf Course.. Quality Review Completed. 10000 W PICO BLVD","address":"10000 W PICO BLVD","ct":"2690.00","ev":"N","apc":"West Los Angeles","cpa":"West Los Angeles","zone":"A1-1XL-O","solar":"N","pin_nbr":"129B165     1","status_date":"12/13/2024","permit_group":"Building","refresh_time":"06/10/2026","type_lat_lon":"ADDRESS","business_unit":"Regular Plan Check"},"geometry":{"type":"Point","coordinates":[-118.40654,34.05211]}},{"type":"Feature","properties":{"date":"2024-10-24T00:00:00.000Z","year":2024,"description":"Installation of water treatment systems providing makeup water for cooling towers and irrigation.Anchorage of water tanks. 9 parking stalls to be removed in order to accomodate new equipment per AB 2097.","metadescription":"Bldg-Alter/Repair. Commercial. Installation of water treatment systems providing makeup water for cooling towers and irrigation.Anchorage of water tanks. 9 parking stalls to be removed in order to accomodate new equipment per AB 2097.. Issued. 6500 W WILSHIRE BLVD","address":"6500 W WILSHIRE BLVD","ct":"2163.01","ev":"N","apc":"Central","cpa":"Wilshire","zone":"P-1-O-HPOZ, [Q]C4-2D-O","solar":"N","pin_nbr":"135B173   853","use_code":"23","status_date":"10/24/2024","permit_group":"Building","refresh_time":"06/10/2026","type_lat_lon":"ADDRESS","business_unit":"Regular Plan Check","square_footage":"0"},"geometry":{"type":"Point","coordinates":[-118.37028,34.06373]}},{"type":"Feature","properties":{"date":"2024-01-11T00:00:00.000Z","year":2024,"description":"Supplemental permit to 220010-10000-02169.  Scope of work includes relocation of bike racks, reduced width of driveway, revised sewer stations, relocated irrigation meter, revised location of DW and FW backflow preventers, revised location of fire water meter","metadescription":"Bldg-Alter/Repair. Commercial. Supplemental permit to 220010-10000-02169.  Scope of work includes relocation of bike racks, reduced width of driveway, revised sewer stations, relocated irrigation meter, revised location of DW and FW backflow preventers, revised location of fire water meter. Permit Finaled. 425 S TOWNE AVE","address":"425 S TOWNE AVE","ct":"2062.00","ev":"N","apc":"Central","cpa":"Central City","zone":"M2-2D","solar":"N","pin_nbr":"127-5A213 237","use_code":"5","status_date":"05/27/2025","permit_group":"Building","refresh_time":"06/10/2026","type_lat_lon":"ADDRESS","business_unit":"Plan Check at Counter"},"geometry":{"type":"Point","coordinates":[-118.24151,34.04391]}},{"type":"Feature","properties":{"date":"2023-08-25T00:00:00.000Z","year":2023,"description":"eplan for backroom Att Sella Benyamin **Expedite** EARLY START GRADING PERMIT FOR CONSTRUCTION OF A NEW ONE STORY AND MEZZANINE CONCRETE TILT-UP WAREHOUSE/DISTRIBUTION FACILITY WITH, SITE LIGHTING, LANDSCAPING & IRRIGATION, TRASH ENCLOSURE, CONCRETE SCREEN WALLS, & TUBE STEEL FENCING & GATES PER DIR-2022-5953-SPR. PERMIT REF: 22010-20000-06332","metadescription":"Grading. Commercial. eplan for backroom Att Sella Benyamin **Expedite** EARLY START GRADING PERMIT FOR CONSTRUCTION OF A NEW ONE STORY AND MEZZANINE CONCRETE TILT-UP WAREHOUSE/DISTRIBUTION FACILITY WITH, SITE LIGHTING, LANDSCAPING & IRRIGATION, TRASH ENCLOSURE, CONCRETE SCREEN WALLS, & TUBE STEEL FENCING & GATES PER DIR-2022-5953-SPR. PERMIT REF: 22010-20000-06332. Plans on Hold. 6950 N TUJUNGA AVE","address":"6950 N TUJUNGA AVE","ct":"1232.06","ev":"N","apc":"South Valley","cpa":"North Hollywood - Valley Village","zone":"M2-1VL","solar":"N","pin_nbr":"183B173   168","status_date":"08/31/2023","permit_group":"Building","refresh_time":"06/10/2026","type_lat_lon":"ADDRESS","business_unit":"Regular Plan Check"},"geometry":{"type":"Point","coordinates":[-118.37888,34.19678]}},{"type":"Feature","properties":{"date":"2023-06-26T00:00:00.000Z","year":2023,"description":"eplan attn Sella for backroom. **Expedite** FOUNDATION ONLY PERMIT FOR CONSTRUCTION OF A NEW ONE STORY AND MEZZANINE CONCRETE TILT-UP WAREHOUSE/DISTRIBUTION FACILITY WITH, SITE LIGHTING, LANDSCAPING & IRRIGATION, TRASH ENCLOSURE, CONCRETE SCREEN WALLS, & TUBE STEEL FENCING & GATES PER DIR-2022-5953-SPR.PERMIT REF: 22010-20000-06332PLAN CHECK NOT DONE.  APPLICANT TO REQUEST A REFUND.  22010-20001-06332 CREATED INSTEAD.","metadescription":"Nonbldg-New. Commercial. eplan attn Sella for backroom. **Expedite** FOUNDATION ONLY PERMIT FOR CONSTRUCTION OF A NEW ONE STORY AND MEZZANINE CONCRETE TILT-UP WAREHOUSE/DISTRIBUTION FACILITY WITH, SITE LIGHTING, LANDSCAPING & IRRIGATION, TRASH ENCLOSURE, CONCRETE SCREEN WALLS, & TUBE STEEL FENCING & GATES PER DIR-2022-5953-SPR.PERMIT REF: 22010-20000-06332PLAN CHECK NOT DONE.  APPLICANT TO REQUEST A REFUND.  22010-20001-06332 CREATED INSTEAD.. Plans on Hold. 6950 N TUJUNGA AVE","address":"6950 N TUJUNGA AVE","ct":"1232.06","ev":"N","apc":"South Valley","cpa":"North Hollywood - Valley Village","zone":"M2-1VL","solar":"N","pin_nbr":"183B173   168","status_date":"06/26/2023","permit_group":"Building","refresh_time":"06/10/2026","type_lat_lon":"ADDRESS","business_unit":"Regular Plan Check"},"geometry":{"type":"Point","coordinates":[-118.37888,34.19678]}},{"type":"Feature","properties":{"date":"2023-05-26T00:00:00.000Z","year":2023,"description":"USE OF LAND PERMIT FOR LANDSCAPING AND IRRIGATION FOR EXISTING CHURCH IN MR-2 ZONE","metadescription":"Nonbldg-New. Commercial. USE OF LAND PERMIT FOR LANDSCAPING AND IRRIGATION FOR EXISTING CHURCH IN MR-2 ZONE. Verifications in Progress. 5453 N SATSUMA AVE","address":"5453 N SATSUMA AVE","ct":"1253.10","ev":"N","apc":"South Valley","cpa":"North Hollywood - Valley Village","zone":"MR2-1VL","solar":"N","pin_nbr":"174B173  1276","use_code":"26","status_date":"06/21/2023","permit_group":"Building","refresh_time":"06/10/2026","type_lat_lon":"ADDRESS","business_unit":"Expanded Counter Plan Check"},"geometry":{"type":"Point","coordinates":[-118.36764,34.17013]}},{"type":"Feature","properties":{"date":"2023-05-16T00:00:00.000Z","year":2023,"description":"Revised roof deck of a 6 story apartment building.Landscape and irrigation plan at roof deck","metadescription":"Bldg-Alter/Repair. Apartment. Revised roof deck of a 6 story apartment building.Landscape and irrigation plan at roof deck. Permit Finaled. 920 S GRAMERCY PL","address":"920 S GRAMERCY PL","ct":"2126.20","ev":"N","apc":"Central","cpa":"Wilshire","zone":"R3-1","solar":"N","pin_nbr":"132B193   971","use_code":"5","status_date":"06/02/2026","permit_group":"Building","refresh_time":"06/10/2026","type_lat_lon":"ADDRESS","business_unit":"Regular Plan Check"},"geometry":{"type":"Point","coordinates":[-118.31307,34.0552]}},{"type":"Feature","properties":{"date":"2023-05-02T00:00:00.000Z","year":2023,"description":"ePLAN. RENOVATION OF (E) PLAYGROUND FACILITY, REMOVE PLAYGROUND AND HARDSCAPE, GRADING, NEW HARDSCAPE AND PLAYGROUND SURFACING, WATER MISTING AREA, LANDSCAPING (INCLUDING IRRIGATION), LID INFILTRATION PLANTERS, AND RESURFACING OF THE ADJACENT SPORTS COURT","metadescription":"Nonbldg-New. Commercial. ePLAN. RENOVATION OF (E) PLAYGROUND FACILITY, REMOVE PLAYGROUND AND HARDSCAPE, GRADING, NEW HARDSCAPE AND PLAYGROUND SURFACING, WATER MISTING AREA, LANDSCAPING (INCLUDING IRRIGATION), LID INFILTRATION PLANTERS, AND RESURFACING OF THE ADJACENT SPORTS COURT. Permit Finaled. 11251 S COMPTON AVE","address":"11251 S COMPTON AVE","ct":"2426.00","ev":"N","apc":"South Los Angeles","cpa":"Southeast Los Angeles","zone":"R2-1","solar":"N","pin_nbr":"087A211    52","use_code":"4","status_date":"08/14/2023","permit_group":"Building","refresh_time":"06/10/2026","type_lat_lon":"ADDRESS","business_unit":"Regular Plan Check"},"geometry":{"type":"Point","coordinates":[-118.24719,33.93194]}},{"type":"Feature","properties":{"date":"2023-04-05T00:00:00.000Z","year":2023,"description":"PARTIAL EXTERIOR DEMOLITION AND 2800 S.F. SFD ADDITION TO EXISTING HOUSE WITH NEW EXTERIOR PAVERS, IRRIGATION AND LANDSCAPING.1 OF 4","metadescription":"Bldg-Addition. 1 or 2 Family Dwelling. PARTIAL EXTERIOR DEMOLITION AND 2800 S.F. SFD ADDITION TO EXISTING HOUSE WITH NEW EXTERIOR PAVERS, IRRIGATION AND LANDSCAPING.1 OF 4. CofO Issued. 9719 W HEATHER ROAD","address":"9719 W HEATHER ROAD","ct":"2611.01","ev":"N","hl":"YES","apc":"West Los Angeles","cpa":"Bel Air - Beverly Crest","zone":"RE40-1-H","solar":"N","pin_nbr":"147B161    13","use_code":"1","status_date":"02/27/2025","construction":"Type V-B Construction","permit_group":"Building","refresh_time":"06/10/2026","type_lat_lon":"ADDRESS","business_unit":"Regular Plan Check","square_footage":"18076"},"geometry":{"type":"Point","coordinates":[-118.40782,34.10315]}},{"type":"Feature","properties":{"date":"2022-09-07T00:00:00.000Z","year":2022,"description":"SITE GRADING FOR EXPANSION OF CITY PARK. NEW IMPROVEMENTS WILL BE A CHILDRENS PLAY AREA, PICNIC AREA, NEW CONVENIENCE SITE LIGHTING, PAVING, PLANTING AND IRRIGATION.2 OF 2","metadescription":"Grading. Commercial. SITE GRADING FOR EXPANSION OF CITY PARK. NEW IMPROVEMENTS WILL BE A CHILDRENS PLAY AREA, PICNIC AREA, NEW CONVENIENCE SITE LIGHTING, PAVING, PLANTING AND IRRIGATION.2 OF 2. Permit Finaled. 200 S HARBOR BLVD","address":"200 S HARBOR BLVD","ct":"9800.31","ev":"N","apc":"Harbor","cpa":"Port of Los Angeles","zone":"M2-1","solar":"N","pin_nbr":"018B201   856","use_code":"60","status_date":"01/16/2024","permit_group":"Building","refresh_time":"06/10/2026","type_lat_lon":"PIN","business_unit":"Regular Plan Check"},"geometry":{"type":"Point","coordinates":[-118.27926768,33.74192762]}},{"type":"Feature","properties":{"date":"2022-09-07T00:00:00.000Z","year":2022,"description":"USE OF LAND FOR NEW CITY PARK. NEW IMPROVEMENTS WILL BE A CHILDRENS PLAY AREA, PICNIC AREA, NEW CONVENIENCE SITE LIGHTING, PAVING, PLANTING AND IRRIGATION.1 OF 2","metadescription":"Nonbldg-New. Commercial. USE OF LAND FOR NEW CITY PARK. NEW IMPROVEMENTS WILL BE A CHILDRENS PLAY AREA, PICNIC AREA, NEW CONVENIENCE SITE LIGHTING, PAVING, PLANTING AND IRRIGATION.1 OF 2. Permit Finaled. 200 S HARBOR BLVD","address":"200 S HARBOR BLVD","ct":"9800.31","ev":"N","apc":"Harbor","cpa":"Port of Los Angeles","zone":"M2-1","solar":"N","pin_nbr":"018B201   856","use_code":"4","status_date":"01/17/2024","permit_group":"Building","refresh_time":"06/10/2026","type_lat_lon":"PIN","business_unit":"Regular Plan Check"},"geometry":{"type":"Point","coordinates":[-118.27926768,33.74192762]}},{"type":"Feature","properties":{"date":"2022-08-31T00:00:00.000Z","year":2022,"description":"SUPPLEMENTAL PERMT TO 20010-20000-02968 TO CHANGE DOOR TO WINDOW AND REMOVE WALL/IRRIGATION SPACE FROM APPROVED FLOOR PLAN.","metadescription":"Bldg-Alter/Repair. 1 or 2 Family Dwelling. SUPPLEMENTAL PERMT TO 20010-20000-02968 TO CHANGE DOOR TO WINDOW AND REMOVE WALL/IRRIGATION SPACE FROM APPROVED FLOOR PLAN.. Permit Finaled. 14541-14541 1/2 W WEDDINGTON ST","address":"14541-14541 1/2 W WEDDINGTON ST","ct":"1288.02","ev":"N","apc":"South Valley","cpa":"Van Nuys - North Sherman Oaks","zone":"[Q]RD1.5-1","solar":"N","pin_nbr":"172-5A151 119","use_code":"2","status_date":"03/01/2023","permit_group":"Building","refresh_time":"06/10/2026","type_lat_lon":"ADDRESS","business_unit":"Plan Check at Counter"},"geometry":{"type":"Point","coordinates":[-118.45022,34.16678]}},{"type":"Feature","properties":{"date":"2022-03-09T00:00:00.000Z","year":2022,"description":"CONSTRUCTION OF ADA  ACCESSIBILITY RAMP  AT RAMONA GARDENS (CITY-OWNED PROPERTY) FOR SITE (NOT ATTACHED  TO ANY BUILDINGS).  GRADING FOR THE  INSTALLATIONS OF  DECOMPOSED GRANITE WALKWAYS, PLANTS & IRRIGATION.**1 OF 2","metadescription":"Grading. Apartment. CONSTRUCTION OF ADA  ACCESSIBILITY RAMP  AT RAMONA GARDENS (CITY-OWNED PROPERTY) FOR SITE (NOT ATTACHED  TO ANY BUILDINGS).  GRADING FOR THE  INSTALLATIONS OF  DECOMPOSED GRANITE WALKWAYS, PLANTS & IRRIGATION.**1 OF 2. Permit Finaled. 2837 E LANCASTER AVE","address":"2837 E LANCASTER AVE","ct":"2031.00","ev":"N","apc":"East Los Angeles","zone":"A1-1-CUGU, RD2-1-CUGU","solar":"N","pin_nbr":"133-5A227 106","use_code":"70","status_date":"01/29/2026","permit_group":"Building","refresh_time":"06/10/2026","type_lat_lon":"ADDRESS","business_unit":"Regular Plan Check"},"geometry":{"type":"Point","coordinates":[-118.19456,34.05723]}},{"type":"Feature","properties":{"date":"2021-04-14T00:00:00.000Z","year":2021,"description":"SUPPLEMENTAL TO PERMIT # 19016-10000-28207WHICH INCLUDES RAISED FENCE HEIGHT, CONTAINED MODULAR IRRIGATION AT PLANTERS IN LIEU OF PLUMBED DRAINAGE AND IRRIGATION, AND REMOVED TOE KICK LIGHTING.","metadescription":"Bldg-Alter/Repair. Commercial. SUPPLEMENTAL TO PERMIT # 19016-10000-28207WHICH INCLUDES RAISED FENCE HEIGHT, CONTAINED MODULAR IRRIGATION AT PLANTERS IN LIEU OF PLUMBED DRAINAGE AND IRRIGATION, AND REMOVED TOE KICK LIGHTING.. Permit Finaled. 1355 N VINE ST BLDG. B","address":"1355 N VINE ST BLDG. B","ct":"1908.02","ev":"N","apc":"Central","cpa":"Hollywood","zone":"C4-2D-SN","solar":"N","pin_nbr":"147A187   593","use_code":"13","status_date":"12/14/2021","permit_group":"Building","refresh_time":"06/10/2026","type_lat_lon":"ADDRESS","business_unit":"Regular Plan Check"},"geometry":{"type":"Point","coordinates":[-118.327,34.09594]}},{"type":"Feature","properties":{"date":"2020-12-01T00:00:00.000Z","year":2020,"description":"Supplemental permit to 19014-10000-03553 to revise the  hardscape, flatwork/landscape, irrigation and minor adjustment to path of travel on ground floor.","metadescription":"Bldg-Alter/Repair. Commercial. Supplemental permit to 19014-10000-03553 to revise the  hardscape, flatwork/landscape, irrigation and minor adjustment to path of travel on ground floor.. Permit Finaled. 3101 W EXPOSITION BLVD","address":"3101 W EXPOSITION BLVD","ct":"2193.00","ev":"N","apc":"South Los Angeles","cpa":"West Adams - Baldwin Hills - Leimert","zone":"CM-2D-SP","solar":"N","pin_nbr":"120B185  1292","use_code":"13","status_date":"03/30/2021","permit_group":"Building","refresh_time":"06/10/2026","type_lat_lon":"ADDRESS","business_unit":"Regular Plan Check"},"geometry":{"type":"Point","coordinates":[-118.32982,34.02175]}},{"type":"Feature","properties":{"date":"2020-04-28T00:00:00.000Z","year":2020,"description":"NEW VERIZON CELL SITE CONSISTING OF NEW 45' TALL MONOPINE ANTENNA SUPPORT STRUCTURE ERECTED AT GRADE WITH WIRELESS COMMUNICATIONS EQUIPMENT CABINETS AND A 15 kW, 54-GALLON DIESEL STANDBY GENERATOR ON A CONCRETE SLAB AT GRADE WITH MINIMAL LANDSCAPE PLANTINGS AND LANDSCAPE IRRIGATION TIED TO EXISTING IRRIGATION SYSTEM. (ZA-2018-4656-CUW FOR MONOPILE IN R1 ZONE).","metadescription":"Nonbldg-New. Commercial. NEW VERIZON CELL SITE CONSISTING OF NEW 45' TALL MONOPINE ANTENNA SUPPORT STRUCTURE ERECTED AT GRADE WITH WIRELESS COMMUNICATIONS EQUIPMENT CABINETS AND A 15 kW, 54-GALLON DIESEL STANDBY GENERATOR ON A CONCRETE SLAB AT GRADE WITH MINIMAL LANDSCAPE PLANTINGS AND LANDSCAPE IRRIGATION TIED TO EXISTING IRRIGATION SYSTEM. (ZA-2018-4656-CUW FOR MONOPILE IN R1 ZONE).. Quality Review Completed. 1716 W 41ST ST","address":"1716 W 41ST ST","ct":"2315.00","ev":"N","apc":"South Los Angeles","cpa":"South Los Angeles","zone":"R1-1","solar":"N","pin_nbr":"114B193   500","use_code":"15","status_date":"06/11/2020","permit_group":"Building","refresh_time":"06/10/2026","type_lat_lon":"ADDRESS","business_unit":"Regular Plan Check"},"geometry":{"type":"Point","coordinates":[-118.30965,34.0098]}},{"type":"Feature","properties":{"date":"2019-04-15T00:00:00.000Z","year":2019,"description":"expansion & addition - site dev ; re-alignment of onsite driveway; enhanced patient drop off areas; underground utilities - rerouting ; rough/final grading and drainage including curbs,gutters,pavement; bio-retention system; onsite vehicular and pedestrian traffic control systems; hardscape, landscape and landscape irrigation; parking restriping -vehicular parking stalls including accessible  <<All new canopyunder OSHPD per Architect>>","metadescription":"Nonbldg-Alter/Repair. Commercial. expansion & addition - site dev ; re-alignment of onsite driveway; enhanced patient drop off areas; underground utilities - rerouting ; rough/final grading and drainage including curbs,gutters,pavement; bio-retention system; onsite vehicular and pedestrian traffic control systems; hardscape, landscape and landscape irrigation; parking restriping -vehicular parking stalls including accessible  <<All new canopyunder OSHPD per Architect>>. CofO Issued. 5601 N DE SOTO AVE","address":"5601 N DE SOTO AVE","ct":"1371.04","ev":"N","apc":"South Valley","cpa":"Canoga Park-West Hills-Winnetka-Woodland Hills","zone":"(WC)COMMERCE-SN","solar":"N","pin_nbr":"174B109   379","use_code":"61","geolocation":"POINT (-118.58861 34.17126)","status_date":"04/14/2021","permit_group":"Building","refresh_time":"06/10/2026","type_lat_lon":"ADDRESS","business_unit":"Regular Plan Check"},"geometry":{"type":"Point","coordinates":[-118.58861,34.17126]}},{"type":"Feature","properties":{"date":"2018-11-14T00:00:00.000Z","year":2018,"description":"REPAIR (E) PODIUM AT TENNIS COURT AREA. LANDSCAPING & IRRIGATION DRAWINGS TO BE SUBMITTED UNDER SEPARATE PERMIT","metadescription":"Bldg-Alter/Repair. Apartment. REPAIR (E) PODIUM AT TENNIS COURT AREA. LANDSCAPING & IRRIGATION DRAWINGS TO BE SUBMITTED UNDER SEPARATE PERMIT. Permit Finaled. 10100 W GALAXY WAY","address":"10100 W GALAXY WAY","ct":"2679.01","ev":"N","apc":"West Los Angeles","cpa":"West Los Angeles","zone":"R4-1L-O, R4-1VL-O","solar":"N","pin_nbr":"132B161   690","use_code":"7","geolocation":"POINT (-118.41064 34.05582)","status_date":"02/24/2020","permit_group":"Building","refresh_time":"06/10/2026","type_lat_lon":"ADDRESS","business_unit":"Regular Plan Check"},"geometry":{"type":"Point","coordinates":[-118.41064,34.05582]}},{"type":"Feature","properties":{"date":"2017-03-14T00:00:00.000Z","year":2017,"description":"NEW PAVING, PLANTERS, PLANTING, IRRIGATION, AND ADA RAMP/STAIRS OVER STRUCTURAL SLAB IN COURTYARD.","metadescription":"Bldg-Alter/Repair. Commercial. NEW PAVING, PLANTERS, PLANTING, IRRIGATION, AND ADA RAMP/STAIRS OVER STRUCTURAL SLAB IN COURTYARD.. Permit Finaled. 120 N ROBERTSON BLVD","address":"120 N ROBERTSON BLVD","ct":"2149.02","ev":"N","apc":"Central","cpa":"Wilshire","zone":"[Q]C2-1VL-O","solar":"N","pin_nbr":"138B169   244","use_code":"13","geolocation":"POINT (-118.38356 34.07585)","status_date":"12/01/2017","permit_group":"Building","refresh_time":"06/10/2026","type_lat_lon":"ADDRESS","business_unit":"Regular Plan Check"},"geometry":{"type":"Point","coordinates":[-118.38356,34.07585]}},{"type":"Feature","properties":{"date":"2016-09-02T00:00:00.000Z","year":2016,"description":"SUPPLEMENTAL PERMIT FOR USE OF LAND PERMIT TO REDUCE THE SCOPE OF WORK AND REDUCE THE NUMBER OF NON-REQUIRED PARKING SPACES, INCLUDING PAVING, CONCRETE CURBS, SIDEWALKS, STRIPING, TRAFFIC SIGNAGE, DRAINAGE, LANDSCAPING & IRRIGATION.","metadescription":"Nonbldg-Alter/Repair. Commercial. SUPPLEMENTAL PERMIT FOR USE OF LAND PERMIT TO REDUCE THE SCOPE OF WORK AND REDUCE THE NUMBER OF NON-REQUIRED PARKING SPACES, INCLUDING PAVING, CONCRETE CURBS, SIDEWALKS, STRIPING, TRAFFIC SIGNAGE, DRAINAGE, LANDSCAPING & IRRIGATION.. Permit Finaled. 5860 W JEFFERSON BLVD","address":"5860 W JEFFERSON BLVD","ct":"2201.00","ev":"N","apc":"South Los Angeles","cpa":"West Adams - Baldwin Hills - Leimert","zone":"MR1-1VL","solar":"N","pin_nbr":"120B173  1729","use_code":"8","geolocation":"POINT (-118.37633 34.02504)","status_date":"04/02/2018","permit_group":"Building","refresh_time":"06/10/2026","type_lat_lon":"ADDRESS","business_unit":"Plan Check at Counter","square_footage":"0"},"geometry":{"type":"Point","coordinates":[-118.37633,34.02504]}},{"type":"Feature","properties":{"date":"2016-07-06T00:00:00.000Z","year":2016,"description":"PROPOSED GATE, FENCE AND PILASTERS BETWEEN 34TH STREET AND JEFFERSON BLVD ON TROUSDALE PKWY. NEW LANDSCAPING, PAVING AND IRRIGATION. ALSO PARKING LOT RESTRIPE","metadescription":"Nonbldg-New. Commercial. PROPOSED GATE, FENCE AND PILASTERS BETWEEN 34TH STREET AND JEFFERSON BLVD ON TROUSDALE PKWY. NEW LANDSCAPING, PAVING AND IRRIGATION. ALSO PARKING LOT RESTRIPE. Issued. 801 W 34TH ST","address":"801 W 34TH ST","ct":"2227.00","ev":"N","apc":"South Los Angeles","cpa":"South Los Angeles","zone":"USC-1A","solar":"N","pin_nbr":"120A201    20","use_code":"23","geolocation":"POINT (-118.28572873 34.02383917)","status_date":"07/06/2016","permit_group":"Building","refresh_time":"06/10/2026","type_lat_lon":"PIN","business_unit":"Regular Plan Check"},"geometry":{"type":"Point","coordinates":[-118.28572873,34.02383917]}},{"type":"Feature","properties":{"date":"2016-05-06T00:00:00.000Z","year":2016,"description":"EXTERIOR RENOVATION AT EXISTING BOWLING ALLEY INCLUDING REPLACING STOREFRONT SYSTEMS, NEW EXTERIOR STUCCO SYSTEM CLADDING, REPLACING EXISTING EXTERIOR ENTRY FLOOR TILE WITH NEW CONCRETE SLAB,  BASE PLANTING REPAIR, WATERPROOFING, NEW DROUGHT TOLERANT LANDSCAPING AND IRRIGATION AND NEW EXTERIOR FACADE PAINTING","metadescription":"Bldg-Alter/Repair. Commercial. EXTERIOR RENOVATION AT EXISTING BOWLING ALLEY INCLUDING REPLACING STOREFRONT SYSTEMS, NEW EXTERIOR STUCCO SYSTEM CLADDING, REPLACING EXISTING EXTERIOR ENTRY FLOOR TILE WITH NEW CONCRETE SLAB,  BASE PLANTING REPAIR, WATERPROOFING, NEW DROUGHT TOLERANT LANDSCAPING AND IRRIGATION AND NEW EXTERIOR FACADE PAINTING. Permit Finaled. 8731 S LINCOLN BLVD","address":"8731 S LINCOLN BLVD","ct":"2766.04","ev":"N","apc":"West Los Angeles","cpa":"Westchester - Playa del Rey","zone":"[Q]C4-1-CDO","solar":"N","pin_nbr":"096B161   737","use_code":"4","geolocation":"POINT (-118.41793 33.95818)","status_date":"05/31/2016","permit_group":"Building","refresh_time":"06/10/2026","type_lat_lon":"ADDRESS","business_unit":"Plan Check at Counter"},"geometry":{"type":"Point","coordinates":[-118.41793,33.95818]}},{"type":"Feature","properties":{"date":"2016-04-05T00:00:00.000Z","year":2016,"description":"Site grading for columbarium block walls, walkways and irrigation system.  (Courts of Rememberance)","metadescription":"Grading. Commercial. Site grading for columbarium block walls, walkways and irrigation system.  (Courts of Rememberance). Permit Finaled. 6300 W FOREST LAWN DR","address":"6300 W FOREST LAWN DR","ct":"9800.09","ev":"N","hl":"YES","apc":"Central","cpa":"Hollywood","zone":"A1-1XL-H","solar":"N","pin_nbr":"165B189    31","use_code":"70","geolocation":"POINT (-118.32742 34.1504)","status_date":"02/01/2018","permit_group":"Building","refresh_time":"06/10/2026","type_lat_lon":"ADDRESS","business_unit":"Regular Plan Check"},"geometry":{"type":"Point","coordinates":[-118.32742,34.1504]}},{"type":"Feature","properties":{"date":"2015-09-04T00:00:00.000Z","year":2015,"description":"USE OF LAND PERMIT TO CONSTRUCT A PARKING LOT, INCLUDING PAVING, CONCRETE CURBS, SIDEWALKS, STRIPING, TRAFFIC SIGNAGE, DRAINAGE, LANDSCAPING & IRRIGATION.","metadescription":"Nonbldg-New. Commercial. USE OF LAND PERMIT TO CONSTRUCT A PARKING LOT, INCLUDING PAVING, CONCRETE CURBS, SIDEWALKS, STRIPING, TRAFFIC SIGNAGE, DRAINAGE, LANDSCAPING & IRRIGATION.. CofO Issued. 5860 W JEFFERSON BLVD","address":"5860 W JEFFERSON BLVD","ct":"2201.00","ev":"N","apc":"South Los Angeles","cpa":"West Adams - Baldwin Hills - Leimert","zone":"MR1-1VL","solar":"N","pin_nbr":"120B173  1729","use_code":"61","geolocation":"POINT (-118.37633 34.02504)","status_date":"04/13/2018","permit_group":"Building","refresh_time":"06/10/2026","type_lat_lon":"ADDRESS","business_unit":"Regular Plan Check","square_footage":"0"},"geometry":{"type":"Point","coordinates":[-118.37633,34.02504]}},{"type":"Feature","properties":{"date":"2015-07-09T00:00:00.000Z","year":2015,"description":"Revised site plan modifications and upgrades for new landscaping, irrigation, hardscape and pathways.","metadescription":"Nonbldg-Alter/Repair. Commercial. Revised site plan modifications and upgrades for new landscaping, irrigation, hardscape and pathways.. Permit Finaled. 11955-11995 W BLUFF CREEK DR","address":"11955-11995 W BLUFF CREEK DR","ct":"2756.02","ev":"N","apc":"West Los Angeles","cpa":"Westchester - Playa del Rey","zone":"M(PV)","solar":"N","pin_nbr":"105B165   921","use_code":"23","geolocation":"POINT (-118.40144 33.9836)","status_date":"01/25/2018","permit_group":"Building","refresh_time":"06/10/2026","type_lat_lon":"ADDRESS","business_unit":"Regular Plan Check"},"geometry":{"type":"Point","coordinates":[-118.40144,33.9836]}},{"type":"Feature","properties":{"date":"2015-07-06T00:00:00.000Z","year":2015,"description":"NEW TRASH ENCLOSURE WITH CHAIN LINK FENCE WALL ( 10' H ) & SLIDING FENCE GATE .  ALSO, ADD PAVING ON TWO SIDES WITH LANDSCAPE/ IRRIGATION .","metadescription":"Nonbldg-New. Commercial. NEW TRASH ENCLOSURE WITH CHAIN LINK FENCE WALL ( 10' H ) & SLIDING FENCE GATE .  ALSO, ADD PAVING ON TWO SIDES WITH LANDSCAPE/ IRRIGATION .. Permit Finaled. 1 S LMU DR","address":"1 S LMU DR","ct":"2765.00","ev":"N","apc":"West Los Angeles","cpa":"Westchester - Playa del Rey","zone":"R4-1","solar":"N","height":"11","pin_nbr":"099B157     9","use_code":"23","geolocation":"POINT (-118.42406 33.96577)","status_date":"10/02/2015","permit_group":"Building","refresh_time":"06/10/2026","type_lat_lon":"ADDRESS","business_unit":"Regular Plan Check"},"geometry":{"type":"Point","coordinates":[-118.42406,33.96577]}},{"type":"Feature","properties":{"date":"2015-06-16T00:00:00.000Z","year":2015,"description":"grading for new soccer field retaining wall backfill and irrigation system, drainage, concrete pathways and native grass planting aread.","metadescription":"Grading. Commercial. grading for new soccer field retaining wall backfill and irrigation system, drainage, concrete pathways and native grass planting aread.. Permit Finaled. 16100 W MULHOLLAND DR","address":"16100 W MULHOLLAND DR","ct":"2623.01","ev":"N","hl":"YES","apc":"South Valley","zone":"RE40-1-H","solar":"N","pin_nbr":"159B141   389","use_code":"70","geolocation":"POINT (-118.48421 34.1299)","status_date":"09/25/2015","permit_group":"Building","refresh_time":"06/10/2026","type_lat_lon":"ADDRESS","business_unit":"Regular Plan Check"},"geometry":{"type":"Point","coordinates":[-118.48421,34.1299]}},{"type":"Feature","properties":{"date":"2015-01-26T00:00:00.000Z","year":2015,"description":"Site grading for landscape, paving, and irrigation.","metadescription":"Grading. Commercial. Site grading for landscape, paving, and irrigation.. Permit Finaled. 1501 N SOTO ST","address":"1501 N SOTO ST","ct":"2033.00","ev":"N","apc":"East Los Angeles","zone":"PF-1, [Q]C2-1","solar":"N","pin_nbr":"135A227   118","use_code":"70","geolocation":"POINT (-118.19919 34.06079)","status_date":"08/26/2016","permit_group":"Building","refresh_time":"06/10/2026","type_lat_lon":"ADDRESS","business_unit":"Regular Plan Check"},"geometry":{"type":"Point","coordinates":[-118.19919,34.06079]}},{"type":"Feature","properties":{"date":"2015-01-26T00:00:00.000Z","year":2015,"description":"MONUMENT SIGN #2- SOUTHWEST CORNER OF ALCAZAR/SOTO  ; PLANTING; PAVING; LIGHTING (LANDSCAPE/ACCENT); FENCE+PILASTERS 20 FT HIGH, 5FT WIDE; IRRIGATION; METAL PICKET VEHICULAR GATE","metadescription":"Sign. Onsite. MONUMENT SIGN #2- SOUTHWEST CORNER OF ALCAZAR/SOTO  ; PLANTING; PAVING; LIGHTING (LANDSCAPE/ACCENT); FENCE+PILASTERS 20 FT HIGH, 5FT WIDE; IRRIGATION; METAL PICKET VEHICULAR GATE. Permit Finaled. 1501 N SOTO ST","address":"1501 N SOTO ST","ct":"2033.00","ev":"N","apc":"East Los Angeles","zone":"PF-1, [Q]C2-1","solar":"N","pin_nbr":"135A227   118","use_code":"19","geolocation":"POINT (-118.19919 34.06079)","status_date":"08/09/2016","permit_group":"Building","refresh_time":"06/10/2026","type_lat_lon":"ADDRESS","business_unit":"Regular Plan Check"},"geometry":{"type":"Point","coordinates":[-118.19919,34.06079]}},{"type":"Feature","properties":{"date":"2015-01-26T00:00:00.000Z","year":2015,"description":"Site grading for landscape, paving, and irrigation.","metadescription":"Grading. Commercial. Site grading for landscape, paving, and irrigation.. Issued. 1621 N SOTO ST","address":"1621 N SOTO ST","ct":"2033.00","ev":"N","apc":"East Los Angeles","cpa":"Northeast Los Angeles","zone":"PF-1","solar":"N","pin_nbr":"135A227    22","use_code":"70","geolocation":"POINT (-118.19812 34.06279)","status_date":"01/26/2015","permit_group":"Building","refresh_time":"06/10/2026","type_lat_lon":"ADDRESS","business_unit":"Regular Plan Check"},"geometry":{"type":"Point","coordinates":[-118.19812,34.06279]}},{"type":"Feature","properties":{"date":"2015-01-22T00:00:00.000Z","year":2015,"description":"Two ( 2 ) new non-illuminated channel letter wall signs  to read  \"  EWING  IRRIGATION & LANDSCAPE SUPPLY \" .","metadescription":"Sign. Onsite. Two ( 2 ) new non-illuminated channel letter wall signs  to read  \"  EWING  IRRIGATION & LANDSCAPE SUPPLY \" .. Permit Finaled. 2241 S CORINTH AVE","address":"2241 S CORINTH AVE","ct":"2677.00","ev":"N","apc":"West Los Angeles","cpa":"West Los Angeles","zone":"M2-1","solar":"N","pin_nbr":"123B153   153","use_code":"19","geolocation":"POINT (-118.44123 34.03629)","status_date":"04/17/2015","permit_group":"Building","refresh_time":"06/10/2026","type_lat_lon":"ADDRESS","business_unit":"Plan Check at Counter"},"geometry":{"type":"Point","coordinates":[-118.44123,34.03629]}},{"type":"Feature","properties":{"date":"2014-09-17T00:00:00.000Z","year":2014,"description":"GRADING FOR   (2) NEW 210' X 330' SOCCER FIELDS, (1) NEW  150' X 240'  SOCCER FIELD, BENCHES. CHAINLINK FENCE, IRRIGATION AND PLANTING","metadescription":"Grading. Commercial. GRADING FOR   (2) NEW 210' X 330' SOCCER FIELDS, (1) NEW  150' X 240'  SOCCER FIELD, BENCHES. CHAINLINK FENCE, IRRIGATION AND PLANTING. Permit Finaled. 14201 W HUSTON ST","address":"14201 W HUSTON ST","ct":"1287.02","ev":"N","apc":"South Valley","cpa":"Van Nuys - North Sherman Oaks","zone":"OS-1XL","solar":"N","pin_nbr":"168B153     7","use_code":"60","geolocation":"POINT (-118.44248 34.15954)","status_date":"07/07/2016","permit_group":"Building","refresh_time":"06/10/2026","type_lat_lon":"ADDRESS","business_unit":"Regular Plan Check"},"geometry":{"type":"Point","coordinates":[-118.44248,34.15954]}},{"type":"Feature","properties":{"date":"2013-11-25T00:00:00.000Z","year":2013,"description":"CONSTRUCT 340 FT SOUND WALL ALONG THE NEBRASKA AVENUE AND STONER AVENUE. INSTALL DG PATH AND PLANT NEW TREES AND LANDSCAPING. IRRIGATION PER PLANS.","metadescription":"Nonbldg-New. Commercial. CONSTRUCT 340 FT SOUND WALL ALONG THE NEBRASKA AVENUE AND STONER AVENUE. INSTALL DG PATH AND PLANT NEW TREES AND LANDSCAPING. IRRIGATION PER PLANS.. Permit Expired. 1835 S STONER AVE","address":"1835 S STONER AVE","ct":"2676.00","ev":"N","apc":"West Los Angeles","cpa":"West Los Angeles","zone":"OS-1XL","solar":"N","pin_nbr":"126B149   991","use_code":"23","geolocation":"POINT (-118.45325 34.03846)","status_date":"12/18/2015","permit_group":"Building","refresh_time":"06/10/2026","type_lat_lon":"ADDRESS","business_unit":"Regular Plan Check"},"geometry":{"type":"Point","coordinates":[-118.45325,34.03846]}},{"type":"Feature","properties":{"date":"2013-03-21T00:00:00.000Z","year":2013,"description":"SUPPLEMENTAL PERMIT FOR ELEVATOR , IRRIGATION & STRUCTURAL DETAIL CHANGES DUE TO EXISTING CONDITIONS","metadescription":"Bldg-Alter/Repair. Commercial. SUPPLEMENTAL PERMIT FOR ELEVATOR , IRRIGATION & STRUCTURAL DETAIL CHANGES DUE TO EXISTING CONDITIONS. Permit Finaled. 812 W 165TH PL","address":"812 W 165TH PL","ct":"2912.20","ev":"N","apc":"Harbor","cpa":"Harbor Gateway","zone":"R3-1","solar":"N","pin_nbr":"066B197    18","use_code":"18","geolocation":"POINT (-118.28977 33.88061)","status_date":"03/22/2013","permit_group":"Building","refresh_time":"06/10/2026","type_lat_lon":"ADDRESS","business_unit":"Regular Plan Check"},"geometry":{"type":"Point","coordinates":[-118.28977,33.88061]}},{"type":"Feature","properties":{"date":"2012-08-23T00:00:00.000Z","year":2012,"description":"REPLACE PAVING AND PLANTING AND IRRIGATION. INSTALL SUSMP FILTRATION SYSTEM.","metadescription":"Nonbldg-Alter/Repair. Commercial. REPLACE PAVING AND PLANTING AND IRRIGATION. INSTALL SUSMP FILTRATION SYSTEM.. Issued. 1042 W DOWNEY WAY","address":"1042 W DOWNEY WAY","ct":"2227.00","ev":"N","apc":"South Los Angeles","cpa":"South Los Angeles","zone":"[Q]R4-1, [Q]R4-1-O","solar":"N","pin_nbr":"117B197     6","use_code":"23","geolocation":"POINT (-118.29124 34.02169)","status_date":"08/23/2012","permit_group":"Building","refresh_time":"06/10/2026","type_lat_lon":"ADDRESS","business_unit":"Regular Plan Check"},"geometry":{"type":"Point","coordinates":[-118.29124,34.02169]}},{"type":"Feature","properties":{"date":"2012-08-15T00:00:00.000Z","year":2012,"description":"USE OF LAND FOR OPEN PARK, WALKWAY, STEPS AND IRRIGATION SYSTEM. GRADING UNDER PERMIT No.: 12030-10000-02036.","metadescription":"Nonbldg-New. Commercial. USE OF LAND FOR OPEN PARK, WALKWAY, STEPS AND IRRIGATION SYSTEM. GRADING UNDER PERMIT No.: 12030-10000-02036.. Issued. 777 S VALENCIA ST","address":"777 S VALENCIA ST","ct":"2093.00","ev":"N","apc":"Central","cpa":"Westlake","zone":"C2-2D","solar":"N","pin_nbr":"130-5A205 237","use_code":"61","geolocation":"POINT (-118.27062 34.05148)","status_date":"08/15/2012","permit_group":"Building","refresh_time":"06/10/2026","type_lat_lon":"ADDRESS","business_unit":"Plan Check at Counter","square_footage":"0"},"geometry":{"type":"Point","coordinates":[-118.27062,34.05148]}},{"type":"Feature","properties":{"date":"2012-08-09T00:00:00.000Z","year":2012,"description":"Grading permit to allow to install 4'x8'x3'D water tank for Grey Water Irrigation System near south-east side of parking level.","metadescription":"Grading. Apartment. Grading permit to allow to install 4'x8'x3'D water tank for Grey Water Irrigation System near south-east side of parking level.. Permit Finaled. 3023 S WESTERN AVE 1-60","address":"3023 S WESTERN AVE 1-60","ct":"2220.01","ev":"N","apc":"South Los Angeles","cpa":"South Los Angeles","zone":"C2-1VL-O-HPOZ","solar":"N","pin_nbr":"120B193   522","use_code":"60","geolocation":"POINT (-118.30906 34.02667)","status_date":"12/06/2013","permit_group":"Building","refresh_time":"06/10/2026","type_lat_lon":"ADDRESS","business_unit":"Plan Check at Counter"},"geometry":{"type":"Point","coordinates":[-118.30906,34.02667]}},{"type":"Feature","properties":{"date":"2012-07-23T00:00:00.000Z","year":2012,"description":"INSTALL A NEW UNDERGROUND IRRIGATION CISTERN, 3,000 GALLON TANK; GRADING PERMIT","metadescription":"Grading. 1 or 2 Family Dwelling. INSTALL A NEW UNDERGROUND IRRIGATION CISTERN, 3,000 GALLON TANK; GRADING PERMIT. Permit Finaled. 846 N PASEO MIRAMAR","address":"846 N PASEO MIRAMAR","ct":"2626.04","ev":"N","hl":"YES","apc":"West Los Angeles","zone":"RE15-1-H","solar":"N","pin_nbr":"129B117   185","use_code":"70","geolocation":"POINT (-118.55771 34.05052)","status_date":"10/19/2015","permit_group":"Building","refresh_time":"06/10/2026","type_lat_lon":"ADDRESS","business_unit":"Regular Plan Check"},"geometry":{"type":"Point","coordinates":[-118.55771,34.05052]}},{"type":"Feature","properties":{"date":"2012-03-15T00:00:00.000Z","year":2012,"description":"PARKING PHASE 2 - RE-STRIPE EXISTING PARKING LOTS 1, 2, 3, 4, 5, 6 & 7; NEW LANDSCAPE, IRRIGATION AND GRADING AT PARKING LOT 2; NEW TREES AND IRRIGATION ALONG MISSION ROAD; NEW RETAINING WALL AND BLOCK WALL AROUND THE PARKING AREA, NEW RAMP, NEW STAIRS, NEW OUTDOOR PATIO AREA.  TOTAL AREA; 244,750 SF.","metadescription":"Nonbldg-New. Commercial. PARKING PHASE 2 - RE-STRIPE EXISTING PARKING LOTS 1, 2, 3, 4, 5, 6 & 7; NEW LANDSCAPE, IRRIGATION AND GRADING AT PARKING LOT 2; NEW TREES AND IRRIGATION ALONG MISSION ROAD; NEW RETAINING WALL AND BLOCK WALL AROUND THE PARKING AREA, NEW RAMP, NEW STAIRS, NEW OUTDOOR PATIO AREA.  TOTAL AREA; 244,750 SF.. Permit Finaled. 3880 N MISSION ROAD","address":"3880 N MISSION ROAD","ct":"1991.20","ev":"N","hl":"YES","apc":"East Los Angeles","cpa":"Northeast Los Angeles","zone":"M1-1","solar":"N","pin_nbr":"139-5A229  59","use_code":"23","geolocation":"POINT (-118.19797 34.07149)","status_date":"02/15/2013","permit_group":"Building","refresh_time":"06/10/2026","type_lat_lon":"ADDRESS","business_unit":"Regular Plan Check"},"geometry":{"type":"Point","coordinates":[-118.19797,34.07149]}},{"type":"Feature","properties":{"date":"2011-02-22T00:00:00.000Z","year":2011,"description":"COMMERCIAL FACADE UPGRADE/FACELIFT OF AN EXISTING MULTI-TENANTS RETAIL BUILDING.  SHELL BUILIDNG REMODEL ONLY-NO TENANT IMPROVEMENT INVOLVED.  ALSO LANDSCAPE/IRRIGATION IMPROVEMENT/REPAINT PARKING LOT.","metadescription":"Bldg-Alter/Repair. Commercial. COMMERCIAL FACADE UPGRADE/FACELIFT OF AN EXISTING MULTI-TENANTS RETAIL BUILDING.  SHELL BUILIDNG REMODEL ONLY-NO TENANT IMPROVEMENT INVOLVED.  ALSO LANDSCAPE/IRRIGATION IMPROVEMENT/REPAINT PARKING LOT.. CofO Issued. 4920-4930 N BALBOA BLVD","address":"4920-4930 N BALBOA BLVD","ct":"1397.01","ev":"N","apc":"South Valley","cpa":"Encino - Tarzana","zone":"C4-1VL","solar":"N","pin_nbr":"168B133    86","use_code":"16","geolocation":"POINT (-118.50013686 34.15959526)","status_date":"07/25/2011","construction":"Type V-B Construction","permit_group":"Building","refresh_time":"06/10/2026","type_lat_lon":"PIN","business_unit":"Regular Plan Check","square_footage":"0"},"geometry":{"type":"Point","coordinates":[-118.50013686,34.15959526]}},{"type":"Feature","properties":{"date":"2009-05-20T00:00:00.000Z","year":2009,"description":"USE OF LAND- PARKING LOT WITH LANDSCAPING.  IRRIGATION, FENCING AND LIGHTING PER CONDITIONAL USE PERMIT NO:  ZA 2007-3333 (CU).","metadescription":"Nonbldg-New. Commercial. USE OF LAND- PARKING LOT WITH LANDSCAPING.  IRRIGATION, FENCING AND LIGHTING PER CONDITIONAL USE PERMIT NO:  ZA 2007-3333 (CU).. Permit Expired. 1016-1022 S KENMORE AVE","address":"1016-1022 S KENMORE AVE","ct":"2133.10","ev":"N","apc":"Central","cpa":"Wilshire","zone":"R4-1","solar":"N","pin_nbr":"129B197   300","use_code":"61","geolocation":"POINT (-118.29671 34.05221)","status_date":"04/04/2012","permit_group":"Building","refresh_time":"06/10/2026","type_lat_lon":"ADDRESS","business_unit":"Regular Plan Check","square_footage":"0"},"geometry":{"type":"Point","coordinates":[-118.29671,34.05221]}},{"type":"Feature","properties":{"date":"2009-05-05T00:00:00.000Z","year":2009,"description":"Proposed site grading to install irrigation, landscaping, storm drain and sanitary sewer per plans.","metadescription":"Grading. Commercial. Proposed site grading to install irrigation, landscaping, storm drain and sanitary sewer per plans.. Permit Finaled. 604 W C ST","address":"604 W C ST","ct":"2948.30","ev":"N","apc":"Harbor","cpa":"Wilmington - Harbor City","zone":"M2-1VL-O","solar":"N","pin_nbr":"027B205   232","use_code":"60","geolocation":"POINT (-118.26861 33.77218)","status_date":"09/01/2011","permit_group":"Building","refresh_time":"06/10/2026","type_lat_lon":"ADDRESS","business_unit":"Regular Plan Check"},"geometry":{"type":"Point","coordinates":[-118.26861,33.77218]}},{"type":"Feature","properties":{"date":"2008-01-31T00:00:00.000Z","year":2008,"description":"Lockdown work needed to maintain building vacant to include minimum necessary life safety, weatherproofing and security lighting work (HVAC, fire sprinklers, minimum lighting, roofing and irrigation sprinklers) and related electrical work.  Only the essential minimum roofing work only is covered by this permit.  All other permits remain revoked.","metadescription":"Bldg-Alter/Repair. Commercial. Lockdown work needed to maintain building vacant to include minimum necessary life safety, weatherproofing and security lighting work (HVAC, fire sprinklers, minimum lighting, roofing and irrigation sprinklers) and related electrical work.  Only the essential minimum roofing work only is covered by this permit.  All other permits remain revoked.. Permit Finaled. 8040 W FOOTHILL BLVD","address":"8040 W FOOTHILL BLVD","ct":"1034.00","ev":"N","apc":"North Valley","cpa":"Sunland-E LaTuna Cyn-Lakevw Ter-Shadow Hls-Tujunga","zone":"(Q)C2-1VL, (Q)P-1VL","solar":"N","pin_nbr":"204B193   351","use_code":"16","geolocation":"POINT (-118.30846 34.25949)","status_date":"07/21/2008","permit_group":"Building","refresh_time":"06/10/2026","type_lat_lon":"ADDRESS","business_unit":"Regular Plan Check"},"geometry":{"type":"Point","coordinates":[-118.30846,34.25949]}},{"type":"Feature","properties":{"date":"2007-12-17T00:00:00.000Z","year":2007,"description":"REMOVE (E) 12\" DIRT, PLANTS, TREES, PLANTERS, IRRIGATION AND DRAINAGE FROM COURTYARD LEVEL. PROPOSE NEW 4-1/2\" THICK CONCRETE SLAB OVER (E) CONCRETE.","metadescription":"Bldg-Alter/Repair. Apartment. REMOVE (E) 12\" DIRT, PLANTS, TREES, PLANTERS, IRRIGATION AND DRAINAGE FROM COURTYARD LEVEL. PROPOSE NEW 4-1/2\" THICK CONCRETE SLAB OVER (E) CONCRETE.. Permit Finaled. 691 S IROLO ST","address":"691 S IROLO ST","ct":"2124.10","ev":"N","apc":"Central","cpa":"Wilshire","zone":"R5-2","solar":"N","pin_nbr":"132B193   245","use_code":"5","geolocation":"POINT (-118.30103 34.06022)","status_date":"12/24/2007","permit_group":"Building","refresh_time":"06/10/2026","type_lat_lon":"ADDRESS","business_unit":"Appointment Plan Check"},"geometry":{"type":"Point","coordinates":[-118.30103,34.06022]}},{"type":"Feature","properties":{"date":"2007-12-14T00:00:00.000Z","year":2007,"description":"stucco patch ,  change  one   window ,  add  shower  enclosure ,  change   toilet  bowl ,  change  the  lavatory  replace  railing  at  balcony at  existing  duplex.  install  landscape  and  irrigation  system  at  front  yardon  existing  4  bedroom  and  1- 3/4  restroom.","metadescription":"Bldg-Alter/Repair. 1 or 2 Family Dwelling. stucco patch ,  change  one   window ,  add  shower  enclosure ,  change   toilet  bowl ,  change  the  lavatory  replace  railing  at  balcony at  existing  duplex.  install  landscape  and  irrigation  system  at  front  yardon  existing  4  bedroom  and  1- 3/4  restroom.. Permit Finaled. 517 S CORONADO ST","address":"517 S CORONADO ST","ct":"2087.20, 2088.00","ev":"N","hl":"YES","apc":"Central","zone":"R3-1","solar":"N","pin_nbr":"135A203   254","use_code":"2","geolocation":"POINT (-118.27951 34.06363)","status_date":"01/05/2009","permit_group":"Building","refresh_time":"06/10/2026","type_lat_lon":"ADDRESS","business_unit":"Plan Check at Counter"},"geometry":{"type":"Point","coordinates":[-118.27951,34.06363]}},{"type":"Feature","properties":{"date":"2007-10-01T00:00:00.000Z","year":2007,"description":"USE OF LAND TO FIELD REFURBISHMENT PROJECT, INVOLVES THE REPLACEMENT OF EXISTING BASEBALL TURF, REFURBISHMENT OF EXISTING IRRIGATION SYSTEM, AND BASEBALL BACKSTOP CAGE.","metadescription":"Nonbldg-New. Commercial. USE OF LAND TO FIELD REFURBISHMENT PROJECT, INVOLVES THE REPLACEMENT OF EXISTING BASEBALL TURF, REFURBISHMENT OF EXISTING IRRIGATION SYSTEM, AND BASEBALL BACKSTOP CAGE.. CofO Issued. 2250 E 114TH ST","address":"2250 E 114TH ST","ct":"2431.00","ev":"N","apc":"South Los Angeles","cpa":"Southeast Los Angeles","zone":"RD2-1","solar":"N","pin_nbr":"087A215   401","use_code":"61","geolocation":"POINT (-118.23249 33.93128)","status_date":"01/26/2010","construction":"Type V-N Construction","permit_group":"Building","refresh_time":"06/10/2026","type_lat_lon":"ADDRESS","business_unit":"Regular Plan Check"},"geometry":{"type":"Point","coordinates":[-118.23249,33.93128]}},{"type":"Feature","properties":{"date":"2003-01-13T00:00:00.000Z","year":2003,"description":"Replace 2-doors (same size/location), misc capentry throughout, and  plumbing repair (lawn sprinkler valves, & c/o faucet at kitchen sink).","metadescription":"Bldg-Alter/Repair. 1 or 2 Family Dwelling. Replace 2-doors (same size/location), misc capentry throughout, and  plumbing repair (lawn sprinkler valves, & c/o faucet at kitchen sink).. Permit Finaled. 3921 N MANDEVILLE CANYON ROAD","address":"3921 N MANDEVILLE CANYON ROAD","ct":"2624.00","ev":"N","hl":"YES","apc":"South Valley","zone":"RE15-1-H","solar":"N","pin_nbr":"156B133    82","use_code":"1","geolocation":"POINT (-118.50679 34.12223)","status_date":"05/20/2003","permit_group":"Building","refresh_time":"06/10/2026","type_lat_lon":"ADDRESS","business_unit":"Plan Check at Counter"},"geometry":{"type":"Point","coordinates":[-118.50679,34.12223]}},{"type":"Feature","properties":{"date":"2002-08-01T00:00:00.000Z","year":2002,"description":"remedial slope repair ,  comply with order 22325 issued 6/24/02.  trim slope top soil  and new slope not to  exceed 2:1.  install landscape and irrigation system.  100 cy cut and export","metadescription":"Grading. 1 or 2 Family Dwelling. remedial slope repair ,  comply with order 22325 issued 6/24/02.  trim slope top soil  and new slope not to  exceed 2:1.  install landscape and irrigation system.  100 cy cut and export. Permit Expired. 6359 W RODGERTON DR","address":"6359 W RODGERTON DR","ct":"1897.01","ev":"N","hl":"YES","apc":"Central","zone":"R1-1","solar":"N","pin_nbr":"157-5A189 205","use_code":"70","geolocation":"POINT (-118.32302 34.1249)","status_date":"02/27/2007","permit_group":"Building","refresh_time":"06/10/2026","type_lat_lon":"ADDRESS","business_unit":"Plan Check at Counter"},"geometry":{"type":"Point","coordinates":[-118.32302,34.1249]}},{"type":"Feature","properties":{"date":"1999-05-06T00:00:00.000Z","year":1999,"description":"REMODEL OF KITCHEN & BATH (NON STRUCTURAL), STUCCO REPAIR, PAINTING, ELECTRICAL & PLUMBING TO BE INCLUDED. (ALSO INCLUDE PLBG. FOR LAWN SPRINKLER SYSTEM)","metadescription":"Bldg-Alter/Repair. 1 or 2 Family Dwelling. REMODEL OF KITCHEN & BATH (NON STRUCTURAL), STUCCO REPAIR, PAINTING, ELECTRICAL & PLUMBING TO BE INCLUDED. (ALSO INCLUDE PLBG. FOR LAWN SPRINKLER SYSTEM). Permit Expired. 1406 W 214TH ST","address":"1406 W 214TH ST","ct":"2932.01","ev":"N","apc":"Harbor","solar":"N","pin_nbr":"051B193   584","use_code":"1","geolocation":"POINT (-118.3019 33.83441)","status_date":"03/19/2008","permit_group":"Building","refresh_time":"06/10/2026","type_lat_lon":"ADDRESS","business_unit":"Express Permit"},"geometry":{"type":"Point","coordinates":[-118.3019,33.83441]}},{"type":"Feature","properties":{"date":"1999-03-24T00:00:00.000Z","year":1999,"description":"REROOF HOUSE AND DETACHED GARAGE OVER EXISTING 1 LAYER, INSTALL COMP. SHINGLES CLASS \"A\", REPLACE 11 WINDOWS (SIZE FOR SIZE), REPLACE 2 TOILETS, INSTALL NEW KITCHEN SINK, INSTALL IRRIGATION VALVES.","metadescription":"Bldg-Alter/Repair. 1 or 2 Family Dwelling. REROOF HOUSE AND DETACHED GARAGE OVER EXISTING 1 LAYER, INSTALL COMP. SHINGLES CLASS \"A\", REPLACE 11 WINDOWS (SIZE FOR SIZE), REPLACE 2 TOILETS, INSTALL NEW KITCHEN SINK, INSTALL IRRIGATION VALVES.. Permit Closed. 8500 N SPARTON AVE","address":"8500 N SPARTON AVE","ct":"1197.00","ev":"N","apc":"North Valley","zone":"R1-1","solar":"N","pin_nbr":"192B157   372","use_code":"1","geolocation":"POINT (-118.42723 34.22409)","status_date":"09/16/1999","permit_group":"Building","refresh_time":"06/10/2026","type_lat_lon":"ADDRESS","business_unit":"Express Permit"},"geometry":{"type":"Point","coordinates":[-118.42723,34.22409]}},{"type":"Feature","properties":{"date":"1998-11-18T00:00:00.000Z","year":1998,"description":"CHANGE (E) CEILING FROM FLAT TO CATHERAL IN LIV. RM & DINING RM. REROOF W/COMP - 16SQS. CHANGE FAU & VENT. INSTALL (5) LAWN SPRINKLER VALVES. INCLUDE PLUMB/HEAT.","metadescription":"Bldg-Alter/Repair. 1 or 2 Family Dwelling. CHANGE (E) CEILING FROM FLAT TO CATHERAL IN LIV. RM & DINING RM. REROOF W/COMP - 16SQS. CHANGE FAU & VENT. INSTALL (5) LAWN SPRINKLER VALVES. INCLUDE PLUMB/HEAT.. Permit Closed. 1331 W OAKHEATH DR","address":"1331 W OAKHEATH DR","ct":"2933.01","ev":"N","apc":"Harbor","solar":"N","pin_nbr":"042B197   122","use_code":"1","geolocation":"POINT (-118.29948 33.81001)","status_date":"12/08/1999","permit_group":"Building","refresh_time":"06/10/2026","type_lat_lon":"ADDRESS","business_unit":"Plan Check at Counter"},"geometry":{"type":"Point","coordinates":[-118.29948,33.81001]}}]}
