{"type":"FeatureCollection","features":[{"type":"Feature","properties":{"date":"2024-08-26T00:00:00.000Z","year":2024,"description":"Temporary building permit.  Temporary event to ocuppy portion of existing building with exhibitis and booths. ASSEMBLY USE WITH BAR AND DINNING.Permit will expire 6 months after issuance date","metadescription":"Bldg-Alter/Repair. Commercial. Temporary building permit.  Temporary event to ocuppy portion of existing building with exhibitis and booths. ASSEMBLY USE WITH BAR AND DINNING.Permit will expire 6 months after issuance date. CofO Issued. 6801 W HOLLYWOOD BLVD 201","address":"6801 W HOLLYWOOD BLVD 201","ct":"1901.01","ev":"N","apc":"Central","cpa":"Hollywood","zone":"C4-2D-SN","solar":"N","pin_nbr":"148-5A185 402","use_code":"26","status_date":"10/25/2024","permit_group":"Building","refresh_time":"06/10/2026","type_lat_lon":"ADDRESS","business_unit":"Regular Plan Check"},"geometry":{"type":"Point","coordinates":[-118.33907,34.10229]}},{"type":"Feature","properties":{"date":"2020-03-05T00:00:00.000Z","year":2020,"description":"Two temporary wall signs for special event. Permit to expire 30 days from date of issuance.","metadescription":"Sign. Onsite. Two temporary wall signs for special event. Permit to expire 30 days from date of issuance.. Corrections Issued. 10277 W OLYMPIC BLVD","address":"10277 W OLYMPIC BLVD","ct":"2671.00","ev":"N","apc":"West Los Angeles","cpa":"West Los Angeles","zone":"C2-1VL-O","solar":"N","pin_nbr":"129B161    44","use_code":"19","status_date":"03/16/2020","permit_group":"Building","refresh_time":"06/10/2026","type_lat_lon":"ADDRESS","business_unit":"Plan Check at Counter"},"geometry":{"type":"Point","coordinates":[-118.41657,34.05329]}},{"type":"Feature","properties":{"date":"2017-10-30T00:00:00.000Z","year":2017,"description":"NONSTRUCT INT T.I. - CONSTRUCT DEMISING WALL WITHIN EX RETAIL SPACE FOR NEW ART/CHRISTMAS EXHIBIT GALLERY  (TEMPORARY EVENT FROM 11/3/17 - 12/26/17)","metadescription":"Bldg-Alter/Repair. Commercial. NONSTRUCT INT T.I. - CONSTRUCT DEMISING WALL WITHIN EX RETAIL SPACE FOR NEW ART/CHRISTMAS EXHIBIT GALLERY  (TEMPORARY EVENT FROM 11/3/17 - 12/26/17). Permit Finaled. 6600 N TOPANGA CANYON BLVD","address":"6600 N TOPANGA CANYON BLVD","ct":"1351.14","ev":"N","apc":"South Valley","cpa":"Canoga Park-West Hills-Winnetka-Woodland Hills","zone":"(WC)UPTOWN-SN-RIO","solar":"N","pin_nbr":"180B101   822","use_code":"16","geolocation":"POINT (-118.60565 34.19008)","status_date":"11/03/2017","permit_group":"Building","refresh_time":"06/10/2026","type_lat_lon":"ADDRESS","business_unit":"Regular Plan Check"},"geometry":{"type":"Point","coordinates":[-118.60565,34.19008]}},{"type":"Feature","properties":{"date":"2014-04-23T00:00:00.000Z","year":2014,"description":"TEMPORARY BANNER SIGN ( 3' X 6' ) ON EXISTING POSTS  BETWEEN 04/26/2014 AND 05/26/2014 for \"VALLEY GREEK FESTIVAL\".","metadescription":"Sign. Onsite. TEMPORARY BANNER SIGN ( 3' X 6' ) ON EXISTING POSTS  BETWEEN 04/26/2014 AND 05/26/2014 for \"VALLEY GREEK FESTIVAL\".. Permit Closed. 9501 N BALBOA BLVD","address":"9501 N BALBOA BLVD","ct":"1151.01","ev":"N","hl":"YES","apc":"North Valley","cpa":"Northridge","zone":"A2-1","solar":"N","pin_nbr":"201B133   598","use_code":"19","geolocation":"POINT (-118.50461 34.24343)","status_date":"05/29/2014","permit_group":"Building","refresh_time":"06/10/2026","type_lat_lon":"ADDRESS","business_unit":"Plan Check at Counter"},"geometry":{"type":"Point","coordinates":[-118.50461,34.24343]}},{"type":"Feature","properties":{"date":"2013-04-24T00:00:00.000Z","year":2013,"description":"TEMPORARY BANNER SIGN ( 3' X 6' ) ON EXISTING POSTS  BETWEEN 04/28/2013 AND 05/27/2013 for \"VALLEY GREEK FESTIVAL\".","metadescription":"Sign. Onsite. TEMPORARY BANNER SIGN ( 3' X 6' ) ON EXISTING POSTS  BETWEEN 04/28/2013 AND 05/27/2013 for \"VALLEY GREEK FESTIVAL\".. Permit Closed. 9501 N BALBOA BLVD","address":"9501 N BALBOA BLVD","ct":"1151.01","ev":"N","hl":"YES","apc":"North Valley","cpa":"Northridge","zone":"A2-1","solar":"N","pin_nbr":"201B133   598","use_code":"19","geolocation":"POINT (-118.50461 34.24343)","status_date":"06/03/2013","permit_group":"Building","refresh_time":"06/10/2026","type_lat_lon":"ADDRESS","business_unit":"Plan Check at Counter"},"geometry":{"type":"Point","coordinates":[-118.50461,34.24343]}},{"type":"Feature","properties":{"date":"2009-10-15T00:00:00.000Z","year":2009,"description":"Proposed Temporary Permit for Star Trek The Exhibition (for use as Temporary Event Space) (Assembly for max 400 people for Activities and Displays) in former Virgin Megastore Tenant Space.  Event will run from 10/15/09 through 12/27/09.","metadescription":"Bldg-Alter/Repair. Commercial. Proposed Temporary Permit for Star Trek The Exhibition (for use as Temporary Event Space) (Assembly for max 400 people for Activities and Displays) in former Virgin Megastore Tenant Space.  Event will run from 10/15/09 through 12/27/09.. Permit Expired. 6801 W HOLLYWOOD BLVD 110","address":"6801 W HOLLYWOOD BLVD 110","ct":"1901.00","ev":"N","apc":"Central","cpa":"Hollywood","zone":"C4-2D-SN","solar":"N","pin_nbr":"148-5A185 402","use_code":"16","geolocation":"POINT (-118.33907 34.10229)","status_date":"06/12/2012","permit_group":"Building","refresh_time":"06/10/2026","type_lat_lon":"ADDRESS","business_unit":"Regular Plan Check"},"geometry":{"type":"Point","coordinates":[-118.33907,34.10229]}},{"type":"Feature","properties":{"date":"2008-10-17T00:00:00.000Z","year":2008,"description":"PROPOSED 50' HIGH HOLIDAY (TREE) LIGHTING STRUCTURE (LIGHT OF THE ANGELS) LOCATED AT L.A. LIVE PLAZA LEVEL.  ANNUAL SPECIAL EVENT PERMIT MUST BE OBTAINED FROM LADBS SPECIAL EVENT SECTION PRIOR TO INSTALLATION OF HOLIDAY STRUCTURE.  SEE COMMENTS.","metadescription":"Nonbldg-New. Commercial. PROPOSED 50' HIGH HOLIDAY (TREE) LIGHTING STRUCTURE (LIGHT OF THE ANGELS) LOCATED AT L.A. LIVE PLAZA LEVEL.  ANNUAL SPECIAL EVENT PERMIT MUST BE OBTAINED FROM LADBS SPECIAL EVENT SECTION PRIOR TO INSTALLATION OF HOLIDAY STRUCTURE.  SEE COMMENTS.. Permit Expired. 777 W CHICK HEARN CT","address":"777 W CHICK HEARN CT","ct":"2077.10","ev":"N","apc":"Central","cpa":"Central City","zone":"LASED","solar":"N","height":"50","pin_nbr":"127-5A207 340","use_code":"23","geolocation":"POINT (-118.26707 34.04406)","status_date":"01/10/2012","construction":"Type I-A Construction","permit_group":"Building","refresh_time":"06/10/2026","type_lat_lon":"ADDRESS","business_unit":"Regular Plan Check"},"geometry":{"type":"Point","coordinates":[-118.26707,34.04406]}},{"type":"Feature","properties":{"date":"2008-04-01T00:00:00.000Z","year":2008,"description":"TEMPORARY BANNER SIGN 3'X6'.  \"VALLEY GREEK FESTIVAL\"  PERMIT VALID FOR (4/30/08-5/30/08)","metadescription":"Sign. Onsite. TEMPORARY BANNER SIGN 3'X6'.  \"VALLEY GREEK FESTIVAL\"  PERMIT VALID FOR (4/30/08-5/30/08). Permit Finaled. 9501 N BALBOA BLVD","address":"9501 N BALBOA BLVD","ct":"1151.01","ev":"N","hl":"YES","apc":"North Valley","cpa":"Northridge","zone":"A2-1","solar":"N","pin_nbr":"201B133   598","use_code":"19","geolocation":"POINT (-118.50461 34.24343)","status_date":"07/17/2008","permit_group":"Building","refresh_time":"06/10/2026","type_lat_lon":"ADDRESS","business_unit":"Plan Check at Counter"},"geometry":{"type":"Point","coordinates":[-118.50461,34.24343]}},{"type":"Feature","properties":{"date":"2006-09-21T00:00:00.000Z","year":2006,"description":"TEMPORARY EVENT PERMIT TO INCRESE OCCUPANT LOAD WITHIN [E] CHURCH FROM 104 TO 271 OCCUPANTS  FOR HIGH HOLIDAYS  SEPT 22, 23, 24   OCT 1ST, 2ND, 14TH  AND 15TH.","metadescription":"Bldg-Alter/Repair. Commercial. TEMPORARY EVENT PERMIT TO INCRESE OCCUPANT LOAD WITHIN [E] CHURCH FROM 104 TO 271 OCCUPANTS  FOR HIGH HOLIDAYS  SEPT 22, 23, 24   OCT 1ST, 2ND, 14TH  AND 15TH.. Permit Expired. 12405 W SYLVAN ST","address":"12405 W SYLVAN ST","ct":"1238.00","ev":"N","apc":"South Valley","cpa":"North Hollywood - Valley Village","zone":"R1-1","solar":"N","pin_nbr":"177B165    33","use_code":"6","geolocation":"POINT (-118.4032 34.18497)","status_date":"01/26/2009","permit_group":"Building","refresh_time":"06/10/2026","type_lat_lon":"ADDRESS","business_unit":"Plan Check at Counter"},"geometry":{"type":"Point","coordinates":[-118.4032,34.18497]}},{"type":"Feature","properties":{"date":"2004-01-27T00:00:00.000Z","year":2004,"description":"TEMPORARY EVENT FROM 3/01/03 THRU 4/30/03 - PUTTING IN FIXED SEATING FOR THIS EVENT AND WILL BE REMOVED ONCE EVENT IS COMPLETED.  SEE COMMENT.","metadescription":"Bldg-Alter/Repair. Commercial. TEMPORARY EVENT FROM 3/01/03 THRU 4/30/03 - PUTTING IN FIXED SEATING FOR THIS EVENT AND WILL BE REMOVED ONCE EVENT IS COMPLETED.  SEE COMMENT.. Permit Expired. 366 N LA CIENEGA BLVD","address":"366 N LA CIENEGA BLVD","ct":"1945.00","ev":"N","apc":"Central","cpa":"Wilshire","zone":"C2-1VL-O","solar":"N","pin_nbr":"138B173   106","use_code":"21","geolocation":"POINT (-118.37639 34.07796)","status_date":"05/05/2005","permit_group":"Building","refresh_time":"06/10/2026","type_lat_lon":"ADDRESS","business_unit":"Plan Check at Counter"},"geometry":{"type":"Point","coordinates":[-118.37639,34.07796]}},{"type":"Feature","properties":{"date":"2004-01-13T00:00:00.000Z","year":2004,"description":"REVISE PERMIT NO. 03020 20000 03754 FOR TEMPORARY PERMIT FOR STORAGE CONTAINER & ICE-SKATING RINK. SPECIAL EVENT PERMIT FROM 1/19/2003 AND EXPIRES ON 06/20/2004.","metadescription":"Bldg-Alter/Repair. Commercial. REVISE PERMIT NO. 03020 20000 03754 FOR TEMPORARY PERMIT FOR STORAGE CONTAINER & ICE-SKATING RINK. SPECIAL EVENT PERMIT FROM 1/19/2003 AND EXPIRES ON 06/20/2004.. Permit Finaled. 6600 N TOPANGA CANYON BLVD","address":"6600 N TOPANGA CANYON BLVD","ct":"1351.12","ev":"N","apc":"South Valley","zone":"CW","solar":"N","pin_nbr":"180B105    77","use_code":"4","geolocation":"POINT (-118.60565 34.19008)","status_date":"03/13/2004","construction":"Type V-N Construction","permit_group":"Building","refresh_time":"06/10/2026","type_lat_lon":"ADDRESS","business_unit":"Plan Check at Counter","square_footage":"8300"},"geometry":{"type":"Point","coordinates":[-118.60565,34.19008]}},{"type":"Feature","properties":{"date":"2003-10-01T00:00:00.000Z","year":2003,"description":"TEMPORARY EVENT FROM 10/04/03 THRU 12/21/03 - PUTTING IN FIXED SEATING FOR THIS EVENT AND WILL BE REMOVED ONCE EVENT IS COMPLETED.","metadescription":"Bldg-Alter/Repair. Commercial. TEMPORARY EVENT FROM 10/04/03 THRU 12/21/03 - PUTTING IN FIXED SEATING FOR THIS EVENT AND WILL BE REMOVED ONCE EVENT IS COMPLETED.. Permit Expired. 366 N LA CIENEGA BLVD","address":"366 N LA CIENEGA BLVD","ct":"1945.00","ev":"N","apc":"Central","cpa":"Wilshire","zone":"C2-1VL-O","solar":"N","pin_nbr":"138B173   106","use_code":"21","geolocation":"POINT (-118.37639 34.07796)","status_date":"05/05/2005","permit_group":"Building","refresh_time":"06/10/2026","type_lat_lon":"ADDRESS","business_unit":"Appointment Plan Check"},"geometry":{"type":"Point","coordinates":[-118.37639,34.07796]}},{"type":"Feature","properties":{"date":"2002-05-15T00:00:00.000Z","year":2002,"description":"TEMPORARY EVENT - CHANGE USE OF  2ND FLOOR TO A3 OCCUPANCY 299 occupants maximum on floor FOR MAY 15, 2002  only- NO CONSTRUCTION.","metadescription":"Bldg-Alter/Repair. Commercial. TEMPORARY EVENT - CHANGE USE OF  2ND FLOOR TO A3 OCCUPANCY 299 occupants maximum on floor FOR MAY 15, 2002  only- NO CONSTRUCTION.. Permit Expired. 5514 W WILSHIRE BLVD 2ND FL.","address":"5514 W WILSHIRE BLVD 2ND FL.","ct":"2162.00","ev":"N","apc":"Central","solar":"N","pin_nbr":"132B181     3","use_code":"16","geolocation":"POINT (-118.3488 34.06209)","status_date":"03/19/2007","permit_group":"Building","refresh_time":"06/10/2026","type_lat_lon":"ADDRESS","business_unit":"Plan Check at Counter"},"geometry":{"type":"Point","coordinates":[-118.3488,34.06209]}},{"type":"Feature","properties":{"date":"2000-06-13T00:00:00.000Z","year":2000,"description":"Temporary event- stage extension 7'-4\"x 40'-0\" inside the bldg. L.A. ballroom from June 24-29. (wood frame construction)","metadescription":"Nonbldg-New. Commercial. Temporary event- stage extension 7'-4\"x 40'-0\" inside the bldg. L.A. ballroom from June 24-29. (wood frame construction). Permit Finaled. 2025 S AVENUE OF THE STARS","address":"2025 S AVENUE OF THE STARS","ct":"2671.00","ev":"N","apc":"West Los Angeles","solar":"N","pin_nbr":"132B161   713","use_code":"26","geolocation":"POINT (-118.41482 34.05715)","status_date":"01/31/2001","permit_group":"Building","refresh_time":"06/10/2026","type_lat_lon":"ADDRESS","business_unit":"Plan Check at Counter"},"geometry":{"type":"Point","coordinates":[-118.41482,34.05715]}},{"type":"Feature","properties":{"date":"2000-05-11T00:00:00.000Z","year":2000,"description":"Special Event Permit - Temporary change of use from retail to reception lounge (Occ A3) from May 30, 2000 to June 5, 2000 No Physical Work (Total area 2720 sf), No seating. No increase in overall occupant load of the main theater use.","metadescription":"Bldg-Alter/Repair. Commercial. Special Event Permit - Temporary change of use from retail to reception lounge (Occ A3) from May 30, 2000 to June 5, 2000 No Physical Work (Total area 2720 sf), No seating. No increase in overall occupant load of the main theater use.. Permit Finaled. 6712 W HOLLYWOOD BLVD","address":"6712 W HOLLYWOOD BLVD","ct":"1907.00","ev":"N","apc":"Central","zone":"C4-2, D","solar":"N","pin_nbr":"148-5A185 144","use_code":"16","geolocation":"POINT (-118.33659 34.10134)","status_date":"06/02/2000","permit_group":"Building","refresh_time":"06/10/2026","type_lat_lon":"ADDRESS","business_unit":"Plan Check at Counter"},"geometry":{"type":"Point","coordinates":[-118.33659,34.10134]}},{"type":"Feature","properties":{"date":"2000-05-05T00:00:00.000Z","year":2000,"description":"INSTALL 2 truss frames for temporary event from may 7- 14, 2000. a blank banner will be attached to the structure. no sinage is permitted.","metadescription":"Nonbldg-New. Commercial. INSTALL 2 truss frames for temporary event from may 7- 14, 2000. a blank banner will be attached to the structure. no sinage is permitted.. Permit Expired. 1300 S FIGUEROA ST","address":"1300 S FIGUEROA ST","ct":"2240.10","ev":"N","apc":"Central","zone":"C2-2D-O","solar":"N","pin_nbr":"126A205    33","use_code":"26","geolocation":"POINT (-118.2681 34.04019)","status_date":"02/12/2007","permit_group":"Building","refresh_time":"06/10/2026","type_lat_lon":"ADDRESS","business_unit":"Regular Plan Check"},"geometry":{"type":"Point","coordinates":[-118.2681,34.04019]}},{"type":"Feature","properties":{"date":"1999-05-07T00:00:00.000Z","year":1999,"description":"3-wall signs: (18\" x 7'4\") channel letter sign to read \"GREAT KHAN'S\", (3' X 3'7\") cabinet sign to read \"GREAT KHAN'S mongolian festival\", and (18\" x 8') cabinet sign to read \"MONGOLIAN FESTIVAL\"","metadescription":"Sign. Onsite. 3-wall signs: (18\" x 7'4\") channel letter sign to read \"GREAT KHAN'S\", (3' X 3'7\") cabinet sign to read \"GREAT KHAN'S mongolian festival\", and (18\" x 8') cabinet sign to read \"MONGOLIAN FESTIVAL\". Permit Finaled. 6600 N TOPANGA CANYON BLVD #1B","address":"6600 N TOPANGA CANYON BLVD #1B","ct":"1351.12","ev":"N","zone":"WC","solar":"N","pin_nbr":"180B105    17","use_code":"19","geolocation":"POINT (-118.60565 34.19008)","status_date":"09/03/2003","permit_group":"Building","refresh_time":"06/10/2026","type_lat_lon":"ADDRESS","business_unit":"Plan Check at Counter"},"geometry":{"type":"Point","coordinates":[-118.60565,34.19008]}},{"type":"Feature","properties":{"date":"1998-10-16T00:00:00.000Z","year":1998,"description":"Temporary event for art exhibit (from 10/23 to 11/08) in an (e) retail space @ 1st level of basement. 1.STAGE <12FT X 12FT AND 16 INCHES HIGH> 2.NO ASSEMBLY USE OTHER THAN EXHIBT FUNCTION EXCEPT, (A)OCT.24 & NOV.7,1998 WITH 48 SEATINGS (B)NOV.8,1998 WITH 150 SEATINGS 3.RESTROOMS ON \"M3 LEVEL\" <ONE LEVEL BELOW> 4.PARKING AT MALL 5.TOTAL OF 5 EXITS < 4 TO PLAZA<STREET LEVEL> AND ONE TO STREET>","metadescription":"Bldg-Alter/Repair. Commercial. Temporary event for art exhibit (from 10/23 to 11/08) in an (e) retail space @ 1st level of basement. 1.STAGE <12FT X 12FT AND 16 INCHES HIGH> 2.NO ASSEMBLY USE OTHER THAN EXHIBT FUNCTION EXCEPT, (A)OCT.24 & NOV.7,1998 WITH 48 SEATINGS (B)NOV.8,1998 WITH 150 SEATINGS 3.RESTROOMS ON \"M3 LEVEL\" <ONE LEVEL BELOW> 4.PARKING AT MALL 5.TOTAL OF 5 EXITS < 4 TO PLAZA<STREET LEVEL> AND ONE TO STREET>. Permit Finaled. 725 S FIGUEROA ST","address":"725 S FIGUEROA ST","ct":"2077.00","ev":"N","apc":"Central","solar":"N","pin_nbr":"129A207    15","use_code":"23","geolocation":"POINT (-118.26071 34.04886)","status_date":"03/25/1999","permit_group":"Building","refresh_time":"06/10/2026","type_lat_lon":"ADDRESS","business_unit":"Regular Plan Check"},"geometry":{"type":"Point","coordinates":[-118.26071,34.04886]}},{"type":"Feature","properties":{"date":"1998-07-22T00:00:00.000Z","year":1998,"description":"TEMPORARY EVENT BETWEEN JULY 30, 1998 TO AUG. 16, 1998 FOR A MUSICAL PLAY \"OLIVER\": INSTALLATION OF BLEACHERS; 3'6\" STAGE; LIGHTING TRUSSES; FOLLOW SPOT TOWER. (TEMPORARY EVENT W/ 508 SEATS).","metadescription":"Nonbldg-New. Commercial. TEMPORARY EVENT BETWEEN JULY 30, 1998 TO AUG. 16, 1998 FOR A MUSICAL PLAY \"OLIVER\": INSTALLATION OF BLEACHERS; 3'6\" STAGE; LIGHTING TRUSSES; FOLLOW SPOT TOWER. (TEMPORARY EVENT W/ 508 SEATS).. Permit Closed. 7600 W BEVERLY BLVD","address":"7600 W BEVERLY BLVD","ct":"2145.00","ev":"N","apc":"Central","zone":"OS-1XL, O","solar":"N","pin_nbr":"138B177   451","use_code":"61","geolocation":"POINT (-118.3549 34.07489)","status_date":"10/10/1998","permit_group":"Building","refresh_time":"06/10/2026","type_lat_lon":"ADDRESS","business_unit":"Plan Check at Counter"},"geometry":{"type":"Point","coordinates":[-118.3549,34.07489]}},{"type":"Feature","properties":{"date":"1998-06-24T00:00:00.000Z","year":1998,"description":"Temporary Tent, From 8/1/98 to 8/8/98 on Vacant Lot Special Event","metadescription":"Nonbldg-New. Commercial. Temporary Tent, From 8/1/98 to 8/8/98 on Vacant Lot Special Event. Permit Finaled. 1140 W MARTIN LUTHER KING, JR BLVD","address":"1140 W MARTIN LUTHER KING, JR BLVD","ct":"2316.00","ev":"N","apc":"South Los Angeles","zone":"C2-1VL","solar":"N","pin_nbr":"114B197   233","use_code":"26","geolocation":"POINT (-118.29543 34.01067)","status_date":"11/17/1998","permit_group":"Building","refresh_time":"06/10/2026","type_lat_lon":"ADDRESS","business_unit":"Plan Check at Counter"},"geometry":{"type":"Point","coordinates":[-118.29543,34.01067]}}]}
