{"type":"FeatureCollection","features":[{"type":"Feature","properties":{"date":"2021-08-23T00:00:00.000Z","year":2021,"description":"SUPPLEMENTAL TO 20016-10000-32151. REVISION TO CIVIL PLANS. (NEW FIRE WATER SERVICE CONNECTION)","metadescription":"Bldg-Alter/Repair. Commercial. SUPPLEMENTAL TO 20016-10000-32151. REVISION TO CIVIL PLANS. (NEW FIRE WATER SERVICE CONNECTION). Permit Finaled. 7432 N RESEDA BLVD","address":"7432 N RESEDA BLVD","ct":"1318.00","ev":"N","apc":"South Valley","cpa":"Reseda - West Van Nuys","zone":"[Q]C2-1VL-CDO, [Q]P-1VL-CDO","solar":"N","pin_nbr":"186B125   557","use_code":"11","status_date":"07/31/2023","permit_group":"Building","refresh_time":"06/10/2026","type_lat_lon":"ADDRESS","business_unit":"Plan Check at Counter"},"geometry":{"type":"Point","coordinates":[-118.53585,34.20567]}},{"type":"Feature","properties":{"date":"2018-05-30T00:00:00.000Z","year":2018,"description":"TWO STORY ADDITION TO (E) 2-STORY SINGLE FAMILY DWELLING (SFD). REMODEL EXISTING SFD. CONVERT FRONT HALF OF 1ST STORY TO ACCESSORY DWELLING UNIT PER AB 2299 AND SB 1069. CONVERT REAR HALF OF 1ST STORY TO REC ROOM (NO SHOWER, NO KITCHEN, NO HOT WATER CONNECTION ALLOWED).","metadescription":"Bldg-Addition. 1 or 2 Family Dwelling. TWO STORY ADDITION TO (E) 2-STORY SINGLE FAMILY DWELLING (SFD). REMODEL EXISTING SFD. CONVERT FRONT HALF OF 1ST STORY TO ACCESSORY DWELLING UNIT PER AB 2299 AND SB 1069. CONVERT REAR HALF OF 1ST STORY TO REC ROOM (NO SHOWER, NO KITCHEN, NO HOT WATER CONNECTION ALLOWED).. CofO Issued. 4220-4220 1/2 W SLAUSON AVE","address":"4220-4220 1/2 W SLAUSON AVE","ct":"2351.00","ev":"N","apc":"South Los Angeles","cpa":"West Adams - Baldwin Hills - Leimert","zone":"R3-1","solar":"N","height":"21.25","pin_nbr":"108B181   297","use_code":"1","geolocation":"POINT (-118.34892772 33.98850256)","status_date":"12/21/2018","construction":"Type V-B Construction","permit_group":"Building","refresh_time":"06/10/2026","type_lat_lon":"BUILDING","business_unit":"Regular Plan Check","square_footage":"1636"},"geometry":{"type":"Point","coordinates":[-118.34892772,33.98850256]}},{"type":"Feature","properties":{"date":"2013-06-03T00:00:00.000Z","year":2013,"description":"INSTALLATION OF NEW CHILLED WATER CHASE AND MECHANICAL PIPING FOR FUTURE CHILLED WATER CONNECTION TO (E) ROOFTOP EQUIPMENT ENCLOSURE (EXTERIOR AND INFRASTRUCTURE WORK ONLY)","metadescription":"Bldg-Alter/Repair. Commercial. INSTALLATION OF NEW CHILLED WATER CHASE AND MECHANICAL PIPING FOR FUTURE CHILLED WATER CONNECTION TO (E) ROOFTOP EQUIPMENT ENCLOSURE (EXTERIOR AND INFRASTRUCTURE WORK ONLY). Permit Finaled. 3740 S MCCLINTOCK AVE","address":"3740 S MCCLINTOCK AVE","ct":"2227.00","ev":"N","apc":"South Los Angeles","cpa":"South Los Angeles","zone":"USC-1A","solar":"N","pin_nbr":"117B197     7","use_code":"18","geolocation":"POINT (-118.29033 34.01972)","status_date":"08/02/2013","permit_group":"Building","refresh_time":"06/10/2026","type_lat_lon":"ADDRESS","business_unit":"Regular Plan Check"},"geometry":{"type":"Point","coordinates":[-118.29033,34.01972]}}]}
