{"type":"FeatureCollection","features":[{"type":"Feature","properties":{"date":"2013-05-14T00:00:00.000Z","year":2013,"description":"ADDRESS","metadescription":"PERMIT - SIGNS. ADDRESS. 9737","address":"9755 West FARRAGUT Avenue, Des Plaines, IL, CHICAGO, 60018, US","location":"POINT (-87.870447556053 41.97390355591)","review_type":"SIGN PERMIT","street_name":"FARRAGUT AVE","xcoordinate":"1110119.7951911564","ycoordinate":"1933420.4016562388","census_tract":"770700","subtotal_paid":"$250.00","community_area":"76","contact_1_city":"CHICAGO","contact_1_name":"CORP.ID SOLUTIONS INC","contact_1_type":"SIGN CONTRACTOR","other_fee_paid":"$0.00","contact_1_state":"IL","processing_time":"13","subtotal_unpaid":"$0.00","subtotal_waived":"$0.00","zoning_fee_paid":"$200.00","other_fee_unpaid":"$0.00","other_fee_waived":"$0.00","street_direction":"W","building_fee_paid":"$50.00","contact_1_zipcode":"60630","zoning_fee_unpaid":"$0.00","zoning_fee_waived":"$0.00","other_fee_subtotal":"$0","building_fee_unpaid":"$0.00","building_fee_waived":"$0.00","zoning_fee_subtotal":"$200","building_fee_subtotal":"$50"},"geometry":{"type":"Point","coordinates":[-87.870447556,41.973903556]}},{"type":"Feature","properties":{"date":"2013-05-14T00:00:00.000Z","year":2013,"description":"ADDRESS","metadescription":"PERMIT - SIGNS. ADDRESS. 9737","address":"9755 West FARRAGUT Avenue, Des Plaines, IL, CHICAGO, 60018, US","location":"POINT (-87.870447556053 41.97390355591)","review_type":"SIGN PERMIT","street_name":"FARRAGUT AVE","xcoordinate":"1110119.7951911564","ycoordinate":"1933420.4016562388","census_tract":"770700","subtotal_paid":"$250.00","community_area":"76","contact_1_city":"CHICAGO","contact_1_name":"CORP.ID SOLUTIONS INC","contact_1_type":"SIGN CONTRACTOR","other_fee_paid":"$0.00","contact_1_state":"IL","processing_time":"13","subtotal_unpaid":"$0.00","subtotal_waived":"$0.00","zoning_fee_paid":"$200.00","other_fee_unpaid":"$0.00","other_fee_waived":"$0.00","street_direction":"W","building_fee_paid":"$50.00","contact_1_zipcode":"60630","zoning_fee_unpaid":"$0.00","zoning_fee_waived":"$0.00","other_fee_subtotal":"$0","building_fee_unpaid":"$0.00","building_fee_waived":"$0.00","zoning_fee_subtotal":"$200","building_fee_subtotal":"$50"},"geometry":{"type":"Point","coordinates":[-87.870447556,41.973903556]}}]}
