{"type":"FeatureCollection","features":[{"type":"Feature","properties":{"date":"2021-06-04T00:00:00.000Z","year":2021,"description":"SOUTHEAST ELEVATION: 10' X 8'-10\" LED ILLUMINATED SIGN \"GROOT\"","metadescription":"PERMIT - SIGNS. SOUTHEAST ELEVATION: 10' X 8'-10\" LED ILLUMINATED SIGN \"GROOT\". 1759","address":"2526 PRATT Boulevard, Elk Grove Village, IL, ELK GROVE VILLAGE, 60007, US","location":"POINT (-87.94020267401 41.999670853727)","review_type":"SIGN PERMIT","street_name":"ELMHURST RD","xcoordinate":"1091108.5636284188","ycoordinate":"1942715.3392330222","census_tract":"980000","subtotal_paid":"$300.00","community_area":"76","contact_1_city":"LOMBARD","contact_1_name":"OLYMPIK SIGNS, INC.","contact_1_type":"CONTRACTOR-ELECTRICAL","contact_2_city":"LOMBARD","contact_2_name":"OLYMPIC SIGNS, INC. D/B/A OLYMPIK SIGNS, INC.","contact_2_type":"CONTRACTOR-GENERAL CONTRACTOR","other_fee_paid":"$0.00","contact_1_state":"IL","contact_2_state":"IL","processing_time":"17","subtotal_unpaid":"$0.00","subtotal_waived":"$0.00","zoning_fee_paid":"$200.00","other_fee_unpaid":"$0.00","other_fee_waived":"$0.00","street_direction":"S","building_fee_paid":"$100.00","contact_1_zipcode":"60148-","contact_2_zipcode":"60148-","zoning_fee_unpaid":"$0.00","zoning_fee_waived":"$0.00","other_fee_subtotal":"$0","building_fee_unpaid":"$0.00","building_fee_waived":"$0.00","zoning_fee_subtotal":"$200","building_fee_subtotal":"$100"},"geometry":{"type":"Point","coordinates":[-87.940202674,41.999670854]}},{"type":"Feature","properties":{"date":"2021-05-28T00:00:00.000Z","year":2021,"description":"NORTHWEST ELEVATION: 10' X 8'-10\" LED ILLUMINATED SIGN \"GROOT\"","metadescription":"PERMIT - SIGNS. NORTHWEST ELEVATION: 10' X 8'-10\" LED ILLUMINATED SIGN \"GROOT\". 1759","address":"2526 PRATT Boulevard, Elk Grove Village, IL, ELK GROVE VILLAGE, 60007, US","location":"POINT (-87.94020267401 41.999670853727)","review_type":"SIGN PERMIT","street_name":"ELMHURST RD","xcoordinate":"1091108.5636284188","ycoordinate":"1942715.3392330222","census_tract":"980000","subtotal_paid":"$300.00","community_area":"76","contact_1_city":"LOMBARD","contact_1_name":"OLYMPIK SIGNS, INC.","contact_1_type":"CONTRACTOR-ELECTRICAL","contact_2_city":"LOMBARD","contact_2_name":"OLYMPIC SIGNS, INC. D/B/A OLYMPIK SIGNS, INC.","contact_2_type":"CONTRACTOR-GENERAL CONTRACTOR","other_fee_paid":"$0.00","contact_1_state":"IL","contact_2_state":"IL","processing_time":"10","subtotal_unpaid":"$0.00","subtotal_waived":"$0.00","zoning_fee_paid":"$200.00","other_fee_unpaid":"$0.00","other_fee_waived":"$0.00","street_direction":"S","building_fee_paid":"$100.00","contact_1_zipcode":"60148-","contact_2_zipcode":"60148-","zoning_fee_unpaid":"$0.00","zoning_fee_waived":"$0.00","other_fee_subtotal":"$0","building_fee_unpaid":"$0.00","building_fee_waived":"$0.00","zoning_fee_subtotal":"$200","building_fee_subtotal":"$100"},"geometry":{"type":"Point","coordinates":[-87.940202674,41.999670854]}},{"type":"Feature","properties":{"date":"2021-05-20T00:00:00.000Z","year":2021,"description":"SOUTHWEST ELEVATION: 10' X 8'-10\" LED ILLUMINATED SIGN \"GROOT\"","metadescription":"PERMIT - SIGNS. SOUTHWEST ELEVATION: 10' X 8'-10\" LED ILLUMINATED SIGN \"GROOT\". 1759","address":"2526 PRATT Boulevard, Elk Grove Village, IL, ELK GROVE VILLAGE, 60007, US","location":"POINT (-87.94020267401 41.999670853727)","review_type":"SIGN PERMIT","street_name":"ELMHURST RD","xcoordinate":"1091108.5636284188","ycoordinate":"1942715.3392330222","census_tract":"980000","subtotal_paid":"$300.00","community_area":"76","contact_1_city":"LOMBARD","contact_1_name":"OLYMPIK SIGNS, INC.","contact_1_type":"CONTRACTOR-ELECTRICAL","contact_2_city":"LOMBARD","contact_2_name":"OLYMPIC SIGNS, INC. D/B/A OLYMPIK SIGNS, INC.","contact_2_type":"CONTRACTOR-GENERAL CONTRACTOR","other_fee_paid":"$0.00","contact_1_state":"IL","contact_2_state":"IL","processing_time":"7","subtotal_unpaid":"$0.00","subtotal_waived":"$0.00","zoning_fee_paid":"$200.00","other_fee_unpaid":"$0.00","other_fee_waived":"$0.00","street_direction":"S","building_fee_paid":"$100.00","contact_1_zipcode":"60148-","contact_2_zipcode":"60148-","zoning_fee_unpaid":"$0.00","zoning_fee_waived":"$0.00","other_fee_subtotal":"$0","building_fee_unpaid":"$0.00","building_fee_waived":"$0.00","zoning_fee_subtotal":"$200","building_fee_subtotal":"$100"},"geometry":{"type":"Point","coordinates":[-87.940202674,41.999670854]}}]}
