{"type":"FeatureCollection","features":[{"type":"Feature","properties":{"date":"2025-06-05T00:00:00.000Z","year":2025,"description":"*ePlan* 1-story Ground floor addition and remodel to existing 1-story single family dwelling and conversion of attached garage to ADU per CA Govt. Code 65852.2(e)(1)(A)","metadescription":"Bldg-Addition. 1 or 2 Family Dwelling. *ePlan* 1-story Ground floor addition and remodel to existing 1-story single family dwelling and conversion of attached garage to ADU per CA Govt. Code 65852.2(e)(1)(A). Issued. 1740-1742 N EUDORA AVE","address":"1740-1742 N EUDORA AVE","ct":"2943.01","ev":"N","apc":"Harbor","cpa":"Wilmington - Harbor City","zone":"R1-1XL-CUGU","solar":"N","height":"15.92","pin_nbr":"036B201    56","use_code":"1","adu_changed":"1","status_date":"06/05/2025","construction":"Type V-B Construction","permit_group":"Building","refresh_time":"06/10/2026","type_lat_lon":"PIN","business_unit":"Regular Plan Check","square_footage":"2047"},"geometry":{"type":"Point","coordinates":[-118.28058319,33.79786923]}}]}
