{"type":"FeatureCollection","features":[{"type":"Feature","properties":{"date":"2024-11-12T00:00:00.000Z","year":2024,"description":"EPLAN: FIRE DAMAGE REPAIR TO PORITON OF (E) SFD, ROOF FRAMING REPAIR AND INTERIOR REMODEL (DOOR AND WINDOW CHANGE OUT SAME SIZE AND TYPE).","metadescription":"Bldg-Alter/Repair. 1 or 2 Family Dwelling. EPLAN: FIRE DAMAGE REPAIR TO PORITON OF (E) SFD, ROOF FRAMING REPAIR AND INTERIOR REMODEL (DOOR AND WINDOW CHANGE OUT SAME SIZE AND TYPE).. Permit Finaled. 24405 S LAKME AVE","address":"24405 South Lakme Avenue, CA, Wilmington, 90744, US","ct":"2941.10","ev":"N","apc":"Harbor","cpa":"Wilmington - Harbor City","zone":"R1-1XL-O-CUGU","solar":"N","pin_nbr":"039B205   164","use_code":"1","status_date":"05/02/2025","permit_group":"Building","refresh_time":"06/10/2026","type_lat_lon":"ADDRESS","business_unit":"Expanded Counter Plan Check"},"geometry":{"type":"Point","coordinates":[-118.2613,33.80445]}},{"type":"Feature","properties":{"date":"2021-11-08T00:00:00.000Z","year":2021,"description":"PROPOSED FIRE DAMAGE REPAIR WITHIN EX KITCHEN/FOOD PREP AREA. REMODEL EX ONE UNISEX RESTRM FOR HANDICAP ACCESSIBILITY COMPLIANCE. ENLARGE EXISTING EXTERIOR OPENING FOR NEW DOOR. ONE NEW ROOF TOP EQUIPMENT. AND RESTRIPING OF PARKING STALLS. SEE COMMENTS.","metadescription":"Bldg-Alter/Repair. Commercial. PROPOSED FIRE DAMAGE REPAIR WITHIN EX KITCHEN/FOOD PREP AREA. REMODEL EX ONE UNISEX RESTRM FOR HANDICAP ACCESSIBILITY COMPLIANCE. ENLARGE EXISTING EXTERIOR OPENING FOR NEW DOOR. ONE NEW ROOF TOP EQUIPMENT. AND RESTRIPING OF PARKING STALLS. SEE COMMENTS.. CofO Issued. 16717 S FIGUEROA ST","address":"16717 South Figueroa Street, CA, Gardena, 90248, US","ct":"2912.20","ev":"N","apc":"Harbor","cpa":"Harbor Gateway","zone":"C2-1","solar":"N","pin_nbr":"066B201    50","use_code":"17","status_date":"11/17/2022","construction":"Type V-B Construction","permit_group":"Building","refresh_time":"06/10/2026","type_lat_lon":"ADDRESS","business_unit":"Regular Plan Check","square_footage":"0"},"geometry":{"type":"Point","coordinates":[-118.2827,33.87973]}},{"type":"Feature","properties":{"date":"2019-11-07T00:00:00.000Z","year":2019,"description":"Interior tenant improvement to portion (483 SF) of (E) office within (E) manufacturing/office building.  Scope of work to include in-filling one door, revising (E) partition walls, and finishes.  No change in use or parking.  All work per engineered design.","metadescription":"Bldg-Alter/Repair. Commercial. Interior tenant improvement to portion (483 SF) of (E) office within (E) manufacturing/office building.  Scope of work to include in-filling one door, revising (E) partition walls, and finishes.  No change in use or parking.  All work per engineered design.. Permit Finaled. 19805 S HAMILTON AVE","address":"19805 Hamilton Avenue, CA, Torrance, 90502, US","ct":"2920.00","ev":"N","apc":"Harbor","cpa":"Harbor Gateway","zone":"M3-1","solar":"N","pin_nbr":"057B197   123","use_code":"12","geolocation":"POINT (-118.28712 33.85117)","status_date":"02/13/2020","permit_group":"Building","refresh_time":"06/10/2026","type_lat_lon":"ADDRESS","business_unit":"Plan Check at Counter"},"geometry":{"type":"Point","coordinates":[-118.28712,33.85117]}},{"type":"Feature","properties":{"date":"2018-12-21T00:00:00.000Z","year":2018,"description":"Interior, non-structural tenant improvement to (E) 2nd floor office suite within (E) warehouse building.  Scope of work to include (N) interior, non-bearing partition walls, doors, and (N) suspended ceiling within portion of office.","metadescription":"Bldg-Alter/Repair. Commercial. Interior, non-structural tenant improvement to (E) 2nd floor office suite within (E) warehouse building.  Scope of work to include (N) interior, non-bearing partition walls, doors, and (N) suspended ceiling within portion of office.. Permit Finaled. 19901 S HAMILTON AVE","address":"19840 Hamilton Avenue, CA, Torrance, 90502, US","ct":"2920.00","ev":"N","apc":"Harbor","cpa":"Harbor Gateway","zone":"M3-1","solar":"N","pin_nbr":"057B197    84","use_code":"22","geolocation":"POINT (-118.28625 33.84991)","status_date":"01/31/2019","permit_group":"Building","refresh_time":"06/10/2026","type_lat_lon":"ADDRESS","business_unit":"Plan Check at Counter"},"geometry":{"type":"Point","coordinates":[-118.28625,33.84991]}},{"type":"Feature","properties":{"date":"2017-06-05T00:00:00.000Z","year":2017,"description":"PARKING RESTRIPE TO REMOVE  15 PARKING STALLS AND CONSTRUCT NEW RAISED PATIO AREA  AND REMOVE GLASS STORE FRONT AND REPLACE WITH ROLL DOWN DOOR.","metadescription":"Bldg-Alter/Repair. Commercial. PARKING RESTRIPE TO REMOVE  15 PARKING STALLS AND CONSTRUCT NEW RAISED PATIO AREA  AND REMOVE GLASS STORE FRONT AND REPLACE WITH ROLL DOWN DOOR.. Issued. 19701 S HAMILTON AVE","address":"19701 Hamilton Avenue, CA, Torrance, 90502, US","ct":"2920.00","ev":"N","apc":"Harbor","cpa":"Harbor Gateway","zone":"M3-1","solar":"N","pin_nbr":"057B197    82","use_code":"13","geolocation":"POINT (-118.2873799 33.85175273)","status_date":"06/05/2017","construction":"Type V-B Construction","permit_group":"Building","refresh_time":"06/10/2026","type_lat_lon":"BUILDING","business_unit":"Regular Plan Check","square_footage":"124962"},"geometry":{"type":"Point","coordinates":[-118.2873799,33.85175273]}},{"type":"Feature","properties":{"date":"2014-06-11T00:00:00.000Z","year":2014,"description":"Change out 11 Windows and 6 Doors (Same size & type for residential buildings only). Kitchen & Bathroom remodel (For residential buildings; no structural changes). Combine with Electrical, Plumbing, & HVAC. Re-stucco; Replace drywall (no new walls added) Specific location: Entire House & Garage. Tear Off Existing Roofing. Re-roof 10 squares w/class 'A' or 'B' materials weighing less than 6 pounds per sq. ft. Install Fiberglass or Asphalt Shingles (max. 2 overlays).","metadescription":"Bldg-Alter/Repair. 1 or 2 Family Dwelling. Change out 11 Windows and 6 Doors (Same size & type for residential buildings only). Kitchen & Bathroom remodel (For residential buildings; no structural changes). Combine with Electrical, Plumbing, & HVAC. Re-stucco; Replace drywall (no new walls added) Specific location: Entire House & Garage. Tear Off Existing Roofing. Re-roof 10 squares w/class 'A' or 'B' materials weighing less than 6 pounds per sq. ft. Install Fiberglass or Asphalt Shingles (max. 2 overlays).. Permit Finaled. 24412 S SEAGROVE AVE","address":"24416 Seagrove Avenue, CA, Wilmington, 90744, US","ct":"2941.10","ev":"N","apc":"Harbor","cpa":"Wilmington - Harbor City","zone":"R1-1XL-O","solar":"N","pin_nbr":"039B209   114","use_code":"1","geolocation":"POINT (-118.25781 33.80423)","status_date":"09/16/2014","permit_group":"Building","refresh_time":"06/10/2026","type_lat_lon":"ADDRESS","business_unit":"Express Permit"},"geometry":{"type":"Point","coordinates":[-118.25781,33.80423]}},{"type":"Feature","properties":{"date":"2014-04-08T00:00:00.000Z","year":2014,"description":"INTERIOR REMODEL, TWO NEW PARTITION WALLS, TWO NEW DOORS, TWO NEW WINDOW WALLS. CONVERT ONE OFFICE ROOM INTO TWO ROOMS, AND ADD NEW PARTION WALL TO CREATE ANOTHER ROOM.","metadescription":"Bldg-Alter/Repair. Commercial. INTERIOR REMODEL, TWO NEW PARTITION WALLS, TWO NEW DOORS, TWO NEW WINDOW WALLS. CONVERT ONE OFFICE ROOM INTO TWO ROOMS, AND ADD NEW PARTION WALL TO CREATE ANOTHER ROOM.. Permit Finaled. 19701 S HAMILTON AVE","address":"19601 Hamilton Avenue, CA, Torrance, 90502, US","ct":"2920.00","ev":"N","apc":"Harbor","cpa":"Harbor Gateway","zone":"M3-1","solar":"N","pin_nbr":"057B197    82","use_code":"13","geolocation":"POINT (-118.28625 33.85221)","status_date":"04/23/2014","permit_group":"Building","refresh_time":"06/10/2026","type_lat_lon":"ADDRESS","business_unit":"Plan Check at Counter"},"geometry":{"type":"Point","coordinates":[-118.28625,33.85221]}},{"type":"Feature","properties":{"date":"2014-01-21T00:00:00.000Z","year":2014,"description":"COMM. TENANT IMPROVEMENT, DEMO (E) NON LOAD BEARING WALLS, DOOR PROVIDE NEW NON LOAD BEARING PARTITIONS, DOORS AND SIDELIGHT GLASS.  RELOCATE LIGHT FIXTURES PROVIDE NEW BREA K ROOM MILLWORK W/SINK.  NON STRUCTURAL REMODEL","metadescription":"Bldg-Alter/Repair. Commercial. COMM. TENANT IMPROVEMENT, DEMO (E) NON LOAD BEARING WALLS, DOOR PROVIDE NEW NON LOAD BEARING PARTITIONS, DOORS AND SIDELIGHT GLASS.  RELOCATE LIGHT FIXTURES PROVIDE NEW BREA K ROOM MILLWORK W/SINK.  NON STRUCTURAL REMODEL. Permit Finaled. 19701 S HAMILTON AVE SUITE 220","address":"19601 Hamilton Avenue, CA, Torrance, 90502, US","ct":"2920.00","ev":"N","apc":"Harbor","cpa":"Harbor Gateway","zone":"M3-1","solar":"N","pin_nbr":"057B197    82","use_code":"13","geolocation":"POINT (-118.28625 33.85221)","status_date":"06/03/2014","permit_group":"Building","refresh_time":"06/10/2026","type_lat_lon":"ADDRESS","business_unit":"Plan Check at Counter"},"geometry":{"type":"Point","coordinates":[-118.28625,33.85221]}},{"type":"Feature","properties":{"date":"2009-01-14T00:00:00.000Z","year":2009,"description":"REMOVE GARAGE DOORS","metadescription":"Bldg-Alter/Repair. Apartment. REMOVE GARAGE DOORS. Permit Finaled. 16517 S DENVER AVE","address":"16511 South Denver Avenue, CA, Gardena, 90248, US","ct":"2912.20","ev":"N","apc":"Harbor","cpa":"Harbor Gateway","zone":"R3-1","solar":"N","pin_nbr":"069B201   364","use_code":"5","geolocation":"POINT (-118.28386 33.88136)","status_date":"07/02/2010","permit_group":"Building","refresh_time":"06/10/2026","type_lat_lon":"ADDRESS","business_unit":"Plan Check at Counter"},"geometry":{"type":"Point","coordinates":[-118.28386,33.88136]}},{"type":"Feature","properties":{"date":"2008-08-04T00:00:00.000Z","year":2008,"description":"New drywall Specific location: storage room.  Change out 2 Windows and repair 1 Door (Same size & type for residential buildings only).  Termite damage/dry rot repair less than 10% of replacement cost building.  Replace damaged framing members (less than 10% of replacement cost of building) for houses and duplexes (not including decks).","metadescription":"Bldg-Alter/Repair. 1 or 2 Family Dwelling. New drywall Specific location: storage room.  Change out 2 Windows and repair 1 Door (Same size & type for residential buildings only).  Termite damage/dry rot repair less than 10% of replacement cost building.  Replace damaged framing members (less than 10% of replacement cost of building) for houses and duplexes (not including decks).. Issued. 24436 S SEAGROVE AVE","address":"24436 Seagrove Avenue, CA, Wilmington, 90744, US","ct":"2941.10","ev":"N","apc":"Harbor","cpa":"Wilmington - Harbor City","zone":"R1-1XL-O","solar":"N","pin_nbr":"039B209   150","use_code":"1","geolocation":"POINT (-118.25791 33.80356)","status_date":"08/04/2008","permit_group":"Building","refresh_time":"06/10/2026","type_lat_lon":"ADDRESS","business_unit":"Express Permit"},"geometry":{"type":"Point","coordinates":[-118.25791,33.80356]}},{"type":"Feature","properties":{"date":"2003-07-08T00:00:00.000Z","year":2003,"description":"new stucco at area where windows were removed; new garage door with stucco patch up around door opening. permit is good for 30 days.","metadescription":"Bldg-Alter/Repair. 1 or 2 Family Dwelling. new stucco at area where windows were removed; new garage door with stucco patch up around door opening. permit is good for 30 days.. Permit Finaled. 24431 S SEAGROVE AVE","address":"24431 Seagrove Avenue, CA, Wilmington, 90744, US","ct":"2941.10","ev":"N","apc":"Harbor","cpa":"Wilmington - Harbor City","zone":"R1-1XL-O","solar":"N","pin_nbr":"039B209   138","use_code":"7","geolocation":"POINT (-118.25809 33.80379)","status_date":"07/16/2003","permit_group":"Building","refresh_time":"06/10/2026","type_lat_lon":"ADDRESS","business_unit":"Express Permit"},"geometry":{"type":"Point","coordinates":[-118.25809,33.80379]}},{"type":"Feature","properties":{"date":"2000-07-28T00:00:00.000Z","year":2000,"description":"GEN. REHAB. TO COMPLY WITH ABATE ORDER DATED 10-19-99. PERMIT WILL EXPIRE 45 DAYS FROM DATE OF ISSUANCE. (PAINT, REPLACE DOORS, WINDOWS, CABINETS, ETC..)","metadescription":"Bldg-Alter/Repair. Apartment. GEN. REHAB. TO COMPLY WITH ABATE ORDER DATED 10-19-99. PERMIT WILL EXPIRE 45 DAYS FROM DATE OF ISSUANCE. (PAINT, REPLACE DOORS, WINDOWS, CABINETS, ETC..). Permit Finaled. 16539 S DENVER AVE","address":"16539 South Denver Avenue, CA, Gardena, 90248, US","ct":"2912.00","ev":"N","apc":"Harbor","zone":"R3-1","solar":"N","pin_nbr":"069B201   373","use_code":"5","geolocation":"POINT (-118.28384 33.88093)","status_date":"11/09/2000","permit_group":"Building","refresh_time":"06/10/2026","type_lat_lon":"ADDRESS","business_unit":"Express Permit"},"geometry":{"type":"Point","coordinates":[-118.28384,33.88093]}},{"type":"Feature","properties":{"date":"2000-03-20T00:00:00.000Z","year":2000,"description":"ADD ALCOVE,DOOR,AND RAMP INTO EXISTING COMPUTER ROOM","metadescription":"Bldg-Alter/Repair. Commercial. ADD ALCOVE,DOOR,AND RAMP INTO EXISTING COMPUTER ROOM. Permit Finaled. 19701 S HAMILTON AVE","address":"19601 Hamilton Avenue, CA, Torrance, 90502, US","ct":"2920.00","ev":"N","apc":"Harbor","zone":"M3-1","solar":"N","pin_nbr":"057B197    82","use_code":"13","geolocation":"POINT (-118.28625 33.85221)","status_date":"04/27/2000","permit_group":"Building","refresh_time":"06/10/2026","type_lat_lon":"ADDRESS","business_unit":"Plan Check at Counter"},"geometry":{"type":"Point","coordinates":[-118.28625,33.85221]}},{"type":"Feature","properties":{"date":"1999-08-27T00:00:00.000Z","year":1999,"description":"MODIFY OFFICE SPACE - DEMO 1-WALL 16'-8-1/2\" , BUILD (1) WALL 16'-8-1/2\" & RELOCATE DOOR & FRAME.","metadescription":"Bldg-Alter/Repair. Commercial. MODIFY OFFICE SPACE - DEMO 1-WALL 16'-8-1/2\" , BUILD (1) WALL 16'-8-1/2\" & RELOCATE DOOR & FRAME.. Permit Finaled. 20101 HAMILTON AVE 2ND FLR","address":"20101 Hamilton Avenue, CA, Torrance, 90502, US","ct":"2920.00","ev":"N","apc":"Harbor","zone":"M3-1","solar":"N","pin_nbr":"057B197    85","use_code":"13","geolocation":"POINT (-118.28722891 33.84878372)","status_date":"09/17/2001","permit_group":"Building","refresh_time":"06/10/2026","type_lat_lon":"PIN","business_unit":"Plan Check at Counter"},"geometry":{"type":"Point","coordinates":[-118.28722891,33.84878372]}},{"type":"Feature","properties":{"date":"1998-08-11T00:00:00.000Z","year":1998,"description":"TI @ 3RD FLOOR. INTERIOR NON-BEARING PARTITIONS IN THE SW QUADRANT @ TRAINING ROOM & NEW 1-HR CORRIDOR AT JUNCTION OF SW & SE PORTION OF BUILDING. NEW FIRE-RATED DOORS @ EXT'G. 2-HR AREA SEPARATION WALL TO BE ON MAGNETIC HOLD-OPENS. RTI FOR ALICE GONG","metadescription":"Bldg-Alter/Repair. Commercial. TI @ 3RD FLOOR. INTERIOR NON-BEARING PARTITIONS IN THE SW QUADRANT @ TRAINING ROOM & NEW 1-HR CORRIDOR AT JUNCTION OF SW & SE PORTION OF BUILDING. NEW FIRE-RATED DOORS @ EXT'G. 2-HR AREA SEPARATION WALL TO BE ON MAGNETIC HOLD-OPENS. RTI FOR ALICE GONG. Permit Finaled. 20101 S HAMILTON AVE 3RD FLOOR","address":"20220 Hamilton Avenue, CA, Torrance, 90502, US","ct":"2920.00","ev":"N","apc":"Harbor","zone":"M3-1","solar":"N","pin_nbr":"054B197   127","use_code":"13","geolocation":"POINT (-118.28637 33.84769)","status_date":"05/11/2001","construction":"Type V-1HR Construction","permit_group":"Building","refresh_time":"06/10/2026","type_lat_lon":"ADDRESS","business_unit":"Plan Check at Counter","square_footage":"18502"},"geometry":{"type":"Point","coordinates":[-118.28637,33.84769]}}]}
