{"type":"FeatureCollection","features":[{"type":"Feature","properties":{"date":"2019-11-19T00:00:00.000Z","year":2019,"description":"New block wall fence (6' max height, 265 ft total length) per P/BC 2014-096.","metadescription":"Nonbldg-New. 1 or 2 Family Dwelling. New block wall fence (6' max height, 265 ft total length) per P/BC 2014-096.. Issued. 16609 S FIGUEROA ST","address":"16601 South Figueroa Street, CA, Gardena, 90248, US","ct":"2912.20","ev":"N","apc":"Harbor","cpa":"Harbor Gateway","zone":"C2-1, R3-1","solar":"N","height":"6","pin_nbr":"066B201    17","use_code":"23","geolocation":"POINT (-118.28284 33.88059)","status_date":"11/19/2019","permit_group":"Building","refresh_time":"06/10/2026","type_lat_lon":"ADDRESS","business_unit":"Plan Check at Counter"},"geometry":{"type":"Point","coordinates":[-118.28284,33.88059]}},{"type":"Feature","properties":{"date":"2016-08-15T00:00:00.000Z","year":2016,"description":"NEW BLOCK FENCE 155' LONG,  6' HIGH PER P/BC 2014-096","metadescription":"Nonbldg-New. 1 or 2 Family Dwelling. NEW BLOCK FENCE 155' LONG,  6' HIGH PER P/BC 2014-096. Permit Finaled. 24402 S DEEPWATER AVE","address":"24408 Deepwater Avenue, CA, Wilmington, 90744, US","ct":"2941.10","ev":"N","apc":"Harbor","cpa":"Wilmington - Harbor City","zone":"R1-1XL-O-CUGU","solar":"N","pin_nbr":"039B209    98","use_code":"23","geolocation":"POINT (-118.25865 33.80448)","status_date":"10/14/2016","permit_group":"Building","refresh_time":"06/10/2026","type_lat_lon":"ADDRESS","business_unit":"Plan Check at Counter"},"geometry":{"type":"Point","coordinates":[-118.25865,33.80448]}},{"type":"Feature","properties":{"date":"2001-03-29T00:00:00.000Z","year":2001,"description":"6' X 162'-8\" CMU FENCE WALL AT SIDE AND REAR OF LOT PER CITY STANDARD.","metadescription":"Nonbldg-New. 1 or 2 Family Dwelling. 6' X 162'-8\" CMU FENCE WALL AT SIDE AND REAR OF LOT PER CITY STANDARD.. Permit Finaled. 24730 S SEAGROVE AVE","address":"24730 Seagrove Avenue, CA, Wilmington, 90744, US","ct":"2941.00","ev":"N","apc":"Harbor","zone":"R1-1XL-O","solar":"N","pin_nbr":"039B209   243","use_code":"23","geolocation":"POINT (-118.25878 33.80115)","status_date":"04/30/2001","permit_group":"Building","refresh_time":"06/10/2026","type_lat_lon":"ADDRESS","business_unit":"Plan Check at Counter"},"geometry":{"type":"Point","coordinates":[-118.25878,33.80115]}}]}
