{"type":"FeatureCollection","features":[{"type":"Feature","properties":{"date":"2026-05-05T00:00:00.000Z","year":2026,"description":"ePlan. One-Story Addition with rear patio cover and Remodel to Existing Single Family Dwelling. Work Per Engineered Design. Building to be Fire Sprinklered with NFPA-13D.","metadescription":"Bldg-Addition. 1 or 2 Family Dwelling. ePlan. One-Story Addition with rear patio cover and Remodel to Existing Single Family Dwelling. Work Per Engineered Design. Building to be Fire Sprinklered with NFPA-13D.. Issued. 16214 S DENVER AVE","address":"16214 South Denver Avenue, CA, Gardena, 90248, US","ct":"2912.10","ev":"N","apc":"Harbor","cpa":"Harbor Gateway","zone":"R1-1","solar":"N","pin_nbr":"069B201   286","use_code":"1","status_date":"05/05/2026","construction":"Type V-B Construction","permit_group":"Building","refresh_time":"06/10/2026","type_lat_lon":"ADDRESS","business_unit":"Expanded Counter Plan Check","square_footage":"1089"},"geometry":{"type":"Point","coordinates":[-118.28382,33.88402]}},{"type":"Feature","properties":{"date":"2025-12-18T00:00:00.000Z","year":2025,"description":"ePlan: Remodel and ground and 2nd floor addition to (E) 1-story Single family dwelling with new attached 20car garageFire sprinklered","metadescription":"Bldg-Addition. 1 or 2 Family Dwelling. ePlan: Remodel and ground and 2nd floor addition to (E) 1-story Single family dwelling with new attached 20car garageFire sprinklered. Quality Review Completed. 540 W 168TH ST","address":"540 West 168Th Street, CA, Gardena, 90248, US","ct":"2912.20","ev":"N","apc":"Harbor","cpa":"Harbor Gateway","zone":"R1-1","solar":"N","pin_nbr":"066B201    78","use_code":"1","status_date":"01/30/2026","construction":"Type V-B Construction","permit_group":"Building","refresh_time":"06/10/2026","type_lat_lon":"ADDRESS","business_unit":"Regular Plan Check"},"geometry":{"type":"Point","coordinates":[-118.284,33.87918]}},{"type":"Feature","properties":{"date":"2024-11-12T00:00:00.000Z","year":2024,"description":"EPLAN: FIRE DAMAGE REPAIR TO PORITON OF (E) SFD, ROOF FRAMING REPAIR AND INTERIOR REMODEL (DOOR AND WINDOW CHANGE OUT SAME SIZE AND TYPE).","metadescription":"Bldg-Alter/Repair. 1 or 2 Family Dwelling. EPLAN: FIRE DAMAGE REPAIR TO PORITON OF (E) SFD, ROOF FRAMING REPAIR AND INTERIOR REMODEL (DOOR AND WINDOW CHANGE OUT SAME SIZE AND TYPE).. Permit Finaled. 24405 S LAKME AVE","address":"24405 South Lakme Avenue, CA, Wilmington, 90744, US","ct":"2941.10","ev":"N","apc":"Harbor","cpa":"Wilmington - Harbor City","zone":"R1-1XL-O-CUGU","solar":"N","pin_nbr":"039B205   164","use_code":"1","status_date":"05/02/2025","permit_group":"Building","refresh_time":"06/10/2026","type_lat_lon":"ADDRESS","business_unit":"Expanded Counter Plan Check"},"geometry":{"type":"Point","coordinates":[-118.2613,33.80445]}},{"type":"Feature","properties":{"date":"2021-11-08T00:00:00.000Z","year":2021,"description":"PROPOSED FIRE DAMAGE REPAIR WITHIN EX KITCHEN/FOOD PREP AREA. REMODEL EX ONE UNISEX RESTRM FOR HANDICAP ACCESSIBILITY COMPLIANCE. ENLARGE EXISTING EXTERIOR OPENING FOR NEW DOOR. ONE NEW ROOF TOP EQUIPMENT. AND RESTRIPING OF PARKING STALLS. SEE COMMENTS.","metadescription":"Bldg-Alter/Repair. Commercial. PROPOSED FIRE DAMAGE REPAIR WITHIN EX KITCHEN/FOOD PREP AREA. REMODEL EX ONE UNISEX RESTRM FOR HANDICAP ACCESSIBILITY COMPLIANCE. ENLARGE EXISTING EXTERIOR OPENING FOR NEW DOOR. ONE NEW ROOF TOP EQUIPMENT. AND RESTRIPING OF PARKING STALLS. SEE COMMENTS.. CofO Issued. 16717 S FIGUEROA ST","address":"16717 South Figueroa Street, CA, Gardena, 90248, US","ct":"2912.20","ev":"N","apc":"Harbor","cpa":"Harbor Gateway","zone":"C2-1","solar":"N","pin_nbr":"066B201    50","use_code":"17","status_date":"11/17/2022","construction":"Type V-B Construction","permit_group":"Building","refresh_time":"06/10/2026","type_lat_lon":"ADDRESS","business_unit":"Regular Plan Check","square_footage":"0"},"geometry":{"type":"Point","coordinates":[-118.2827,33.87973]}},{"type":"Feature","properties":{"date":"2021-04-07T00:00:00.000Z","year":2021,"description":"MAJOR REMODEL OF (E) SFD. REMOVE WALLS, NEW BEAMS, POST, PAD FOOTING. ALL WORK PER ENGINEER DESIGN. FIRE SPRINKLER REQUIRED; NFPA 13D.","metadescription":"Bldg-Alter/Repair. 1 or 2 Family Dwelling. MAJOR REMODEL OF (E) SFD. REMOVE WALLS, NEW BEAMS, POST, PAD FOOTING. ALL WORK PER ENGINEER DESIGN. FIRE SPRINKLER REQUIRED; NFPA 13D.. Issued. 24435 S DEEPWATER AVE","address":"24435 Deepwater Avenue, CA, Wilmington, 90744, US","ct":"2941.10","ev":"N","apc":"Harbor","cpa":"Wilmington - Harbor City","zone":"R1-1XL-O-CUGU","solar":"N","pin_nbr":"039B209   136","use_code":"1","status_date":"04/07/2021","construction":"Type V-B Construction","permit_group":"Building","refresh_time":"06/10/2026","type_lat_lon":"ADDRESS","business_unit":"Expanded Counter Plan Check"},"geometry":{"type":"Point","coordinates":[-118.25902,33.80373]}},{"type":"Feature","properties":{"date":"2019-07-24T00:00:00.000Z","year":2019,"description":"Re-roof with class A or B material weighing less than 6 pounds per sq. Ft. Over existing solid sheathing 23 squares. Class a roof covering is required within very high fire hazard severity zone (VHFHSZ). For residential roof replacement > 50% of the total roof area, apply cool roof product labeled and certified by cool roof rating council (CRRC). Cool roof may be required for non-residential buildings per title 24, part 6, section 141.0 (b) 2b. Tear Off Existing Roofing. Replace Existing Tile Roof w/Tile of Same Weight or Less","metadescription":"Bldg-Alter/Repair. 1 or 2 Family Dwelling. Re-roof with class A or B material weighing less than 6 pounds per sq. Ft. Over existing solid sheathing 23 squares. Class a roof covering is required within very high fire hazard severity zone (VHFHSZ). For residential roof replacement > 50% of the total roof area, apply cool roof product labeled and certified by cool roof rating council (CRRC). Cool roof may be required for non-residential buildings per title 24, part 6, section 141.0 (b) 2b. Tear Off Existing Roofing. Replace Existing Tile Roof w/Tile of Same Weight or Less. Issued. 24447 S SEAGROVE AVE","address":"24447 Seagrove Avenue, CA, Wilmington, 90744, US","ct":"2941.10","ev":"N","apc":"Harbor","cpa":"Wilmington - Harbor City","zone":"R1-1XL-O-CUGU","solar":"N","pin_nbr":"039B209   154","use_code":"1","geolocation":"POINT (-118.25824 33.80336)","status_date":"07/24/2019","permit_group":"Building","refresh_time":"06/10/2026","type_lat_lon":"ADDRESS","business_unit":"Express Permit"},"geometry":{"type":"Point","coordinates":[-118.25824,33.80336]}},{"type":"Feature","properties":{"date":"2017-08-31T00:00:00.000Z","year":2017,"description":"Re-roof with Class A or B roof covering material weighing less than 6 pounds per sq. ft. over existing solid sheathing  30 Squares. Class A roof covering is required within Very High Fire Hazard Severity Zone (VHFHSZ). For residential roof replacement > 50% of the total roof area, apply Cool Roof Product labeled and certified by Cool Roof Rating Council (CRRC). Cool Roof may be required for non-residential buildings per Title 24, Part 6, Section 149(b).  (Replace plywood as needed)","metadescription":"Bldg-Alter/Repair. Apartment. Re-roof with Class A or B roof covering material weighing less than 6 pounds per sq. ft. over existing solid sheathing  30 Squares. Class A roof covering is required within Very High Fire Hazard Severity Zone (VHFHSZ). For residential roof replacement > 50% of the total roof area, apply Cool Roof Product labeled and certified by Cool Roof Rating Council (CRRC). Cool Roof may be required for non-residential buildings per Title 24, Part 6, Section 149(b).  (Replace plywood as needed). Permit Finaled. 16609 S DENVER AVE","address":"16609 South Denver Avenue, CA, Gardena, 90248, US","ct":"2912.20","ev":"N","apc":"Harbor","cpa":"Harbor Gateway","zone":"R3-1","solar":"N","pin_nbr":"066B201    16","use_code":"5","geolocation":"POINT (-118.28384 33.88056)","status_date":"03/30/2023","permit_group":"Building","refresh_time":"06/10/2026","type_lat_lon":"ADDRESS","business_unit":"Express Permit"},"geometry":{"type":"Point","coordinates":[-118.28384,33.88056]}},{"type":"Feature","properties":{"date":"2010-08-03T00:00:00.000Z","year":2010,"description":"GARAGE FIRE REPAIR: MINOR STRUCTURAL FIRE DAMAGED ,SISTERING FLOOR JOISTS & BEAMS TO EXISTING 2 X 14 12\" O.C FLOOR JOISTS AND TO  6X 14 BEAM AT UNIT #49. REPLACE PLYWOOD ON ONE (E) SHEAR WALL.","metadescription":"Bldg-Alter/Repair. Apartment. GARAGE FIRE REPAIR: MINOR STRUCTURAL FIRE DAMAGED ,SISTERING FLOOR JOISTS & BEAMS TO EXISTING 2 X 14 12\" O.C FLOOR JOISTS AND TO  6X 14 BEAM AT UNIT #49. REPLACE PLYWOOD ON ONE (E) SHEAR WALL.. Permit Finaled. 515 W GARDENA BLVD 1-90","address":"1-90, 515 West Gardena Boulevard, CA, Gardena, 90248, US","ct":"2912.10","ev":"N","apc":"Harbor","cpa":"Harbor Gateway","zone":"R3-1","solar":"N","pin_nbr":"069B201   305","use_code":"5","geolocation":"POINT (-118.2833 33.88199)","status_date":"11/10/2010","permit_group":"Building","refresh_time":"06/10/2026","type_lat_lon":"ADDRESS","business_unit":"Plan Check at Counter"},"geometry":{"type":"Point","coordinates":[-118.2833,33.88199]}},{"type":"Feature","properties":{"date":"2001-09-20T00:00:00.000Z","year":2001,"description":"FIRE DAMAGE REPAIR (MAXIMUM 10%, NO STRUCTURAL). VALUATION TO BE VERIFIED BY FIELD INSPECTOR.","metadescription":"Bldg-Alter/Repair. Apartment. FIRE DAMAGE REPAIR (MAXIMUM 10%, NO STRUCTURAL). VALUATION TO BE VERIFIED BY FIELD INSPECTOR.. Permit Finaled. 515 W GARDENA BLVD","address":"1-90, 515 West Gardena Boulevard, CA, Gardena, 90248, US","ct":"2912.00","ev":"N","apc":"Harbor","zone":"R3-1","solar":"N","pin_nbr":"069B201   305","use_code":"35","geolocation":"POINT (-118.2833 33.88199)","status_date":"01/07/2002","permit_group":"Building","refresh_time":"06/10/2026","type_lat_lon":"ADDRESS","business_unit":"Express Permit"},"geometry":{"type":"Point","coordinates":[-118.2833,33.88199]}},{"type":"Feature","properties":{"date":"1998-08-11T00:00:00.000Z","year":1998,"description":"TI @ 3RD FLOOR. INTERIOR NON-BEARING PARTITIONS IN THE SW QUADRANT @ TRAINING ROOM & NEW 1-HR CORRIDOR AT JUNCTION OF SW & SE PORTION OF BUILDING. NEW FIRE-RATED DOORS @ EXT'G. 2-HR AREA SEPARATION WALL TO BE ON MAGNETIC HOLD-OPENS. RTI FOR ALICE GONG","metadescription":"Bldg-Alter/Repair. Commercial. TI @ 3RD FLOOR. INTERIOR NON-BEARING PARTITIONS IN THE SW QUADRANT @ TRAINING ROOM & NEW 1-HR CORRIDOR AT JUNCTION OF SW & SE PORTION OF BUILDING. NEW FIRE-RATED DOORS @ EXT'G. 2-HR AREA SEPARATION WALL TO BE ON MAGNETIC HOLD-OPENS. RTI FOR ALICE GONG. Permit Finaled. 20101 S HAMILTON AVE 3RD FLOOR","address":"20220 Hamilton Avenue, CA, Torrance, 90502, US","ct":"2920.00","ev":"N","apc":"Harbor","zone":"M3-1","solar":"N","pin_nbr":"054B197   127","use_code":"13","geolocation":"POINT (-118.28637 33.84769)","status_date":"05/11/2001","construction":"Type V-1HR Construction","permit_group":"Building","refresh_time":"06/10/2026","type_lat_lon":"ADDRESS","business_unit":"Plan Check at Counter","square_footage":"18502"},"geometry":{"type":"Point","coordinates":[-118.28637,33.84769]}}]}
