{"type":"FeatureCollection","features":[{"type":"Feature","properties":{"date":"2025-07-25T00:00:00.000Z","year":2025,"description":"Construct new 5,250 sf pre-engineered metal terminal building. Re-pave and re-stripe parking lot. Provide and install rooftop solar array. Provide foundation and provisions for future diesel generator. Provide and install electric vehicle chargers.","metadescription":"Bldg-New. Commercial. Construct new 5,250 sf pre-engineered metal terminal building. Re-pave and re-stripe parking lot. Provide and install rooftop solar array. Provide foundation and provisions for future diesel generator. Provide and install electric vehicle chargers.. Verifications in Progress. 1302 E LOMITA BLVD","address":"1310 East Lomita Boulevard, CA, Wilmington, 90744, US","ct":"2941.20","ev":"Y","apc":"Harbor","cpa":"Wilmington - Harbor City","zone":"[Q]M3-1VL-CUGU, [Q]MR2-1VL-CUGU","solar":"N","pin_nbr":"036B209     9","status_date":"10/21/2025","permit_group":"Building","refresh_time":"06/10/2026","type_lat_lon":"ADDRESS","business_unit":"Regular Plan Check"},"geometry":{"type":"Point","coordinates":[-118.25288,33.79968]}},{"type":"Feature","properties":{"date":"2017-07-27T00:00:00.000Z","year":2017,"description":"SUPPLEMENTAL TO 17014-10000-00338, REVISIONS TO FOUNDATION DESIGN AND DETAILS.","metadescription":"Bldg-Alter/Repair. Commercial. SUPPLEMENTAL TO 17014-10000-00338, REVISIONS TO FOUNDATION DESIGN AND DETAILS.. Issued. 19701 S HAMILTON AVE","address":"19601 Hamilton Avenue, CA, Torrance, 90502, US","ct":"2920.00","ev":"N","apc":"Harbor","cpa":"Harbor Gateway","zone":"M3-1","solar":"N","pin_nbr":"057B197    82","use_code":"13","geolocation":"POINT (-118.28625 33.85221)","status_date":"07/27/2017","permit_group":"Building","refresh_time":"06/10/2026","type_lat_lon":"ADDRESS","business_unit":"Plan Check at Counter"},"geometry":{"type":"Point","coordinates":[-118.28625,33.85221]}},{"type":"Feature","properties":{"date":"2005-07-11T00:00:00.000Z","year":2005,"description":"REMOVAL AND RECOMPACTION FOR BLOCK WALL FOUNDATION (900 C Y CUT, 300 C Y FILL, 600 C Y EXPORT).","metadescription":"Grading. Commercial. REMOVAL AND RECOMPACTION FOR BLOCK WALL FOUNDATION (900 C Y CUT, 300 C Y FILL, 600 C Y EXPORT).. Permit Finaled. 21900 S ALAMEDA ST","address":"21900 South Alameda Street, CA, Long Beach, 90810, US","ct":"2941.20","ev":"N","apc":"Harbor","zone":"[Q]M3-1VL","solar":"N","pin_nbr":"048B217   131","use_code":"60","geolocation":"POINT (-118.22668 33.82873)","status_date":"01/08/2007","permit_group":"Building","refresh_time":"06/10/2026","type_lat_lon":"ADDRESS","business_unit":"Plan Check at Counter"},"geometry":{"type":"Point","coordinates":[-118.22668,33.82873]}},{"type":"Feature","properties":{"date":"2005-07-11T00:00:00.000Z","year":2005,"description":"FOUNDATION FOR 24'X60' STATE APPROVED COMMERCIAL COACH TO BE USED AS OFFICE FOR CARGO CONTAINER STORAGE YARD.","metadescription":"Bldg-New. Commercial. FOUNDATION FOR 24'X60' STATE APPROVED COMMERCIAL COACH TO BE USED AS OFFICE FOR CARGO CONTAINER STORAGE YARD.. CofO Issued. 21900 S ALAMEDA ST","address":"21900 South Alameda Street, CA, Long Beach, 90810, US","ct":"2941.20","ev":"N","apc":"Harbor","zone":"[Q]M3-1VL","solar":"N","height":"15","pin_nbr":"048B217   131","use_code":"13","geolocation":"POINT (-118.22668 33.82873)","status_date":"11/13/2007","construction":"Type V-N Construction","permit_group":"Building","refresh_time":"06/10/2026","type_lat_lon":"ADDRESS","business_unit":"Regular Plan Check","square_footage":"1420"},"geometry":{"type":"Point","coordinates":[-118.22668,33.82873]}}]}
