{"type":"FeatureCollection","features":[{"type":"Feature","properties":{"date":"2018-02-12T00:00:00.000Z","year":2018,"description":"KITCHEN AND BATHROOM REMODEL COMBINED WITH ELECTRICAL, PLUMBING AND HVAC (FOR RESIDENTIAL BUILDINGS; NO STRUCTURAL CHANGES).","metadescription":"Bldg-Alter/Repair. 1 or 2 Family Dwelling. KITCHEN AND BATHROOM REMODEL COMBINED WITH ELECTRICAL, PLUMBING AND HVAC (FOR RESIDENTIAL BUILDINGS; NO STRUCTURAL CHANGES).. Permit Finaled. 532 W 168TH ST #1-#2","address":"526 West 168Th Street, CA, Gardena, 90248, US","ct":"2912.20","ev":"N","apc":"Harbor","cpa":"Harbor Gateway","zone":"R1-1","solar":"N","pin_nbr":"066B201    75","use_code":"2","geolocation":"POINT (-118.28364 33.87925)","status_date":"03/14/2018","permit_group":"Building","refresh_time":"06/10/2026","type_lat_lon":"ADDRESS","business_unit":"Express Permit"},"geometry":{"type":"Point","coordinates":[-118.28364,33.87925]}},{"type":"Feature","properties":{"date":"2018-02-12T00:00:00.000Z","year":2018,"description":"KITCHEN AND BATHROOM REMODEL COMBINED WITH ELECTRICAL, PLUMBING AND HVAC (FOR RESIDENTIAL BUILDINGS; NO STRUCTURAL CHANGES).","metadescription":"Bldg-Alter/Repair. 1 or 2 Family Dwelling. KITCHEN AND BATHROOM REMODEL COMBINED WITH ELECTRICAL, PLUMBING AND HVAC (FOR RESIDENTIAL BUILDINGS; NO STRUCTURAL CHANGES).. Permit Finaled. 530 W 168TH ST #1-#2","address":"526 West 168Th Street, CA, Gardena, 90248, US","ct":"2912.20","ev":"N","apc":"Harbor","cpa":"Harbor Gateway","zone":"R1-1","solar":"N","pin_nbr":"066B201    75","use_code":"2","geolocation":"POINT (-118.28363 33.87916)","status_date":"03/14/2018","permit_group":"Building","refresh_time":"06/10/2026","type_lat_lon":"ADDRESS","business_unit":"Express Permit"},"geometry":{"type":"Point","coordinates":[-118.28363,33.87916]}},{"type":"Feature","properties":{"date":"2018-01-12T00:00:00.000Z","year":2018,"description":"CHANGE OUT 13 WINDOWS (SAME SIZE AND LOCATION), RE-STUCCO ENTIRE BLDG., RESIDENTIAL KITCHEN/BATHROOM REMODEL-COMBINE WITH  ELECTRICAL AND PLUMBING,REROOF 16 SQUARES WITH CLASS 'A' OR 'B'MATERIAL WEIGHING LESS THAN 6 POUNDS PER SQ.FT. TEAR OFF EXISTING ROOFING AND REROOF (SFD AND GAR)FOR RESIDENTIAL ROOF REPLACEMENT >50% OF THE TOTAL ROOF AREA, APPLY COOL ROOF PRODUCT LABELED AND CERTIFIED BY COOL ROOF RATING COUNCIL (CRRC).  COOL ROOF MAY BE REQUIRED FOR NON-REESIDENTIAL BUILDINGS PER TITLE 24, PART 6, SECTION 149(b).","metadescription":"Bldg-Alter/Repair. 1 or 2 Family Dwelling. CHANGE OUT 13 WINDOWS (SAME SIZE AND LOCATION), RE-STUCCO ENTIRE BLDG., RESIDENTIAL KITCHEN/BATHROOM REMODEL-COMBINE WITH  ELECTRICAL AND PLUMBING,REROOF 16 SQUARES WITH CLASS 'A' OR 'B'MATERIAL WEIGHING LESS THAN 6 POUNDS PER SQ.FT. TEAR OFF EXISTING ROOFING AND REROOF (SFD AND GAR)FOR RESIDENTIAL ROOF REPLACEMENT >50% OF THE TOTAL ROOF AREA, APPLY COOL ROOF PRODUCT LABELED AND CERTIFIED BY COOL ROOF RATING COUNCIL (CRRC).  COOL ROOF MAY BE REQUIRED FOR NON-REESIDENTIAL BUILDINGS PER TITLE 24, PART 6, SECTION 149(b).. Permit Finaled. 24462 S SEAGROVE AVE","address":"24462 Seagrove Avenue, CA, Wilmington, 90744, US","ct":"2941.10","ev":"N","apc":"Harbor","cpa":"Wilmington - Harbor City","zone":"R1-1XL-O-CUGU","solar":"N","pin_nbr":"039B209   176","use_code":"1","geolocation":"POINT (-118.25805 33.80296)","status_date":"11/18/2020","permit_group":"Building","refresh_time":"06/10/2026","type_lat_lon":"ADDRESS","business_unit":"Express Permit"},"geometry":{"type":"Point","coordinates":[-118.25805,33.80296]}},{"type":"Feature","properties":{"date":"2017-01-05T00:00:00.000Z","year":2017,"description":"BATHROOM REMODEL COMBINED WITH  PLUMBING, AND HVAC FOR RESIDENTIAL BUILDINGS (NO STRUCTURAL CHANGES).","metadescription":"Bldg-Alter/Repair. 1 or 2 Family Dwelling. BATHROOM REMODEL COMBINED WITH  PLUMBING, AND HVAC FOR RESIDENTIAL BUILDINGS (NO STRUCTURAL CHANGES).. Permit Finaled. 507 W 169TH ST","address":"503 West 169Th Street, CA, Gardena, 90248, US","ct":"2912.20","ev":"N","apc":"Harbor","cpa":"Harbor Gateway","zone":"R1-1","solar":"N","pin_nbr":"066B201    99","use_code":"1","geolocation":"POINT (-118.28279 33.87866)","status_date":"01/27/2017","permit_group":"Building","refresh_time":"06/10/2026","type_lat_lon":"ADDRESS","business_unit":"Express Permit"},"geometry":{"type":"Point","coordinates":[-118.28279,33.87866]}},{"type":"Feature","properties":{"date":"2014-06-11T00:00:00.000Z","year":2014,"description":"Change out 11 Windows and 6 Doors (Same size & type for residential buildings only). Kitchen & Bathroom remodel (For residential buildings; no structural changes). Combine with Electrical, Plumbing, & HVAC. Re-stucco; Replace drywall (no new walls added) Specific location: Entire House & Garage. Tear Off Existing Roofing. Re-roof 10 squares w/class 'A' or 'B' materials weighing less than 6 pounds per sq. ft. Install Fiberglass or Asphalt Shingles (max. 2 overlays).","metadescription":"Bldg-Alter/Repair. 1 or 2 Family Dwelling. Change out 11 Windows and 6 Doors (Same size & type for residential buildings only). Kitchen & Bathroom remodel (For residential buildings; no structural changes). Combine with Electrical, Plumbing, & HVAC. Re-stucco; Replace drywall (no new walls added) Specific location: Entire House & Garage. Tear Off Existing Roofing. Re-roof 10 squares w/class 'A' or 'B' materials weighing less than 6 pounds per sq. ft. Install Fiberglass or Asphalt Shingles (max. 2 overlays).. Permit Finaled. 24412 S SEAGROVE AVE","address":"24416 Seagrove Avenue, CA, Wilmington, 90744, US","ct":"2941.10","ev":"N","apc":"Harbor","cpa":"Wilmington - Harbor City","zone":"R1-1XL-O","solar":"N","pin_nbr":"039B209   114","use_code":"1","geolocation":"POINT (-118.25781 33.80423)","status_date":"09/16/2014","permit_group":"Building","refresh_time":"06/10/2026","type_lat_lon":"ADDRESS","business_unit":"Express Permit"},"geometry":{"type":"Point","coordinates":[-118.25781,33.80423]}},{"type":"Feature","properties":{"date":"2013-05-17T00:00:00.000Z","year":2013,"description":"KITCHEN & BATHROOM REMODEL (FOR RESIDENTIAL BUILDINGS; NO STRUCTURAL CHANGES) COMBINE WITH ELECTRICAL & PLUMBING. COMPLY WITH DEPARTMENT ORDER EFFECTIVE DATE 12/25/2012. PERMIT WILL EXPIRE 30 DAYS FROM ISSUANCE DATE. ALL PERMITS SHALL BE FOR THE SAME TIME PERIOD LIMITATION.","metadescription":"Bldg-Alter/Repair. 1 or 2 Family Dwelling. KITCHEN & BATHROOM REMODEL (FOR RESIDENTIAL BUILDINGS; NO STRUCTURAL CHANGES) COMBINE WITH ELECTRICAL & PLUMBING. COMPLY WITH DEPARTMENT ORDER EFFECTIVE DATE 12/25/2012. PERMIT WILL EXPIRE 30 DAYS FROM ISSUANCE DATE. ALL PERMITS SHALL BE FOR THE SAME TIME PERIOD LIMITATION.. Permit Finaled. 24426 S SEAGROVE AVE","address":"24432 Seagrove Avenue, CA, Wilmington, 90744, US","ct":"2941.10","ev":"N","apc":"Harbor","cpa":"Wilmington - Harbor City","zone":"R1-1XL-O","solar":"N","pin_nbr":"039B209   137","use_code":"1","geolocation":"POINT (-118.25783 33.80382)","status_date":"08/05/2013","permit_group":"Building","refresh_time":"06/10/2026","type_lat_lon":"ADDRESS","business_unit":"Express Permit"},"geometry":{"type":"Point","coordinates":[-118.25783,33.80382]}},{"type":"Feature","properties":{"date":"2012-08-02T00:00:00.000Z","year":2012,"description":"CHANGE OUT 8-WINDOWS (SAME SIZE AND TYPE FOR RESIDENTIAL BUILDINGS ONLY)NEW STUCCO-ALL EXTERIOR, KITCHEN AND BATHROOM REMODEL(FOR RESIDENTIAL BILDINGS:  NO STRUCTURAL CHANGES) COMBINE WITH ELECTRICAL AND PLUMBING.","metadescription":"Bldg-Alter/Repair. 1 or 2 Family Dwelling. CHANGE OUT 8-WINDOWS (SAME SIZE AND TYPE FOR RESIDENTIAL BUILDINGS ONLY)NEW STUCCO-ALL EXTERIOR, KITCHEN AND BATHROOM REMODEL(FOR RESIDENTIAL BILDINGS:  NO STRUCTURAL CHANGES) COMBINE WITH ELECTRICAL AND PLUMBING.. Permit Finaled. 24403 S AVALON BLVD","address":"24407 South Avalon Boulevard, CA, Wilmington, 90744, US","ct":"2941.10","ev":"N","apc":"Harbor","cpa":"Wilmington - Harbor City","zone":"[Q]RD1.5-1XL-O","solar":"N","pin_nbr":"039B205   165","use_code":"1","geolocation":"POINT (-118.26413 33.80444)","status_date":"02/11/2013","permit_group":"Building","refresh_time":"06/10/2026","type_lat_lon":"ADDRESS","business_unit":"Express Permit"},"geometry":{"type":"Point","coordinates":[-118.26413,33.80444]}},{"type":"Feature","properties":{"date":"2011-10-21T00:00:00.000Z","year":2011,"description":"REPLACE DRYWALL IN BATHROOM, INSTALL 6-RECESSED LIGHTS AND INCLUDE PLUMBING","metadescription":"Bldg-Alter/Repair. 1 or 2 Family Dwelling. REPLACE DRYWALL IN BATHROOM, INSTALL 6-RECESSED LIGHTS AND INCLUDE PLUMBING. Permit Finaled. 24411 S BAYPOINT AVE","address":"24411 Baypoint Avenue, CA, Wilmington, 90744, US","ct":"2941.10","ev":"N","apc":"Harbor","cpa":"Wilmington - Harbor City","zone":"R1-1XL-O","solar":"N","pin_nbr":"039B209   110","use_code":"1","geolocation":"POINT (-118.25973 33.80427)","status_date":"11/14/2011","permit_group":"Building","refresh_time":"06/10/2026","type_lat_lon":"ADDRESS","business_unit":"Express Permit"},"geometry":{"type":"Point","coordinates":[-118.25973,33.80427]}},{"type":"Feature","properties":{"date":"2000-02-04T00:00:00.000Z","year":2000,"description":"ADD 2 BEDROOMS AND 1 BATHROOM (34'X 20'-7\" IRREGULAR) INCLUDE ELECT.,PLUMBING,AND HEATING","metadescription":"Bldg-Addition. 1 or 2 Family Dwelling. ADD 2 BEDROOMS AND 1 BATHROOM (34'X 20'-7\" IRREGULAR) INCLUDE ELECT.,PLUMBING,AND HEATING. Permit Finaled. 24516 S LAKME AVE","address":"24516 Lakme Avenue, CA, Wilmington, 90744, US","ct":"2941.00","ev":"N","apc":"Harbor","zone":"R1-1XL, O","solar":"N","pin_nbr":"039B205   317","use_code":"1","geolocation":"POINT (-118.26103 33.80341)","status_date":"04/27/2001","construction":"Type V-N Construction","permit_group":"Building","refresh_time":"06/10/2026","type_lat_lon":"ADDRESS","business_unit":"Plan Check at Counter","square_footage":"585"},"geometry":{"type":"Point","coordinates":[-118.26103,33.80341]}}]}
