{"type":"FeatureCollection","features":[{"type":"Feature","properties":{"date":"2019-08-07T00:00:00.000Z","year":2019,"description":"Reroof with 19 sqrs COMP SHINGLE roofing over new solid sheathing.Re-roof with Class A or B material weighing less than 6 pounds per sq. ft. For residential roof replacement > 50% of the total roof area, apply Cool Roof Product labeled and certified by Cool Roof Rating Council (CRRC). Cool Roof may be required for non-residential buildings per Title 24, Part 6, Section 149(b).","metadescription":"Bldg-Alter/Repair. 1 or 2 Family Dwelling. Reroof with 19 sqrs COMP SHINGLE roofing over new solid sheathing.Re-roof with Class A or B material weighing less than 6 pounds per sq. ft. For residential roof replacement > 50% of the total roof area, apply Cool Roof Product labeled and certified by Cool Roof Rating Council (CRRC). Cool Roof may be required for non-residential buildings per Title 24, Part 6, Section 149(b).. Issued. 24419 S SEAGROVE AVE","address":"24419 Seagrove Avenue, CA, Wilmington, 90744, US","ct":"2941.10","ev":"N","apc":"Harbor","cpa":"Wilmington - Harbor City","zone":"R1-1XL-O-CUGU","solar":"N","pin_nbr":"039B209   123","use_code":"7","geolocation":"POINT (-118.25806 33.80409)","status_date":"08/07/2019","permit_group":"Building","refresh_time":"06/10/2026","type_lat_lon":"ADDRESS","business_unit":"Express Permit"},"geometry":{"type":"Point","coordinates":[-118.25806,33.80409]}},{"type":"Feature","properties":{"date":"2019-07-24T00:00:00.000Z","year":2019,"description":"Re-roof with class A or B material weighing less than 6 pounds per sq. Ft. Over existing solid sheathing 23 squares. Class a roof covering is required within very high fire hazard severity zone (VHFHSZ). For residential roof replacement > 50% of the total roof area, apply cool roof product labeled and certified by cool roof rating council (CRRC). Cool roof may be required for non-residential buildings per title 24, part 6, section 141.0 (b) 2b. Tear Off Existing Roofing. Replace Existing Tile Roof w/Tile of Same Weight or Less","metadescription":"Bldg-Alter/Repair. 1 or 2 Family Dwelling. Re-roof with class A or B material weighing less than 6 pounds per sq. Ft. Over existing solid sheathing 23 squares. Class a roof covering is required within very high fire hazard severity zone (VHFHSZ). For residential roof replacement > 50% of the total roof area, apply cool roof product labeled and certified by cool roof rating council (CRRC). Cool roof may be required for non-residential buildings per title 24, part 6, section 141.0 (b) 2b. Tear Off Existing Roofing. Replace Existing Tile Roof w/Tile of Same Weight or Less. Issued. 24447 S SEAGROVE AVE","address":"24447 Seagrove Avenue, CA, Wilmington, 90744, US","ct":"2941.10","ev":"N","apc":"Harbor","cpa":"Wilmington - Harbor City","zone":"R1-1XL-O-CUGU","solar":"N","pin_nbr":"039B209   154","use_code":"1","geolocation":"POINT (-118.25824 33.80336)","status_date":"07/24/2019","permit_group":"Building","refresh_time":"06/10/2026","type_lat_lon":"ADDRESS","business_unit":"Express Permit"},"geometry":{"type":"Point","coordinates":[-118.25824,33.80336]}},{"type":"Feature","properties":{"date":"2018-11-06T00:00:00.000Z","year":2018,"description":"Reroof with 19 sqrs COMP SHINGLE roofing. Existing solid sheathing.Re-roof with Class A or B material weighing less than 6 pounds per sq. ft. For residential roof replacement > 50% of the total roof area, apply Cool Roof Product labeled and certified by Cool Roof Rating Council (CRRC). Cool Roof may be required for non-residential buildings per Title 24, Part 6, Section 149(b).","metadescription":"Bldg-Alter/Repair. 1 or 2 Family Dwelling. Reroof with 19 sqrs COMP SHINGLE roofing. Existing solid sheathing.Re-roof with Class A or B material weighing less than 6 pounds per sq. ft. For residential roof replacement > 50% of the total roof area, apply Cool Roof Product labeled and certified by Cool Roof Rating Council (CRRC). Cool Roof may be required for non-residential buildings per Title 24, Part 6, Section 149(b).. Issued. 849 E OCEANSIDE ST","address":"849 Oceanside Street, CA, Wilmington, 90744, US","ct":"2941.10","ev":"N","apc":"Harbor","cpa":"Wilmington - Harbor City","zone":"R1-1XL-O-CUGU","solar":"N","pin_nbr":"039B209   135","use_code":"1","geolocation":"POINT (-118.25946 33.80381)","status_date":"11/06/2018","permit_group":"Building","refresh_time":"06/10/2026","type_lat_lon":"ADDRESS","business_unit":"Express Permit"},"geometry":{"type":"Point","coordinates":[-118.25946,33.80381]}},{"type":"Feature","properties":{"date":"2018-10-10T00:00:00.000Z","year":2018,"description":"Reroof with 19 sqrs COMP SHINGLE roofing. Existing solid sheathing.Re-roof with Class A or B material weighing less than 6 pounds per sq. ft. For residential roof replacement > 50% of the total roof area, apply Cool Roof Product labeled and certified by Cool Roof Rating Council (CRRC). Cool Roof may be required for non-residential buildings per Title 24, Part 6, Section 149(b).","metadescription":"Bldg-Alter/Repair. 1 or 2 Family Dwelling. Reroof with 19 sqrs COMP SHINGLE roofing. Existing solid sheathing.Re-roof with Class A or B material weighing less than 6 pounds per sq. ft. For residential roof replacement > 50% of the total roof area, apply Cool Roof Product labeled and certified by Cool Roof Rating Council (CRRC). Cool Roof may be required for non-residential buildings per Title 24, Part 6, Section 149(b).. Issued. 24727 S SEAGROVE AVE","address":"24731 Seagrove Avenue, CA, Wilmington, 90744, US","ct":"2941.10","ev":"N","apc":"Harbor","cpa":"Wilmington - Harbor City","zone":"R1-1XL-O-CUGU","solar":"N","pin_nbr":"039B209   235","use_code":"1","geolocation":"POINT (-118.25898 33.80131)","status_date":"10/10/2018","permit_group":"Building","refresh_time":"06/10/2026","type_lat_lon":"ADDRESS","business_unit":"Express Permit"},"geometry":{"type":"Point","coordinates":[-118.25898,33.80131]}},{"type":"Feature","properties":{"date":"2018-04-16T00:00:00.000Z","year":2018,"description":"A NEW ON GRADE 3 STORY COMMERCIAL/RESIDENTIAL MIXED USE BUILDING","metadescription":"Bldg-New. Commercial. A NEW ON GRADE 3 STORY COMMERCIAL/RESIDENTIAL MIXED USE BUILDING. CofO Issued. 16613 S FIGUEROA ST","address":"16613 South Figueroa Street, CA, Gardena, 90248, US","ct":"2912.20","ev":"N","apc":"Harbor","cpa":"Harbor Gateway","zone":"C2-1","solar":"N","height":"42.67","pin_nbr":"066B201   408","use_code":"18","geolocation":"POINT (-118.28295203 33.88022082)","status_date":"11/24/2021","construction":"Type III-A Construction","permit_group":"Building","refresh_time":"06/10/2026","type_lat_lon":"BUILDING","business_unit":"Regular Plan Check","square_footage":"22631"},"geometry":{"type":"Point","coordinates":[-118.28295203,33.88022082]}},{"type":"Feature","properties":{"date":"2018-03-23T00:00:00.000Z","year":2018,"description":"REROOF 7 SQUARES WITH CLASS 'A' OR 'B' MATERIALS WEIGHING LESS THAN 6 POUNDS PER SQ.FT.  TEAR OFF EXISTING ROOFING.  FOR RESIDENTIAL ROOF REPLACEMENT >50% OF THE TOTAL ROOF AREA, APPLY COOL ROOF PRODUCT LABELED AND CERTIFIED BY COOL ROOF COUNCIL (CCRC).  COOL ROOF MAY BE REQUIRED FOR NON-RESIDENTIAL BUILDINGS PER TITLE 24, PART 6, SECTION 149(B).","metadescription":"Bldg-Alter/Repair. 1 or 2 Family Dwelling. REROOF 7 SQUARES WITH CLASS 'A' OR 'B' MATERIALS WEIGHING LESS THAN 6 POUNDS PER SQ.FT.  TEAR OFF EXISTING ROOFING.  FOR RESIDENTIAL ROOF REPLACEMENT >50% OF THE TOTAL ROOF AREA, APPLY COOL ROOF PRODUCT LABELED AND CERTIFIED BY COOL ROOF COUNCIL (CCRC).  COOL ROOF MAY BE REQUIRED FOR NON-RESIDENTIAL BUILDINGS PER TITLE 24, PART 6, SECTION 149(B).. Permit Finaled. 24402 S SEAGROVE AVE","address":"24402 Seagrove Avenue, CA, Wilmington, 90744, US","ct":"2941.10","ev":"N","apc":"Harbor","cpa":"Wilmington - Harbor City","zone":"R1-1XL-O-CUGU","solar":"N","pin_nbr":"039B209    96","use_code":"7","geolocation":"POINT (-118.2578 33.8045)","status_date":"03/29/2018","permit_group":"Building","refresh_time":"06/10/2026","type_lat_lon":"ADDRESS","business_unit":"Express Permit"},"geometry":{"type":"Point","coordinates":[-118.2578,33.8045]}},{"type":"Feature","properties":{"date":"2018-02-12T00:00:00.000Z","year":2018,"description":"KITCHEN AND BATHROOM REMODEL COMBINED WITH ELECTRICAL, PLUMBING AND HVAC (FOR RESIDENTIAL BUILDINGS; NO STRUCTURAL CHANGES).","metadescription":"Bldg-Alter/Repair. 1 or 2 Family Dwelling. KITCHEN AND BATHROOM REMODEL COMBINED WITH ELECTRICAL, PLUMBING AND HVAC (FOR RESIDENTIAL BUILDINGS; NO STRUCTURAL CHANGES).. Permit Finaled. 532 W 168TH ST #1-#2","address":"526 West 168Th Street, CA, Gardena, 90248, US","ct":"2912.20","ev":"N","apc":"Harbor","cpa":"Harbor Gateway","zone":"R1-1","solar":"N","pin_nbr":"066B201    75","use_code":"2","geolocation":"POINT (-118.28364 33.87925)","status_date":"03/14/2018","permit_group":"Building","refresh_time":"06/10/2026","type_lat_lon":"ADDRESS","business_unit":"Express Permit"},"geometry":{"type":"Point","coordinates":[-118.28364,33.87925]}},{"type":"Feature","properties":{"date":"2018-02-12T00:00:00.000Z","year":2018,"description":"KITCHEN AND BATHROOM REMODEL COMBINED WITH ELECTRICAL, PLUMBING AND HVAC (FOR RESIDENTIAL BUILDINGS; NO STRUCTURAL CHANGES).","metadescription":"Bldg-Alter/Repair. 1 or 2 Family Dwelling. KITCHEN AND BATHROOM REMODEL COMBINED WITH ELECTRICAL, PLUMBING AND HVAC (FOR RESIDENTIAL BUILDINGS; NO STRUCTURAL CHANGES).. Permit Finaled. 530 W 168TH ST #1-#2","address":"526 West 168Th Street, CA, Gardena, 90248, US","ct":"2912.20","ev":"N","apc":"Harbor","cpa":"Harbor Gateway","zone":"R1-1","solar":"N","pin_nbr":"066B201    75","use_code":"2","geolocation":"POINT (-118.28363 33.87916)","status_date":"03/14/2018","permit_group":"Building","refresh_time":"06/10/2026","type_lat_lon":"ADDRESS","business_unit":"Express Permit"},"geometry":{"type":"Point","coordinates":[-118.28363,33.87916]}},{"type":"Feature","properties":{"date":"2018-01-25T00:00:00.000Z","year":2018,"description":"Reroof with 20 sqrs COMP SHINGLE roofing. Existing solid sheathing.Re-roof with Class A or B material weighing less than 6 pounds per sq. ft. For residential roof replacement > 50% of the total roof area, apply Cool Roof Product labeled and certified by Cool Roof Rating Council (CRRC). Cool Roof may be required for non-residential buildings per Title 24, Part 6, Section 149(b).","metadescription":"Bldg-Alter/Repair. 1 or 2 Family Dwelling. Reroof with 20 sqrs COMP SHINGLE roofing. Existing solid sheathing.Re-roof with Class A or B material weighing less than 6 pounds per sq. ft. For residential roof replacement > 50% of the total roof area, apply Cool Roof Product labeled and certified by Cool Roof Rating Council (CRRC). Cool Roof may be required for non-residential buildings per Title 24, Part 6, Section 149(b).. Permit Finaled. 530 W 168TH ST 2","address":"526 West 168Th Street, CA, Gardena, 90248, US","ct":"2912.20","ev":"N","apc":"Harbor","cpa":"Harbor Gateway","zone":"R1-1","solar":"N","pin_nbr":"066B201    74","use_code":"1","geolocation":"POINT (-118.28363 33.87916)","status_date":"02/28/2018","permit_group":"Building","refresh_time":"06/10/2026","type_lat_lon":"ADDRESS","business_unit":"Express Permit"},"geometry":{"type":"Point","coordinates":[-118.28363,33.87916]}},{"type":"Feature","properties":{"date":"2018-01-22T00:00:00.000Z","year":2018,"description":"Reroof with 4 sqrs BUILT UP roofing. Existing solid sheathing.Re-roof with Class A or B material weighing less than 6 pounds per sq. ft. For residential roof replacement > 50% of the total roof area, apply Cool Roof Product labeled and certified by Cool Roof Rating Council (CRRC). Cool Roof may be required for non-residential buildings per Title 24, Part 6, Section 149(b).","metadescription":"Bldg-Alter/Repair. 1 or 2 Family Dwelling. Reroof with 4 sqrs BUILT UP roofing. Existing solid sheathing.Re-roof with Class A or B material weighing less than 6 pounds per sq. ft. For residential roof replacement > 50% of the total roof area, apply Cool Roof Product labeled and certified by Cool Roof Rating Council (CRRC). Cool Roof may be required for non-residential buildings per Title 24, Part 6, Section 149(b).. Permit Finaled. 530 W 168TH ST 1-3","address":"526 West 168Th Street, CA, Gardena, 90248, US","ct":"2912.20","ev":"N","apc":"Harbor","cpa":"Harbor Gateway","zone":"R1-1","solar":"N","pin_nbr":"066B201    74","use_code":"7","geolocation":"POINT (-118.28363 33.87916)","status_date":"02/28/2018","permit_group":"Building","refresh_time":"06/10/2026","type_lat_lon":"ADDRESS","business_unit":"Express Permit"},"geometry":{"type":"Point","coordinates":[-118.28363,33.87916]}},{"type":"Feature","properties":{"date":"2018-01-17T00:00:00.000Z","year":2018,"description":"Reroof with 55 sqrs COMP SHINGLE roofing. Existing solid sheathing.Re-roof with Class A or B material weighing less than 6 pounds per sq. ft. For residential roof replacement > 50% of the total roof area, apply Cool Roof Product labeled and certified by Cool Roof Rating Council (CRRC). Cool Roof may be required for non-residential buildings per Title 24, Part 6, Section 149(b).","metadescription":"Bldg-Alter/Repair. 1 or 2 Family Dwelling. Reroof with 55 sqrs COMP SHINGLE roofing. Existing solid sheathing.Re-roof with Class A or B material weighing less than 6 pounds per sq. ft. For residential roof replacement > 50% of the total roof area, apply Cool Roof Product labeled and certified by Cool Roof Rating Council (CRRC). Cool Roof may be required for non-residential buildings per Title 24, Part 6, Section 149(b).. Permit Finaled. 530 W 168TH ST 1-3","address":"526 West 168Th Street, CA, Gardena, 90248, US","ct":"2912.20","ev":"N","apc":"Harbor","cpa":"Harbor Gateway","zone":"R1-1","solar":"N","pin_nbr":"066B201    74","use_code":"2","geolocation":"POINT (-118.28363 33.87916)","status_date":"02/28/2018","permit_group":"Building","refresh_time":"06/10/2026","type_lat_lon":"ADDRESS","business_unit":"Express Permit"},"geometry":{"type":"Point","coordinates":[-118.28363,33.87916]}},{"type":"Feature","properties":{"date":"2018-01-12T00:00:00.000Z","year":2018,"description":"CHANGE OUT 13 WINDOWS (SAME SIZE AND LOCATION), RE-STUCCO ENTIRE BLDG., RESIDENTIAL KITCHEN/BATHROOM REMODEL-COMBINE WITH  ELECTRICAL AND PLUMBING,REROOF 16 SQUARES WITH CLASS 'A' OR 'B'MATERIAL WEIGHING LESS THAN 6 POUNDS PER SQ.FT. TEAR OFF EXISTING ROOFING AND REROOF (SFD AND GAR)FOR RESIDENTIAL ROOF REPLACEMENT >50% OF THE TOTAL ROOF AREA, APPLY COOL ROOF PRODUCT LABELED AND CERTIFIED BY COOL ROOF RATING COUNCIL (CRRC).  COOL ROOF MAY BE REQUIRED FOR NON-REESIDENTIAL BUILDINGS PER TITLE 24, PART 6, SECTION 149(b).","metadescription":"Bldg-Alter/Repair. 1 or 2 Family Dwelling. CHANGE OUT 13 WINDOWS (SAME SIZE AND LOCATION), RE-STUCCO ENTIRE BLDG., RESIDENTIAL KITCHEN/BATHROOM REMODEL-COMBINE WITH  ELECTRICAL AND PLUMBING,REROOF 16 SQUARES WITH CLASS 'A' OR 'B'MATERIAL WEIGHING LESS THAN 6 POUNDS PER SQ.FT. TEAR OFF EXISTING ROOFING AND REROOF (SFD AND GAR)FOR RESIDENTIAL ROOF REPLACEMENT >50% OF THE TOTAL ROOF AREA, APPLY COOL ROOF PRODUCT LABELED AND CERTIFIED BY COOL ROOF RATING COUNCIL (CRRC).  COOL ROOF MAY BE REQUIRED FOR NON-REESIDENTIAL BUILDINGS PER TITLE 24, PART 6, SECTION 149(b).. Permit Finaled. 24462 S SEAGROVE AVE","address":"24462 Seagrove Avenue, CA, Wilmington, 90744, US","ct":"2941.10","ev":"N","apc":"Harbor","cpa":"Wilmington - Harbor City","zone":"R1-1XL-O-CUGU","solar":"N","pin_nbr":"039B209   176","use_code":"1","geolocation":"POINT (-118.25805 33.80296)","status_date":"11/18/2020","permit_group":"Building","refresh_time":"06/10/2026","type_lat_lon":"ADDRESS","business_unit":"Express Permit"},"geometry":{"type":"Point","coordinates":[-118.25805,33.80296]}},{"type":"Feature","properties":{"date":"2017-12-27T00:00:00.000Z","year":2017,"description":"RE-ROOF 23 SQUARES WITH CLASS A OR B MATERIAL WEIGHING LESS THAN 6 POUNDS PER. SQ FT. FOR RESIDENTIAL ROOF REPLACEMENT > 50% OF THE TOTAL ROOF AREA, APPLY COOL ROOF PRODUCT LABELED AND CERTIFIED BY COOL ROOF COUNCIL (CCRC). TEAR OFF EXISTING ROOFING. WORK BEING DONE ON HOUSE AND DETACHED GARAGE.","metadescription":"Bldg-Alter/Repair. 1 or 2 Family Dwelling. RE-ROOF 23 SQUARES WITH CLASS A OR B MATERIAL WEIGHING LESS THAN 6 POUNDS PER. SQ FT. FOR RESIDENTIAL ROOF REPLACEMENT > 50% OF THE TOTAL ROOF AREA, APPLY COOL ROOF PRODUCT LABELED AND CERTIFIED BY COOL ROOF COUNCIL (CCRC). TEAR OFF EXISTING ROOFING. WORK BEING DONE ON HOUSE AND DETACHED GARAGE.. Permit Finaled. 24468 S SEAGROVE AVE","address":"24468 Seagrove Avenue, CA, Wilmington, 90744, US","ct":"2941.10","ev":"N","apc":"Harbor","cpa":"Wilmington - Harbor City","zone":"R1-1XL-O-CUGU","solar":"N","pin_nbr":"039B209   179","use_code":"1","geolocation":"POINT (-118.25814 33.80286)","status_date":"01/11/2018","permit_group":"Building","refresh_time":"06/10/2026","type_lat_lon":"ADDRESS","business_unit":"Express Permit"},"geometry":{"type":"Point","coordinates":[-118.25814,33.80286]}},{"type":"Feature","properties":{"date":"2017-12-21T00:00:00.000Z","year":2017,"description":"RE-ROOF 28  SQUARES WITH CLASS A OR B MATERIAL WEIGHING LESS THAN 6 POUNDS PER. SQ FT. FOR RESIDENTIAL ROOF REPLACEMENT > 50% OF THE TOTAL ROOF AREA, APPLY COOL ROOF PRODUCT LABELED AND CERTIFIED BY COOL ROOF COUNCIL (CCRC). TEAR OFF EXISTING ROOFING. FIBERGLASS OR ASPHALR SHINGLES (MAX 2 OVERLAYS TOTAL).","metadescription":"Bldg-Alter/Repair. Apartment. RE-ROOF 28  SQUARES WITH CLASS A OR B MATERIAL WEIGHING LESS THAN 6 POUNDS PER. SQ FT. FOR RESIDENTIAL ROOF REPLACEMENT > 50% OF THE TOTAL ROOF AREA, APPLY COOL ROOF PRODUCT LABELED AND CERTIFIED BY COOL ROOF COUNCIL (CCRC). TEAR OFF EXISTING ROOFING. FIBERGLASS OR ASPHALR SHINGLES (MAX 2 OVERLAYS TOTAL).. Permit Finaled. 16708 S DENVER AVE","address":"16708 South Denver Avenue, CA, Gardena, 90248, US","ct":"2912.20","ev":"N","apc":"Harbor","cpa":"Harbor Gateway","zone":"R3-1","solar":"N","pin_nbr":"066B201    36","use_code":"5","geolocation":"POINT (-118.28361 33.87998)","status_date":"01/09/2018","permit_group":"Building","refresh_time":"06/10/2026","type_lat_lon":"ADDRESS","business_unit":"Express Permit"},"geometry":{"type":"Point","coordinates":[-118.28361,33.87998]}},{"type":"Feature","properties":{"date":"2017-11-21T00:00:00.000Z","year":2017,"description":"Reroof with 25 sqrs COMP SHINGLE roofing over new solid sheathing.Re-roof with Class A or B material weighing less than 6 pounds per sq. ft. For residential roof replacement > 50% of the total roof area, apply Cool Roof Product labeled and certified by Cool Roof Rating Council (CRRC). Cool Roof may be required for non-residential buildings per Title 24, Part 6, Section 149(b).","metadescription":"Bldg-Alter/Repair. 1 or 2 Family Dwelling. Reroof with 25 sqrs COMP SHINGLE roofing over new solid sheathing.Re-roof with Class A or B material weighing less than 6 pounds per sq. ft. For residential roof replacement > 50% of the total roof area, apply Cool Roof Product labeled and certified by Cool Roof Rating Council (CRRC). Cool Roof may be required for non-residential buildings per Title 24, Part 6, Section 149(b).. Permit Finaled. 894 E OCEANSIDE ST","address":"24468 Seagrove Avenue, CA, Wilmington, 90744, US","ct":"2941.10","ev":"N","apc":"Harbor","cpa":"Wilmington - Harbor City","zone":"R1-1XL-O-CUGU","solar":"N","pin_nbr":"039B209   181","use_code":"1","geolocation":"POINT (-118.25826 33.80282)","status_date":"05/22/2018","permit_group":"Building","refresh_time":"06/10/2026","type_lat_lon":"ADDRESS","business_unit":"Express Permit"},"geometry":{"type":"Point","coordinates":[-118.25826,33.80282]}},{"type":"Feature","properties":{"date":"2017-11-11T00:00:00.000Z","year":2017,"description":"Reroof with 27 sqrs COMP SHINGLE roofing. Existing solid sheathing.Re-roof with Class A or B material weighing less than 6 pounds per sq. ft. For residential roof replacement > 50% of the total roof area, apply Cool Roof Product labeled and certified by Cool Roof Rating Council (CRRC). Cool Roof may be required for non-residential buildings per Title 24, Part 6, Section 149(b).","metadescription":"Bldg-Alter/Repair. 1 or 2 Family Dwelling. Reroof with 27 sqrs COMP SHINGLE roofing. Existing solid sheathing.Re-roof with Class A or B material weighing less than 6 pounds per sq. ft. For residential roof replacement > 50% of the total roof area, apply Cool Roof Product labeled and certified by Cool Roof Rating Council (CRRC). Cool Roof may be required for non-residential buildings per Title 24, Part 6, Section 149(b).. Permit Finaled. 16315 S DENVER AVE","address":"16311 South Denver Avenue, CA, Gardena, 90248, US","ct":"2912.10","ev":"N","apc":"Harbor","cpa":"Harbor Gateway","zone":"R1-1","solar":"N","pin_nbr":"069B201   322","use_code":"1","geolocation":"POINT (-118.28409 33.88333)","status_date":"11/20/2017","permit_group":"Building","refresh_time":"06/10/2026","type_lat_lon":"ADDRESS","business_unit":"Express Permit"},"geometry":{"type":"Point","coordinates":[-118.28409,33.88333]}},{"type":"Feature","properties":{"date":"2017-10-03T00:00:00.000Z","year":2017,"description":"Reroof with 25 sqrs BUILT UP roofing. Existing solid sheathing.Re-roof with Class A or B material weighing less than 6 pounds per sq. ft. For residential roof replacement > 50% of the total roof area, apply Cool Roof Product labeled and certified by Cool Roof Rating Council (CRRC). Cool Roof may be required for non-residential buildings per Title 24, Part 6, Section 149(b).","metadescription":"Bldg-Alter/Repair. 1 or 2 Family Dwelling. Reroof with 25 sqrs BUILT UP roofing. Existing solid sheathing.Re-roof with Class A or B material weighing less than 6 pounds per sq. ft. For residential roof replacement > 50% of the total roof area, apply Cool Roof Product labeled and certified by Cool Roof Rating Council (CRRC). Cool Roof may be required for non-residential buildings per Title 24, Part 6, Section 149(b).. Permit Finaled. 16931 S DENVER AVE","address":"16931 South Denver Avenue, CA, Gardena, 90248, US","ct":"2912.20","ev":"N","apc":"Harbor","cpa":"Harbor Gateway","zone":"R1-1","solar":"N","pin_nbr":"066B201   117","use_code":"1","geolocation":"POINT (-118.28377 33.87842)","status_date":"10/16/2017","permit_group":"Building","refresh_time":"06/10/2026","type_lat_lon":"ADDRESS","business_unit":"Express Permit"},"geometry":{"type":"Point","coordinates":[-118.28377,33.87842]}},{"type":"Feature","properties":{"date":"2017-09-05T00:00:00.000Z","year":2017,"description":"Reroof with 33 sqrs COMP SHINGLE roofing over new solid sheathing.Re-roof with Class A or B material weighing less than 6 pounds per sq. ft. For residential roof replacement > 50% of the total roof area, apply Cool Roof Product labeled and certified by Cool Roof Rating Council (CRRC). Cool Roof may be required for non-residential buildings per Title 24, Part 6, Section 149(b).","metadescription":"Bldg-Alter/Repair. Apartment. Reroof with 33 sqrs COMP SHINGLE roofing over new solid sheathing.Re-roof with Class A or B material weighing less than 6 pounds per sq. ft. For residential roof replacement > 50% of the total roof area, apply Cool Roof Product labeled and certified by Cool Roof Rating Council (CRRC). Cool Roof may be required for non-residential buildings per Title 24, Part 6, Section 149(b).. Permit Finaled. 16511 S DENVER AVE","address":"16511 South Denver Avenue, CA, Gardena, 90248, US","ct":"2912.20","ev":"N","apc":"Harbor","cpa":"Harbor Gateway","zone":"R3-1","solar":"N","pin_nbr":"069B201   351","use_code":"5","geolocation":"POINT (-118.28386 33.88139)","status_date":"09/14/2017","permit_group":"Building","refresh_time":"06/10/2026","type_lat_lon":"ADDRESS","business_unit":"Express Permit"},"geometry":{"type":"Point","coordinates":[-118.28386,33.88139]}},{"type":"Feature","properties":{"date":"2017-08-31T00:00:00.000Z","year":2017,"description":"Re-roof with Class A or B roof covering material weighing less than 6 pounds per sq. ft. over existing solid sheathing  30 Squares. Class A roof covering is required within Very High Fire Hazard Severity Zone (VHFHSZ). For residential roof replacement > 50% of the total roof area, apply Cool Roof Product labeled and certified by Cool Roof Rating Council (CRRC). Cool Roof may be required for non-residential buildings per Title 24, Part 6, Section 149(b).  (Replace plywood as needed)","metadescription":"Bldg-Alter/Repair. Apartment. Re-roof with Class A or B roof covering material weighing less than 6 pounds per sq. ft. over existing solid sheathing  30 Squares. Class A roof covering is required within Very High Fire Hazard Severity Zone (VHFHSZ). For residential roof replacement > 50% of the total roof area, apply Cool Roof Product labeled and certified by Cool Roof Rating Council (CRRC). Cool Roof may be required for non-residential buildings per Title 24, Part 6, Section 149(b).  (Replace plywood as needed). Permit Finaled. 16609 S DENVER AVE","address":"16609 South Denver Avenue, CA, Gardena, 90248, US","ct":"2912.20","ev":"N","apc":"Harbor","cpa":"Harbor Gateway","zone":"R3-1","solar":"N","pin_nbr":"066B201    16","use_code":"5","geolocation":"POINT (-118.28384 33.88056)","status_date":"03/30/2023","permit_group":"Building","refresh_time":"06/10/2026","type_lat_lon":"ADDRESS","business_unit":"Express Permit"},"geometry":{"type":"Point","coordinates":[-118.28384,33.88056]}},{"type":"Feature","properties":{"date":"2017-01-05T00:00:00.000Z","year":2017,"description":"BATHROOM REMODEL COMBINED WITH  PLUMBING, AND HVAC FOR RESIDENTIAL BUILDINGS (NO STRUCTURAL CHANGES).","metadescription":"Bldg-Alter/Repair. 1 or 2 Family Dwelling. BATHROOM REMODEL COMBINED WITH  PLUMBING, AND HVAC FOR RESIDENTIAL BUILDINGS (NO STRUCTURAL CHANGES).. Permit Finaled. 507 W 169TH ST","address":"503 West 169Th Street, CA, Gardena, 90248, US","ct":"2912.20","ev":"N","apc":"Harbor","cpa":"Harbor Gateway","zone":"R1-1","solar":"N","pin_nbr":"066B201    99","use_code":"1","geolocation":"POINT (-118.28279 33.87866)","status_date":"01/27/2017","permit_group":"Building","refresh_time":"06/10/2026","type_lat_lon":"ADDRESS","business_unit":"Express Permit"},"geometry":{"type":"Point","coordinates":[-118.28279,33.87866]}},{"type":"Feature","properties":{"date":"2016-06-29T00:00:00.000Z","year":2016,"description":"Bathroom (1) remodel for residential buildings (no structural changes).","metadescription":"Bldg-Alter/Repair. Apartment. Bathroom (1) remodel for residential buildings (no structural changes).. Permit Finaled. 515 W GARDENA BLVD #50","address":"1-90, 515 West Gardena Boulevard, CA, Gardena, 90248, US","ct":"2912.10","ev":"N","apc":"Harbor","cpa":"Harbor Gateway","zone":"R3-1","solar":"N","pin_nbr":"069B201   305","use_code":"35","geolocation":"POINT (-118.2833 33.88199)","status_date":"07/27/2016","permit_group":"Building","refresh_time":"06/10/2026","type_lat_lon":"ADDRESS","business_unit":"Express Permit"},"geometry":{"type":"Point","coordinates":[-118.2833,33.88199]}},{"type":"Feature","properties":{"date":"2015-03-19T00:00:00.000Z","year":2015,"description":"REROOF 32 SQUARES WITH CLASS 'A' OR 'B' ROOFING MATERIALS WEIGHING LESS THAN 6 POUNDS PER SQ.FT.  TEAR OFF EXISTING ROOFING AND INSTALL FIBERGLASS OR ASPH. SHINGLES.  FOR RESIDENTIAL ROOF REPLACEMENT >50% OF THE TOTAL ROOF AREA, APPLY COOL ROOF PRODUCT LABELED AND CERTIFIED BY COOL ROOF RATING COUNCIL CRRC.  COOL ROOF MAY BE REQUIRED FOR NON-RESIDENTIAL BUILDINGS PER TITLE 24, PART 6, SECTION 149(b)","metadescription":"Bldg-Alter/Repair. Apartment. REROOF 32 SQUARES WITH CLASS 'A' OR 'B' ROOFING MATERIALS WEIGHING LESS THAN 6 POUNDS PER SQ.FT.  TEAR OFF EXISTING ROOFING AND INSTALL FIBERGLASS OR ASPH. SHINGLES.  FOR RESIDENTIAL ROOF REPLACEMENT >50% OF THE TOTAL ROOF AREA, APPLY COOL ROOF PRODUCT LABELED AND CERTIFIED BY COOL ROOF RATING COUNCIL CRRC.  COOL ROOF MAY BE REQUIRED FOR NON-RESIDENTIAL BUILDINGS PER TITLE 24, PART 6, SECTION 149(b). Permit Finaled. 16531 S DENVER AVE","address":"16531 South Denver Avenue, CA, Gardena, 90248, US","ct":"2912.20","ev":"N","apc":"Harbor","cpa":"Harbor Gateway","zone":"R3-1","solar":"N","pin_nbr":"069B201   369","use_code":"5","geolocation":"POINT (-118.28384 33.88107)","status_date":"05/28/2015","permit_group":"Building","refresh_time":"06/10/2026","type_lat_lon":"ADDRESS","business_unit":"Express Permit"},"geometry":{"type":"Point","coordinates":[-118.28384,33.88107]}},{"type":"Feature","properties":{"date":"2014-06-11T00:00:00.000Z","year":2014,"description":"Change out 11 Windows and 6 Doors (Same size & type for residential buildings only). Kitchen & Bathroom remodel (For residential buildings; no structural changes). Combine with Electrical, Plumbing, & HVAC. Re-stucco; Replace drywall (no new walls added) Specific location: Entire House & Garage. Tear Off Existing Roofing. Re-roof 10 squares w/class 'A' or 'B' materials weighing less than 6 pounds per sq. ft. Install Fiberglass or Asphalt Shingles (max. 2 overlays).","metadescription":"Bldg-Alter/Repair. 1 or 2 Family Dwelling. Change out 11 Windows and 6 Doors (Same size & type for residential buildings only). Kitchen & Bathroom remodel (For residential buildings; no structural changes). Combine with Electrical, Plumbing, & HVAC. Re-stucco; Replace drywall (no new walls added) Specific location: Entire House & Garage. Tear Off Existing Roofing. Re-roof 10 squares w/class 'A' or 'B' materials weighing less than 6 pounds per sq. ft. Install Fiberglass or Asphalt Shingles (max. 2 overlays).. Permit Finaled. 24412 S SEAGROVE AVE","address":"24416 Seagrove Avenue, CA, Wilmington, 90744, US","ct":"2941.10","ev":"N","apc":"Harbor","cpa":"Wilmington - Harbor City","zone":"R1-1XL-O","solar":"N","pin_nbr":"039B209   114","use_code":"1","geolocation":"POINT (-118.25781 33.80423)","status_date":"09/16/2014","permit_group":"Building","refresh_time":"06/10/2026","type_lat_lon":"ADDRESS","business_unit":"Express Permit"},"geometry":{"type":"Point","coordinates":[-118.25781,33.80423]}},{"type":"Feature","properties":{"date":"2013-05-17T00:00:00.000Z","year":2013,"description":"KITCHEN & BATHROOM REMODEL (FOR RESIDENTIAL BUILDINGS; NO STRUCTURAL CHANGES) COMBINE WITH ELECTRICAL & PLUMBING. COMPLY WITH DEPARTMENT ORDER EFFECTIVE DATE 12/25/2012. PERMIT WILL EXPIRE 30 DAYS FROM ISSUANCE DATE. ALL PERMITS SHALL BE FOR THE SAME TIME PERIOD LIMITATION.","metadescription":"Bldg-Alter/Repair. 1 or 2 Family Dwelling. KITCHEN & BATHROOM REMODEL (FOR RESIDENTIAL BUILDINGS; NO STRUCTURAL CHANGES) COMBINE WITH ELECTRICAL & PLUMBING. COMPLY WITH DEPARTMENT ORDER EFFECTIVE DATE 12/25/2012. PERMIT WILL EXPIRE 30 DAYS FROM ISSUANCE DATE. ALL PERMITS SHALL BE FOR THE SAME TIME PERIOD LIMITATION.. Permit Finaled. 24426 S SEAGROVE AVE","address":"24432 Seagrove Avenue, CA, Wilmington, 90744, US","ct":"2941.10","ev":"N","apc":"Harbor","cpa":"Wilmington - Harbor City","zone":"R1-1XL-O","solar":"N","pin_nbr":"039B209   137","use_code":"1","geolocation":"POINT (-118.25783 33.80382)","status_date":"08/05/2013","permit_group":"Building","refresh_time":"06/10/2026","type_lat_lon":"ADDRESS","business_unit":"Express Permit"},"geometry":{"type":"Point","coordinates":[-118.25783,33.80382]}},{"type":"Feature","properties":{"date":"2012-08-02T00:00:00.000Z","year":2012,"description":"CHANGE OUT 11-WINDOWS (SAME SIZE AND TYPE FOR RESIDENTIAL BUILDINGS ONLY), RESTUCCO AS NEEDED AROUND WINDOWS.","metadescription":"Bldg-Alter/Repair. 1 or 2 Family Dwelling. CHANGE OUT 11-WINDOWS (SAME SIZE AND TYPE FOR RESIDENTIAL BUILDINGS ONLY), RESTUCCO AS NEEDED AROUND WINDOWS.. Permit Finaled. 24401 S AVALON BLVD","address":"24407 South Avalon Boulevard, CA, Wilmington, 90744, US","ct":"2941.10","ev":"N","apc":"Harbor","cpa":"Wilmington - Harbor City","zone":"[Q]RD1.5-1XL-O","solar":"N","pin_nbr":"039B205   156","use_code":"1","geolocation":"POINT (-118.26413 33.80448)","status_date":"02/11/2013","permit_group":"Building","refresh_time":"06/10/2026","type_lat_lon":"ADDRESS","business_unit":"Express Permit"},"geometry":{"type":"Point","coordinates":[-118.26413,33.80448]}},{"type":"Feature","properties":{"date":"2012-08-02T00:00:00.000Z","year":2012,"description":"CHANGE OUT 8-WINDOWS (SAME SIZE AND TYPE FOR RESIDENTIAL BUILDINGS ONLY)NEW STUCCO-ALL EXTERIOR, KITCHEN AND BATHROOM REMODEL(FOR RESIDENTIAL BILDINGS:  NO STRUCTURAL CHANGES) COMBINE WITH ELECTRICAL AND PLUMBING.","metadescription":"Bldg-Alter/Repair. 1 or 2 Family Dwelling. CHANGE OUT 8-WINDOWS (SAME SIZE AND TYPE FOR RESIDENTIAL BUILDINGS ONLY)NEW STUCCO-ALL EXTERIOR, KITCHEN AND BATHROOM REMODEL(FOR RESIDENTIAL BILDINGS:  NO STRUCTURAL CHANGES) COMBINE WITH ELECTRICAL AND PLUMBING.. Permit Finaled. 24403 S AVALON BLVD","address":"24407 South Avalon Boulevard, CA, Wilmington, 90744, US","ct":"2941.10","ev":"N","apc":"Harbor","cpa":"Wilmington - Harbor City","zone":"[Q]RD1.5-1XL-O","solar":"N","pin_nbr":"039B205   165","use_code":"1","geolocation":"POINT (-118.26413 33.80444)","status_date":"02/11/2013","permit_group":"Building","refresh_time":"06/10/2026","type_lat_lon":"ADDRESS","business_unit":"Express Permit"},"geometry":{"type":"Point","coordinates":[-118.26413,33.80444]}},{"type":"Feature","properties":{"date":"2008-08-04T00:00:00.000Z","year":2008,"description":"New drywall Specific location: storage room.  Change out 2 Windows and repair 1 Door (Same size & type for residential buildings only).  Termite damage/dry rot repair less than 10% of replacement cost building.  Replace damaged framing members (less than 10% of replacement cost of building) for houses and duplexes (not including decks).","metadescription":"Bldg-Alter/Repair. 1 or 2 Family Dwelling. New drywall Specific location: storage room.  Change out 2 Windows and repair 1 Door (Same size & type for residential buildings only).  Termite damage/dry rot repair less than 10% of replacement cost building.  Replace damaged framing members (less than 10% of replacement cost of building) for houses and duplexes (not including decks).. Issued. 24436 S SEAGROVE AVE","address":"24436 Seagrove Avenue, CA, Wilmington, 90744, US","ct":"2941.10","ev":"N","apc":"Harbor","cpa":"Wilmington - Harbor City","zone":"R1-1XL-O","solar":"N","pin_nbr":"039B209   150","use_code":"1","geolocation":"POINT (-118.25791 33.80356)","status_date":"08/04/2008","permit_group":"Building","refresh_time":"06/10/2026","type_lat_lon":"ADDRESS","business_unit":"Express Permit"},"geometry":{"type":"Point","coordinates":[-118.25791,33.80356]}}]}
