{"type":"FeatureCollection","features":[{"type":"Feature","properties":{"date":"2025-07-25T00:00:00.000Z","year":2025,"description":"Construct new 5,250 sf pre-engineered metal terminal building. Re-pave and re-stripe parking lot. Provide and install rooftop solar array. Provide foundation and provisions for future diesel generator. Provide and install electric vehicle chargers.","metadescription":"Bldg-New. Commercial. Construct new 5,250 sf pre-engineered metal terminal building. Re-pave and re-stripe parking lot. Provide and install rooftop solar array. Provide foundation and provisions for future diesel generator. Provide and install electric vehicle chargers.. Verifications in Progress. 1302 E LOMITA BLVD","address":"1310 East Lomita Boulevard, CA, Wilmington, 90744, US","ct":"2941.20","ev":"Y","apc":"Harbor","cpa":"Wilmington - Harbor City","zone":"[Q]M3-1VL-CUGU, [Q]MR2-1VL-CUGU","solar":"N","pin_nbr":"036B209     9","status_date":"10/21/2025","permit_group":"Building","refresh_time":"06/10/2026","type_lat_lon":"ADDRESS","business_unit":"Regular Plan Check"},"geometry":{"type":"Point","coordinates":[-118.25288,33.79968]}},{"type":"Feature","properties":{"date":"2024-11-12T00:00:00.000Z","year":2024,"description":"EPLAN: FIRE DAMAGE REPAIR TO PORITON OF (E) SFD, ROOF FRAMING REPAIR AND INTERIOR REMODEL (DOOR AND WINDOW CHANGE OUT SAME SIZE AND TYPE).","metadescription":"Bldg-Alter/Repair. 1 or 2 Family Dwelling. EPLAN: FIRE DAMAGE REPAIR TO PORITON OF (E) SFD, ROOF FRAMING REPAIR AND INTERIOR REMODEL (DOOR AND WINDOW CHANGE OUT SAME SIZE AND TYPE).. Permit Finaled. 24405 S LAKME AVE","address":"24405 South Lakme Avenue, CA, Wilmington, 90744, US","ct":"2941.10","ev":"N","apc":"Harbor","cpa":"Wilmington - Harbor City","zone":"R1-1XL-O-CUGU","solar":"N","pin_nbr":"039B205   164","use_code":"1","status_date":"05/02/2025","permit_group":"Building","refresh_time":"06/10/2026","type_lat_lon":"ADDRESS","business_unit":"Expanded Counter Plan Check"},"geometry":{"type":"Point","coordinates":[-118.2613,33.80445]}},{"type":"Feature","properties":{"date":"2022-10-12T00:00:00.000Z","year":2022,"description":"SUPPLEMENTAL PERMIT TO 21016-10000-29135 FOR STRUCTURAL REVISIONS TO INCLUDE COLUMN FOOTING REVISIONS AND ADDITIONAL PARTIAL ROOF FRAMING REINFORCEMENT FOR NEW EQUIPMENT. NO CHANGE TO THE PLOT PLAN","metadescription":"Bldg-Alter/Repair. Commercial. SUPPLEMENTAL PERMIT TO 21016-10000-29135 FOR STRUCTURAL REVISIONS TO INCLUDE COLUMN FOOTING REVISIONS AND ADDITIONAL PARTIAL ROOF FRAMING REINFORCEMENT FOR NEW EQUIPMENT. NO CHANGE TO THE PLOT PLAN. Permit Finaled. 19901 S HAMILTON AVE","address":"19840 Hamilton Avenue, CA, Torrance, 90502, US","ct":"2920.00","ev":"N","apc":"Harbor","cpa":"Harbor Gateway","zone":"M3-1","solar":"N","pin_nbr":"057B197    84","use_code":"16","status_date":"07/19/2024","permit_group":"Building","refresh_time":"06/10/2026","type_lat_lon":"ADDRESS","business_unit":"Regular Plan Check"},"geometry":{"type":"Point","coordinates":[-118.28625,33.84991]}},{"type":"Feature","properties":{"date":"2022-02-18T00:00:00.000Z","year":2022,"description":"INSTALLATION OF VERIZON WIRELESS TELECOMMUNICATION FACILITY PER ZA-2016-5163-CUW- (12) PANEL ANTENNAS, (12) REMOTE RADIO UNITS ON ROOF BEHIND FRP SCREEN WALL - EQUIPMENT CABINET & BACK-UP GENERATOR @ LEASE AREA ON ROOF","metadescription":"Bldg-Alter/Repair. Commercial. INSTALLATION OF VERIZON WIRELESS TELECOMMUNICATION FACILITY PER ZA-2016-5163-CUW- (12) PANEL ANTENNAS, (12) REMOTE RADIO UNITS ON ROOF BEHIND FRP SCREEN WALL - EQUIPMENT CABINET & BACK-UP GENERATOR @ LEASE AREA ON ROOF. Permit Finaled. 20101 S HAMILTON AVE","address":"20220 Hamilton Avenue, CA, Torrance, 90502, US","ct":"2920.00","ev":"N","apc":"Harbor","cpa":"Harbor Gateway","zone":"M3-1","solar":"N","pin_nbr":"057B197    85","use_code":"15","status_date":"11/07/2022","permit_group":"Building","refresh_time":"06/10/2026","type_lat_lon":"ADDRESS","business_unit":"Regular Plan Check"},"geometry":{"type":"Point","coordinates":[-118.28637,33.84769]}},{"type":"Feature","properties":{"date":"2021-11-08T00:00:00.000Z","year":2021,"description":"PROPOSED FIRE DAMAGE REPAIR WITHIN EX KITCHEN/FOOD PREP AREA. REMODEL EX ONE UNISEX RESTRM FOR HANDICAP ACCESSIBILITY COMPLIANCE. ENLARGE EXISTING EXTERIOR OPENING FOR NEW DOOR. ONE NEW ROOF TOP EQUIPMENT. AND RESTRIPING OF PARKING STALLS. SEE COMMENTS.","metadescription":"Bldg-Alter/Repair. Commercial. PROPOSED FIRE DAMAGE REPAIR WITHIN EX KITCHEN/FOOD PREP AREA. REMODEL EX ONE UNISEX RESTRM FOR HANDICAP ACCESSIBILITY COMPLIANCE. ENLARGE EXISTING EXTERIOR OPENING FOR NEW DOOR. ONE NEW ROOF TOP EQUIPMENT. AND RESTRIPING OF PARKING STALLS. SEE COMMENTS.. CofO Issued. 16717 S FIGUEROA ST","address":"16717 South Figueroa Street, CA, Gardena, 90248, US","ct":"2912.20","ev":"N","apc":"Harbor","cpa":"Harbor Gateway","zone":"C2-1","solar":"N","pin_nbr":"066B201    50","use_code":"17","status_date":"11/17/2022","construction":"Type V-B Construction","permit_group":"Building","refresh_time":"06/10/2026","type_lat_lon":"ADDRESS","business_unit":"Regular Plan Check","square_footage":"0"},"geometry":{"type":"Point","coordinates":[-118.2827,33.87973]}},{"type":"Feature","properties":{"date":"2019-08-07T00:00:00.000Z","year":2019,"description":"Reroof with 19 sqrs COMP SHINGLE roofing over new solid sheathing.Re-roof with Class A or B material weighing less than 6 pounds per sq. ft. For residential roof replacement > 50% of the total roof area, apply Cool Roof Product labeled and certified by Cool Roof Rating Council (CRRC). Cool Roof may be required for non-residential buildings per Title 24, Part 6, Section 149(b).","metadescription":"Bldg-Alter/Repair. 1 or 2 Family Dwelling. Reroof with 19 sqrs COMP SHINGLE roofing over new solid sheathing.Re-roof with Class A or B material weighing less than 6 pounds per sq. ft. For residential roof replacement > 50% of the total roof area, apply Cool Roof Product labeled and certified by Cool Roof Rating Council (CRRC). Cool Roof may be required for non-residential buildings per Title 24, Part 6, Section 149(b).. Issued. 24419 S SEAGROVE AVE","address":"24419 Seagrove Avenue, CA, Wilmington, 90744, US","ct":"2941.10","ev":"N","apc":"Harbor","cpa":"Wilmington - Harbor City","zone":"R1-1XL-O-CUGU","solar":"N","pin_nbr":"039B209   123","use_code":"7","geolocation":"POINT (-118.25806 33.80409)","status_date":"08/07/2019","permit_group":"Building","refresh_time":"06/10/2026","type_lat_lon":"ADDRESS","business_unit":"Express Permit"},"geometry":{"type":"Point","coordinates":[-118.25806,33.80409]}},{"type":"Feature","properties":{"date":"2019-07-24T00:00:00.000Z","year":2019,"description":"Re-roof with class A or B material weighing less than 6 pounds per sq. Ft. Over existing solid sheathing 23 squares. Class a roof covering is required within very high fire hazard severity zone (VHFHSZ). For residential roof replacement > 50% of the total roof area, apply cool roof product labeled and certified by cool roof rating council (CRRC). Cool roof may be required for non-residential buildings per title 24, part 6, section 141.0 (b) 2b. Tear Off Existing Roofing. Replace Existing Tile Roof w/Tile of Same Weight or Less","metadescription":"Bldg-Alter/Repair. 1 or 2 Family Dwelling. Re-roof with class A or B material weighing less than 6 pounds per sq. Ft. Over existing solid sheathing 23 squares. Class a roof covering is required within very high fire hazard severity zone (VHFHSZ). For residential roof replacement > 50% of the total roof area, apply cool roof product labeled and certified by cool roof rating council (CRRC). Cool roof may be required for non-residential buildings per title 24, part 6, section 141.0 (b) 2b. Tear Off Existing Roofing. Replace Existing Tile Roof w/Tile of Same Weight or Less. Issued. 24447 S SEAGROVE AVE","address":"24447 Seagrove Avenue, CA, Wilmington, 90744, US","ct":"2941.10","ev":"N","apc":"Harbor","cpa":"Wilmington - Harbor City","zone":"R1-1XL-O-CUGU","solar":"N","pin_nbr":"039B209   154","use_code":"1","geolocation":"POINT (-118.25824 33.80336)","status_date":"07/24/2019","permit_group":"Building","refresh_time":"06/10/2026","type_lat_lon":"ADDRESS","business_unit":"Express Permit"},"geometry":{"type":"Point","coordinates":[-118.25824,33.80336]}},{"type":"Feature","properties":{"date":"2018-11-06T00:00:00.000Z","year":2018,"description":"Reroof with 19 sqrs COMP SHINGLE roofing. Existing solid sheathing.Re-roof with Class A or B material weighing less than 6 pounds per sq. ft. For residential roof replacement > 50% of the total roof area, apply Cool Roof Product labeled and certified by Cool Roof Rating Council (CRRC). Cool Roof may be required for non-residential buildings per Title 24, Part 6, Section 149(b).","metadescription":"Bldg-Alter/Repair. 1 or 2 Family Dwelling. Reroof with 19 sqrs COMP SHINGLE roofing. Existing solid sheathing.Re-roof with Class A or B material weighing less than 6 pounds per sq. ft. For residential roof replacement > 50% of the total roof area, apply Cool Roof Product labeled and certified by Cool Roof Rating Council (CRRC). Cool Roof may be required for non-residential buildings per Title 24, Part 6, Section 149(b).. Issued. 849 E OCEANSIDE ST","address":"849 Oceanside Street, CA, Wilmington, 90744, US","ct":"2941.10","ev":"N","apc":"Harbor","cpa":"Wilmington - Harbor City","zone":"R1-1XL-O-CUGU","solar":"N","pin_nbr":"039B209   135","use_code":"1","geolocation":"POINT (-118.25946 33.80381)","status_date":"11/06/2018","permit_group":"Building","refresh_time":"06/10/2026","type_lat_lon":"ADDRESS","business_unit":"Express Permit"},"geometry":{"type":"Point","coordinates":[-118.25946,33.80381]}},{"type":"Feature","properties":{"date":"2018-10-10T00:00:00.000Z","year":2018,"description":"Reroof with 19 sqrs COMP SHINGLE roofing. Existing solid sheathing.Re-roof with Class A or B material weighing less than 6 pounds per sq. ft. For residential roof replacement > 50% of the total roof area, apply Cool Roof Product labeled and certified by Cool Roof Rating Council (CRRC). Cool Roof may be required for non-residential buildings per Title 24, Part 6, Section 149(b).","metadescription":"Bldg-Alter/Repair. 1 or 2 Family Dwelling. Reroof with 19 sqrs COMP SHINGLE roofing. Existing solid sheathing.Re-roof with Class A or B material weighing less than 6 pounds per sq. ft. For residential roof replacement > 50% of the total roof area, apply Cool Roof Product labeled and certified by Cool Roof Rating Council (CRRC). Cool Roof may be required for non-residential buildings per Title 24, Part 6, Section 149(b).. Issued. 24727 S SEAGROVE AVE","address":"24731 Seagrove Avenue, CA, Wilmington, 90744, US","ct":"2941.10","ev":"N","apc":"Harbor","cpa":"Wilmington - Harbor City","zone":"R1-1XL-O-CUGU","solar":"N","pin_nbr":"039B209   235","use_code":"1","geolocation":"POINT (-118.25898 33.80131)","status_date":"10/10/2018","permit_group":"Building","refresh_time":"06/10/2026","type_lat_lon":"ADDRESS","business_unit":"Express Permit"},"geometry":{"type":"Point","coordinates":[-118.25898,33.80131]}},{"type":"Feature","properties":{"date":"2018-03-23T00:00:00.000Z","year":2018,"description":"REROOF 7 SQUARES WITH CLASS 'A' OR 'B' MATERIALS WEIGHING LESS THAN 6 POUNDS PER SQ.FT.  TEAR OFF EXISTING ROOFING.  FOR RESIDENTIAL ROOF REPLACEMENT >50% OF THE TOTAL ROOF AREA, APPLY COOL ROOF PRODUCT LABELED AND CERTIFIED BY COOL ROOF COUNCIL (CCRC).  COOL ROOF MAY BE REQUIRED FOR NON-RESIDENTIAL BUILDINGS PER TITLE 24, PART 6, SECTION 149(B).","metadescription":"Bldg-Alter/Repair. 1 or 2 Family Dwelling. REROOF 7 SQUARES WITH CLASS 'A' OR 'B' MATERIALS WEIGHING LESS THAN 6 POUNDS PER SQ.FT.  TEAR OFF EXISTING ROOFING.  FOR RESIDENTIAL ROOF REPLACEMENT >50% OF THE TOTAL ROOF AREA, APPLY COOL ROOF PRODUCT LABELED AND CERTIFIED BY COOL ROOF COUNCIL (CCRC).  COOL ROOF MAY BE REQUIRED FOR NON-RESIDENTIAL BUILDINGS PER TITLE 24, PART 6, SECTION 149(B).. Permit Finaled. 24402 S SEAGROVE AVE","address":"24402 Seagrove Avenue, CA, Wilmington, 90744, US","ct":"2941.10","ev":"N","apc":"Harbor","cpa":"Wilmington - Harbor City","zone":"R1-1XL-O-CUGU","solar":"N","pin_nbr":"039B209    96","use_code":"7","geolocation":"POINT (-118.2578 33.8045)","status_date":"03/29/2018","permit_group":"Building","refresh_time":"06/10/2026","type_lat_lon":"ADDRESS","business_unit":"Express Permit"},"geometry":{"type":"Point","coordinates":[-118.2578,33.8045]}},{"type":"Feature","properties":{"date":"2018-03-20T00:00:00.000Z","year":2018,"description":"5-PLATFORMS ON ROOF FOR MECHANICAL EQUIPMENT. REINFORCE EXISTING PURLINS PER ENGINEERING.","metadescription":"Bldg-Alter/Repair. Commercial. 5-PLATFORMS ON ROOF FOR MECHANICAL EQUIPMENT. REINFORCE EXISTING PURLINS PER ENGINEERING.. Permit Finaled. 20101 S HAMILTON AVE","address":"20220 Hamilton Avenue, CA, Torrance, 90502, US","ct":"2920.00","ev":"N","apc":"Harbor","cpa":"Harbor Gateway","zone":"M3-1","solar":"N","pin_nbr":"054B197   127","use_code":"13","geolocation":"POINT (-118.28637 33.84769)","status_date":"04/16/2018","permit_group":"Building","refresh_time":"06/10/2026","type_lat_lon":"ADDRESS","business_unit":"Plan Check at Counter"},"geometry":{"type":"Point","coordinates":[-118.28637,33.84769]}},{"type":"Feature","properties":{"date":"2018-01-25T00:00:00.000Z","year":2018,"description":"Reroof with 20 sqrs COMP SHINGLE roofing. Existing solid sheathing.Re-roof with Class A or B material weighing less than 6 pounds per sq. ft. For residential roof replacement > 50% of the total roof area, apply Cool Roof Product labeled and certified by Cool Roof Rating Council (CRRC). Cool Roof may be required for non-residential buildings per Title 24, Part 6, Section 149(b).","metadescription":"Bldg-Alter/Repair. 1 or 2 Family Dwelling. Reroof with 20 sqrs COMP SHINGLE roofing. Existing solid sheathing.Re-roof with Class A or B material weighing less than 6 pounds per sq. ft. For residential roof replacement > 50% of the total roof area, apply Cool Roof Product labeled and certified by Cool Roof Rating Council (CRRC). Cool Roof may be required for non-residential buildings per Title 24, Part 6, Section 149(b).. Permit Finaled. 530 W 168TH ST 2","address":"526 West 168Th Street, CA, Gardena, 90248, US","ct":"2912.20","ev":"N","apc":"Harbor","cpa":"Harbor Gateway","zone":"R1-1","solar":"N","pin_nbr":"066B201    74","use_code":"1","geolocation":"POINT (-118.28363 33.87916)","status_date":"02/28/2018","permit_group":"Building","refresh_time":"06/10/2026","type_lat_lon":"ADDRESS","business_unit":"Express Permit"},"geometry":{"type":"Point","coordinates":[-118.28363,33.87916]}},{"type":"Feature","properties":{"date":"2018-01-22T00:00:00.000Z","year":2018,"description":"Reroof with 4 sqrs BUILT UP roofing. Existing solid sheathing.Re-roof with Class A or B material weighing less than 6 pounds per sq. ft. For residential roof replacement > 50% of the total roof area, apply Cool Roof Product labeled and certified by Cool Roof Rating Council (CRRC). Cool Roof may be required for non-residential buildings per Title 24, Part 6, Section 149(b).","metadescription":"Bldg-Alter/Repair. 1 or 2 Family Dwelling. Reroof with 4 sqrs BUILT UP roofing. Existing solid sheathing.Re-roof with Class A or B material weighing less than 6 pounds per sq. ft. For residential roof replacement > 50% of the total roof area, apply Cool Roof Product labeled and certified by Cool Roof Rating Council (CRRC). Cool Roof may be required for non-residential buildings per Title 24, Part 6, Section 149(b).. Permit Finaled. 530 W 168TH ST 1-3","address":"526 West 168Th Street, CA, Gardena, 90248, US","ct":"2912.20","ev":"N","apc":"Harbor","cpa":"Harbor Gateway","zone":"R1-1","solar":"N","pin_nbr":"066B201    74","use_code":"7","geolocation":"POINT (-118.28363 33.87916)","status_date":"02/28/2018","permit_group":"Building","refresh_time":"06/10/2026","type_lat_lon":"ADDRESS","business_unit":"Express Permit"},"geometry":{"type":"Point","coordinates":[-118.28363,33.87916]}},{"type":"Feature","properties":{"date":"2018-01-17T00:00:00.000Z","year":2018,"description":"Reroof with 55 sqrs COMP SHINGLE roofing. Existing solid sheathing.Re-roof with Class A or B material weighing less than 6 pounds per sq. ft. For residential roof replacement > 50% of the total roof area, apply Cool Roof Product labeled and certified by Cool Roof Rating Council (CRRC). Cool Roof may be required for non-residential buildings per Title 24, Part 6, Section 149(b).","metadescription":"Bldg-Alter/Repair. 1 or 2 Family Dwelling. Reroof with 55 sqrs COMP SHINGLE roofing. Existing solid sheathing.Re-roof with Class A or B material weighing less than 6 pounds per sq. ft. For residential roof replacement > 50% of the total roof area, apply Cool Roof Product labeled and certified by Cool Roof Rating Council (CRRC). Cool Roof may be required for non-residential buildings per Title 24, Part 6, Section 149(b).. Permit Finaled. 530 W 168TH ST 1-3","address":"526 West 168Th Street, CA, Gardena, 90248, US","ct":"2912.20","ev":"N","apc":"Harbor","cpa":"Harbor Gateway","zone":"R1-1","solar":"N","pin_nbr":"066B201    74","use_code":"2","geolocation":"POINT (-118.28363 33.87916)","status_date":"02/28/2018","permit_group":"Building","refresh_time":"06/10/2026","type_lat_lon":"ADDRESS","business_unit":"Express Permit"},"geometry":{"type":"Point","coordinates":[-118.28363,33.87916]}},{"type":"Feature","properties":{"date":"2018-01-12T00:00:00.000Z","year":2018,"description":"CHANGE OUT 13 WINDOWS (SAME SIZE AND LOCATION), RE-STUCCO ENTIRE BLDG., RESIDENTIAL KITCHEN/BATHROOM REMODEL-COMBINE WITH  ELECTRICAL AND PLUMBING,REROOF 16 SQUARES WITH CLASS 'A' OR 'B'MATERIAL WEIGHING LESS THAN 6 POUNDS PER SQ.FT. TEAR OFF EXISTING ROOFING AND REROOF (SFD AND GAR)FOR RESIDENTIAL ROOF REPLACEMENT >50% OF THE TOTAL ROOF AREA, APPLY COOL ROOF PRODUCT LABELED AND CERTIFIED BY COOL ROOF RATING COUNCIL (CRRC).  COOL ROOF MAY BE REQUIRED FOR NON-REESIDENTIAL BUILDINGS PER TITLE 24, PART 6, SECTION 149(b).","metadescription":"Bldg-Alter/Repair. 1 or 2 Family Dwelling. CHANGE OUT 13 WINDOWS (SAME SIZE AND LOCATION), RE-STUCCO ENTIRE BLDG., RESIDENTIAL KITCHEN/BATHROOM REMODEL-COMBINE WITH  ELECTRICAL AND PLUMBING,REROOF 16 SQUARES WITH CLASS 'A' OR 'B'MATERIAL WEIGHING LESS THAN 6 POUNDS PER SQ.FT. TEAR OFF EXISTING ROOFING AND REROOF (SFD AND GAR)FOR RESIDENTIAL ROOF REPLACEMENT >50% OF THE TOTAL ROOF AREA, APPLY COOL ROOF PRODUCT LABELED AND CERTIFIED BY COOL ROOF RATING COUNCIL (CRRC).  COOL ROOF MAY BE REQUIRED FOR NON-REESIDENTIAL BUILDINGS PER TITLE 24, PART 6, SECTION 149(b).. Permit Finaled. 24462 S SEAGROVE AVE","address":"24462 Seagrove Avenue, CA, Wilmington, 90744, US","ct":"2941.10","ev":"N","apc":"Harbor","cpa":"Wilmington - Harbor City","zone":"R1-1XL-O-CUGU","solar":"N","pin_nbr":"039B209   176","use_code":"1","geolocation":"POINT (-118.25805 33.80296)","status_date":"11/18/2020","permit_group":"Building","refresh_time":"06/10/2026","type_lat_lon":"ADDRESS","business_unit":"Express Permit"},"geometry":{"type":"Point","coordinates":[-118.25805,33.80296]}},{"type":"Feature","properties":{"date":"2017-12-27T00:00:00.000Z","year":2017,"description":"RE-ROOF 23 SQUARES WITH CLASS A OR B MATERIAL WEIGHING LESS THAN 6 POUNDS PER. SQ FT. FOR RESIDENTIAL ROOF REPLACEMENT > 50% OF THE TOTAL ROOF AREA, APPLY COOL ROOF PRODUCT LABELED AND CERTIFIED BY COOL ROOF COUNCIL (CCRC). TEAR OFF EXISTING ROOFING. WORK BEING DONE ON HOUSE AND DETACHED GARAGE.","metadescription":"Bldg-Alter/Repair. 1 or 2 Family Dwelling. RE-ROOF 23 SQUARES WITH CLASS A OR B MATERIAL WEIGHING LESS THAN 6 POUNDS PER. SQ FT. FOR RESIDENTIAL ROOF REPLACEMENT > 50% OF THE TOTAL ROOF AREA, APPLY COOL ROOF PRODUCT LABELED AND CERTIFIED BY COOL ROOF COUNCIL (CCRC). TEAR OFF EXISTING ROOFING. WORK BEING DONE ON HOUSE AND DETACHED GARAGE.. Permit Finaled. 24468 S SEAGROVE AVE","address":"24468 Seagrove Avenue, CA, Wilmington, 90744, US","ct":"2941.10","ev":"N","apc":"Harbor","cpa":"Wilmington - Harbor City","zone":"R1-1XL-O-CUGU","solar":"N","pin_nbr":"039B209   179","use_code":"1","geolocation":"POINT (-118.25814 33.80286)","status_date":"01/11/2018","permit_group":"Building","refresh_time":"06/10/2026","type_lat_lon":"ADDRESS","business_unit":"Express Permit"},"geometry":{"type":"Point","coordinates":[-118.25814,33.80286]}},{"type":"Feature","properties":{"date":"2017-12-21T00:00:00.000Z","year":2017,"description":"RE-ROOF 28  SQUARES WITH CLASS A OR B MATERIAL WEIGHING LESS THAN 6 POUNDS PER. SQ FT. FOR RESIDENTIAL ROOF REPLACEMENT > 50% OF THE TOTAL ROOF AREA, APPLY COOL ROOF PRODUCT LABELED AND CERTIFIED BY COOL ROOF COUNCIL (CCRC). TEAR OFF EXISTING ROOFING. FIBERGLASS OR ASPHALR SHINGLES (MAX 2 OVERLAYS TOTAL).","metadescription":"Bldg-Alter/Repair. Apartment. RE-ROOF 28  SQUARES WITH CLASS A OR B MATERIAL WEIGHING LESS THAN 6 POUNDS PER. SQ FT. FOR RESIDENTIAL ROOF REPLACEMENT > 50% OF THE TOTAL ROOF AREA, APPLY COOL ROOF PRODUCT LABELED AND CERTIFIED BY COOL ROOF COUNCIL (CCRC). TEAR OFF EXISTING ROOFING. FIBERGLASS OR ASPHALR SHINGLES (MAX 2 OVERLAYS TOTAL).. Permit Finaled. 16708 S DENVER AVE","address":"16708 South Denver Avenue, CA, Gardena, 90248, US","ct":"2912.20","ev":"N","apc":"Harbor","cpa":"Harbor Gateway","zone":"R3-1","solar":"N","pin_nbr":"066B201    36","use_code":"5","geolocation":"POINT (-118.28361 33.87998)","status_date":"01/09/2018","permit_group":"Building","refresh_time":"06/10/2026","type_lat_lon":"ADDRESS","business_unit":"Express Permit"},"geometry":{"type":"Point","coordinates":[-118.28361,33.87998]}},{"type":"Feature","properties":{"date":"2017-11-21T00:00:00.000Z","year":2017,"description":"Reroof with 25 sqrs COMP SHINGLE roofing over new solid sheathing.Re-roof with Class A or B material weighing less than 6 pounds per sq. ft. For residential roof replacement > 50% of the total roof area, apply Cool Roof Product labeled and certified by Cool Roof Rating Council (CRRC). Cool Roof may be required for non-residential buildings per Title 24, Part 6, Section 149(b).","metadescription":"Bldg-Alter/Repair. 1 or 2 Family Dwelling. Reroof with 25 sqrs COMP SHINGLE roofing over new solid sheathing.Re-roof with Class A or B material weighing less than 6 pounds per sq. ft. For residential roof replacement > 50% of the total roof area, apply Cool Roof Product labeled and certified by Cool Roof Rating Council (CRRC). Cool Roof may be required for non-residential buildings per Title 24, Part 6, Section 149(b).. Permit Finaled. 894 E OCEANSIDE ST","address":"24468 Seagrove Avenue, CA, Wilmington, 90744, US","ct":"2941.10","ev":"N","apc":"Harbor","cpa":"Wilmington - Harbor City","zone":"R1-1XL-O-CUGU","solar":"N","pin_nbr":"039B209   181","use_code":"1","geolocation":"POINT (-118.25826 33.80282)","status_date":"05/22/2018","permit_group":"Building","refresh_time":"06/10/2026","type_lat_lon":"ADDRESS","business_unit":"Express Permit"},"geometry":{"type":"Point","coordinates":[-118.25826,33.80282]}},{"type":"Feature","properties":{"date":"2017-11-11T00:00:00.000Z","year":2017,"description":"Reroof with 27 sqrs COMP SHINGLE roofing. Existing solid sheathing.Re-roof with Class A or B material weighing less than 6 pounds per sq. ft. For residential roof replacement > 50% of the total roof area, apply Cool Roof Product labeled and certified by Cool Roof Rating Council (CRRC). Cool Roof may be required for non-residential buildings per Title 24, Part 6, Section 149(b).","metadescription":"Bldg-Alter/Repair. 1 or 2 Family Dwelling. Reroof with 27 sqrs COMP SHINGLE roofing. Existing solid sheathing.Re-roof with Class A or B material weighing less than 6 pounds per sq. ft. For residential roof replacement > 50% of the total roof area, apply Cool Roof Product labeled and certified by Cool Roof Rating Council (CRRC). Cool Roof may be required for non-residential buildings per Title 24, Part 6, Section 149(b).. Permit Finaled. 16315 S DENVER AVE","address":"16311 South Denver Avenue, CA, Gardena, 90248, US","ct":"2912.10","ev":"N","apc":"Harbor","cpa":"Harbor Gateway","zone":"R1-1","solar":"N","pin_nbr":"069B201   322","use_code":"1","geolocation":"POINT (-118.28409 33.88333)","status_date":"11/20/2017","permit_group":"Building","refresh_time":"06/10/2026","type_lat_lon":"ADDRESS","business_unit":"Express Permit"},"geometry":{"type":"Point","coordinates":[-118.28409,33.88333]}},{"type":"Feature","properties":{"date":"2017-10-03T00:00:00.000Z","year":2017,"description":"Reroof with 25 sqrs BUILT UP roofing. Existing solid sheathing.Re-roof with Class A or B material weighing less than 6 pounds per sq. ft. For residential roof replacement > 50% of the total roof area, apply Cool Roof Product labeled and certified by Cool Roof Rating Council (CRRC). Cool Roof may be required for non-residential buildings per Title 24, Part 6, Section 149(b).","metadescription":"Bldg-Alter/Repair. 1 or 2 Family Dwelling. Reroof with 25 sqrs BUILT UP roofing. Existing solid sheathing.Re-roof with Class A or B material weighing less than 6 pounds per sq. ft. For residential roof replacement > 50% of the total roof area, apply Cool Roof Product labeled and certified by Cool Roof Rating Council (CRRC). Cool Roof may be required for non-residential buildings per Title 24, Part 6, Section 149(b).. Permit Finaled. 16931 S DENVER AVE","address":"16931 South Denver Avenue, CA, Gardena, 90248, US","ct":"2912.20","ev":"N","apc":"Harbor","cpa":"Harbor Gateway","zone":"R1-1","solar":"N","pin_nbr":"066B201   117","use_code":"1","geolocation":"POINT (-118.28377 33.87842)","status_date":"10/16/2017","permit_group":"Building","refresh_time":"06/10/2026","type_lat_lon":"ADDRESS","business_unit":"Express Permit"},"geometry":{"type":"Point","coordinates":[-118.28377,33.87842]}},{"type":"Feature","properties":{"date":"2017-09-05T00:00:00.000Z","year":2017,"description":"Reroof with 33 sqrs COMP SHINGLE roofing over new solid sheathing.Re-roof with Class A or B material weighing less than 6 pounds per sq. ft. For residential roof replacement > 50% of the total roof area, apply Cool Roof Product labeled and certified by Cool Roof Rating Council (CRRC). Cool Roof may be required for non-residential buildings per Title 24, Part 6, Section 149(b).","metadescription":"Bldg-Alter/Repair. Apartment. Reroof with 33 sqrs COMP SHINGLE roofing over new solid sheathing.Re-roof with Class A or B material weighing less than 6 pounds per sq. ft. For residential roof replacement > 50% of the total roof area, apply Cool Roof Product labeled and certified by Cool Roof Rating Council (CRRC). Cool Roof may be required for non-residential buildings per Title 24, Part 6, Section 149(b).. Permit Finaled. 16511 S DENVER AVE","address":"16511 South Denver Avenue, CA, Gardena, 90248, US","ct":"2912.20","ev":"N","apc":"Harbor","cpa":"Harbor Gateway","zone":"R3-1","solar":"N","pin_nbr":"069B201   351","use_code":"5","geolocation":"POINT (-118.28386 33.88139)","status_date":"09/14/2017","permit_group":"Building","refresh_time":"06/10/2026","type_lat_lon":"ADDRESS","business_unit":"Express Permit"},"geometry":{"type":"Point","coordinates":[-118.28386,33.88139]}},{"type":"Feature","properties":{"date":"2017-08-31T00:00:00.000Z","year":2017,"description":"Re-roof with Class A or B roof covering material weighing less than 6 pounds per sq. ft. over existing solid sheathing  30 Squares. Class A roof covering is required within Very High Fire Hazard Severity Zone (VHFHSZ). For residential roof replacement > 50% of the total roof area, apply Cool Roof Product labeled and certified by Cool Roof Rating Council (CRRC). Cool Roof may be required for non-residential buildings per Title 24, Part 6, Section 149(b).  (Replace plywood as needed)","metadescription":"Bldg-Alter/Repair. Apartment. Re-roof with Class A or B roof covering material weighing less than 6 pounds per sq. ft. over existing solid sheathing  30 Squares. Class A roof covering is required within Very High Fire Hazard Severity Zone (VHFHSZ). For residential roof replacement > 50% of the total roof area, apply Cool Roof Product labeled and certified by Cool Roof Rating Council (CRRC). Cool Roof may be required for non-residential buildings per Title 24, Part 6, Section 149(b).  (Replace plywood as needed). Permit Finaled. 16609 S DENVER AVE","address":"16609 South Denver Avenue, CA, Gardena, 90248, US","ct":"2912.20","ev":"N","apc":"Harbor","cpa":"Harbor Gateway","zone":"R3-1","solar":"N","pin_nbr":"066B201    16","use_code":"5","geolocation":"POINT (-118.28384 33.88056)","status_date":"03/30/2023","permit_group":"Building","refresh_time":"06/10/2026","type_lat_lon":"ADDRESS","business_unit":"Express Permit"},"geometry":{"type":"Point","coordinates":[-118.28384,33.88056]}},{"type":"Feature","properties":{"date":"2015-03-19T00:00:00.000Z","year":2015,"description":"REROOF 32 SQUARES WITH CLASS 'A' OR 'B' ROOFING MATERIALS WEIGHING LESS THAN 6 POUNDS PER SQ.FT.  TEAR OFF EXISTING ROOFING AND INSTALL FIBERGLASS OR ASPH. SHINGLES.  FOR RESIDENTIAL ROOF REPLACEMENT >50% OF THE TOTAL ROOF AREA, APPLY COOL ROOF PRODUCT LABELED AND CERTIFIED BY COOL ROOF RATING COUNCIL CRRC.  COOL ROOF MAY BE REQUIRED FOR NON-RESIDENTIAL BUILDINGS PER TITLE 24, PART 6, SECTION 149(b)","metadescription":"Bldg-Alter/Repair. Apartment. REROOF 32 SQUARES WITH CLASS 'A' OR 'B' ROOFING MATERIALS WEIGHING LESS THAN 6 POUNDS PER SQ.FT.  TEAR OFF EXISTING ROOFING AND INSTALL FIBERGLASS OR ASPH. SHINGLES.  FOR RESIDENTIAL ROOF REPLACEMENT >50% OF THE TOTAL ROOF AREA, APPLY COOL ROOF PRODUCT LABELED AND CERTIFIED BY COOL ROOF RATING COUNCIL CRRC.  COOL ROOF MAY BE REQUIRED FOR NON-RESIDENTIAL BUILDINGS PER TITLE 24, PART 6, SECTION 149(b). Permit Finaled. 16531 S DENVER AVE","address":"16531 South Denver Avenue, CA, Gardena, 90248, US","ct":"2912.20","ev":"N","apc":"Harbor","cpa":"Harbor Gateway","zone":"R3-1","solar":"N","pin_nbr":"069B201   369","use_code":"5","geolocation":"POINT (-118.28384 33.88107)","status_date":"05/28/2015","permit_group":"Building","refresh_time":"06/10/2026","type_lat_lon":"ADDRESS","business_unit":"Express Permit"},"geometry":{"type":"Point","coordinates":[-118.28384,33.88107]}},{"type":"Feature","properties":{"date":"2014-07-21T00:00:00.000Z","year":2014,"description":"TEAR OFF EXISTING ROOFING. RE-ROOF 21 SQUARES WITH CLASS 'A' MATERIALS WEIGHING LESS THAN 6 POUNDS PER SQ. FT. INSTALL FIBERGLASS OR ASPHALT SHINGLES (MAX. 2 OVERLAYS TOTAL).","metadescription":"Bldg-Alter/Repair. 1 or 2 Family Dwelling. TEAR OFF EXISTING ROOFING. RE-ROOF 21 SQUARES WITH CLASS 'A' MATERIALS WEIGHING LESS THAN 6 POUNDS PER SQ. FT. INSTALL FIBERGLASS OR ASPHALT SHINGLES (MAX. 2 OVERLAYS TOTAL).. Permit Finaled. 886 E OCEANSIDE ST","address":"886 Oceanside Street, CA, Wilmington, 90744, US","ct":"2941.10","ev":"N","apc":"Harbor","cpa":"Wilmington - Harbor City","zone":"R1-1XL-O","solar":"N","pin_nbr":"039B209   173","use_code":"1","geolocation":"POINT (-118.25851 33.80297)","status_date":"07/29/2014","permit_group":"Building","refresh_time":"06/10/2026","type_lat_lon":"ADDRESS","business_unit":"Express Permit"},"geometry":{"type":"Point","coordinates":[-118.25851,33.80297]}},{"type":"Feature","properties":{"date":"2014-06-11T00:00:00.000Z","year":2014,"description":"Change out 11 Windows and 6 Doors (Same size & type for residential buildings only). Kitchen & Bathroom remodel (For residential buildings; no structural changes). Combine with Electrical, Plumbing, & HVAC. Re-stucco; Replace drywall (no new walls added) Specific location: Entire House & Garage. Tear Off Existing Roofing. Re-roof 10 squares w/class 'A' or 'B' materials weighing less than 6 pounds per sq. ft. Install Fiberglass or Asphalt Shingles (max. 2 overlays).","metadescription":"Bldg-Alter/Repair. 1 or 2 Family Dwelling. Change out 11 Windows and 6 Doors (Same size & type for residential buildings only). Kitchen & Bathroom remodel (For residential buildings; no structural changes). Combine with Electrical, Plumbing, & HVAC. Re-stucco; Replace drywall (no new walls added) Specific location: Entire House & Garage. Tear Off Existing Roofing. Re-roof 10 squares w/class 'A' or 'B' materials weighing less than 6 pounds per sq. ft. Install Fiberglass or Asphalt Shingles (max. 2 overlays).. Permit Finaled. 24412 S SEAGROVE AVE","address":"24416 Seagrove Avenue, CA, Wilmington, 90744, US","ct":"2941.10","ev":"N","apc":"Harbor","cpa":"Wilmington - Harbor City","zone":"R1-1XL-O","solar":"N","pin_nbr":"039B209   114","use_code":"1","geolocation":"POINT (-118.25781 33.80423)","status_date":"09/16/2014","permit_group":"Building","refresh_time":"06/10/2026","type_lat_lon":"ADDRESS","business_unit":"Express Permit"},"geometry":{"type":"Point","coordinates":[-118.25781,33.80423]}},{"type":"Feature","properties":{"date":"2012-11-26T00:00:00.000Z","year":2012,"description":"Reroof with 24 sqrs COMP SHINGLE roofing. Existing solid sheathing.","metadescription":"Bldg-Alter/Repair. 1 or 2 Family Dwelling. Reroof with 24 sqrs COMP SHINGLE roofing. Existing solid sheathing.. Permit Finaled. 523 W 169TH ST","address":"523 West 169Th Street, CA, Gardena, 90248, US","ct":"2912.20","ev":"N","apc":"Harbor","cpa":"Harbor Gateway","zone":"R1-1","solar":"N","pin_nbr":"066B201   103","use_code":"1","geolocation":"POINT (-118.28342 33.87867)","status_date":"11/30/2012","permit_group":"Building","refresh_time":"06/10/2026","type_lat_lon":"ADDRESS","business_unit":"Express Permit"},"geometry":{"type":"Point","coordinates":[-118.28342,33.87867]}},{"type":"Feature","properties":{"date":"2011-10-04T00:00:00.000Z","year":2011,"description":"RE-ROOF  WITH CLASS 'A' MATERIALS. COMPLY WITH DEPARTMENT ORDER EFFECTIVE DATE 05/25/2011. PERMIT WILL EXPIRE 30 DAYS FROM ISSUANCE DATE. ALL PERMITS HSALL BE FOR THE SAME TIME PERIOD LIMITATION. INVESTIGATION FEE PAID ON THIS PERMIT.","metadescription":"Bldg-Alter/Repair. 1 or 2 Family Dwelling. RE-ROOF  WITH CLASS 'A' MATERIALS. COMPLY WITH DEPARTMENT ORDER EFFECTIVE DATE 05/25/2011. PERMIT WILL EXPIRE 30 DAYS FROM ISSUANCE DATE. ALL PERMITS HSALL BE FOR THE SAME TIME PERIOD LIMITATION. INVESTIGATION FEE PAID ON THIS PERMIT.. Permit Finaled. 24411 S BAYPOINT AVE","address":"24411 Baypoint Avenue, CA, Wilmington, 90744, US","ct":"2941.10","ev":"N","apc":"Harbor","cpa":"Wilmington - Harbor City","zone":"R1-1XL-O","solar":"N","pin_nbr":"039B209   110","use_code":"1","geolocation":"POINT (-118.25973 33.80427)","status_date":"10/07/2011","permit_group":"Building","refresh_time":"06/10/2026","type_lat_lon":"ADDRESS","business_unit":"Express Permit"},"geometry":{"type":"Point","coordinates":[-118.25973,33.80427]}},{"type":"Feature","properties":{"date":"2010-11-08T00:00:00.000Z","year":2010,"description":"TEAR OFF EXISTING ROOFING.  RE-ROOF 30 SQUARES WITH CLASS 'A' MATERIALS.  INSTALL MODIFIED BITUMEN.","metadescription":"Bldg-Alter/Repair. Apartment. TEAR OFF EXISTING ROOFING.  RE-ROOF 30 SQUARES WITH CLASS 'A' MATERIALS.  INSTALL MODIFIED BITUMEN.. Permit Finaled. 24415 S AVALON BLVD","address":"24411 South Avalon Boulevard, CA, Wilmington, 90744, US","ct":"2941.10","ev":"N","apc":"Harbor","cpa":"Wilmington - Harbor City","zone":"[Q]RD1.5-1XL-O","solar":"N","pin_nbr":"039B205   207","use_code":"5","geolocation":"POINT (-118.26413 33.80417)","status_date":"11/29/2010","permit_group":"Building","refresh_time":"06/10/2026","type_lat_lon":"ADDRESS","business_unit":"Express Permit"},"geometry":{"type":"Point","coordinates":[-118.26413,33.80417]}},{"type":"Feature","properties":{"date":"2010-11-01T00:00:00.000Z","year":2010,"description":"Reroof with 19 sqrs COMP SHINGLE roofing. Existing solid sheathing.","metadescription":"Bldg-Alter/Repair. 1 or 2 Family Dwelling. Reroof with 19 sqrs COMP SHINGLE roofing. Existing solid sheathing.. Permit Finaled. 513 W 169TH ST","address":"513 West 169Th Street, CA, Gardena, 90248, US","ct":"2912.20","ev":"N","apc":"Harbor","cpa":"Harbor Gateway","zone":"R1-1","solar":"N","pin_nbr":"066B201   100","use_code":"1","geolocation":"POINT (-118.28296 33.87866)","status_date":"11/04/2010","permit_group":"Building","refresh_time":"06/10/2026","type_lat_lon":"ADDRESS","business_unit":"Express Permit"},"geometry":{"type":"Point","coordinates":[-118.28296,33.87866]}},{"type":"Feature","properties":{"date":"2010-06-29T00:00:00.000Z","year":2010,"description":"TEAR OFF EXISTING ROOFING.  RE-ROOF 31 SQUARES WITH CLASS 'A' MATERIALS.","metadescription":"Bldg-Alter/Repair. 1 or 2 Family Dwelling. TEAR OFF EXISTING ROOFING.  RE-ROOF 31 SQUARES WITH CLASS 'A' MATERIALS.. Permit Finaled. 24704 S SEAGROVE AVE","address":"24700 Seagrove Avenue, CA, Wilmington, 90744, US","ct":"2941.10","ev":"N","apc":"Harbor","cpa":"Wilmington - Harbor City","zone":"R1-1XL-O","solar":"N","pin_nbr":"039B209   217","use_code":"1","geolocation":"POINT (-118.25851 33.80189)","status_date":"07/21/2010","permit_group":"Building","refresh_time":"06/10/2026","type_lat_lon":"ADDRESS","business_unit":"Express Permit"},"geometry":{"type":"Point","coordinates":[-118.25851,33.80189]}},{"type":"Feature","properties":{"date":"2009-09-04T00:00:00.000Z","year":2009,"description":"Tear off existing roof from sfd.  Replace plywood as needed and install 20yr composition shingles.  Change out (12) windows same size and location.  Replace Drywall and insulation (no walls added). \"COMPLY WITH DEPARTMENT ORDER effective date 10/29/2007. PERMIT WILL EXPIRE 30DAYS FROM ISSUANCE DATE.","metadescription":"Bldg-Alter/Repair. 1 or 2 Family Dwelling. Tear off existing roof from sfd.  Replace plywood as needed and install 20yr composition shingles.  Change out (12) windows same size and location.  Replace Drywall and insulation (no walls added). \"COMPLY WITH DEPARTMENT ORDER effective date 10/29/2007. PERMIT WILL EXPIRE 30DAYS FROM ISSUANCE DATE.. Permit Finaled. 24418 S AVALON BLVD","address":"24418 South Avalon Boulevard, CA, Wilmington, 90744, US","ct":"2941.10","ev":"N","apc":"Harbor","cpa":"Wilmington - Harbor City","zone":"[Q]RD4-1XL-O","solar":"N","pin_nbr":"039B205   227","use_code":"1","geolocation":"POINT (-118.2638 33.80404)","status_date":"12/01/2009","permit_group":"Building","refresh_time":"06/10/2026","type_lat_lon":"ADDRESS","business_unit":"Express Permit"},"geometry":{"type":"Point","coordinates":[-118.2638,33.80404]}},{"type":"Feature","properties":{"date":"2008-04-03T00:00:00.000Z","year":2008,"description":"TEAR OFF  EXISTING ROOFING & RE-ROOF.  (GARAGE ONLY)","metadescription":"Bldg-Alter/Repair. 1 or 2 Family Dwelling. TEAR OFF  EXISTING ROOFING & RE-ROOF.  (GARAGE ONLY). Permit Finaled. 806 E OCEANSIDE ST","address":"806 Oceanside Street, CA, Wilmington, 90744, US","ct":"2941.10","ev":"N","apc":"Harbor","cpa":"Wilmington - Harbor City","zone":"R1-1XL-O","solar":"N","pin_nbr":"039B209   112","use_code":"7","geolocation":"POINT (-118.26055 33.80431)","status_date":"04/16/2008","permit_group":"Building","refresh_time":"06/10/2026","type_lat_lon":"ADDRESS","business_unit":"Express Permit"},"geometry":{"type":"Point","coordinates":[-118.26055,33.80431]}},{"type":"Feature","properties":{"date":"2007-02-21T00:00:00.000Z","year":2007,"description":"RE-ROOF AND INSTALL LIGHTWEIGHT CONCRET TILE.","metadescription":"Bldg-Alter/Repair. 1 or 2 Family Dwelling. RE-ROOF AND INSTALL LIGHTWEIGHT CONCRET TILE.. Permit Finaled. 24402 S LAKME AVE","address":"24402 Lakme Avenue, CA, Wilmington, 90744, US","ct":"2941.10","ev":"N","apc":"Harbor","cpa":"Wilmington - Harbor City","zone":"R1-1XL-O","solar":"N","pin_nbr":"039B205   149","use_code":"1","geolocation":"POINT (-118.26104 33.80446)","status_date":"10/17/2008","permit_group":"Building","refresh_time":"06/10/2026","type_lat_lon":"ADDRESS","business_unit":"Express Permit"},"geometry":{"type":"Point","coordinates":[-118.26104,33.80446]}},{"type":"Feature","properties":{"date":"2006-12-12T00:00:00.000Z","year":2006,"description":"REMOVE EXISTING ROOFING.  INSTALL 3-PLY ROCK ROOFING SYSTEM.","metadescription":"Bldg-Alter/Repair. 1 or 2 Family Dwelling. REMOVE EXISTING ROOFING.  INSTALL 3-PLY ROCK ROOFING SYSTEM.. Permit Expired. 517 W 169TH ST","address":"513 West 169Th Street, CA, Gardena, 90248, US","ct":"2912.20","ev":"N","apc":"Harbor","cpa":"Harbor Gateway","zone":"R1-1","solar":"N","pin_nbr":"066B201   102","use_code":"1","geolocation":"POINT (-118.28312 33.87866)","status_date":"02/23/2009","permit_group":"Building","refresh_time":"06/10/2026","type_lat_lon":"ADDRESS","business_unit":"Express Permit"},"geometry":{"type":"Point","coordinates":[-118.28312,33.87866]}},{"type":"Feature","properties":{"date":"2005-04-22T00:00:00.000Z","year":2005,"description":"T/O AND REROOF-25SQRS","metadescription":"Bldg-Alter/Repair. 1 or 2 Family Dwelling. T/O AND REROOF-25SQRS. Permit Finaled. 16311 S DENVER AVE","address":"16311 South Denver Avenue, CA, Gardena, 90248, US","ct":"2912.10","ev":"N","apc":"Harbor","cpa":"Harbor Gateway","zone":"R1-1","solar":"N","pin_nbr":"069B201   319","use_code":"1","geolocation":"POINT (-118.28411 33.88347)","status_date":"06/23/2005","permit_group":"Building","refresh_time":"06/10/2026","type_lat_lon":"ADDRESS","business_unit":"Express Permit"},"geometry":{"type":"Point","coordinates":[-118.28411,33.88347]}},{"type":"Feature","properties":{"date":"2004-10-29T00:00:00.000Z","year":2004,"description":"CONSTRUCT STRUCT SUPPORT FOR ROOFTOP ANTENNAS.  CONSTRUCT ROOFTOP PLATFORM FOR PREFAB TELECOM EQPT SHELTER, TO ADD 121 SQ FT.","metadescription":"Bldg-Alter/Repair. Commercial. CONSTRUCT STRUCT SUPPORT FOR ROOFTOP ANTENNAS.  CONSTRUCT ROOFTOP PLATFORM FOR PREFAB TELECOM EQPT SHELTER, TO ADD 121 SQ FT.. Permit Finaled. 20101 S HAMILTON AVE","address":"20220 Hamilton Avenue, CA, Torrance, 90502, US","ct":"2920.00","ev":"N","apc":"Harbor","cpa":"Harbor Gateway","zone":"M3-1","solar":"N","pin_nbr":"057B197    85","use_code":"16","geolocation":"POINT (-118.28637 33.84769)","status_date":"02/04/2005","permit_group":"Building","refresh_time":"06/10/2026","type_lat_lon":"ADDRESS","business_unit":"Regular Plan Check"},"geometry":{"type":"Point","coordinates":[-118.28637,33.84769]}},{"type":"Feature","properties":{"date":"2004-05-10T00:00:00.000Z","year":2004,"description":"TEAR-OFF AND RE-ROOF.  APPLY 30YR COMP SHINGLE HIGH PROFILE RIDGE CAP.","metadescription":"Bldg-Alter/Repair. Commercial. TEAR-OFF AND RE-ROOF.  APPLY 30YR COMP SHINGLE HIGH PROFILE RIDGE CAP.. Permit Finaled. 24400 S AVALON AVE","address":"24400 South Avalon Boulevard, CA, Wilmington, 90744, US","ct":"2941.10","ev":"N","apc":"Harbor","cpa":"Wilmington - Harbor City","zone":"[Q]RD4-1XL-O","solar":"N","pin_nbr":"039B205   151","use_code":"6","geolocation":"POINT (-118.26368604 33.80451389)","status_date":"05/21/2004","permit_group":"Building","refresh_time":"06/10/2026","type_lat_lon":"PIN","business_unit":"Express Permit"},"geometry":{"type":"Point","coordinates":[-118.26368604,33.80451389]}},{"type":"Feature","properties":{"date":"2003-10-28T00:00:00.000Z","year":2003,"description":"NEW ATTACHED PATIO COVER.  ALL CONSTRUCTION MUST COMPLY WITH CITY STANDARD DETAILS.  REROOF ENTIRE SFD AND DETACHED GARAGE.","metadescription":"Bldg-Alter/Repair. 1 or 2 Family Dwelling. NEW ATTACHED PATIO COVER.  ALL CONSTRUCTION MUST COMPLY WITH CITY STANDARD DETAILS.  REROOF ENTIRE SFD AND DETACHED GARAGE.. Permit Finaled. 546 W 168TH ST","address":"540 West 168Th Street, CA, Gardena, 90248, US","ct":"2912.20","ev":"N","apc":"Harbor","cpa":"Harbor Gateway","zone":"R1-1","solar":"N","pin_nbr":"066B201    78","use_code":"1","geolocation":"POINT (-118.28406 33.87907)","status_date":"11/05/2003","permit_group":"Building","refresh_time":"06/10/2026","type_lat_lon":"ADDRESS","business_unit":"Plan Check at Counter"},"geometry":{"type":"Point","coordinates":[-118.28406,33.87907]}},{"type":"Feature","properties":{"date":"2003-07-07T00:00:00.000Z","year":2003,"description":"T/O(E) & REROOF W/COMP - 10SQS","metadescription":"Bldg-Alter/Repair. 1 or 2 Family Dwelling. T/O(E) & REROOF W/COMP - 10SQS. Permit Finaled. 24503 S LAKME AVE","address":"24503 South Lakme Avenue, CA, Wilmington, 90744, US","ct":"2941.10","ev":"N","apc":"Harbor","cpa":"Wilmington - Harbor City","zone":"R1-1XL-O","solar":"N","pin_nbr":"039B205   229","use_code":"1","geolocation":"POINT (-118.26129 33.80401)","status_date":"09/06/2006","permit_group":"Building","refresh_time":"06/10/2026","type_lat_lon":"ADDRESS","business_unit":"Express Permit"},"geometry":{"type":"Point","coordinates":[-118.26129,33.80401]}},{"type":"Feature","properties":{"date":"2003-06-20T00:00:00.000Z","year":2003,"description":"TEAR OFF AND RE-ROOF HOUSE AND GARAGE; 17 SQ CLASS A FIBERGLASS SHINGLES/ 9 SQ CLASS A BUILT UP ON FLAT AREA","metadescription":"Bldg-Alter/Repair. 1 or 2 Family Dwelling. TEAR OFF AND RE-ROOF HOUSE AND GARAGE; 17 SQ CLASS A FIBERGLASS SHINGLES/ 9 SQ CLASS A BUILT UP ON FLAT AREA. Permit Finaled. 24416 S BAYPOINT AVE","address":"24416 Baypoint Avenue, CA, Wilmington, 90744, US","ct":"2941.10","ev":"N","apc":"Harbor","cpa":"Wilmington - Harbor City","zone":"R1-1XL-O","solar":"N","pin_nbr":"039B209   127","use_code":"1","geolocation":"POINT (-118.25956 33.80406)","status_date":"10/31/2003","permit_group":"Building","refresh_time":"06/10/2026","type_lat_lon":"ADDRESS","business_unit":"Express Permit"},"geometry":{"type":"Point","coordinates":[-118.25956,33.80406]}},{"type":"Feature","properties":{"date":"2003-05-22T00:00:00.000Z","year":2003,"description":"Create roof openings for future mechanical equipments. Also minor adjustment to  the height of some tilt up panels to accomodate the site grade elevations. NO change in overall ht. of bldgs.  (THIS  SCOPE OF WORK APPLIES TO ALL 8 PROPOSED BLDGS)","metadescription":"Bldg-Alter/Repair. Commercial. Create roof openings for future mechanical equipments. Also minor adjustment to  the height of some tilt up panels to accomodate the site grade elevations. NO change in overall ht. of bldgs.  (THIS  SCOPE OF WORK APPLIES TO ALL 8 PROPOSED BLDGS). Permit Expired. 19801 S HAMILTON AVE BLDG 1 & 2","address":"19803 Hamilton Avenue, CA, Torrance, 90502, US","ct":"2920.00","ev":"N","apc":"Harbor","cpa":"Harbor Gateway","zone":"M3-1","solar":"N","pin_nbr":"057B201    32","use_code":"12","geolocation":"POINT (-118.28659 33.85115)","status_date":"04/08/2008","permit_group":"Building","refresh_time":"06/10/2026","type_lat_lon":"ADDRESS","business_unit":"Plan Check at Counter"},"geometry":{"type":"Point","coordinates":[-118.28659,33.85115]}},{"type":"Feature","properties":{"date":"2003-03-24T00:00:00.000Z","year":2003,"description":"T/O(E) & REROOF W/COMP - 14SQS (HOUSE ONLY)","metadescription":"Bldg-Alter/Repair. 1 or 2 Family Dwelling. T/O(E) & REROOF W/COMP - 14SQS (HOUSE ONLY). Permit Finaled. 24734 S SEAGROVE AVE","address":"24734 Seagrove Avenue, CA, Wilmington, 90744, US","ct":"2941.10","ev":"N","apc":"Harbor","cpa":"Wilmington - Harbor City","zone":"R1-1XL-O","solar":"N","pin_nbr":"039B209   246","use_code":"1","geolocation":"POINT (-118.25883 33.80102)","status_date":"04/04/2003","permit_group":"Building","refresh_time":"06/10/2026","type_lat_lon":"ADDRESS","business_unit":"Express Permit"},"geometry":{"type":"Point","coordinates":[-118.25883,33.80102]}},{"type":"Feature","properties":{"date":"2003-02-03T00:00:00.000Z","year":2003,"description":"REROOF W/COMP OVER (1) EXIST. LAYER - 650SQS","metadescription":"Bldg-Alter/Repair. Apartment. REROOF W/COMP OVER (1) EXIST. LAYER - 650SQS. Permit Finaled. 515 W GARDENA BLVD 1-90","address":"1-90, 515 West Gardena Boulevard, CA, Gardena, 90248, US","ct":"2912.10","ev":"N","apc":"Harbor","cpa":"Harbor Gateway","zone":"R3-1","solar":"N","pin_nbr":"069B201   305","use_code":"5","geolocation":"POINT (-118.2833 33.88199)","status_date":"07/11/2003","permit_group":"Building","refresh_time":"06/10/2026","type_lat_lon":"ADDRESS","business_unit":"Express Permit"},"geometry":{"type":"Point","coordinates":[-118.2833,33.88199]}},{"type":"Feature","properties":{"date":"2002-06-19T00:00:00.000Z","year":2002,"description":"T/O(E) & REROOF W/4 PLY FIBERGLASS - 300SQS","metadescription":"Bldg-Alter/Repair. Commercial. T/O(E) & REROOF W/4 PLY FIBERGLASS - 300SQS. Permit Finaled. 20221 S HAMILTON AVE","address":"20320 Hamilton Avenue, CA, Torrance, 90502, US","ct":"2920.00","ev":"N","apc":"Harbor","zone":"M3-1","solar":"N","pin_nbr":"054B197    33","use_code":"13","geolocation":"POINT (-118.28626 33.84695)","status_date":"10/14/2002","permit_group":"Building","refresh_time":"06/10/2026","type_lat_lon":"ADDRESS","business_unit":"Express Permit"},"geometry":{"type":"Point","coordinates":[-118.28626,33.84695]}},{"type":"Feature","properties":{"date":"2002-04-23T00:00:00.000Z","year":2002,"description":"Reroof: remove the existing roof-covering; install 20 squares Class A fiberglass shingles over existing solid sheathing.","metadescription":"Bldg-Alter/Repair. 1 or 2 Family Dwelling. Reroof: remove the existing roof-covering; install 20 squares Class A fiberglass shingles over existing solid sheathing.. Permit Finaled. 507 W 169TH ST","address":"503 West 169Th Street, CA, Gardena, 90248, US","ct":"2912.00","ev":"N","apc":"Harbor","zone":"R1-1","solar":"N","pin_nbr":"066B201    99","use_code":"1","geolocation":"POINT (-118.28279 33.87866)","status_date":"04/25/2002","permit_group":"Building","refresh_time":"06/10/2026","type_lat_lon":"ADDRESS","business_unit":"Express Permit"},"geometry":{"type":"Point","coordinates":[-118.28279,33.87866]}},{"type":"Feature","properties":{"date":"2001-10-26T00:00:00.000Z","year":2001,"description":"TEAR OFF, REROOF AND ADD PLYWOOD-22SQRS.","metadescription":"Bldg-Alter/Repair. 1 or 2 Family Dwelling. TEAR OFF, REROOF AND ADD PLYWOOD-22SQRS.. Permit Finaled. 24407-24407 1/2 S AVALON BLVD","address":"24407 South Avalon Boulevard, CA, Wilmington, 90744, US","ct":"2941.00","ev":"N","apc":"Harbor","zone":"[Q]RD1.5-1XL-O","solar":"N","pin_nbr":"039B205   174","use_code":"2","geolocation":"POINT (-118.26413 33.80437)","status_date":"11/09/2001","permit_group":"Building","refresh_time":"06/10/2026","type_lat_lon":"ADDRESS","business_unit":"Express Permit"},"geometry":{"type":"Point","coordinates":[-118.26413,33.80437]}},{"type":"Feature","properties":{"date":"2001-06-28T00:00:00.000Z","year":2001,"description":"Reroof :remove (E) roofing, and apply comp shingles, total 12 SQs. House and garage.","metadescription":"Bldg-Alter/Repair. 1 or 2 Family Dwelling. Reroof :remove (E) roofing, and apply comp shingles, total 12 SQs. House and garage.. Permit Finaled. 16219 S DENVER AVE","address":"16217 South Denver Avenue, CA, Gardena, 90248, US","ct":"2912.00","ev":"N","apc":"Harbor","zone":"R1-1","solar":"N","pin_nbr":"069B201   292","use_code":"1","geolocation":"POINT (-118.28406 33.88388)","status_date":"09/13/2001","permit_group":"Building","refresh_time":"06/10/2026","type_lat_lon":"ADDRESS","business_unit":"Express Permit"},"geometry":{"type":"Point","coordinates":[-118.28406,33.88388]}},{"type":"Feature","properties":{"date":"2000-07-27T00:00:00.000Z","year":2000,"description":"CHANGE OUT 9-WINDOWS(same size); KITCHEN CABINETS; REROOF w/ COMPOSITION SHINGLES(18sqrs). E. Q. gas shut off valve requried.","metadescription":"Bldg-Alter/Repair. 1 or 2 Family Dwelling. CHANGE OUT 9-WINDOWS(same size); KITCHEN CABINETS; REROOF w/ COMPOSITION SHINGLES(18sqrs). E. Q. gas shut off valve requried.. Permit Finaled. 514 W 169TH ST","address":"514 West 169Th Street, CA, Gardena, 90248, US","ct":"2912.00","ev":"N","apc":"Harbor","zone":"R1-1","solar":"N","pin_nbr":"066B201   121","use_code":"1","geolocation":"POINT (-118.28294 33.8784)","status_date":"08/14/2000","permit_group":"Building","refresh_time":"06/10/2026","type_lat_lon":"ADDRESS","business_unit":"Express Permit"},"geometry":{"type":"Point","coordinates":[-118.28294,33.8784]}},{"type":"Feature","properties":{"date":"1999-05-03T00:00:00.000Z","year":1999,"description":"t/o reroof w/ compo(20 sq) (16-sfd,4-gar)","metadescription":"Bldg-Alter/Repair. 1 or 2 Family Dwelling. t/o reroof w/ compo(20 sq) (16-sfd,4-gar). Permit Closed. 869 E OCEANSIDE ST","address":"869 Oceanside Street, CA, Wilmington, 90744, US","ct":"2941.00","ev":"N","apc":"Harbor","solar":"N","pin_nbr":"039B209   151","use_code":"1","geolocation":"POINT (-118.25878 33.80343)","status_date":"12/10/1999","permit_group":"Building","refresh_time":"06/10/2026","type_lat_lon":"ADDRESS","business_unit":"Express Permit"},"geometry":{"type":"Point","coordinates":[-118.25878,33.80343]}}]}
