{"type":"FeatureCollection","features":[{"type":"Feature","properties":{"date":"2024-11-12T00:00:00.000Z","year":2024,"description":"EPLAN: FIRE DAMAGE REPAIR TO PORITON OF (E) SFD, ROOF FRAMING REPAIR AND INTERIOR REMODEL (DOOR AND WINDOW CHANGE OUT SAME SIZE AND TYPE).","metadescription":"Bldg-Alter/Repair. 1 or 2 Family Dwelling. EPLAN: FIRE DAMAGE REPAIR TO PORITON OF (E) SFD, ROOF FRAMING REPAIR AND INTERIOR REMODEL (DOOR AND WINDOW CHANGE OUT SAME SIZE AND TYPE).. Permit Finaled. 24405 S LAKME AVE","address":"24405 South Lakme Avenue, CA, Wilmington, 90744, US","ct":"2941.10","ev":"N","apc":"Harbor","cpa":"Wilmington - Harbor City","zone":"R1-1XL-O-CUGU","solar":"N","pin_nbr":"039B205   164","use_code":"1","status_date":"05/02/2025","permit_group":"Building","refresh_time":"06/10/2026","type_lat_lon":"ADDRESS","business_unit":"Expanded Counter Plan Check"},"geometry":{"type":"Point","coordinates":[-118.2613,33.80445]}},{"type":"Feature","properties":{"date":"2018-01-12T00:00:00.000Z","year":2018,"description":"CHANGE OUT 13 WINDOWS (SAME SIZE AND LOCATION), RE-STUCCO ENTIRE BLDG., RESIDENTIAL KITCHEN/BATHROOM REMODEL-COMBINE WITH  ELECTRICAL AND PLUMBING,REROOF 16 SQUARES WITH CLASS 'A' OR 'B'MATERIAL WEIGHING LESS THAN 6 POUNDS PER SQ.FT. TEAR OFF EXISTING ROOFING AND REROOF (SFD AND GAR)FOR RESIDENTIAL ROOF REPLACEMENT >50% OF THE TOTAL ROOF AREA, APPLY COOL ROOF PRODUCT LABELED AND CERTIFIED BY COOL ROOF RATING COUNCIL (CRRC).  COOL ROOF MAY BE REQUIRED FOR NON-REESIDENTIAL BUILDINGS PER TITLE 24, PART 6, SECTION 149(b).","metadescription":"Bldg-Alter/Repair. 1 or 2 Family Dwelling. CHANGE OUT 13 WINDOWS (SAME SIZE AND LOCATION), RE-STUCCO ENTIRE BLDG., RESIDENTIAL KITCHEN/BATHROOM REMODEL-COMBINE WITH  ELECTRICAL AND PLUMBING,REROOF 16 SQUARES WITH CLASS 'A' OR 'B'MATERIAL WEIGHING LESS THAN 6 POUNDS PER SQ.FT. TEAR OFF EXISTING ROOFING AND REROOF (SFD AND GAR)FOR RESIDENTIAL ROOF REPLACEMENT >50% OF THE TOTAL ROOF AREA, APPLY COOL ROOF PRODUCT LABELED AND CERTIFIED BY COOL ROOF RATING COUNCIL (CRRC).  COOL ROOF MAY BE REQUIRED FOR NON-REESIDENTIAL BUILDINGS PER TITLE 24, PART 6, SECTION 149(b).. Permit Finaled. 24462 S SEAGROVE AVE","address":"24462 Seagrove Avenue, CA, Wilmington, 90744, US","ct":"2941.10","ev":"N","apc":"Harbor","cpa":"Wilmington - Harbor City","zone":"R1-1XL-O-CUGU","solar":"N","pin_nbr":"039B209   176","use_code":"1","geolocation":"POINT (-118.25805 33.80296)","status_date":"11/18/2020","permit_group":"Building","refresh_time":"06/10/2026","type_lat_lon":"ADDRESS","business_unit":"Express Permit"},"geometry":{"type":"Point","coordinates":[-118.25805,33.80296]}},{"type":"Feature","properties":{"date":"2017-12-04T00:00:00.000Z","year":2017,"description":"Replace 13 window(s). Same size, location, number, type.","metadescription":"Bldg-Alter/Repair. 1 or 2 Family Dwelling. Replace 13 window(s). Same size, location, number, type.. Permit Finaled. 894 E OCEANSIDE ST","address":"24468 Seagrove Avenue, CA, Wilmington, 90744, US","ct":"2941.10","ev":"N","apc":"Harbor","cpa":"Wilmington - Harbor City","zone":"R1-1XL-O-CUGU","solar":"N","pin_nbr":"039B209   181","use_code":"1","geolocation":"POINT (-118.25826 33.80282)","status_date":"05/22/2018","permit_group":"Building","refresh_time":"06/10/2026","type_lat_lon":"ADDRESS","business_unit":"Express Permit"},"geometry":{"type":"Point","coordinates":[-118.25826,33.80282]}},{"type":"Feature","properties":{"date":"2014-06-11T00:00:00.000Z","year":2014,"description":"Change out 11 Windows and 6 Doors (Same size & type for residential buildings only). Kitchen & Bathroom remodel (For residential buildings; no structural changes). Combine with Electrical, Plumbing, & HVAC. Re-stucco; Replace drywall (no new walls added) Specific location: Entire House & Garage. Tear Off Existing Roofing. Re-roof 10 squares w/class 'A' or 'B' materials weighing less than 6 pounds per sq. ft. Install Fiberglass or Asphalt Shingles (max. 2 overlays).","metadescription":"Bldg-Alter/Repair. 1 or 2 Family Dwelling. Change out 11 Windows and 6 Doors (Same size & type for residential buildings only). Kitchen & Bathroom remodel (For residential buildings; no structural changes). Combine with Electrical, Plumbing, & HVAC. Re-stucco; Replace drywall (no new walls added) Specific location: Entire House & Garage. Tear Off Existing Roofing. Re-roof 10 squares w/class 'A' or 'B' materials weighing less than 6 pounds per sq. ft. Install Fiberglass or Asphalt Shingles (max. 2 overlays).. Permit Finaled. 24412 S SEAGROVE AVE","address":"24416 Seagrove Avenue, CA, Wilmington, 90744, US","ct":"2941.10","ev":"N","apc":"Harbor","cpa":"Wilmington - Harbor City","zone":"R1-1XL-O","solar":"N","pin_nbr":"039B209   114","use_code":"1","geolocation":"POINT (-118.25781 33.80423)","status_date":"09/16/2014","permit_group":"Building","refresh_time":"06/10/2026","type_lat_lon":"ADDRESS","business_unit":"Express Permit"},"geometry":{"type":"Point","coordinates":[-118.25781,33.80423]}},{"type":"Feature","properties":{"date":"2014-04-08T00:00:00.000Z","year":2014,"description":"INTERIOR REMODEL, TWO NEW PARTITION WALLS, TWO NEW DOORS, TWO NEW WINDOW WALLS. CONVERT ONE OFFICE ROOM INTO TWO ROOMS, AND ADD NEW PARTION WALL TO CREATE ANOTHER ROOM.","metadescription":"Bldg-Alter/Repair. Commercial. INTERIOR REMODEL, TWO NEW PARTITION WALLS, TWO NEW DOORS, TWO NEW WINDOW WALLS. CONVERT ONE OFFICE ROOM INTO TWO ROOMS, AND ADD NEW PARTION WALL TO CREATE ANOTHER ROOM.. Permit Finaled. 19701 S HAMILTON AVE","address":"19601 Hamilton Avenue, CA, Torrance, 90502, US","ct":"2920.00","ev":"N","apc":"Harbor","cpa":"Harbor Gateway","zone":"M3-1","solar":"N","pin_nbr":"057B197    82","use_code":"13","geolocation":"POINT (-118.28625 33.85221)","status_date":"04/23/2014","permit_group":"Building","refresh_time":"06/10/2026","type_lat_lon":"ADDRESS","business_unit":"Plan Check at Counter"},"geometry":{"type":"Point","coordinates":[-118.28625,33.85221]}},{"type":"Feature","properties":{"date":"2012-08-02T00:00:00.000Z","year":2012,"description":"CHANGE OUT 11-WINDOWS (SAME SIZE AND TYPE FOR RESIDENTIAL BUILDINGS ONLY), RESTUCCO AS NEEDED AROUND WINDOWS.","metadescription":"Bldg-Alter/Repair. 1 or 2 Family Dwelling. CHANGE OUT 11-WINDOWS (SAME SIZE AND TYPE FOR RESIDENTIAL BUILDINGS ONLY), RESTUCCO AS NEEDED AROUND WINDOWS.. Permit Finaled. 24401 S AVALON BLVD","address":"24407 South Avalon Boulevard, CA, Wilmington, 90744, US","ct":"2941.10","ev":"N","apc":"Harbor","cpa":"Wilmington - Harbor City","zone":"[Q]RD1.5-1XL-O","solar":"N","pin_nbr":"039B205   156","use_code":"1","geolocation":"POINT (-118.26413 33.80448)","status_date":"02/11/2013","permit_group":"Building","refresh_time":"06/10/2026","type_lat_lon":"ADDRESS","business_unit":"Express Permit"},"geometry":{"type":"Point","coordinates":[-118.26413,33.80448]}},{"type":"Feature","properties":{"date":"2012-08-02T00:00:00.000Z","year":2012,"description":"CHANGE OUT 8-WINDOWS (SAME SIZE AND TYPE FOR RESIDENTIAL BUILDINGS ONLY)NEW STUCCO-ALL EXTERIOR, KITCHEN AND BATHROOM REMODEL(FOR RESIDENTIAL BILDINGS:  NO STRUCTURAL CHANGES) COMBINE WITH ELECTRICAL AND PLUMBING.","metadescription":"Bldg-Alter/Repair. 1 or 2 Family Dwelling. CHANGE OUT 8-WINDOWS (SAME SIZE AND TYPE FOR RESIDENTIAL BUILDINGS ONLY)NEW STUCCO-ALL EXTERIOR, KITCHEN AND BATHROOM REMODEL(FOR RESIDENTIAL BILDINGS:  NO STRUCTURAL CHANGES) COMBINE WITH ELECTRICAL AND PLUMBING.. Permit Finaled. 24403 S AVALON BLVD","address":"24407 South Avalon Boulevard, CA, Wilmington, 90744, US","ct":"2941.10","ev":"N","apc":"Harbor","cpa":"Wilmington - Harbor City","zone":"[Q]RD1.5-1XL-O","solar":"N","pin_nbr":"039B205   165","use_code":"1","geolocation":"POINT (-118.26413 33.80444)","status_date":"02/11/2013","permit_group":"Building","refresh_time":"06/10/2026","type_lat_lon":"ADDRESS","business_unit":"Express Permit"},"geometry":{"type":"Point","coordinates":[-118.26413,33.80444]}},{"type":"Feature","properties":{"date":"2010-07-14T00:00:00.000Z","year":2010,"description":"replace all window with same size of  width, two reframe bottom of window for egress window ( bedroom 10'x 11.5' and 11' x 12'), one reframe for smaller window at bathroom, enclose one window on bedroom (11' x 12').","metadescription":"Bldg-Alter/Repair. 1 or 2 Family Dwelling. replace all window with same size of  width, two reframe bottom of window for egress window ( bedroom 10'x 11.5' and 11' x 12'), one reframe for smaller window at bathroom, enclose one window on bedroom (11' x 12').. Permit Finaled. 828 E 246TH ST","address":"834 East 246Th Street, CA, Wilmington, 90744, US","ct":"2941.10","ev":"N","apc":"Harbor","cpa":"Wilmington - Harbor City","zone":"R1-1XL-O","solar":"N","pin_nbr":"039B209   209","use_code":"1","geolocation":"POINT (-118.25895 33.80204)","status_date":"12/14/2010","permit_group":"Building","refresh_time":"06/10/2026","type_lat_lon":"ADDRESS","business_unit":"Plan Check at Counter"},"geometry":{"type":"Point","coordinates":[-118.25895,33.80204]}},{"type":"Feature","properties":{"date":"2009-09-04T00:00:00.000Z","year":2009,"description":"Tear off existing roof from sfd.  Replace plywood as needed and install 20yr composition shingles.  Change out (12) windows same size and location.  Replace Drywall and insulation (no walls added). \"COMPLY WITH DEPARTMENT ORDER effective date 10/29/2007. PERMIT WILL EXPIRE 30DAYS FROM ISSUANCE DATE.","metadescription":"Bldg-Alter/Repair. 1 or 2 Family Dwelling. Tear off existing roof from sfd.  Replace plywood as needed and install 20yr composition shingles.  Change out (12) windows same size and location.  Replace Drywall and insulation (no walls added). \"COMPLY WITH DEPARTMENT ORDER effective date 10/29/2007. PERMIT WILL EXPIRE 30DAYS FROM ISSUANCE DATE.. Permit Finaled. 24418 S AVALON BLVD","address":"24418 South Avalon Boulevard, CA, Wilmington, 90744, US","ct":"2941.10","ev":"N","apc":"Harbor","cpa":"Wilmington - Harbor City","zone":"[Q]RD4-1XL-O","solar":"N","pin_nbr":"039B205   227","use_code":"1","geolocation":"POINT (-118.2638 33.80404)","status_date":"12/01/2009","permit_group":"Building","refresh_time":"06/10/2026","type_lat_lon":"ADDRESS","business_unit":"Express Permit"},"geometry":{"type":"Point","coordinates":[-118.2638,33.80404]}},{"type":"Feature","properties":{"date":"2008-08-04T00:00:00.000Z","year":2008,"description":"New drywall Specific location: storage room.  Change out 2 Windows and repair 1 Door (Same size & type for residential buildings only).  Termite damage/dry rot repair less than 10% of replacement cost building.  Replace damaged framing members (less than 10% of replacement cost of building) for houses and duplexes (not including decks).","metadescription":"Bldg-Alter/Repair. 1 or 2 Family Dwelling. New drywall Specific location: storage room.  Change out 2 Windows and repair 1 Door (Same size & type for residential buildings only).  Termite damage/dry rot repair less than 10% of replacement cost building.  Replace damaged framing members (less than 10% of replacement cost of building) for houses and duplexes (not including decks).. Issued. 24436 S SEAGROVE AVE","address":"24436 Seagrove Avenue, CA, Wilmington, 90744, US","ct":"2941.10","ev":"N","apc":"Harbor","cpa":"Wilmington - Harbor City","zone":"R1-1XL-O","solar":"N","pin_nbr":"039B209   150","use_code":"1","geolocation":"POINT (-118.25791 33.80356)","status_date":"08/04/2008","permit_group":"Building","refresh_time":"06/10/2026","type_lat_lon":"ADDRESS","business_unit":"Express Permit"},"geometry":{"type":"Point","coordinates":[-118.25791,33.80356]}},{"type":"Feature","properties":{"date":"2006-05-19T00:00:00.000Z","year":2006,"description":"ADD 11'-0\"X 23'-0\"  EXTENSION TO (E) TWO BEDROOMS;  CONSTRUCT  8'-0\"X 15'-9\"  ADDITION TO INCLUDE  EXTENSION TO KITCHEN AND  BATHROOM; ADD 5'-6\"X 8'-6\" EXTENSION TO NEW CREATED  FULL BATHROOM  FROM CLOSET CONVERSION.  CHANGE OUT SEVEN WINDOWS AND INTERIOR REMODEL. CONSTRUCTION PER TYPE V SHEET.","metadescription":"Bldg-Addition. 1 or 2 Family Dwelling. ADD 11'-0\"X 23'-0\"  EXTENSION TO (E) TWO BEDROOMS;  CONSTRUCT  8'-0\"X 15'-9\"  ADDITION TO INCLUDE  EXTENSION TO KITCHEN AND  BATHROOM; ADD 5'-6\"X 8'-6\" EXTENSION TO NEW CREATED  FULL BATHROOM  FROM CLOSET CONVERSION.  CHANGE OUT SEVEN WINDOWS AND INTERIOR REMODEL. CONSTRUCTION PER TYPE V SHEET.. CofO Issued. 24506 S LAKME AVE","address":"24506 Lakme Avenue, CA, Wilmington, 90744, US","ct":"2941.10","ev":"N","apc":"Harbor","cpa":"Wilmington - Harbor City","zone":"R1-1XL-O","solar":"N","pin_nbr":"039B205   257","use_code":"1","geolocation":"POINT (-118.26094758 33.80367314)","status_date":"08/17/2015","construction":"Type V-N Construction","permit_group":"Building","refresh_time":"06/10/2026","type_lat_lon":"BUILDING","business_unit":"Plan Check at Counter","square_footage":"426"},"geometry":{"type":"Point","coordinates":[-118.26094758,33.80367314]}},{"type":"Feature","properties":{"date":"2005-04-25T00:00:00.000Z","year":2005,"description":"REPLACE  9 WINDOWS (Same Size & Location) FOR EXIST'G RESIDENCE.","metadescription":"Bldg-Alter/Repair. 1 or 2 Family Dwelling. REPLACE  9 WINDOWS (Same Size & Location) FOR EXIST'G RESIDENCE.. Permit Finaled. 16307 S DENVER AVE","address":"16307 South Denver Avenue, CA, Gardena, 90248, US","ct":"2912.10","ev":"N","apc":"Harbor","cpa":"Harbor Gateway","zone":"R1-1","solar":"N","pin_nbr":"069B201   308","use_code":"1","geolocation":"POINT (-118.28404 33.88361)","status_date":"06/15/2005","permit_group":"Building","refresh_time":"06/10/2026","type_lat_lon":"ADDRESS","business_unit":"Express Permit"},"geometry":{"type":"Point","coordinates":[-118.28404,33.88361]}},{"type":"Feature","properties":{"date":"2003-08-11T00:00:00.000Z","year":2003,"description":"WINDOW CHANGE OUT: SAME SIZE AND LOCATION. (4) TOTAL.","metadescription":"Bldg-Alter/Repair. 1 or 2 Family Dwelling. WINDOW CHANGE OUT: SAME SIZE AND LOCATION. (4) TOTAL.. Permit Finaled. 24731 S SEAGROVE AVE","address":"24731 Seagrove Avenue, CA, Wilmington, 90744, US","ct":"2941.10","ev":"N","apc":"Harbor","cpa":"Wilmington - Harbor City","zone":"R1-1XL-O","solar":"N","pin_nbr":"039B209   241","use_code":"1","geolocation":"POINT (-118.25902 33.80118)","status_date":"10/30/2003","permit_group":"Building","refresh_time":"06/10/2026","type_lat_lon":"ADDRESS","business_unit":"Express Permit"},"geometry":{"type":"Point","coordinates":[-118.25902,33.80118]}},{"type":"Feature","properties":{"date":"2003-07-08T00:00:00.000Z","year":2003,"description":"new stucco at area where windows were removed; new garage door with stucco patch up around door opening. permit is good for 30 days.","metadescription":"Bldg-Alter/Repair. 1 or 2 Family Dwelling. new stucco at area where windows were removed; new garage door with stucco patch up around door opening. permit is good for 30 days.. Permit Finaled. 24431 S SEAGROVE AVE","address":"24431 Seagrove Avenue, CA, Wilmington, 90744, US","ct":"2941.10","ev":"N","apc":"Harbor","cpa":"Wilmington - Harbor City","zone":"R1-1XL-O","solar":"N","pin_nbr":"039B209   138","use_code":"7","geolocation":"POINT (-118.25809 33.80379)","status_date":"07/16/2003","permit_group":"Building","refresh_time":"06/10/2026","type_lat_lon":"ADDRESS","business_unit":"Express Permit"},"geometry":{"type":"Point","coordinates":[-118.25809,33.80379]}},{"type":"Feature","properties":{"date":"2001-08-21T00:00:00.000Z","year":2001,"description":"Change out 12 windows with same size at same location.","metadescription":"Bldg-Alter/Repair. 1 or 2 Family Dwelling. Change out 12 windows with same size at same location.. Permit Finaled. 24704 S SEAGROVE AVE","address":"24700 Seagrove Avenue, CA, Wilmington, 90744, US","ct":"2941.00","ev":"N","apc":"Harbor","zone":"R1-1XL-O","solar":"N","pin_nbr":"039B209   217","use_code":"1","geolocation":"POINT (-118.25851 33.80189)","status_date":"11/09/2001","permit_group":"Building","refresh_time":"06/10/2026","type_lat_lon":"ADDRESS","business_unit":"Express Permit"},"geometry":{"type":"Point","coordinates":[-118.25851,33.80189]}},{"type":"Feature","properties":{"date":"2001-04-16T00:00:00.000Z","year":2001,"description":"Change out 7 windows with same size and same location.","metadescription":"Bldg-Alter/Repair. 1 or 2 Family Dwelling. Change out 7 windows with same size and same location.. Permit Finaled. 24413 S DEEPWATER AVE","address":"24419 Deepwater Avenue, CA, Wilmington, 90744, US","ct":"2941.00","ev":"N","apc":"Harbor","zone":"R1-1XL-O","solar":"N","pin_nbr":"039B209   117","use_code":"1","geolocation":"POINT (-118.25887 33.8042)","status_date":"05/30/2001","permit_group":"Building","refresh_time":"06/10/2026","type_lat_lon":"ADDRESS","business_unit":"Express Permit"},"geometry":{"type":"Point","coordinates":[-118.25887,33.8042]}},{"type":"Feature","properties":{"date":"2000-07-28T00:00:00.000Z","year":2000,"description":"GEN. REHAB. TO COMPLY WITH ABATE ORDER DATED 10-19-99. PERMIT WILL EXPIRE 45 DAYS FROM DATE OF ISSUANCE. (PAINT, REPLACE DOORS, WINDOWS, CABINETS, ETC..)","metadescription":"Bldg-Alter/Repair. Apartment. GEN. REHAB. TO COMPLY WITH ABATE ORDER DATED 10-19-99. PERMIT WILL EXPIRE 45 DAYS FROM DATE OF ISSUANCE. (PAINT, REPLACE DOORS, WINDOWS, CABINETS, ETC..). Permit Finaled. 16539 S DENVER AVE","address":"16539 South Denver Avenue, CA, Gardena, 90248, US","ct":"2912.00","ev":"N","apc":"Harbor","zone":"R3-1","solar":"N","pin_nbr":"069B201   373","use_code":"5","geolocation":"POINT (-118.28384 33.88093)","status_date":"11/09/2000","permit_group":"Building","refresh_time":"06/10/2026","type_lat_lon":"ADDRESS","business_unit":"Express Permit"},"geometry":{"type":"Point","coordinates":[-118.28384,33.88093]}},{"type":"Feature","properties":{"date":"2000-07-27T00:00:00.000Z","year":2000,"description":"CHANGE OUT 9-WINDOWS(same size); KITCHEN CABINETS; REROOF w/ COMPOSITION SHINGLES(18sqrs). E. Q. gas shut off valve requried.","metadescription":"Bldg-Alter/Repair. 1 or 2 Family Dwelling. CHANGE OUT 9-WINDOWS(same size); KITCHEN CABINETS; REROOF w/ COMPOSITION SHINGLES(18sqrs). E. Q. gas shut off valve requried.. Permit Finaled. 514 W 169TH ST","address":"514 West 169Th Street, CA, Gardena, 90248, US","ct":"2912.00","ev":"N","apc":"Harbor","zone":"R1-1","solar":"N","pin_nbr":"066B201   121","use_code":"1","geolocation":"POINT (-118.28294 33.8784)","status_date":"08/14/2000","permit_group":"Building","refresh_time":"06/10/2026","type_lat_lon":"ADDRESS","business_unit":"Express Permit"},"geometry":{"type":"Point","coordinates":[-118.28294,33.8784]}},{"type":"Feature","properties":{"date":"1999-02-24T00:00:00.000Z","year":1999,"description":"replace 2x4 bottom cripples under window and replace int.&ext.plaster approx. 24sq.ft. each side.","metadescription":"Bldg-Alter/Repair. Apartment. replace 2x4 bottom cripples under window and replace int.&ext.plaster approx. 24sq.ft. each side.. Permit Finaled. 24415 S AVALON AVE","address":"24415 South Avalon Boulevard, CA, Wilmington, 90744, US","ct":"2941.00","ev":"N","apc":"Harbor","solar":"N","pin_nbr":"039B205   207","use_code":"5","geolocation":"POINT (-118.2643463 33.80415315)","status_date":"08/17/2001","permit_group":"Building","refresh_time":"06/10/2026","type_lat_lon":"PIN","business_unit":"Express Permit"},"geometry":{"type":"Point","coordinates":[-118.2643463,33.80415315]}},{"type":"Feature","properties":{"date":"1997-03-18T00:00:00.000Z","year":1997,"description":"replace (10) windows (same size)","metadescription":"Bldg-Alter/Repair. 1 or 2 Family Dwelling. replace (10) windows (same size). Permit Closed. 881 E OCEANSIDE ST","address":"881 Oceanside Street, CA, Wilmington, 90744, US","ct":"2941.00","ev":"N","apc":"Harbor","solar":"N","pin_nbr":"039B209   159","use_code":"1","geolocation":"POINT (-118.25858 33.80331)","status_date":"12/02/1999","permit_group":"Building","refresh_time":"06/10/2026","type_lat_lon":"ADDRESS","business_unit":"Plan Check at Counter"},"geometry":{"type":"Point","coordinates":[-118.25858,33.80331]}}]}
