{"type":"FeatureCollection","features":[{"type":"Feature","properties":{"date":"2014-12-12T00:00:00.000Z","year":2014,"description":"PROPOSED DEMOLITION OF (E) SINGLE FAMILY DWELLING AND CARPORT. CLEAR LOT, PROTECTION FENCE AND SEWER CAP REQUIRED.","metadescription":"Bldg-Demolition. 1 or 2 Family Dwelling. PROPOSED DEMOLITION OF (E) SINGLE FAMILY DWELLING AND CARPORT. CLEAR LOT, PROTECTION FENCE AND SEWER CAP REQUIRED.. Permit Finaled. 486 S HAMEL ROAD","address":"486 S HAMEL ROAD","ct":"2149.02","ev":"N","apc":"Central","cpa":"Wilshire","zone":"R1-1-O","solar":"N","pin_nbr":"135B169    50","use_code":"1","geolocation":"POINT (-118.38151 34.06971)","status_date":"09/27/2016","permit_group":"Building","refresh_time":"06/10/2026","type_lat_lon":"ADDRESS","business_unit":"Plan Check at Counter","square_footage":"0"},"geometry":{"type":"Point","coordinates":[-118.38151,34.06971]}},{"type":"Feature","properties":{"date":"2014-03-28T00:00:00.000Z","year":2014,"description":"NEW  ONE CAR CARPORT","metadescription":"Bldg-New. 1 or 2 Family Dwelling. NEW  ONE CAR CARPORT. CofO Issued. 486 S HAMEL ROAD","address":"486 S HAMEL ROAD","ct":"2149.02","ev":"N","apc":"Central","cpa":"Wilshire","zone":"R1-1-O","solar":"N","height":"11","pin_nbr":"135B169    50","use_code":"7","geolocation":"POINT (-118.38115559 34.06971663)","status_date":"11/25/2017","construction":"Type V-B Construction","permit_group":"Building","refresh_time":"06/10/2026","type_lat_lon":"BUILDING","business_unit":"Regular Plan Check","square_footage":"2421"},"geometry":{"type":"Point","coordinates":[-118.38115559,34.06971663]}},{"type":"Feature","properties":{"date":"2003-02-28T00:00:00.000Z","year":2003,"description":"Demolish carport.","metadescription":"Bldg-Demolition. 1 or 2 Family Dwelling. Demolish carport.. Permit Finaled. 474 S HOLT AVE","address":"474 S HOLT AVE","ct":"2149.00","ev":"N","apc":"Central","zone":"R1-1-O","solar":"N","pin_nbr":"135B173    91","use_code":"7","geolocation":"POINT (-118.37834 34.06996)","status_date":"04/21/2003","permit_group":"Building","refresh_time":"06/10/2026","type_lat_lon":"ADDRESS","business_unit":"Regular Plan Check","square_footage":"-209"},"geometry":{"type":"Point","coordinates":[-118.37834,34.06996]}},{"type":"Feature","properties":{"date":"2002-12-13T00:00:00.000Z","year":2002,"description":"AQDD CARPORT AT FRONT OF SFD. (ORIGINALLY PERMITTED UNDER PERMIT 99010-20000-02784).","metadescription":"Bldg-Addition. 1 or 2 Family Dwelling. AQDD CARPORT AT FRONT OF SFD. (ORIGINALLY PERMITTED UNDER PERMIT 99010-20000-02784).. Permit Finaled. 9200 W CRESCENT DR","address":"9200 W CRESCENT DR","ct":"1943.00, 2611.01","ev":"N","hl":"YES","apc":"West Los Angeles","zone":"RE15-1","solar":"N","pin_nbr":"150B169  1082","use_code":"1","geolocation":"POINT (-118.39222 34.10624)","status_date":"07/14/2003","construction":"Type V-N Construction","permit_group":"Building","refresh_time":"06/10/2026","type_lat_lon":"ADDRESS","business_unit":"Regular Plan Check","square_footage":"624"},"geometry":{"type":"Point","coordinates":[-118.39222,34.10624]}},{"type":"Feature","properties":{"date":"2002-06-06T00:00:00.000Z","year":2002,"description":"UNDERPINNING FOUNDATION OF CARPORT ON PERMIT 99010-20000-02784 PER SOILS ENGINEER'S RECOMENDATIONS AND PER ENGINEER'S DEATIL.","metadescription":"Bldg-Alter/Repair. 1 or 2 Family Dwelling. UNDERPINNING FOUNDATION OF CARPORT ON PERMIT 99010-20000-02784 PER SOILS ENGINEER'S RECOMENDATIONS AND PER ENGINEER'S DEATIL.. Permit Finaled. 9200 W CRESCENT DR","address":"9200 W CRESCENT DR","ct":"2611.01, 7006.00","ev":"N","hl":"YES","apc":"West Los Angeles","zone":"RE15-1, H","solar":"N","pin_nbr":"150B169  1082","use_code":"7","geolocation":"POINT (-118.39222 34.10624)","status_date":"10/10/2008","permit_group":"Building","refresh_time":"06/10/2026","type_lat_lon":"ADDRESS","business_unit":"Appointment Plan Check"},"geometry":{"type":"Point","coordinates":[-118.39222,34.10624]}},{"type":"Feature","properties":{"date":"2000-02-04T00:00:00.000Z","year":2000,"description":"ADD IRR 27' X 34' ATT CARPORT AND ENTRY PATIO COVER.","metadescription":"Bldg-Addition. 1 or 2 Family Dwelling. ADD IRR 27' X 34' ATT CARPORT AND ENTRY PATIO COVER.. Permit Finaled. 9200 W CRESCENT DR","address":"9200 W CRESCENT DR","ct":"2611.01","ev":"N","hl":"YES","apc":"West Los Angeles","zone":"RE15-1, H","solar":"N","pin_nbr":"150B169  1082","use_code":"1","geolocation":"POINT (-118.39222 34.10624)","status_date":"07/21/2003","construction":"Type V-N Construction","permit_group":"Building","refresh_time":"06/10/2026","type_lat_lon":"ADDRESS","business_unit":"Appointment Plan Check"},"geometry":{"type":"Point","coordinates":[-118.39222,34.10624]}},{"type":"Feature","properties":{"date":"2000-02-04T00:00:00.000Z","year":2000,"description":"REMOVE AND RECOMPACT AT CARPORT AREA.","metadescription":"Grading. 1 or 2 Family Dwelling. REMOVE AND RECOMPACT AT CARPORT AREA.. Permit Finaled. 9200 W CRESCENT DR","address":"9200 W CRESCENT DR","ct":"2611.01, 7006.00","ev":"N","hl":"YES","apc":"West Los Angeles","zone":"RE15-1, H","solar":"N","pin_nbr":"150B169  1082","use_code":"70","geolocation":"POINT (-118.39222 34.10624)","status_date":"03/11/2004","permit_group":"Building","refresh_time":"06/10/2026","type_lat_lon":"ADDRESS","business_unit":"Express Permit"},"geometry":{"type":"Point","coordinates":[-118.39222,34.10624]}}]}
