{"type":"FeatureCollection","features":[{"type":"Feature","properties":{"date":"2026-06-03T00:00:00.000Z","year":2026,"description":"ePlan:  Modification to existing wireless facility for AT&T. Install, remove and replace antennas and ancillary equipment on an existing wireless facility for AT&T on existing commercial building","metadescription":"Bldg-Alter/Repair. Commercial. ePlan:  Modification to existing wireless facility for AT&T. Install, remove and replace antennas and ancillary equipment on an existing wireless facility for AT&T on existing commercial building. PC Assigned. 8200 W WILSHIRE BLVD","address":"8200 Wilshire Boulevard, CA, Beverly Hills, 90211, US","ct":"2163.00","ev":"N","apc":"Central","cpa":"Wilshire","zone":"C2-2-O","solar":"N","pin_nbr":"135B173   841","use_code":"16","status_date":"06/08/2026","permit_group":"Building","refresh_time":"06/10/2026","type_lat_lon":"ADDRESS","business_unit":"Expanded Counter Plan Check"},"geometry":{"type":"Point","coordinates":[-118.37198,34.06381]}},{"type":"Feature","properties":{"date":"2019-07-23T00:00:00.000Z","year":2019,"description":"Re-roof with Class A or B material weighing less than 6 pounds per sq. ft. over new solid sheathing 34 squares.  For residential roof replacement > 50% of the total roof area, apply Cool Roof Product labeled and certified by Cool Roofing Rating Council (CRRC). Cool Roof may be required for non-residential buildings per Title 24, Part 6, Section 141.0(b)2B.","metadescription":"Bldg-Alter/Repair. 1 or 2 Family Dwelling. Re-roof with Class A or B material weighing less than 6 pounds per sq. ft. over new solid sheathing 34 squares.  For residential roof replacement > 50% of the total roof area, apply Cool Roof Product labeled and certified by Cool Roofing Rating Council (CRRC). Cool Roof may be required for non-residential buildings per Title 24, Part 6, Section 141.0(b)2B.. Permit Finaled. 481 S HOLT AVE","address":"487 South Holt Avenue, CA, Los Angeles, 90048, US","ct":"2149.02","ev":"N","apc":"Central","cpa":"Wilshire","zone":"R1-1-O","solar":"N","pin_nbr":"135B173   115","use_code":"1","geolocation":"POINT (-118.3786 34.06984)","status_date":"08/26/2019","permit_group":"Building","refresh_time":"06/10/2026","type_lat_lon":"ADDRESS","business_unit":"Express Permit"},"geometry":{"type":"Point","coordinates":[-118.3786,34.06984]}},{"type":"Feature","properties":{"date":"2019-04-08T00:00:00.000Z","year":2019,"description":"New 12.5' x 12'7\" detached storage building per engineering","metadescription":"Bldg-New. 1 or 2 Family Dwelling. New 12.5' x 12'7\" detached storage building per engineering. CofO Issued. 489 S WILLAMAN DR","address":"489 South Willaman Drive, CA, Los Angeles, 90048, US","ct":"2149.02","ev":"N","apc":"Central","cpa":"Wilshire","zone":"R1-1-O","solar":"N","height":"13","pin_nbr":"135B169    49","use_code":"22","geolocation":"POINT (-118.38107898 34.06978807)","status_date":"08/26/2022","construction":"Type V-B Construction","permit_group":"Building","refresh_time":"06/10/2026","type_lat_lon":"BUILDING","business_unit":"Regular Plan Check","square_footage":"132"},"geometry":{"type":"Point","coordinates":[-118.38107898,34.06978807]}},{"type":"Feature","properties":{"date":"2019-03-14T00:00:00.000Z","year":2019,"description":"Re-roof with Class A or B material weighing less than 6 pounds per sq. ft. over existing solid sheathing __ 30__squares.  For residential roof replacement > 50% of the total roof area, apply Cool Roof Product labeled and certified by Cool Roofing Rating Council (CRRC). Cool Roof may be required for non-residential buildings per Title 24, Part 6, Section 141.0(b)2B.","metadescription":"Bldg-Alter/Repair. 1 or 2 Family Dwelling. Re-roof with Class A or B material weighing less than 6 pounds per sq. ft. over existing solid sheathing __ 30__squares.  For residential roof replacement > 50% of the total roof area, apply Cool Roof Product labeled and certified by Cool Roofing Rating Council (CRRC). Cool Roof may be required for non-residential buildings per Title 24, Part 6, Section 141.0(b)2B.. Permit Finaled. 1301 N SCHUYLER ROAD","address":"1301 Schuyler Road, CA, Beverly Hills, 90210, US","ct":"2611.01","ev":"N","hl":"YES","apc":"West Los Angeles","cpa":"Bel Air - Beverly Crest","zone":"RE15-1","solar":"N","pin_nbr":"144B165    86","use_code":"1","geolocation":"POINT (-118.40302 34.09449)","status_date":"04/08/2019","permit_group":"Building","refresh_time":"06/10/2026","type_lat_lon":"ADDRESS","business_unit":"Express Permit"},"geometry":{"type":"Point","coordinates":[-118.40302,34.09449]}},{"type":"Feature","properties":{"date":"2018-08-15T00:00:00.000Z","year":2018,"description":"REMOVE AND REPLACE (9) 8' PANEL ANTENNAS AND INSTALL (6) NEW RRUS ON (E) BUILDING ROOFTOP PER ZA 2000-4499 (CUW)(PAI).","metadescription":"Bldg-Alter/Repair. Commercial. REMOVE AND REPLACE (9) 8' PANEL ANTENNAS AND INSTALL (6) NEW RRUS ON (E) BUILDING ROOFTOP PER ZA 2000-4499 (CUW)(PAI).. Permit Finaled. 8200 W WILSHIRE BLVD","address":"8200 Wilshire Boulevard, CA, Beverly Hills, 90211, US","ct":"2163.00","ev":"N","apc":"Central","cpa":"Wilshire","zone":"C2-2-O","solar":"N","pin_nbr":"135B173   841","use_code":"15","geolocation":"POINT (-118.37198 34.06381)","status_date":"08/31/2018","permit_group":"Building","refresh_time":"06/10/2026","type_lat_lon":"ADDRESS","business_unit":"Regular Plan Check"},"geometry":{"type":"Point","coordinates":[-118.37198,34.06381]}},{"type":"Feature","properties":{"date":"2018-07-16T00:00:00.000Z","year":2018,"description":"Re-roof with Class A or B material weighing less than 6 pounds per sq. ft. over existing solid sheathing 24 squares.  For residential roof replacement > 50% of the total roof area, apply Cool Roof Product labeled and certified by Cool Roofing Rating Council (CRRC). Cool Roof may be required for non-residential buildings per Title 24, Part 6, Section 141.0(b)2B.","metadescription":"Bldg-Alter/Repair. 1 or 2 Family Dwelling. Re-roof with Class A or B material weighing less than 6 pounds per sq. ft. over existing solid sheathing 24 squares.  For residential roof replacement > 50% of the total roof area, apply Cool Roof Product labeled and certified by Cool Roofing Rating Council (CRRC). Cool Roof may be required for non-residential buildings per Title 24, Part 6, Section 141.0(b)2B.. Issued. 9354 W READCREST DR","address":"9354 Readcrest Drive, CA, Beverly Hills, 90210, US","ct":"2611.01","ev":"N","hl":"Yes","apc":"West Los Angeles","cpa":"Bel Air - Beverly Crest","zone":"RE15-1","solar":"N","pin_nbr":"147B165   586","use_code":"1","geolocation":"POINT (-118.40327 34.09513)","status_date":"07/16/2018","permit_group":"Building","refresh_time":"06/10/2026","type_lat_lon":"ADDRESS","business_unit":"Express Permit"},"geometry":{"type":"Point","coordinates":[-118.40327,34.09513]}},{"type":"Feature","properties":{"date":"2018-06-14T00:00:00.000Z","year":2018,"description":"Reroof with 15 sqrs BUILT UP roofing. Existing solid sheathing.Re-roof with Class A or B material weighing less than 6 pounds per sq. ft. For residential roof replacement > 50% of the total roof area, apply Cool Roof Product labeled and certified by Cool Roof Rating Council (CRRC). Cool Roof may be required for non-residential buildings per Title 24, Part 6, Section 149(b).","metadescription":"Bldg-Alter/Repair. 1 or 2 Family Dwelling. Reroof with 15 sqrs BUILT UP roofing. Existing solid sheathing.Re-roof with Class A or B material weighing less than 6 pounds per sq. ft. For residential roof replacement > 50% of the total roof area, apply Cool Roof Product labeled and certified by Cool Roof Rating Council (CRRC). Cool Roof may be required for non-residential buildings per Title 24, Part 6, Section 149(b).. Permit Finaled. 482 S HOLT AVE","address":"482 South Holt Avenue, CA, Los Angeles, 90048, US","ct":"2149.02","ev":"N","apc":"Central","cpa":"Wilshire","zone":"R1-1-O","solar":"N","pin_nbr":"135B173   112","use_code":"1","geolocation":"POINT (-118.37834 34.06984)","status_date":"06/25/2018","permit_group":"Building","refresh_time":"06/10/2026","type_lat_lon":"ADDRESS","business_unit":"Express Permit"},"geometry":{"type":"Point","coordinates":[-118.37834,34.06984]}},{"type":"Feature","properties":{"date":"2017-07-21T00:00:00.000Z","year":2017,"description":"Supplemental to 16014-10001-02863 to revise building/floor layouts. No change in floor area. (See comments)","metadescription":"Bldg-Alter/Repair. 1 or 2 Family Dwelling. Supplemental to 16014-10001-02863 to revise building/floor layouts. No change in floor area. (See comments). Permit Finaled. 483 S SHERBOURNE DR","address":"483 South Sherbourne Drive, CA, Los Angeles, 90048, US","ct":"2149.02","ev":"N","apc":"Central","cpa":"Wilshire","zone":"R1-1-O","solar":"N","pin_nbr":"135B169    38","use_code":"1","geolocation":"POINT (-118.37978224 34.06989061)","status_date":"07/27/2018","permit_group":"Building","refresh_time":"06/10/2026","type_lat_lon":"BUILDING","business_unit":"Plan Check at Counter"},"geometry":{"type":"Point","coordinates":[-118.37978224,34.06989061]}},{"type":"Feature","properties":{"date":"2017-01-31T00:00:00.000Z","year":2017,"description":"MODIFICATION OE ( E ) WTF AT ROOFTOP  OF BUILDING , PER ZA-2000-4499(CUW)(PA1) : REMOVE (1)  RBS 2016 EQUIPMENT ; REPLACE (3) RRUS-11 WITH  RRUS-32 ; INSTALL (3) RRUS-E2 , ( 3) NEW RRUS-11 , (1) NEW RBS 6601 CHASIS , S -41 , (3) NEW XMU INSIDE NEW PURCELL CABINET , (1) NEW DUS-41 INSIDE (E) PURCELL CABINET , (1) NEW ARGUS POWER PLANT , (1) NEW BATTERY ENCLOSURE .","metadescription":"Bldg-Alter/Repair. Commercial. MODIFICATION OE ( E ) WTF AT ROOFTOP  OF BUILDING , PER ZA-2000-4499(CUW)(PA1) : REMOVE (1)  RBS 2016 EQUIPMENT ; REPLACE (3) RRUS-11 WITH  RRUS-32 ; INSTALL (3) RRUS-E2 , ( 3) NEW RRUS-11 , (1) NEW RBS 6601 CHASIS , S -41 , (3) NEW XMU INSIDE NEW PURCELL CABINET , (1) NEW DUS-41 INSIDE (E) PURCELL CABINET , (1) NEW ARGUS POWER PLANT , (1) NEW BATTERY ENCLOSURE .. Permit Finaled. 8200 W WILSHIRE BLVD","address":"8200 Wilshire Boulevard, CA, Beverly Hills, 90211, US","ct":"2163.00","ev":"N","apc":"Central","cpa":"Wilshire","zone":"C2-2-O","solar":"N","pin_nbr":"135B173   841","use_code":"13","geolocation":"POINT (-118.37198 34.06381)","status_date":"03/09/2017","permit_group":"Building","refresh_time":"06/10/2026","type_lat_lon":"ADDRESS","business_unit":"Plan Check at Counter"},"geometry":{"type":"Point","coordinates":[-118.37198,34.06381]}},{"type":"Feature","properties":{"date":"2017-01-09T00:00:00.000Z","year":2017,"description":"Reroof with 36 sqrs COMP SHINGLE roofing. Existing solid sheathing.Re-roof with Class A or B material weighing less than 6 pounds per sq. ft. For residential roof replacement > 50% of the total roof area, apply Cool Roof Product labeled and certified by Cool Roof Rating Council (CRRC). Cool Roof may be required for non-residential buildings per Title 24, Part 6, Section 149(b).","metadescription":"Bldg-Alter/Repair. 1 or 2 Family Dwelling. Reroof with 36 sqrs COMP SHINGLE roofing. Existing solid sheathing.Re-roof with Class A or B material weighing less than 6 pounds per sq. ft. For residential roof replacement > 50% of the total roof area, apply Cool Roof Product labeled and certified by Cool Roof Rating Council (CRRC). Cool Roof may be required for non-residential buildings per Title 24, Part 6, Section 149(b).. Permit Closed. 9400 W READCREST DR","address":"9400 Readcrest Drive, CA, Beverly Hills, 90210, US","ct":"2611.01","ev":"N","hl":"YES","apc":"West Los Angeles","cpa":"Bel Air - Beverly Crest","zone":"RE15-1","solar":"N","pin_nbr":"147B165   515","use_code":"1","geolocation":"POINT (-118.40477 34.09592)","status_date":"08/18/2021","permit_group":"Building","refresh_time":"06/10/2026","type_lat_lon":"ADDRESS","business_unit":"Express Permit"},"geometry":{"type":"Point","coordinates":[-118.40477,34.09592]}},{"type":"Feature","properties":{"date":"2016-05-09T00:00:00.000Z","year":2016,"description":"PROPOSED REVISIONS TO UNITS ON THE 35TH FLOOR- CHANGING 2- TWO BEDROOM UNITS TO A THREE BEDROOM AND A ONE BEDROOM ON THE NORTHSIDE OF THE BUILDING.ORIG WORK DESC=283 UNIT HIGHRISE APARTMENT OVER 4-LEVEL PARKING GARAGE.","metadescription":"Bldg-Alter/Repair. Apartment. PROPOSED REVISIONS TO UNITS ON THE 35TH FLOOR- CHANGING 2- TWO BEDROOM UNITS TO A THREE BEDROOM AND A ONE BEDROOM ON THE NORTHSIDE OF THE BUILDING.ORIG WORK DESC=283 UNIT HIGHRISE APARTMENT OVER 4-LEVEL PARKING GARAGE.. Permit Finaled. 10000 W SANTA MONICA BLVD 1-283","address":"1-283, 10000 Santa Monica Boulevard, CA, Los Angeles, 90067, US","ct":"2679.01","ev":"N","apc":"West Los Angeles","cpa":"West Los Angeles","zone":"C2-2-O","solar":"N","pin_nbr":"135B161    46","use_code":"5","geolocation":"POINT (-118.41433779 34.06319175)","status_date":"04/18/2017","permit_group":"Building","refresh_time":"06/10/2026","type_lat_lon":"BUILDING","business_unit":"Plan Check at Counter"},"geometry":{"type":"Point","coordinates":[-118.41433779,34.06319175]}},{"type":"Feature","properties":{"date":"2016-05-09T00:00:00.000Z","year":2016,"description":"PROPOSED REVISIONS TO THE 40TH FLOOR - STRUCT AND ARCH REVISIONS- CHANGE A PREVIOUSLY APPROVED PRIVATE DECK TO A DECK FOR ALL TENANTS OF THE BUILDING. FLOOR PLANS BEING APPROVED FOR UNITS ON 49TH SINCE ORIGINALLY APPROVED AS A CORE/SHELL. REVISE COLUMN LOCATION, OPENING LAYOUT AND ADDITION OF TRANSFER BEAMS. REVISE SLAB REINFORCING DUE TO ABOVE MENTIONED CHANGES.","metadescription":"Bldg-Alter/Repair. Apartment. PROPOSED REVISIONS TO THE 40TH FLOOR - STRUCT AND ARCH REVISIONS- CHANGE A PREVIOUSLY APPROVED PRIVATE DECK TO A DECK FOR ALL TENANTS OF THE BUILDING. FLOOR PLANS BEING APPROVED FOR UNITS ON 49TH SINCE ORIGINALLY APPROVED AS A CORE/SHELL. REVISE COLUMN LOCATION, OPENING LAYOUT AND ADDITION OF TRANSFER BEAMS. REVISE SLAB REINFORCING DUE TO ABOVE MENTIONED CHANGES.. Permit Finaled. 10000 W SANTA MONICA BLVD 1-283","address":"1-283, 10000 Santa Monica Boulevard, CA, Los Angeles, 90067, US","ct":"2679.01","ev":"N","apc":"West Los Angeles","cpa":"West Los Angeles","zone":"C2-2-O","solar":"N","pin_nbr":"135B161    46","use_code":"5","geolocation":"POINT (-118.41433779 34.06319175)","status_date":"05/08/2017","permit_group":"Building","refresh_time":"06/10/2026","type_lat_lon":"BUILDING","business_unit":"Regular Plan Check"},"geometry":{"type":"Point","coordinates":[-118.41433779,34.06319175]}},{"type":"Feature","properties":{"date":"2016-03-29T00:00:00.000Z","year":2016,"description":"THIS SUBMITTAL TO REVIEW AND APPROVE DETAILS TO FIX CURTAIN WALL  ATTACHMENTS FOR A HIGHRISE THAT IS UNDER CONSTRUCTION for FLOORS 4-8","metadescription":"Bldg-Alter/Repair. Apartment. THIS SUBMITTAL TO REVIEW AND APPROVE DETAILS TO FIX CURTAIN WALL  ATTACHMENTS FOR A HIGHRISE THAT IS UNDER CONSTRUCTION for FLOORS 4-8. Permit Finaled. 10000 W SANTA MONICA BLVD 1-283","address":"1-283, 10000 Santa Monica Boulevard, CA, Los Angeles, 90067, US","ct":"2679.01","ev":"N","apc":"West Los Angeles","cpa":"West Los Angeles","zone":"C2-2-O","solar":"N","pin_nbr":"135B161    46","use_code":"5","geolocation":"POINT (-118.41433779 34.06319175)","status_date":"04/13/2017","permit_group":"Building","refresh_time":"06/10/2026","type_lat_lon":"BUILDING","business_unit":"Regular Plan Check"},"geometry":{"type":"Point","coordinates":[-118.41433779,34.06319175]}},{"type":"Feature","properties":{"date":"2016-03-11T00:00:00.000Z","year":2016,"description":"INSTALL (13) TEMPORARY SIGNS (31'-3\" X 8'-0\"; 250 SF/EACH, NON-ILLUMINATED) ON A CONSTRUCTION FENCE.  PERMIT VALID 2 YEARS OR CONSTRUCTION COMPLETED WHICHEVER COME FIRST FROM PERMIT ISSUANCE DATE:3/11/2016.  (SEE COMMENTS)","metadescription":"Sign. Onsite. INSTALL (13) TEMPORARY SIGNS (31'-3\" X 8'-0\"; 250 SF/EACH, NON-ILLUMINATED) ON A CONSTRUCTION FENCE.  PERMIT VALID 2 YEARS OR CONSTRUCTION COMPLETED WHICHEVER COME FIRST FROM PERMIT ISSUANCE DATE:3/11/2016.  (SEE COMMENTS). Permit Closed. 10000 W SANTA MONICA BLVD","address":"1-283, 10000 Santa Monica Boulevard, CA, Los Angeles, 90067, US","ct":"2679.01","ev":"N","apc":"West Los Angeles","cpa":"West Los Angeles","zone":"C2-2-O","solar":"N","pin_nbr":"135B161    35","use_code":"19","geolocation":"POINT (-118.41446 34.06351)","status_date":"05/22/2017","permit_group":"Building","refresh_time":"06/10/2026","type_lat_lon":"ADDRESS","business_unit":"Plan Check at Counter"},"geometry":{"type":"Point","coordinates":[-118.41446,34.06351]}},{"type":"Feature","properties":{"date":"2016-02-01T00:00:00.000Z","year":2016,"description":"GENERAL REHABILITATION FOR SINGLE FAMILY DWELLINGS AND DUPLEXES (NON-STRUCTURAL CHANGES, LESS THAN 10% OF REPLACEMENT COST OF BUILDING). REPLACE DRYWALL (NO NEW WALLS ADDED) FOR RESIDENTIAL BUILDINGS ONLY.","metadescription":"Bldg-Alter/Repair. 1 or 2 Family Dwelling. GENERAL REHABILITATION FOR SINGLE FAMILY DWELLINGS AND DUPLEXES (NON-STRUCTURAL CHANGES, LESS THAN 10% OF REPLACEMENT COST OF BUILDING). REPLACE DRYWALL (NO NEW WALLS ADDED) FOR RESIDENTIAL BUILDINGS ONLY.. Permit Finaled. 1001 N HANOVER DR","address":"1001 Hanover Drive, CA, Beverly Hills, 90210, US","ct":"2621.00","ev":"N","hl":"YES","apc":"West Los Angeles","cpa":"Bel Air - Beverly Crest","zone":"RE40-1","solar":"N","pin_nbr":"141B157    57","use_code":"1","geolocation":"POINT (-118.42699 34.08354)","status_date":"05/10/2018","permit_group":"Building","refresh_time":"06/10/2026","type_lat_lon":"ADDRESS","business_unit":"Express Permit"},"geometry":{"type":"Point","coordinates":[-118.42699,34.08354]}},{"type":"Feature","properties":{"date":"2015-10-30T00:00:00.000Z","year":2015,"description":"Re-roof with Class A or B material weighing less than 6 pound per sq. ft.  For residential roof replacement > 50% of the total roof area, apply Cool Roof Product labeled and certified by Cool Roof Rating Council (CRRC).  Cool Roof may be required for non-residential buildings per Title 24, Part 6, Section 149 (b).","metadescription":"Bldg-Alter/Repair. 1 or 2 Family Dwelling. Re-roof with Class A or B material weighing less than 6 pound per sq. ft.  For residential roof replacement > 50% of the total roof area, apply Cool Roof Product labeled and certified by Cool Roof Rating Council (CRRC).  Cool Roof may be required for non-residential buildings per Title 24, Part 6, Section 149 (b).. Permit Finaled. 473 S HOLT AVE","address":"473 South Holt Avenue, CA, Los Angeles, 90048, US","ct":"2149.02","ev":"N","apc":"Central","cpa":"Wilshire","zone":"R1-1-O","solar":"N","pin_nbr":"135B173    69","use_code":"1","geolocation":"POINT (-118.3786 34.07008)","status_date":"01/21/2016","permit_group":"Building","refresh_time":"06/10/2026","type_lat_lon":"ADDRESS","business_unit":"Express Permit"},"geometry":{"type":"Point","coordinates":[-118.3786,34.07008]}},{"type":"Feature","properties":{"date":"2015-10-23T00:00:00.000Z","year":2015,"description":"New 10'-0\" diameter spa on the 3rd floor of the apartment building - See comments.","metadescription":"Swimming-Pool/Spa. Apartment. New 10'-0\" diameter spa on the 3rd floor of the apartment building - See comments.. Issued. 10000 W SANTA MONICA BLVD 1-283","address":"1-283, 10000 Santa Monica Boulevard, CA, Los Angeles, 90067, US","ct":"2679.01","ev":"N","apc":"West Los Angeles","cpa":"West Los Angeles","zone":"C2-2-O","solar":"N","pin_nbr":"135B161    42","use_code":"4","geolocation":"POINT (-118.41446 34.06351)","status_date":"10/23/2015","permit_group":"Building","refresh_time":"06/10/2026","type_lat_lon":"ADDRESS","business_unit":"Regular Plan Check"},"geometry":{"type":"Point","coordinates":[-118.41446,34.06351]}},{"type":"Feature","properties":{"date":"2015-10-23T00:00:00.000Z","year":2015,"description":"New irregular shape 75'-3\" x 15'-3\" swimming pool on the 3rd floor of the apartment building - See comments.","metadescription":"Swimming-Pool/Spa. Apartment. New irregular shape 75'-3\" x 15'-3\" swimming pool on the 3rd floor of the apartment building - See comments.. Issued. 10000 W SANTA MONICA BLVD 1-283","address":"1-283, 10000 Santa Monica Boulevard, CA, Los Angeles, 90067, US","ct":"2679.01","ev":"N","apc":"West Los Angeles","cpa":"West Los Angeles","zone":"C2-2-O","solar":"N","pin_nbr":"135B161    42","use_code":"4","geolocation":"POINT (-118.41446 34.06351)","status_date":"10/23/2015","permit_group":"Building","refresh_time":"06/10/2026","type_lat_lon":"ADDRESS","business_unit":"Regular Plan Check"},"geometry":{"type":"Point","coordinates":[-118.41446,34.06351]}},{"type":"Feature","properties":{"date":"2015-10-23T00:00:00.000Z","year":2015,"description":"New irregular shape 37'-0\" x 17'-0\" swimming pool on the 3rd floor of the apartment building - See comments.","metadescription":"Swimming-Pool/Spa. Apartment. New irregular shape 37'-0\" x 17'-0\" swimming pool on the 3rd floor of the apartment building - See comments.. Issued. 10000 W SANTA MONICA BLVD 1-283","address":"1-283, 10000 Santa Monica Boulevard, CA, Los Angeles, 90067, US","ct":"2679.01","ev":"N","apc":"West Los Angeles","cpa":"West Los Angeles","zone":"C2-2-O","solar":"N","pin_nbr":"135B161    42","use_code":"4","geolocation":"POINT (-118.41446 34.06351)","status_date":"10/23/2015","permit_group":"Building","refresh_time":"06/10/2026","type_lat_lon":"ADDRESS","business_unit":"Regular Plan Check"},"geometry":{"type":"Point","coordinates":[-118.41446,34.06351]}},{"type":"Feature","properties":{"date":"2015-10-01T00:00:00.000Z","year":2015,"description":"PROPOSED DEFERRED SUBMITTAL FOR THE CURTAIN WALL SYSTEM (FLOORS 4 TO ROOF) ON A HIGHRISE THAT IS UNDER CONSTRUCTION.THE ORIG WORK DESCR= 283 UNIT HIGHRISE APARTMENT OVER 4-LEVEL PARKING GARAGE. PARKING IS PROPOSED AS AN AUTOMATED GARAGE FACILITY. RAILS, STAIRS, CURTAIN WALL  ARE DEFERRED.","metadescription":"Bldg-Alter/Repair. Apartment. PROPOSED DEFERRED SUBMITTAL FOR THE CURTAIN WALL SYSTEM (FLOORS 4 TO ROOF) ON A HIGHRISE THAT IS UNDER CONSTRUCTION.THE ORIG WORK DESCR= 283 UNIT HIGHRISE APARTMENT OVER 4-LEVEL PARKING GARAGE. PARKING IS PROPOSED AS AN AUTOMATED GARAGE FACILITY. RAILS, STAIRS, CURTAIN WALL  ARE DEFERRED.. Permit Finaled. 10000 W SANTA MONICA BLVD 1-283","address":"1-283, 10000 Santa Monica Boulevard, CA, Los Angeles, 90067, US","ct":"2679.01","ev":"N","apc":"West Los Angeles","cpa":"West Los Angeles","zone":"C2-2-O","solar":"N","pin_nbr":"135B161    46","use_code":"5","geolocation":"POINT (-118.41433779 34.06319175)","status_date":"04/04/2017","permit_group":"Building","refresh_time":"06/10/2026","type_lat_lon":"BUILDING","business_unit":"Regular Plan Check"},"geometry":{"type":"Point","coordinates":[-118.41433779,34.06319175]}},{"type":"Feature","properties":{"date":"2015-06-01T00:00:00.000Z","year":2015,"description":"THIS PERMIT BEING ISSUED TO REVISE THE WORK DESCRIPTION ON THE ORIGINAL PERMIT TO READ: CORE AND SHELL FOR A NEW 283 UNIT HIGHRISE APARTMENT, ACCESSORY AMENITIES, AND OFFICES OVER 4-LEVEL PARKING GARAGE.   THE LEASING OFFICE WILL BE REVISED TO INCLUDE A TEMPORARY 2-HOUR WALL THAT WILL SEPARATE THE OFFICE FROM THE REST OF THE BUILDING DURING THE TCO OF THE LEASING OFFICE SPACE.LEASING OFFICE TCO PHASE 1CORE AND SHELL FOR ENTIRE BLDG WITH FLOORS 1 TO 15 FULLY COMPLETE TCO PHASE 2","metadescription":"Bldg-Alter/Repair. Apartment. THIS PERMIT BEING ISSUED TO REVISE THE WORK DESCRIPTION ON THE ORIGINAL PERMIT TO READ: CORE AND SHELL FOR A NEW 283 UNIT HIGHRISE APARTMENT, ACCESSORY AMENITIES, AND OFFICES OVER 4-LEVEL PARKING GARAGE.   THE LEASING OFFICE WILL BE REVISED TO INCLUDE A TEMPORARY 2-HOUR WALL THAT WILL SEPARATE THE OFFICE FROM THE REST OF THE BUILDING DURING THE TCO OF THE LEASING OFFICE SPACE.LEASING OFFICE TCO PHASE 1CORE AND SHELL FOR ENTIRE BLDG WITH FLOORS 1 TO 15 FULLY COMPLETE TCO PHASE 2. Permit Finaled. 10000 W SANTA MONICA BLVD 1-283","address":"1-283, 10000 Santa Monica Boulevard, CA, Los Angeles, 90067, US","ct":"2679.01","ev":"N","apc":"West Los Angeles","cpa":"West Los Angeles","zone":"C2-2-O","solar":"N","pin_nbr":"135B161    46","use_code":"5","geolocation":"POINT (-118.41433779 34.06319175)","status_date":"07/07/2016","permit_group":"Building","refresh_time":"06/10/2026","type_lat_lon":"BUILDING","business_unit":"Plan Check at Counter"},"geometry":{"type":"Point","coordinates":[-118.41433779,34.06319175]}},{"type":"Feature","properties":{"date":"2015-03-23T00:00:00.000Z","year":2015,"description":"PROPOSED STRUCTURAL REVISIONS TO THE BLDG THAT IS UNDER CONSTRUCTION. ORIG WORK DESC=283 UNIT HIGHRISE APARTMENT OVER 4-LEVEL PARKING GARAGE. PARKING IS PROPOSED AS AN AUTOMATED GARAGE FACILITY. RAILS, STAIRS, CURTAIN WALL  ARE DEFERRED.","metadescription":"Bldg-Alter/Repair. Apartment. PROPOSED STRUCTURAL REVISIONS TO THE BLDG THAT IS UNDER CONSTRUCTION. ORIG WORK DESC=283 UNIT HIGHRISE APARTMENT OVER 4-LEVEL PARKING GARAGE. PARKING IS PROPOSED AS AN AUTOMATED GARAGE FACILITY. RAILS, STAIRS, CURTAIN WALL  ARE DEFERRED.. Permit Finaled. 10000 W SANTA MONICA BLVD 1-283","address":"1-283, 10000 Santa Monica Boulevard, CA, Los Angeles, 90067, US","ct":"2679.01","ev":"N","apc":"West Los Angeles","cpa":"West Los Angeles","zone":"C2-2-O","solar":"N","pin_nbr":"135B161    46","use_code":"5","geolocation":"POINT (-118.41433779 34.06319175)","status_date":"04/04/2017","permit_group":"Building","refresh_time":"06/10/2026","type_lat_lon":"BUILDING","business_unit":"Plan Check at Counter"},"geometry":{"type":"Point","coordinates":[-118.41433779,34.06319175]}},{"type":"Feature","properties":{"date":"2014-10-10T00:00:00.000Z","year":2014,"description":"PROPOSED REVISIONS TO FOUNDATIONS AT THE WEST SIDE OF THE BUILDING- FROM GRID PB TO PM. ORIG WORK DESC= 283 UNIT HIGHRISE APARTMENT OVER 4-LEVEL PARKING GARAGE. PARKING IS PROPOSED AS AN AUTOMATED GARAGE FACILITY. RAILS, STAIRS, CURTAIN WALL  ARE DEFERRED.","metadescription":"Bldg-Alter/Repair. Apartment. PROPOSED REVISIONS TO FOUNDATIONS AT THE WEST SIDE OF THE BUILDING- FROM GRID PB TO PM. ORIG WORK DESC= 283 UNIT HIGHRISE APARTMENT OVER 4-LEVEL PARKING GARAGE. PARKING IS PROPOSED AS AN AUTOMATED GARAGE FACILITY. RAILS, STAIRS, CURTAIN WALL  ARE DEFERRED.. Permit Finaled. 10000 W SANTA MONICA BLVD 1-283","address":"1-283, 10000 Santa Monica Boulevard, CA, Los Angeles, 90067, US","ct":"2679.01","ev":"N","apc":"West Los Angeles","cpa":"West Los Angeles","zone":"C2-2-O","solar":"N","pin_nbr":"135B161    46","use_code":"5","geolocation":"POINT (-118.41433779 34.06319175)","status_date":"04/04/2017","permit_group":"Building","refresh_time":"06/10/2026","type_lat_lon":"BUILDING","business_unit":"Plan Check at Counter"},"geometry":{"type":"Point","coordinates":[-118.41433779,34.06319175]}},{"type":"Feature","properties":{"date":"2013-10-04T00:00:00.000Z","year":2013,"description":"INSTALLATION OF A NEW WIRELESS FACILITY CONSISTING OF - INSTALL TWELVE (12) PANEL ANTENNAS AND ANCILLARY EQUIPMENT ON ROOF OF (E) BUILDING WITH RADIO CABINES PLACED ON A NEW EQUIPMENT PLATFORM ON THE ROOF  *** SEE APPLICATION COMMENTS FOR REMAINER OF DESCRIPTION ***","metadescription":"Bldg-Alter/Repair. Commercial. INSTALLATION OF A NEW WIRELESS FACILITY CONSISTING OF - INSTALL TWELVE (12) PANEL ANTENNAS AND ANCILLARY EQUIPMENT ON ROOF OF (E) BUILDING WITH RADIO CABINES PLACED ON A NEW EQUIPMENT PLATFORM ON THE ROOF  *** SEE APPLICATION COMMENTS FOR REMAINER OF DESCRIPTION ***. Permit Finaled. 8200 W WILSHIRE BLVD","address":"6590 San Vicente Boulevard, CA, Los Angeles, 90048, US","ct":"2163.00","ev":"N","apc":"Central","cpa":"Wilshire","zone":"C2-2-O","solar":"N","pin_nbr":"135B173   841","use_code":"15","geolocation":"POINT (-118.37184744 34.06371669)","status_date":"01/30/2014","permit_group":"Building","refresh_time":"06/10/2026","type_lat_lon":"PIN","business_unit":"Regular Plan Check"},"geometry":{"type":"Point","coordinates":[-118.37184744,34.06371669]}},{"type":"Feature","properties":{"date":"2008-06-25T00:00:00.000Z","year":2008,"description":"REVISE FLOOR LAYOUT FOR 2ND FLOOR SPA TREATMENT AREA DUE TO FIELD CONDITION.  ORIGINAL WORK DESCRIPTION: \"SECOND PHASE OF RENOVATION OF GUEST ROOMS.  MODIFICATION OF BUILDING FACADE ON 1ST FLOOR FOR (E) RESTAURANT.\"","metadescription":"Bldg-Alter/Repair. Commercial. REVISE FLOOR LAYOUT FOR 2ND FLOOR SPA TREATMENT AREA DUE TO FIELD CONDITION.  ORIGINAL WORK DESCRIPTION: \"SECOND PHASE OF RENOVATION OF GUEST ROOMS.  MODIFICATION OF BUILDING FACADE ON 1ST FLOOR FOR (E) RESTAURANT.\". Permit Finaled. 463 S LA CIENEGA BLVD","address":"465 South La Cienega Boulevard, CA, Los Angeles, 90048, US","ct":"2149.00","ev":"N","apc":"Central","cpa":"Wilshire","zone":"(Q)C2-2D-O","solar":"N","pin_nbr":"135B173   109","use_code":"11","geolocation":"POINT (-118.37655 34.06984)","status_date":"04/08/2009","permit_group":"Building","refresh_time":"06/10/2026","type_lat_lon":"ADDRESS","business_unit":"Plan Check at Counter"},"geometry":{"type":"Point","coordinates":[-118.37655,34.06984]}},{"type":"Feature","properties":{"date":"2008-02-07T00:00:00.000Z","year":2008,"description":"INSTALL (4) 6' X 40' TEMPORARY CONSTRUCTION WALL SIGNS PER ORD 179,267 FOR CONSTRUCTION UNDER PERMIT 06014-20003-06192.","metadescription":"Sign. Onsite. INSTALL (4) 6' X 40' TEMPORARY CONSTRUCTION WALL SIGNS PER ORD 179,267 FOR CONSTRUCTION UNDER PERMIT 06014-20003-06192.. Permit Expired. 8200 W WILSHIRE BLVD","address":"6590 San Vicente Boulevard, CA, Los Angeles, 90048, US","ct":"2163.00","ev":"N","apc":"Central","cpa":"Wilshire","zone":"C2-2-O","solar":"N","pin_nbr":"135B173   841","use_code":"19","geolocation":"POINT (-118.37184744 34.06371669)","status_date":"03/21/2008","permit_group":"Building","refresh_time":"06/10/2026","type_lat_lon":"PIN","business_unit":"Plan Check at Counter"},"geometry":{"type":"Point","coordinates":[-118.37184744,34.06371669]}},{"type":"Feature","properties":{"date":"2007-10-22T00:00:00.000Z","year":2007,"description":"SECOND PHASE OF RENOVATION OF GUEST ROOMS.  MODIFICATION OF BUILDING FACADE ON 1ST FLOOR FOR (E) RESTAURANT.","metadescription":"Bldg-Alter/Repair. Commercial. SECOND PHASE OF RENOVATION OF GUEST ROOMS.  MODIFICATION OF BUILDING FACADE ON 1ST FLOOR FOR (E) RESTAURANT.. Permit Finaled. 463 S LA CIENEGA BLVD","address":"465 South La Cienega Boulevard, CA, Los Angeles, 90048, US","ct":"2149.00","ev":"N","apc":"Central","cpa":"Wilshire","zone":"(Q)C2-2D-O","solar":"N","pin_nbr":"135B173   109","use_code":"11","geolocation":"POINT (-118.37655 34.06984)","status_date":"04/08/2009","permit_group":"Building","refresh_time":"06/10/2026","type_lat_lon":"ADDRESS","business_unit":"Regular Plan Check"},"geometry":{"type":"Point","coordinates":[-118.37655,34.06984]}},{"type":"Feature","properties":{"date":"2007-05-30T00:00:00.000Z","year":2007,"description":"2ND AND 3RD FLOOR TENANT IMPROVEMENT (6,993 SF PER FLOOR ) ; NON STRUCTURAL PARTITIONS IN AN EXISTING 4 STORY AND PENTHOUSE BUILDING","metadescription":"Bldg-Alter/Repair. Commercial. 2ND AND 3RD FLOOR TENANT IMPROVEMENT (6,993 SF PER FLOOR ) ; NON STRUCTURAL PARTITIONS IN AN EXISTING 4 STORY AND PENTHOUSE BUILDING. Permit Finaled. 6590 W SAN VICENTE BLVD","address":"6590 San Vicente Boulevard, CA, Los Angeles, 90048, US","ct":"2163.00","ev":"N","apc":"Central","cpa":"Wilshire","zone":"C2-2-O","solar":"N","pin_nbr":"135B173   841","use_code":"13","geolocation":"POINT (-118.37177 34.0637)","status_date":"03/04/2009","permit_group":"Building","refresh_time":"06/10/2026","type_lat_lon":"ADDRESS","business_unit":"Appointment Plan Check"},"geometry":{"type":"Point","coordinates":[-118.37177,34.0637]}},{"type":"Feature","properties":{"date":"2006-08-16T00:00:00.000Z","year":2006,"description":"ERECT FENCING AROUND CONSTRUCTION SITE (18-24 MONTH DURATION).","metadescription":"Nonbldg-New. Commercial. ERECT FENCING AROUND CONSTRUCTION SITE (18-24 MONTH DURATION).. Permit Finaled. 10000 W SANTA MONICA BLVD","address":"1-283, 10000 Santa Monica Boulevard, CA, Los Angeles, 90067, US","ct":"2671.00","ev":"N","apc":"West Los Angeles","cpa":"West Los Angeles","zone":"C2-2-O","solar":"N","pin_nbr":"135B161    35","use_code":"23","geolocation":"POINT (-118.41446 34.06351)","status_date":"03/15/2007","permit_group":"Building","refresh_time":"06/10/2026","type_lat_lon":"ADDRESS","business_unit":"Plan Check at Counter"},"geometry":{"type":"Point","coordinates":[-118.41446,34.06351]}},{"type":"Feature","properties":{"date":"2005-06-10T00:00:00.000Z","year":2005,"description":"DEMOLISH (E) 5 STORY OFFICE AND PARKING BUILDING.","metadescription":"Bldg-Demolition. Commercial. DEMOLISH (E) 5 STORY OFFICE AND PARKING BUILDING.. Permit Finaled. 10000 W SANTA MONICA BLVD","address":"1-283, 10000 Santa Monica Boulevard, CA, Los Angeles, 90067, US","ct":"2671.00","ev":"N","apc":"West Los Angeles","cpa":"West Los Angeles","zone":"C2-2-O","solar":"N","pin_nbr":"135B161    42","use_code":"13","geolocation":"POINT (-118.41446 34.06351)","status_date":"08/19/2008","permit_group":"Building","refresh_time":"06/10/2026","type_lat_lon":"ADDRESS","business_unit":"Appointment Plan Check","square_footage":"-129851"},"geometry":{"type":"Point","coordinates":[-118.41446,34.06351]}},{"type":"Feature","properties":{"date":"2005-02-02T00:00:00.000Z","year":2005,"description":"ONE STORY GROUND FLOOR ADDITION AT REAR.  ALL CONSTRUCTION TO COMPLY WITH CITY STANDARD TYPE V SHEET.","metadescription":"Bldg-Addition. 1 or 2 Family Dwelling. ONE STORY GROUND FLOOR ADDITION AT REAR.  ALL CONSTRUCTION TO COMPLY WITH CITY STANDARD TYPE V SHEET.. Permit Expired. 486 S SHERBOURNE DR","address":"486 South Sherbourne Drive, CA, Los Angeles, 90048, US","ct":"2149.00","ev":"N","apc":"Central","cpa":"Wilshire","zone":"R1-1-O","solar":"N","pin_nbr":"135B173   134","use_code":"1","geolocation":"POINT (-118.37939 34.06972)","status_date":"04/23/2007","construction":"Type V-N Construction","permit_group":"Building","refresh_time":"06/10/2026","type_lat_lon":"ADDRESS","business_unit":"Plan Check at Counter","square_footage":"195"},"geometry":{"type":"Point","coordinates":[-118.37939,34.06972]}},{"type":"Feature","properties":{"date":"1998-07-14T00:00:00.000Z","year":1998,"description":"excavation & backfill for swimming pool / spa construction. 50 cy","metadescription":"Grading. 1 or 2 Family Dwelling. excavation & backfill for swimming pool / spa construction. 50 cy. Permit Finaled. 9400 W READCREST DR","address":"9400 Readcrest Drive, CA, Beverly Hills, 90210, US","ev":"N","hl":"YES","apc":"West Los Angeles","solar":"N","pin_nbr":"147B165   515","use_code":"70","geolocation":"POINT (-118.40477 34.09592)","status_date":"12/18/2001","permit_group":"Building","refresh_time":"06/10/2026","type_lat_lon":"ADDRESS","business_unit":"Express Permit"},"geometry":{"type":"Point","coordinates":[-118.40477,34.09592]}},{"type":"Feature","properties":{"date":"1997-02-28T00:00:00.000Z","year":1997,"description":"TI: Construct a stair and elevator shaft (1st to 2nd fl), with 4 hr.fire rated walls, at west end of building The shaft is structually design for 5 stories, but for this permit, construct only 1st to 2nd floor.","metadescription":"Bldg-Alter/Repair. Commercial. TI: Construct a stair and elevator shaft (1st to 2nd fl), with 4 hr.fire rated walls, at west end of building The shaft is structually design for 5 stories, but for this permit, construct only 1st to 2nd floor.. Permit Expired. 10000 W SANTA MONICA BLVD","address":"1-283, 10000 Santa Monica Boulevard, CA, Los Angeles, 90067, US","ct":"2671.00","ev":"N","apc":"West Los Angeles","zone":"C2-2, O","solar":"N","pin_nbr":"135B161    42","use_code":"13","geolocation":"POINT (-118.41446 34.06351)","status_date":"12/11/2006","construction":"Type I-F.R. Construction","permit_group":"Building","refresh_time":"06/10/2026","type_lat_lon":"ADDRESS","business_unit":"Appointment Plan Check"},"geometry":{"type":"Point","coordinates":[-118.41446,34.06351]}}]}
