{"type":"FeatureCollection","features":[{"type":"Feature","properties":{"date":"2026-01-27T00:00:00.000Z","year":2026,"description":"EPLAN. UNIT #863: Remove/Replace all interior finishes (floors/walls), insulation, windows, doors. Remove existing damaged Electrical & Plumbing fixtures/components in-kind. UNIT #865: Remove/Replace existing charred floor framing and provide new floor joists, blocking and sheathing. Remove existing damaged Electrical & Plumbing fixtures/components in-kind.","metadescription":"Bldg-Alter/Repair. 1 or 2 Family Dwelling. EPLAN. UNIT #863: Remove/Replace all interior finishes (floors/walls), insulation, windows, doors. Remove existing damaged Electrical & Plumbing fixtures/components in-kind. UNIT #865: Remove/Replace existing charred floor framing and provide new floor joists, blocking and sheathing. Remove existing damaged Electrical & Plumbing fixtures/components in-kind.. Issued. 863-865 S HOLT AVE","address":"1-2, 863 South Holt Avenue, CA, Los Angeles, 90035, US","ct":"2164.02","ev":"N","apc":"Central","cpa":"Wilshire","zone":"[Q]R3-1-O","solar":"N","pin_nbr":"132B173   127","use_code":"2","status_date":"01/27/2026","permit_group":"Building","refresh_time":"06/10/2026","type_lat_lon":"ADDRESS","business_unit":"Expanded Counter Plan Check"},"geometry":{"type":"Point","coordinates":[-118.37854,34.06113]}},{"type":"Feature","properties":{"date":"2025-06-30T00:00:00.000Z","year":2025,"description":"Supplemental to 24010-10000-04417 to change from electric to gas","metadescription":"Bldg-Alter/Repair. 1 or 2 Family Dwelling. Supplemental to 24010-10000-04417 to change from electric to gas. Issued. 104 S ALMONT DR","address":"104 South Almont Drive, CA, Los Angeles, 90048, US","ct":"2149.04","ev":"N","apc":"Central","cpa":"Wilshire","zone":"R1-1-O","solar":"N","pin_nbr":"138B169   362","use_code":"1","status_date":"06/30/2025","permit_group":"Building","refresh_time":"06/10/2026","type_lat_lon":"ADDRESS","business_unit":"Plan Check at Counter"},"geometry":{"type":"Point","coordinates":[-118.38761,34.07508]}},{"type":"Feature","properties":{"date":"2024-02-21T00:00:00.000Z","year":2024,"description":"NEW 2-STORY SINGLE FAMILY DWELLING (3175 SQFT) W/3 LEVELS OF DECKS W/ATTACHED 2-CAR GARAGE (425 SQFT) AND HABITABLE BASEMENT (2160 SQFT). NFPA 13D SPRINKLERS THROUGHOUT. ALL ELECTRIC BUILDING","metadescription":"Bldg-New. 1 or 2 Family Dwelling. NEW 2-STORY SINGLE FAMILY DWELLING (3175 SQFT) W/3 LEVELS OF DECKS W/ATTACHED 2-CAR GARAGE (425 SQFT) AND HABITABLE BASEMENT (2160 SQFT). NFPA 13D SPRINKLERS THROUGHOUT. ALL ELECTRIC BUILDING. Quality Review Completed. 9432 W SIERRA MAR PL","address":"9432 Sierra Mar Place, CA, West Hollywood, 90069, US","ct":"1943.00","ev":"N","hl":"YES","apc":"Central","cpa":"Hollywood","zone":"RE11-1-HCR","solar":"N","height":"36","pin_nbr":"147B165   526","use_code":"1","status_date":"03/15/2024","construction":"Type V-B Construction","permit_group":"Building","refresh_time":"06/10/2026","type_lat_lon":"ADDRESS","business_unit":"Regular Plan Check","square_footage":"5102"},"geometry":{"type":"Point","coordinates":[-118.39521,34.09581]}},{"type":"Feature","properties":{"date":"2023-05-24T00:00:00.000Z","year":2023,"description":"Supplemental permit to # 21014-30000-01246 to convert portion of the crawl space to basement electrical room (465 sf), and for revision to structural framing plans","metadescription":"Bldg-Addition. 1 or 2 Family Dwelling. Supplemental permit to # 21014-30000-01246 to convert portion of the crawl space to basement electrical room (465 sf), and for revision to structural framing plans. Permit Finaled. 10080 W SUNSET BLVD","address":"10100 West Sunset Boulevard, CA, Los Angeles, 90077, US","ct":"2651.00","ev":"N","apc":"West Los Angeles","cpa":"Westwood","zone":"RE40-1","solar":"N","pin_nbr":"141B157   131","use_code":"1","status_date":"04/18/2026","construction":"Type V-B Construction","permit_group":"Building","refresh_time":"06/10/2026","type_lat_lon":"ADDRESS","business_unit":"Plan Check at Counter","square_footage":"465"},"geometry":{"type":"Point","coordinates":[-118.42675,34.07999]}},{"type":"Feature","properties":{"date":"2021-01-20T00:00:00.000Z","year":2021,"description":"SUPPLEMENTAL TO 20016-30000-08848 TO INCREASE PROJECT VALUATION FROM $15000 TO $25000 AND INCLUDE ELECTRICAL, PLUMBING AND HVAC PERMIT. ADDITIONAL FEE HAS BEEN ADDED TO FINAL FEE FOR E,M,P PERMITS. NO CHANGE IN PLANS OR PLOT PLAN.","metadescription":"Bldg-Alter/Repair. 1 or 2 Family Dwelling. SUPPLEMENTAL TO 20016-30000-08848 TO INCREASE PROJECT VALUATION FROM $15000 TO $25000 AND INCLUDE ELECTRICAL, PLUMBING AND HVAC PERMIT. ADDITIONAL FEE HAS BEEN ADDED TO FINAL FEE FOR E,M,P PERMITS. NO CHANGE IN PLANS OR PLOT PLAN.. Permit Finaled. 1172 S BEVERWIL DR","address":"1172 Beverwil Drive, CA, Los Angeles, 90035, US","ct":"2691.00","ev":"N","apc":"West Los Angeles","cpa":"West Los Angeles","zone":"R1-1-O","solar":"N","pin_nbr":"132A167   157","use_code":"1","status_date":"09/15/2021","permit_group":"Building","refresh_time":"06/10/2026","type_lat_lon":"ADDRESS","business_unit":"Plan Check at Counter"},"geometry":{"type":"Point","coordinates":[-118.39891,34.05609]}},{"type":"Feature","properties":{"date":"2019-11-26T00:00:00.000Z","year":2019,"description":"SUPPLEMENTAL PERMIT FOR 16010-20000-05466 TO ENLARGE POOL EQUIPMENT, ELECTRICAL & STORAGE ROOM INTO 1ST FLOOR CRAWL SPACE OF ACCESSORY LIVING QUARTERS","metadescription":"Bldg-Addition. 1 or 2 Family Dwelling. SUPPLEMENTAL PERMIT FOR 16010-20000-05466 TO ENLARGE POOL EQUIPMENT, ELECTRICAL & STORAGE ROOM INTO 1ST FLOOR CRAWL SPACE OF ACCESSORY LIVING QUARTERS. Permit Finaled. 244 N LADERA DR","address":"244 Ladera Drive, CA, Beverly Hills, 90210, US","ct":"2621.00","ev":"N","hl":"Yes","apc":"West Los Angeles","cpa":"Bel Air - Beverly Crest","zone":"RE40-1","solar":"N","pin_nbr":"141B157    71","use_code":"23","geolocation":"POINT (-118.42310112 34.08286685)","status_date":"08/20/2022","construction":"Type I-B Construction","permit_group":"Building","refresh_time":"06/10/2026","type_lat_lon":"BUILDING","business_unit":"Plan Check at Counter","square_footage":"1926"},"geometry":{"type":"Point","coordinates":[-118.42310112,34.08286685]}},{"type":"Feature","properties":{"date":"2019-07-26T00:00:00.000Z","year":2019,"description":"Re-plaster existing swimming pool (a separate express mechanical permit for new skimmer(s) and a separate express electrical permit for new pool luminaire is required, when applicable, except for one and two family dwelling).","metadescription":"Bldg-Alter/Repair. 1 or 2 Family Dwelling. Re-plaster existing swimming pool (a separate express mechanical permit for new skimmer(s) and a separate express electrical permit for new pool luminaire is required, when applicable, except for one and two family dwelling).. Permit Expired. 1460 N DOHENY DR","address":"1460 North Doheny Drive, CA, West Hollywood, 90069, US","ct":"1943.00","ev":"N","hl":"YES","apc":"Central","cpa":"Hollywood","zone":"RE11-1-HCR","solar":"N","pin_nbr":"147B169   741","use_code":"1","geolocation":"POINT (-118.3904 34.09739)","status_date":"12/09/2023","permit_group":"Building","refresh_time":"06/10/2026","type_lat_lon":"ADDRESS","business_unit":"Express Permit"},"geometry":{"type":"Point","coordinates":[-118.3904,34.09739]}},{"type":"Feature","properties":{"date":"2018-04-04T00:00:00.000Z","year":2018,"description":"Re-plaster existing swimming pool (a separate express mechanical permit  for new skimmer(s) and a separate express electrical permit for new pool luminaire is required, when applicable, except for one or two-family dwellings).","metadescription":"Nonbldg-Alter/Repair. 1 or 2 Family Dwelling. Re-plaster existing swimming pool (a separate express mechanical permit  for new skimmer(s) and a separate express electrical permit for new pool luminaire is required, when applicable, except for one or two-family dwellings).. Permit Finaled. 9274 W SIERRA MAR DR","address":"9274 West Sierra Mar Drive, CA, West Hollywood, 90069, US","ct":"1943.00","ev":"N","hl":"YES","apc":"Central","cpa":"Hollywood","zone":"RE11-1","solar":"N","pin_nbr":"144B165   659","use_code":"20","geolocation":"POINT (-118.39396 34.09459)","status_date":"04/25/2019","permit_group":"Building","refresh_time":"06/10/2026","type_lat_lon":"ADDRESS","business_unit":"Express Permit"},"geometry":{"type":"Point","coordinates":[-118.39396,34.09459]}},{"type":"Feature","properties":{"date":"2017-03-01T00:00:00.000Z","year":2017,"description":"supplemental to original 16016-30000-27708 to collect electrical, hvac, and plumbing fees.***no plot plan required****","metadescription":"Bldg-Alter/Repair. 1 or 2 Family Dwelling. supplemental to original 16016-30000-27708 to collect electrical, hvac, and plumbing fees.***no plot plan required****. Permit Finaled. 9237 W WARBLER WAY","address":"9237 Warbler Way, CA, West Hollywood, 90069, US","ct":"1943.00","ev":"N","hl":"YES","apc":"Central","cpa":"Hollywood","zone":"RE11-1","solar":"N","pin_nbr":"147B169   467","use_code":"1","geolocation":"POINT (-118.39071 34.0991)","status_date":"10/20/2017","permit_group":"Building","refresh_time":"06/10/2026","type_lat_lon":"ADDRESS","business_unit":"Plan Check at Counter"},"geometry":{"type":"Point","coordinates":[-118.39071,34.0991]}},{"type":"Feature","properties":{"date":"2017-02-01T00:00:00.000Z","year":2017,"description":"KITCHEN AND BATHROOM REMODEL COMBINED WITH ELECTRICAL, PLUMBING, AND HVAC FOR RESIDENTIAL BUILDINGS (NO STRUCTURAL CHANGES).RE-STUCCO (NO NEW WALLS ADDED) FOR SINGLE FAMILY DWELLINGS AND DUPLEXES ONLY.REPLACE DRYWALL (NO NEW WALLS ADDED) FOR SINGLE FAMILY DWELLINGS AND DUPLEX ONLY.RE-PLASTER EXISTING SWIMMING POOL (A SEPARATE EXPRESS MECHANICAL PERMIT FOR NEW SKIMMER(S) AND A SEPARATE EXPRESS ELECTRICAL PERMIT FOR NEW POOL LUMINAIRE IS REQUIRED, WHEN APPLICABLE, EXCEPT FOR ONE AND TWO-FAMILY DWELLINGS).","metadescription":"Bldg-Alter/Repair. 1 or 2 Family Dwelling. KITCHEN AND BATHROOM REMODEL COMBINED WITH ELECTRICAL, PLUMBING, AND HVAC FOR RESIDENTIAL BUILDINGS (NO STRUCTURAL CHANGES).RE-STUCCO (NO NEW WALLS ADDED) FOR SINGLE FAMILY DWELLINGS AND DUPLEXES ONLY.REPLACE DRYWALL (NO NEW WALLS ADDED) FOR SINGLE FAMILY DWELLINGS AND DUPLEX ONLY.RE-PLASTER EXISTING SWIMMING POOL (A SEPARATE EXPRESS MECHANICAL PERMIT FOR NEW SKIMMER(S) AND A SEPARATE EXPRESS ELECTRICAL PERMIT FOR NEW POOL LUMINAIRE IS REQUIRED, WHEN APPLICABLE, EXCEPT FOR ONE AND TWO-FAMILY DWELLINGS).. Permit Finaled. 1549 N DOHENY DR","address":"1545 North Doheny Drive, CA, West Hollywood, 90069, US","ct":"1943.00","ev":"N","hl":"YES","apc":"Central","cpa":"Hollywood","zone":"RE11-1","solar":"N","pin_nbr":"147B169   334","use_code":"1","geolocation":"POINT (-118.38919 34.10008)","status_date":"10/05/2020","permit_group":"Building","refresh_time":"06/10/2026","type_lat_lon":"ADDRESS","business_unit":"Express Permit"},"geometry":{"type":"Point","coordinates":[-118.38919,34.10008]}},{"type":"Feature","properties":{"date":"2017-01-13T00:00:00.000Z","year":2017,"description":"Kitchen/(2) bathroom remodel for residential buildings (no structural changes). **ELECTRICAL, PLUMBING COMBO INCLUDED**  (4) Window and door change-out (same size & type) for residential buildings.  Dual glazing, labeled and certified by National Fenestration Rating Council (NFRC), is required for doors and windows replaced in all residential buildings, three stories or less, per Section 152(b) of Title 24.","metadescription":"Bldg-Alter/Repair. 1 or 2 Family Dwelling. Kitchen/(2) bathroom remodel for residential buildings (no structural changes). **ELECTRICAL, PLUMBING COMBO INCLUDED**  (4) Window and door change-out (same size & type) for residential buildings.  Dual glazing, labeled and certified by National Fenestration Rating Council (NFRC), is required for doors and windows replaced in all residential buildings, three stories or less, per Section 152(b) of Title 24.. Permit Expired. 1173 S RODEO DR","address":"1173 Rodeo Drive, CA, Los Angeles, 90035, US","ct":"2690.00","ev":"N","apc":"West Los Angeles","cpa":"West Los Angeles","zone":"R1-1-O","solar":"N","pin_nbr":"132A165   150","use_code":"1","geolocation":"POINT (-118.3999 34.05652)","status_date":"12/11/2023","permit_group":"Building","refresh_time":"06/10/2026","type_lat_lon":"ADDRESS","business_unit":"Express Permit"},"geometry":{"type":"Point","coordinates":[-118.3999,34.05652]}},{"type":"Feature","properties":{"date":"2017-01-11T00:00:00.000Z","year":2017,"description":"KITCHEN REMODEL COMBINED WITH ELECTRICAL, PLUMBING, AND HVAC FOR RESIDENTIAL BUILDINGS (NO STRUCTURAL CHANGES).BATHROOM REMODEL COMBINED WITH ELECTRICAL, PLUMBING, AND HVAC FOR RESIDENTIAL BUILDINGS (NO STRUCTURAL CHANGES).","metadescription":"Bldg-Alter/Repair. 1 or 2 Family Dwelling. KITCHEN REMODEL COMBINED WITH ELECTRICAL, PLUMBING, AND HVAC FOR RESIDENTIAL BUILDINGS (NO STRUCTURAL CHANGES).BATHROOM REMODEL COMBINED WITH ELECTRICAL, PLUMBING, AND HVAC FOR RESIDENTIAL BUILDINGS (NO STRUCTURAL CHANGES).. Permit Expired. 1523 5/8 N DOHENY DR","address":"1523 5/8 Doheny Drive, CA, West Hollywood, 90069, US","ct":"1943.00","ev":"N","hl":"YES","apc":"Central","cpa":"Hollywood","zone":"RE11-1","solar":"N","pin_nbr":"147B169   352","use_code":"1","geolocation":"POINT (-118.39036 34.09985)","status_date":"08/25/2023","permit_group":"Building","refresh_time":"06/10/2026","type_lat_lon":"ADDRESS","business_unit":"Express Permit"},"geometry":{"type":"Point","coordinates":[-118.39036,34.09985]}},{"type":"Feature","properties":{"date":"2016-12-01T00:00:00.000Z","year":2016,"description":"KITCHEN  REMODEL COMBINED WITH ELECTRICAL AND PLUMBING  (FOR RESIDENTIAL BUILDINGS; NO STRUCTURAL CHANGES).","metadescription":"Bldg-Alter/Repair. 1 or 2 Family Dwelling. KITCHEN  REMODEL COMBINED WITH ELECTRICAL AND PLUMBING  (FOR RESIDENTIAL BUILDINGS; NO STRUCTURAL CHANGES).. Permit Expired. 1523 3/8 N DOHENY DR","address":"1523 3/8 North Doheny Drive, CA, West Hollywood, 90069, US","ct":"1943.00","ev":"N","hl":"Yes","apc":"Central","cpa":"Hollywood","zone":"RE11-1","solar":"N","pin_nbr":"147B169   411","use_code":"1","geolocation":"POINT (-118.39024 34.09956)","status_date":"08/25/2023","permit_group":"Building","refresh_time":"06/10/2026","type_lat_lon":"ADDRESS","business_unit":"Express Permit"},"geometry":{"type":"Point","coordinates":[-118.39024,34.09956]}},{"type":"Feature","properties":{"date":"2016-11-28T00:00:00.000Z","year":2016,"description":"Re-plaster existing swimming pool (a separate express mechanical permit  for new skimmer(s) and a separate express electrical permit for new pool luminaire is required, when applicable, except for one or two-family dwellings).","metadescription":"Nonbldg-Alter/Repair. 1 or 2 Family Dwelling. Re-plaster existing swimming pool (a separate express mechanical permit  for new skimmer(s) and a separate express electrical permit for new pool luminaire is required, when applicable, except for one or two-family dwellings).. Permit Finaled. 1482 N ORIOLE DR","address":"1482 North Oriole Drive, CA, West Hollywood, 90069, US","ct":"1943.00","ev":"N","hl":"YES","apc":"Central","cpa":"Hollywood","zone":"RE11-1","solar":"N","pin_nbr":"147B169   448","use_code":"20","geolocation":"POINT (-118.38902 34.0994)","status_date":"01/25/2017","permit_group":"Building","refresh_time":"06/10/2026","type_lat_lon":"ADDRESS","business_unit":"Express Permit"},"geometry":{"type":"Point","coordinates":[-118.38902,34.0994]}},{"type":"Feature","properties":{"date":"2016-10-18T00:00:00.000Z","year":2016,"description":"Cover area of abandoned electrical panel, lath and stucco area, and drywall repair.","metadescription":"Bldg-Alter/Repair. Commercial. Cover area of abandoned electrical panel, lath and stucco area, and drywall repair.. Permit Finaled. 814-818 S ROBERTSON BLVD","address":"814 South Robertson Boulevard, CA, Los Angeles, 90035, US","ct":"2164.02","ev":"N","apc":"Central","cpa":"Wilshire","zone":"[Q]C2-1-O","solar":"N","pin_nbr":"135B169   211","use_code":"13","geolocation":"POINT (-118.38338 34.0624)","status_date":"11/18/2016","permit_group":"Building","refresh_time":"06/10/2026","type_lat_lon":"ADDRESS","business_unit":"Plan Check at Counter"},"geometry":{"type":"Point","coordinates":[-118.38338,34.0624]}},{"type":"Feature","properties":{"date":"2016-06-13T00:00:00.000Z","year":2016,"description":"Re-plaster existing swimming pool (a separate express mechanical permit  for new skimmer(s) and a separate express electrical permit for new pool luminaire is required, when applicable, except for one or two-family dwellings).","metadescription":"Nonbldg-Alter/Repair. 1 or 2 Family Dwelling. Re-plaster existing swimming pool (a separate express mechanical permit  for new skimmer(s) and a separate express electrical permit for new pool luminaire is required, when applicable, except for one or two-family dwellings).. Permit Finaled. 1216 S DANIELS DR","address":"1222 Daniels Drive, CA, Los Angeles, 90035, US","ct":"2690.00","ev":"N","apc":"West Los Angeles","cpa":"West Los Angeles","zone":"R1-1-O","solar":"N","pin_nbr":"132A165   192","use_code":"20","geolocation":"POINT (-118.40158 34.05574)","status_date":"07/07/2016","permit_group":"Building","refresh_time":"06/10/2026","type_lat_lon":"ADDRESS","business_unit":"Express Permit"},"geometry":{"type":"Point","coordinates":[-118.40158,34.05574]}},{"type":"Feature","properties":{"date":"2016-03-18T00:00:00.000Z","year":2016,"description":"(1) WINDOW CHANGE-OUT (SAME SIZE & TYPE) FOR RESIDENTIAL BUILDINGS.  KITCHEN AND BATHROOMS REMODEL COMBINED WITH ELECTRICAL, PLUMBING.  RE-STUCCO (NO NEW WALLS ADDED) FOR RESIDENTIAL BUILDINGS ONLY.","metadescription":"Bldg-Alter/Repair. 1 or 2 Family Dwelling. (1) WINDOW CHANGE-OUT (SAME SIZE & TYPE) FOR RESIDENTIAL BUILDINGS.  KITCHEN AND BATHROOMS REMODEL COMBINED WITH ELECTRICAL, PLUMBING.  RE-STUCCO (NO NEW WALLS ADDED) FOR RESIDENTIAL BUILDINGS ONLY.. Permit Finaled. 132 S LAPEER DR","address":"136 South Lapeer Drive, CA, Los Angeles, 90048, US","ct":"2149.01","ev":"N","apc":"Central","cpa":"Wilshire","zone":"R1-1-O","solar":"N","pin_nbr":"138B169   459","use_code":"1","geolocation":"POINT (-118.38666 34.07427)","status_date":"01/23/2017","permit_group":"Building","refresh_time":"06/10/2026","type_lat_lon":"ADDRESS","business_unit":"Express Permit"},"geometry":{"type":"Point","coordinates":[-118.38666,34.07427]}},{"type":"Feature","properties":{"date":"2016-02-26T00:00:00.000Z","year":2016,"description":"Re-plaster existing swimming pool (a separate mechanical express permit for new skimmer(s) and a separate express electrical permit for new pool luminaire is required, when applicable, except for one and two family dwelling).","metadescription":"Nonbldg-Alter/Repair. 1 or 2 Family Dwelling. Re-plaster existing swimming pool (a separate mechanical express permit for new skimmer(s) and a separate express electrical permit for new pool luminaire is required, when applicable, except for one and two family dwelling).. Permit Finaled. 1471 N DOHENY DR","address":"1467 North Doheny Drive, CA, West Hollywood, 90069, US","ct":"1943.00","ev":"N","hl":"YES","apc":"Central","cpa":"Hollywood","zone":"RE11-1","solar":"N","pin_nbr":"147B169  1218","use_code":"20","geolocation":"POINT (-118.39038 34.09778)","status_date":"03/10/2016","permit_group":"Building","refresh_time":"06/10/2026","type_lat_lon":"ADDRESS","business_unit":"Express Permit"},"geometry":{"type":"Point","coordinates":[-118.39038,34.09778]}},{"type":"Feature","properties":{"date":"2015-09-29T00:00:00.000Z","year":2015,"description":"Re-plaster existing swimming pool (a separate mechanical express permit for new skimmer(s) and a separate express electrical permit for new pool luminaire is required, when applicable, except for one and two family dwelling).","metadescription":"Nonbldg-Alter/Repair. 1 or 2 Family Dwelling. Re-plaster existing swimming pool (a separate mechanical express permit for new skimmer(s) and a separate express electrical permit for new pool luminaire is required, when applicable, except for one and two family dwelling).. Permit Expired. 9385 W FLICKER WAY","address":"9385 Flicker Way, CA, West Hollywood, 90069, US","ct":"1943.00","ev":"N","hl":"YES","apc":"Central","cpa":"Hollywood","zone":"RE11-1","solar":"N","pin_nbr":"147B165   475","use_code":"20","geolocation":"POINT (-118.3942 34.09645)","status_date":"03/07/2025","permit_group":"Building","refresh_time":"06/10/2026","type_lat_lon":"ADDRESS","business_unit":"Express Permit"},"geometry":{"type":"Point","coordinates":[-118.3942,34.09645]}},{"type":"Feature","properties":{"date":"2015-03-20T00:00:00.000Z","year":2015,"description":"WINDOW [ __1___# of windows]  and DOOR [ __1___# of doors]  CHANGE-OUT (SAME SIZE & TYPE) FOR RESIDENTIAL BUILDINGS.  KITCHEN REMODEL COMBINED WITH ELECTRICAL, PLUMBING, AND HVAC FOR RESIDENTIAL BUILDINGS (NO STRUCTURAL CHANGES).  RE-STUCCO (NO NEW WALLS ADDED) FOR RESIDENTIAL BUILDINGS ONLY.  REPLACE DRYWALL (NO NEW WALLS ADDED) FOR RESIDENTIAL BUILDINGS ONLY.","metadescription":"Bldg-Alter/Repair. 1 or 2 Family Dwelling. WINDOW [ __1___# of windows]  and DOOR [ __1___# of doors]  CHANGE-OUT (SAME SIZE & TYPE) FOR RESIDENTIAL BUILDINGS.  KITCHEN REMODEL COMBINED WITH ELECTRICAL, PLUMBING, AND HVAC FOR RESIDENTIAL BUILDINGS (NO STRUCTURAL CHANGES).  RE-STUCCO (NO NEW WALLS ADDED) FOR RESIDENTIAL BUILDINGS ONLY.  REPLACE DRYWALL (NO NEW WALLS ADDED) FOR RESIDENTIAL BUILDINGS ONLY.. Permit Finaled. 1204 S CAMDEN DR","address":"1210 South Camden Drive, CA, Los Angeles, 90035, US","ct":"2690.00","ev":"N","apc":"West Los Angeles","cpa":"West Los Angeles","zone":"R1-1-O","solar":"N","pin_nbr":"132A165   131","use_code":"1","geolocation":"POINT (-118.40106 34.05652)","status_date":"08/31/2015","permit_group":"Building","refresh_time":"06/10/2026","type_lat_lon":"ADDRESS","business_unit":"Express Permit"},"geometry":{"type":"Point","coordinates":[-118.40106,34.05652]}},{"type":"Feature","properties":{"date":"2015-03-02T00:00:00.000Z","year":2015,"description":"Kitchen / (3) bathroom remodel for residential buildings (no structural changes) ALSO TO INCLUDE ELECTRICAL AND PLUMBING COMBO. Permit to collect fees for (1 ) additional inspection.  This permit does not authorize any additional work or extend the expiration date of the original permit.","metadescription":"Bldg-Alter/Repair. 1 or 2 Family Dwelling. Kitchen / (3) bathroom remodel for residential buildings (no structural changes) ALSO TO INCLUDE ELECTRICAL AND PLUMBING COMBO. Permit to collect fees for (1 ) additional inspection.  This permit does not authorize any additional work or extend the expiration date of the original permit.. Permit Finaled. 9260 W WARBLER WAY","address":"9260 Warbler Way, CA, West Hollywood, 90069, US","ct":"1943.00","ev":"N","hl":"YES","apc":"Central","cpa":"Hollywood","zone":"RE11-1","solar":"N","pin_nbr":"147B169   511","use_code":"1","geolocation":"POINT (-118.39167 34.09906)","status_date":"08/26/2015","permit_group":"Building","refresh_time":"06/10/2026","type_lat_lon":"ADDRESS","business_unit":"Express Permit"},"geometry":{"type":"Point","coordinates":[-118.39167,34.09906]}},{"type":"Feature","properties":{"date":"2015-02-04T00:00:00.000Z","year":2015,"description":"Re-plaster existing swimming pool (a separate express mechanical permit  for new skimmer(s) and a separate express electrical permit for new pool luminaire is required, when applicable, except for one or two-family dwellings).","metadescription":"Nonbldg-Alter/Repair. 1 or 2 Family Dwelling. Re-plaster existing swimming pool (a separate express mechanical permit  for new skimmer(s) and a separate express electrical permit for new pool luminaire is required, when applicable, except for one or two-family dwellings).. Permit Expired. 9392 W FLICKER WAY","address":"9392 Flicker Way, CA, West Hollywood, 90069, US","ct":"1943.00","ev":"N","hl":"YES","apc":"Central","cpa":"Hollywood","zone":"RE11-1","solar":"N","pin_nbr":"147B165   486","use_code":"20","geolocation":"POINT (-118.39442 34.09642)","status_date":"03/01/2017","permit_group":"Building","refresh_time":"06/10/2026","type_lat_lon":"ADDRESS","business_unit":"Express Permit"},"geometry":{"type":"Point","coordinates":[-118.39442,34.09642]}},{"type":"Feature","properties":{"date":"2014-06-18T00:00:00.000Z","year":2014,"description":"RE-PLASTER EXISTING SWIMMING POOL (A SEPARATE EXPRESS MECHANICAL PERMIT FOR NEW SKIMMER(S) AND A SEPARATE EXPRESS ELECTRICAL PERMIT FOR NEW POOL LUMINAIRE IS REQUIRED, WHEN APPLICABLE, EXCEPT FOR ONE AND TWO-FAMILY DWELLINGS).","metadescription":"Nonbldg-Alter/Repair. 1 or 2 Family Dwelling. RE-PLASTER EXISTING SWIMMING POOL (A SEPARATE EXPRESS MECHANICAL PERMIT FOR NEW SKIMMER(S) AND A SEPARATE EXPRESS ELECTRICAL PERMIT FOR NEW POOL LUMINAIRE IS REQUIRED, WHEN APPLICABLE, EXCEPT FOR ONE AND TWO-FAMILY DWELLINGS).. Permit Finaled. 1417 N DOHENY DR","address":"1417 North Doheny Drive, CA, West Hollywood, 90069, US","ct":"1943.00","ev":"N","hl":"YES","apc":"Central","cpa":"Hollywood","zone":"RE11-1","solar":"N","pin_nbr":"147B169   795","use_code":"20","geolocation":"POINT (-118.39126 34.09661)","status_date":"09/11/2014","permit_group":"Building","refresh_time":"06/10/2026","type_lat_lon":"ADDRESS","business_unit":"Express Permit"},"geometry":{"type":"Point","coordinates":[-118.39126,34.09661]}},{"type":"Feature","properties":{"date":"2013-09-26T00:00:00.000Z","year":2013,"description":"BATHROOM REMODEL COMBINED WITH ELECTRICAL AND PLUMBING.","metadescription":"Bldg-Alter/Repair. 1 or 2 Family Dwelling. BATHROOM REMODEL COMBINED WITH ELECTRICAL AND PLUMBING.. Issued. 1132 S DANIELS DR","address":"1132 Daniels Drive, CA, Los Angeles, 90035, US","ct":"2690.00","ev":"N","apc":"West Los Angeles","cpa":"West Los Angeles","zone":"R1-1-O","solar":"N","pin_nbr":"132A165   114","use_code":"1","geolocation":"POINT (-118.40257 34.0568)","status_date":"09/26/2013","permit_group":"Building","refresh_time":"06/10/2026","type_lat_lon":"ADDRESS","business_unit":"Express Permit"},"geometry":{"type":"Point","coordinates":[-118.40257,34.0568]}},{"type":"Feature","properties":{"date":"2013-08-23T00:00:00.000Z","year":2013,"description":"Re-plaster existing swimming pool (a separate mechanical express permit for new skimmer(s) and a separate express electrical permit for new pool luminaire is required, when applicable, except for one and two family dwelling).","metadescription":"Nonbldg-Alter/Repair. 1 or 2 Family Dwelling. Re-plaster existing swimming pool (a separate mechanical express permit for new skimmer(s) and a separate express electrical permit for new pool luminaire is required, when applicable, except for one and two family dwelling).. Permit Finaled. 1409 N DOHENY DR","address":"1409 North Doheny Drive, CA, West Hollywood, 90069, US","ct":"1943.00","ev":"N","hl":"YES","apc":"Central","cpa":"Hollywood","zone":"RE11-1","solar":"N","pin_nbr":"147B169   794","use_code":"20","geolocation":"POINT (-118.39149 34.09661)","status_date":"01/15/2015","permit_group":"Building","refresh_time":"06/10/2026","type_lat_lon":"ADDRESS","business_unit":"Express Permit"},"geometry":{"type":"Point","coordinates":[-118.39149,34.09661]}},{"type":"Feature","properties":{"date":"2013-07-12T00:00:00.000Z","year":2013,"description":"Kitchen/bathroom remodel for residential buildings (no structural changes). To include related Plumbing and Electrical for Kitchen and Bath only.","metadescription":"Bldg-Alter/Repair. 1 or 2 Family Dwelling. Kitchen/bathroom remodel for residential buildings (no structural changes). To include related Plumbing and Electrical for Kitchen and Bath only.. Issued. 9270 W KINGLET DR","address":"9270 Kinglet Drive, CA, West Hollywood, 90069, US","ct":"1943.00","ev":"N","hl":"YES","apc":"Central","cpa":"Hollywood","zone":"RE11-1","solar":"N","pin_nbr":"147B169   277","use_code":"1","geolocation":"POINT (-118.39175 34.1006)","status_date":"07/12/2013","permit_group":"Building","refresh_time":"06/10/2026","type_lat_lon":"ADDRESS","business_unit":"Express Permit"},"geometry":{"type":"Point","coordinates":[-118.39175,34.1006]}},{"type":"Feature","properties":{"date":"2013-03-29T00:00:00.000Z","year":2013,"description":"BATHROOM REMODEL COMBINED WITH ELECTRICAL, PLUMBING, AND HVAC","metadescription":"Bldg-Alter/Repair. 1 or 2 Family Dwelling. BATHROOM REMODEL COMBINED WITH ELECTRICAL, PLUMBING, AND HVAC. Permit Finaled. 1443 N DOHENY DR","address":"1439 North Doheny Drive, CA, West Hollywood, 90069, US","ct":"1943.00","ev":"N","hl":"YES","apc":"Central","cpa":"Hollywood","zone":"RE11-1","solar":"N","pin_nbr":"147B169   778","use_code":"1","geolocation":"POINT (-118.39083 34.09702)","status_date":"12/23/2013","permit_group":"Building","refresh_time":"06/10/2026","type_lat_lon":"ADDRESS","business_unit":"Express Permit"},"geometry":{"type":"Point","coordinates":[-118.39083,34.09702]}},{"type":"Feature","properties":{"date":"2011-03-02T00:00:00.000Z","year":2011,"description":"PROPOSED 40 sf ADDITION OF WINE ROOM TO PREVIOUSLY APPROVED WORK THAT IS UNDER CONSTRUCTION. ORIG WORK DESC= ADD'N TO (E) SFD OF 2,720 SQUARE FEET. ADDING A SCREENING ROOM, GYM, LOUNGE. RELATED ELECTRICAL, HVAC AND PLUMBING.","metadescription":"Bldg-Addition. 1 or 2 Family Dwelling. PROPOSED 40 sf ADDITION OF WINE ROOM TO PREVIOUSLY APPROVED WORK THAT IS UNDER CONSTRUCTION. ORIG WORK DESC= ADD'N TO (E) SFD OF 2,720 SQUARE FEET. ADDING A SCREENING ROOM, GYM, LOUNGE. RELATED ELECTRICAL, HVAC AND PLUMBING.. Permit Finaled. 210 N LADERA DR","address":"210 Ladera Drive, CA, Beverly Hills, 90210, US","ct":"2621.00","ev":"N","hl":"YES","apc":"West Los Angeles","cpa":"Bel Air - Beverly Crest","zone":"RE40-1","solar":"N","pin_nbr":"141B157    93","use_code":"1","geolocation":"POINT (-118.42308551 34.08175061)","status_date":"08/16/2011","construction":"Type V-B Construction","permit_group":"Building","refresh_time":"06/10/2026","type_lat_lon":"PIN","business_unit":"Plan Check at Counter","square_footage":"40"},"geometry":{"type":"Point","coordinates":[-118.42308551,34.08175061]}},{"type":"Feature","properties":{"date":"2011-02-09T00:00:00.000Z","year":2011,"description":"BATHROOM REMODEL COMBINED WITH ELECTRICAL AND PLUMBING (FOR RESIDENTIAL BUILDINGS; NO STRUCTURAL CHANGES).  REPLACE DRYWALL (NO NEW WALLS ADDED) SPECIFIC LOCATION: WALLS AND CEILING IN TWO ROOMS.  COMPLY WITH DEPARTMENT ORDER EFFECTIVE DATE 08/11/10; PERMIT WILL EXPIRE 30 DAYS FROM ISSUANCE DATE.","metadescription":"Bldg-Alter/Repair. 1 or 2 Family Dwelling. BATHROOM REMODEL COMBINED WITH ELECTRICAL AND PLUMBING (FOR RESIDENTIAL BUILDINGS; NO STRUCTURAL CHANGES).  REPLACE DRYWALL (NO NEW WALLS ADDED) SPECIFIC LOCATION: WALLS AND CEILING IN TWO ROOMS.  COMPLY WITH DEPARTMENT ORDER EFFECTIVE DATE 08/11/10; PERMIT WILL EXPIRE 30 DAYS FROM ISSUANCE DATE.. Permit Finaled. 143 S ALMONT DR GUEST HSE","address":"143 South Almont Drive, CA, Los Angeles, 90048, US","ct":"2149.00","ev":"N","apc":"Central","cpa":"Wilshire","zone":"R1-1-O","solar":"N","pin_nbr":"138B169   488","use_code":"1","geolocation":"POINT (-118.38787 34.074)","status_date":"08/04/2011","permit_group":"Building","refresh_time":"06/10/2026","type_lat_lon":"ADDRESS","business_unit":"Express Permit"},"geometry":{"type":"Point","coordinates":[-118.38787,34.074]}},{"type":"Feature","properties":{"date":"2011-01-13T00:00:00.000Z","year":2011,"description":"KITCHEN AND 2 BATHROOM REMODELS COMBINED WITH ELECTRICAL AND PLUMBING (FOR RESIDENTIAL BUILDINGS; NO STRUCTURAL CHANGES).  RE-STUCCO; SPECIFIC LOCATION: REAROF THE HOUSE","metadescription":"Bldg-Alter/Repair. 1 or 2 Family Dwelling. KITCHEN AND 2 BATHROOM REMODELS COMBINED WITH ELECTRICAL AND PLUMBING (FOR RESIDENTIAL BUILDINGS; NO STRUCTURAL CHANGES).  RE-STUCCO; SPECIFIC LOCATION: REAROF THE HOUSE. Permit Finaled. 1130 N SIERRA ALTA WAY","address":"1130 Sierra Alta Way, CA, West Hollywood, 90069, US","ct":"1943.00","ev":"N","hl":"YES","apc":"Central","cpa":"Hollywood","zone":"R1-1","solar":"N","pin_nbr":"144B165   243","use_code":"1","geolocation":"POINT (-118.39445 34.09147)","status_date":"03/18/2011","permit_group":"Building","refresh_time":"06/10/2026","type_lat_lon":"ADDRESS","business_unit":"Express Permit"},"geometry":{"type":"Point","coordinates":[-118.39445,34.09147]}},{"type":"Feature","properties":{"date":"2010-11-18T00:00:00.000Z","year":2010,"description":"INTERIOR REMODEL TO EXISTING SINGLE FAMILY DWELLING:  WINDOW AND DOOR REPLACEMENT, MILLWORK, THREE NEW SKYLIGHTS AND ONE REPLACING EXSITING SKYLIGHT;  REMOVAL OF INTERIOR WALLS BETWEEN DINING/LIVING/KITCHEN AREA AND REPLACE PLUMBING FIXTURES IN LAUNDRY RM AND BATHROOMS.  INCLUDES RELATED ELECTRICAL, HVAC AND PLUMBING WORK.","metadescription":"Bldg-Alter/Repair. 1 or 2 Family Dwelling. INTERIOR REMODEL TO EXISTING SINGLE FAMILY DWELLING:  WINDOW AND DOOR REPLACEMENT, MILLWORK, THREE NEW SKYLIGHTS AND ONE REPLACING EXSITING SKYLIGHT;  REMOVAL OF INTERIOR WALLS BETWEEN DINING/LIVING/KITCHEN AREA AND REPLACE PLUMBING FIXTURES IN LAUNDRY RM AND BATHROOMS.  INCLUDES RELATED ELECTRICAL, HVAC AND PLUMBING WORK.. Permit Finaled. 1563 N DOHENY DR","address":"1555 North Doheny Drive, CA, West Hollywood, 90069, US","ct":"1943.00","ev":"N","hl":"YES","apc":"Central","cpa":"Hollywood","zone":"RE11-1","solar":"N","pin_nbr":"147B169   274","use_code":"1","geolocation":"POINT (-118.38921 34.10046)","status_date":"09/10/2012","permit_group":"Building","refresh_time":"06/10/2026","type_lat_lon":"ADDRESS","business_unit":"Plan Check at Counter"},"geometry":{"type":"Point","coordinates":[-118.38921,34.10046]}},{"type":"Feature","properties":{"date":"2010-11-02T00:00:00.000Z","year":2010,"description":"PROPOSED ADDITION TO (E) SFD OF 2,720 SQUARE FEET. ADDING A SCREENING ROOM, GYM, LOUNGE. RELATED ELECTRICAL, HVAC AND PLUMBING.","metadescription":"Bldg-Addition. 1 or 2 Family Dwelling. PROPOSED ADDITION TO (E) SFD OF 2,720 SQUARE FEET. ADDING A SCREENING ROOM, GYM, LOUNGE. RELATED ELECTRICAL, HVAC AND PLUMBING.. CofO Issued. 210 N LADERA DR","address":"210 Ladera Drive, CA, Beverly Hills, 90210, US","ct":"2621.00","ev":"N","hl":"YES","apc":"West Los Angeles","cpa":"Bel Air - Beverly Crest","zone":"RE40-1","solar":"N","pin_nbr":"141B157    93","use_code":"1","geolocation":"POINT (-118.42308551 34.08175061)","status_date":"11/19/2013","construction":"Type V-B Construction","permit_group":"Building","refresh_time":"06/10/2026","type_lat_lon":"PIN","business_unit":"Regular Plan Check","square_footage":"2720"},"geometry":{"type":"Point","coordinates":[-118.42308551,34.08175061]}},{"type":"Feature","properties":{"date":"2010-11-02T00:00:00.000Z","year":2010,"description":"PROPOSED REMOVAL AND RECOMPACTION AS REQUIRED PER THE APPROVED SOIL REPORT FOR A PROPOSED ADDITION TO (E) SFD OF 2,720 SQUARE FEET. ADDING A SCREENING ROOM, GYM, LOUNGE. RELATED ELECTRICAL, HVAC AND PLUMBING BEING ISSUED UNDER 10014-10000-02797","metadescription":"Grading. 1 or 2 Family Dwelling. PROPOSED REMOVAL AND RECOMPACTION AS REQUIRED PER THE APPROVED SOIL REPORT FOR A PROPOSED ADDITION TO (E) SFD OF 2,720 SQUARE FEET. ADDING A SCREENING ROOM, GYM, LOUNGE. RELATED ELECTRICAL, HVAC AND PLUMBING BEING ISSUED UNDER 10014-10000-02797. Permit Finaled. 210 N LADERA DR","address":"210 Ladera Drive, CA, Beverly Hills, 90210, US","ct":"2621.00","ev":"N","hl":"YES","apc":"West Los Angeles","cpa":"Bel Air - Beverly Crest","zone":"RE40-1","solar":"N","pin_nbr":"141B157    93","use_code":"70","geolocation":"POINT (-118.42308551 34.08175061)","status_date":"08/13/2011","permit_group":"Building","refresh_time":"06/10/2026","type_lat_lon":"PIN","business_unit":"Plan Check at Counter"},"geometry":{"type":"Point","coordinates":[-118.42308551,34.08175061]}},{"type":"Feature","properties":{"date":"2010-07-23T00:00:00.000Z","year":2010,"description":"KITCHEN AND BATHROOM REMODEL COMBINED WITH ELECTRICAL, PLUMBING AND HVAC (FOR RESIDENTIAL BUILDINGS; NO STRUCTURAL CHANGES).","metadescription":"Bldg-Alter/Repair. 1 or 2 Family Dwelling. KITCHEN AND BATHROOM REMODEL COMBINED WITH ELECTRICAL, PLUMBING AND HVAC (FOR RESIDENTIAL BUILDINGS; NO STRUCTURAL CHANGES).. Permit Finaled. 1443 N DOHENY DR","address":"1439 North Doheny Drive, CA, West Hollywood, 90069, US","ct":"1943.00","ev":"N","hl":"YES","apc":"Central","cpa":"Hollywood","zone":"RE11-1","solar":"N","pin_nbr":"147B169   778","use_code":"1","geolocation":"POINT (-118.39083 34.09702)","status_date":"11/16/2012","permit_group":"Building","refresh_time":"06/10/2026","type_lat_lon":"ADDRESS","business_unit":"Express Permit"},"geometry":{"type":"Point","coordinates":[-118.39083,34.09702]}},{"type":"Feature","properties":{"date":"2010-06-28T00:00:00.000Z","year":2010,"description":"COMPLETE WORK STARTED UNDER PERMIT 02014-30000-03165  AT  80% COMPLETED (MIN 75% COMPLETED AS DETERMINED BY INSPECTION) PLUS ELECTRICAL. COMPLY WITH DEPARTMENT ORDER EFFECTIVE DATE; PERMIT WILL EXPIRE 30 DAYS FROM ISSUANCE DATE.","metadescription":"Bldg-Alter/Repair. 1 or 2 Family Dwelling. COMPLETE WORK STARTED UNDER PERMIT 02014-30000-03165  AT  80% COMPLETED (MIN 75% COMPLETED AS DETERMINED BY INSPECTION) PLUS ELECTRICAL. COMPLY WITH DEPARTMENT ORDER EFFECTIVE DATE; PERMIT WILL EXPIRE 30 DAYS FROM ISSUANCE DATE.. Permit Finaled. 322 S LAPEER DR","address":"322 South Lapeer Drive, CA, Los Angeles, 90048, US","ct":"2149.00","ev":"N","apc":"Central","cpa":"Wilshire","zone":"R1-1-O","solar":"N","pin_nbr":"138B169   651","use_code":"1","geolocation":"POINT (-118.38666 34.07291)","status_date":"11/13/2012","permit_group":"Building","refresh_time":"06/10/2026","type_lat_lon":"ADDRESS","business_unit":"Express Permit"},"geometry":{"type":"Point","coordinates":[-118.38666,34.07291]}},{"type":"Feature","properties":{"date":"2010-06-16T00:00:00.000Z","year":2010,"description":"ELECTRICAL ENCLOSURE FOR DWP EQUIPMENT (1.5'  X 10'), NEW CONCRETE SLAB.","metadescription":"Bldg-Addition. Commercial. ELECTRICAL ENCLOSURE FOR DWP EQUIPMENT (1.5'  X 10'), NEW CONCRETE SLAB.. Issued. 464 S ROBERTSON BLVD","address":"464 South Robertson Boulevard, CA, Los Angeles, 90048, US","ct":"2149.02","ev":"N","apc":"Central","cpa":"Wilshire","zone":"[Q]C2-1VL-O","solar":"N","pin_nbr":"135B169    12","use_code":"16","geolocation":"POINT (-118.38361 34.07035)","status_date":"06/16/2010","construction":"Type V-B Construction","permit_group":"Building","refresh_time":"06/10/2026","type_lat_lon":"ADDRESS","business_unit":"Plan Check at Counter","square_footage":"0"},"geometry":{"type":"Point","coordinates":[-118.38361,34.07035]}},{"type":"Feature","properties":{"date":"2010-03-31T00:00:00.000Z","year":2010,"description":"KITCHEN AND BATHROOM REMODEL COMBINED WITH ELECTRICAL, PLUMBING AND HVAC (FOR RESIDENTIAL BUILDINGS; NO STRUCTURAL CHANGES).","metadescription":"Bldg-Alter/Repair. 1 or 2 Family Dwelling. KITCHEN AND BATHROOM REMODEL COMBINED WITH ELECTRICAL, PLUMBING AND HVAC (FOR RESIDENTIAL BUILDINGS; NO STRUCTURAL CHANGES).. Permit Finaled. 9284 W FLICKER PL","address":"9280 Flicker Place, CA, West Hollywood, 90069, US","ct":"1943.00","ev":"N","hl":"YES","apc":"Central","cpa":"Hollywood","zone":"RE11-1","solar":"N","pin_nbr":"147B169   614","use_code":"1","geolocation":"POINT (-118.39181 34.09831)","status_date":"07/05/2011","permit_group":"Building","refresh_time":"06/10/2026","type_lat_lon":"ADDRESS","business_unit":"Express Permit"},"geometry":{"type":"Point","coordinates":[-118.39181,34.09831]}},{"type":"Feature","properties":{"date":"2009-02-06T00:00:00.000Z","year":2009,"description":"REMOVE (E) HEADERS AND REPLACE W/ NEW HEADERS.  REMOVE AND REPLACE  NEW STUCCO AND NEW ROOF, DOORS AND WINDOWS ( SAME SIZE).  REMOVE AND REPLACE (E) FIXTURES SAME LOCATION NO (N) BATHROOM. ELECTRICAL & MECH. & PUMBING. NO CHANGE IN AREA OR HEIGHT.","metadescription":"Bldg-Alter/Repair. 1 or 2 Family Dwelling. REMOVE (E) HEADERS AND REPLACE W/ NEW HEADERS.  REMOVE AND REPLACE  NEW STUCCO AND NEW ROOF, DOORS AND WINDOWS ( SAME SIZE).  REMOVE AND REPLACE (E) FIXTURES SAME LOCATION NO (N) BATHROOM. ELECTRICAL & MECH. & PUMBING. NO CHANGE IN AREA OR HEIGHT.. Permit Finaled. 9150 W WARBLER WAY","address":"9150 Warbler Way, CA, West Hollywood, 90069, US","ct":"1943.00","ev":"N","hl":"YES","apc":"Central","cpa":"Hollywood","zone":"RE11-1","solar":"N","pin_nbr":"147B169   596","use_code":"1","geolocation":"POINT (-118.38911 34.09864)","status_date":"06/21/2016","permit_group":"Building","refresh_time":"06/10/2026","type_lat_lon":"ADDRESS","business_unit":"Appointment Plan Check"},"geometry":{"type":"Point","coordinates":[-118.38911,34.09864]}},{"type":"Feature","properties":{"date":"2008-12-03T00:00:00.000Z","year":2008,"description":"BATHROOM REMODEL COMBINED WITH ELECTRICAL, PLUMBING AND HVAC (FOR RESIDENTIAL BUILDINGS; NO STRUCTURAL CHANGES).","metadescription":"Bldg-Alter/Repair. 1 or 2 Family Dwelling. BATHROOM REMODEL COMBINED WITH ELECTRICAL, PLUMBING AND HVAC (FOR RESIDENTIAL BUILDINGS; NO STRUCTURAL CHANGES).. Permit Finaled. 9278 W WARBLER WAY","address":"9278 Warbler Way, CA, West Hollywood, 90069, US","ct":"1943.00","ev":"N","hl":"YES","apc":"Central","cpa":"Hollywood","zone":"RE11-1","solar":"N","pin_nbr":"147B169   577","use_code":"1","geolocation":"POINT (-118.39188 34.09871)","status_date":"06/18/2009","permit_group":"Building","refresh_time":"06/10/2026","type_lat_lon":"ADDRESS","business_unit":"Express Permit"},"geometry":{"type":"Point","coordinates":[-118.39188,34.09871]}},{"type":"Feature","properties":{"date":"2008-12-02T00:00:00.000Z","year":2008,"description":"KITCHEN REMODEL COMBINED WITH ELECTRICAL AND PLUMBING (FOR RESIDENTIAL BUILDINGS; NO STRUCTURAL CHANGES).","metadescription":"Bldg-Alter/Repair. 1 or 2 Family Dwelling. KITCHEN REMODEL COMBINED WITH ELECTRICAL AND PLUMBING (FOR RESIDENTIAL BUILDINGS; NO STRUCTURAL CHANGES).. Permit Finaled. 1143 S BEVERWIL DR","address":"1143 Beverwil Drive, CA, Los Angeles, 90035, US","ct":"2690.00","ev":"N","apc":"West Los Angeles","cpa":"West Los Angeles","zone":"R1-1-O","solar":"N","pin_nbr":"132A165   119","use_code":"1","geolocation":"POINT (-118.39934 34.0569)","status_date":"02/27/2009","permit_group":"Building","refresh_time":"06/10/2026","type_lat_lon":"ADDRESS","business_unit":"Express Permit"},"geometry":{"type":"Point","coordinates":[-118.39934,34.0569]}},{"type":"Feature","properties":{"date":"2008-10-07T00:00:00.000Z","year":2008,"description":"CHANGE OUT #10 WINDOWS AND #8 (SAME SIZE & TYPE FOR RESIDENTIAL BUILDINGS ONLY) DUAL GLAZING, LABELED AND CERTIFIED BY NATIONAL FENESTRATION RATING COUNCIL (NFRC), IS REQUIRED FOR DOORS AND WINDOWS REPLACED IN ALL RESIDENTIAL BUILDINGS, THREE STORIES OR LESS, PER SECTION 152(B) OF TITLE 24.  KITCHEN AND BATHROOM REMODEL COMBINED WITH ELECTRICAL AND PLUMBING  (FOR RESIDENTIAL BUILDINGS; NO STRUCTURAL CHANGES).  NEW STUCCO, REPLACE DRYWALL (NO NEW WALLS ADDED) SPECIFIC LOCATION:  BATHROOM, KITCHEN AND LIVING AREA.","metadescription":"Bldg-Alter/Repair. 1 or 2 Family Dwelling. CHANGE OUT #10 WINDOWS AND #8 (SAME SIZE & TYPE FOR RESIDENTIAL BUILDINGS ONLY) DUAL GLAZING, LABELED AND CERTIFIED BY NATIONAL FENESTRATION RATING COUNCIL (NFRC), IS REQUIRED FOR DOORS AND WINDOWS REPLACED IN ALL RESIDENTIAL BUILDINGS, THREE STORIES OR LESS, PER SECTION 152(B) OF TITLE 24.  KITCHEN AND BATHROOM REMODEL COMBINED WITH ELECTRICAL AND PLUMBING  (FOR RESIDENTIAL BUILDINGS; NO STRUCTURAL CHANGES).  NEW STUCCO, REPLACE DRYWALL (NO NEW WALLS ADDED) SPECIFIC LOCATION:  BATHROOM, KITCHEN AND LIVING AREA.. Permit Finaled. 9265 W ROBIN DR","address":"9265 Robin Drive, CA, West Hollywood, 90069, US","ct":"1943.00","ev":"N","hl":"YES","apc":"Central","cpa":"Hollywood","zone":"RE15-1-H","solar":"N","pin_nbr":"147B169   158","use_code":"1","geolocation":"POINT (-118.39162 34.10131)","status_date":"11/04/2015","permit_group":"Building","refresh_time":"06/10/2026","type_lat_lon":"ADDRESS","business_unit":"Express Permit"},"geometry":{"type":"Point","coordinates":[-118.39162,34.10131]}},{"type":"Feature","properties":{"date":"2008-02-07T00:00:00.000Z","year":2008,"description":"CHANGE OUT 3 WINDOWS AND 1 DOOR   (SAME SIZE & TYPE FOR RESIDENTIAL BUILDINGS ONLY) DUAL GLAZING, LABELED AND CERTIFIED BY NATIONAL FENESTRATION RATING COUNCIL (NFRC), IS REQUIRED FOR DOORS AND WINDOWS REPLACED IN ALL RESIDENTIAL BUILDINGS, THREE STORIES OR LESS, PER SECTION 152(B) OF TITLE 24. KITCHEN  REMODEL COMBINED WITH ELECTRICAL, PLUMBING AND HVAC (FOR RESIDENTIAL BUILDINGS; NO STRUCTURAL CHANGES).","metadescription":"Bldg-Alter/Repair. 1 or 2 Family Dwelling. CHANGE OUT 3 WINDOWS AND 1 DOOR   (SAME SIZE & TYPE FOR RESIDENTIAL BUILDINGS ONLY) DUAL GLAZING, LABELED AND CERTIFIED BY NATIONAL FENESTRATION RATING COUNCIL (NFRC), IS REQUIRED FOR DOORS AND WINDOWS REPLACED IN ALL RESIDENTIAL BUILDINGS, THREE STORIES OR LESS, PER SECTION 152(B) OF TITLE 24. KITCHEN  REMODEL COMBINED WITH ELECTRICAL, PLUMBING AND HVAC (FOR RESIDENTIAL BUILDINGS; NO STRUCTURAL CHANGES).. Permit Finaled. 1233 S CAMDEN DR","address":"1239 South Camden Drive, CA, Los Angeles, 90035, US","ct":"2690.00","ev":"N","apc":"West Los Angeles","cpa":"West Los Angeles","zone":"R1-1-O","solar":"N","pin_nbr":"132A165   197","use_code":"1","geolocation":"POINT (-118.40067 34.05578)","status_date":"07/10/2008","permit_group":"Building","refresh_time":"06/10/2026","type_lat_lon":"ADDRESS","business_unit":"Express Permit"},"geometry":{"type":"Point","coordinates":[-118.40067,34.05578]}},{"type":"Feature","properties":{"date":"2007-09-28T00:00:00.000Z","year":2007,"description":"GENERAL REHABILITATION (NO ALTERATION & NO STRUCTURAL CHANGES; LESS THAN 10% OF REPLACEMENT COST OF BUILDING).CHANGE OUT 1 WINDOW (SAME SIZE AND TYPE FOR RESIDENTIAL BUILDINGS ONLY).DUAL GLAZING, LABELED AND CERTIFIED BY NATIONAL FENESTRATION RATING COUNCIL (NFRC), IS REQUIRED FOR DOORS AND WINDOWS REPLACED IN ALL RESIDENTIAL BUILDINGS, THREE STORIES OR LESS, PER SECTION 152(B) OF TITLE 24.  KIITCHEN AND BATHROOM REMODEL COMBINED WITH ELECTRICAL (FOR RESIDENTIAL BUILDINGS; NO STRUCTURAL CHANGES).","metadescription":"Bldg-Alter/Repair. 1 or 2 Family Dwelling. GENERAL REHABILITATION (NO ALTERATION & NO STRUCTURAL CHANGES; LESS THAN 10% OF REPLACEMENT COST OF BUILDING).CHANGE OUT 1 WINDOW (SAME SIZE AND TYPE FOR RESIDENTIAL BUILDINGS ONLY).DUAL GLAZING, LABELED AND CERTIFIED BY NATIONAL FENESTRATION RATING COUNCIL (NFRC), IS REQUIRED FOR DOORS AND WINDOWS REPLACED IN ALL RESIDENTIAL BUILDINGS, THREE STORIES OR LESS, PER SECTION 152(B) OF TITLE 24.  KIITCHEN AND BATHROOM REMODEL COMBINED WITH ELECTRICAL (FOR RESIDENTIAL BUILDINGS; NO STRUCTURAL CHANGES).. Permit Expired. 9356 W SIERRA MAR DR","address":"9356 Sierra Mar Drive, CA, West Hollywood, 90069, US","ct":"1943.00","ev":"N","hl":"YES","apc":"Central","cpa":"Hollywood","zone":"RE11-1","solar":"N","pin_nbr":"147B165   587","use_code":"1","geolocation":"POINT (-118.39479 34.0954)","status_date":"03/15/2010","permit_group":"Building","refresh_time":"06/10/2026","type_lat_lon":"ADDRESS","business_unit":"Express Permit"},"geometry":{"type":"Point","coordinates":[-118.39479,34.0954]}},{"type":"Feature","properties":{"date":"2007-09-11T00:00:00.000Z","year":2007,"description":"SUPPLEMENTAL PERMIT TO COMPLETE WORK STARTED UNDER PERMIT #04010-30000-04703, 80% COMPLETED PER INSPECTOR'S REPORT, COMBINED WITH HVAC, PLUMBING AND ELECTRICAL.","metadescription":"Bldg-Alter/Repair. 1 or 2 Family Dwelling. SUPPLEMENTAL PERMIT TO COMPLETE WORK STARTED UNDER PERMIT #04010-30000-04703, 80% COMPLETED PER INSPECTOR'S REPORT, COMBINED WITH HVAC, PLUMBING AND ELECTRICAL.. Permit Finaled. 1147 N SIERRA ALTA WAY","address":"1147 Sierra Alta Way, CA, West Hollywood, 90069, US","ct":"1943.00","ev":"N","hl":"YES","apc":"Central","cpa":"Hollywood","zone":"RE11-1","solar":"N","pin_nbr":"144B165   217","use_code":"1","geolocation":"POINT (-118.39461 34.09202)","status_date":"04/22/2009","permit_group":"Building","refresh_time":"06/10/2026","type_lat_lon":"ADDRESS","business_unit":"Express Permit"},"geometry":{"type":"Point","coordinates":[-118.39461,34.09202]}},{"type":"Feature","properties":{"date":"2006-03-13T00:00:00.000Z","year":2006,"description":"RESIDENTIAL KITCHEN REMODEL- REPAIR/REPLACE ONLY. NO CHANGES IN WALLS OR OPENINGS. COMBINED WITH ELECTRICAL, PLUMBING & HVAC.","metadescription":"Bldg-Alter/Repair. 1 or 2 Family Dwelling. RESIDENTIAL KITCHEN REMODEL- REPAIR/REPLACE ONLY. NO CHANGES IN WALLS OR OPENINGS. COMBINED WITH ELECTRICAL, PLUMBING & HVAC.. Permit Finaled. 9261 W THRUSH WAY","address":"9261 Thrush Way, CA, West Hollywood, 90069, US","ct":"1943.00","ev":"N","hl":"YES","apc":"Central","cpa":"Hollywood","zone":"RE11-1","solar":"N","pin_nbr":"147B169   295","use_code":"1","geolocation":"POINT (-118.39026 34.10041)","status_date":"01/24/2008","permit_group":"Building","refresh_time":"06/10/2026","type_lat_lon":"ADDRESS","business_unit":"Express Permit"},"geometry":{"type":"Point","coordinates":[-118.39026,34.10041]}},{"type":"Feature","properties":{"date":"2005-11-30T00:00:00.000Z","year":2005,"description":"CHANGE OUT 10 WINDOWS AND 3 DOORS (SAME SIZE  & LOCATION); RESTUCCO FRONT OF HOUSE; RESIDENTIAL KITCHEN & BATHROOM REMODEL - REPAIR/REPLACE ONLY W/NO CHANGES IN WALLS OR OPENINGS -- COMBINED W/ELECTRICAL & PLUMBING; DRYWALL/PLASTER, PATCH & PAINT; REPAIR (DRY ROT, WATER, TERMITE) DAMAGED STAIRS BY REPLACING SAME SIZE MEMBERS (LESS THAN 10%) AT FRONT ENTRY.   REPLACE TILE ON ENTRY FLOOR.","metadescription":"Bldg-Alter/Repair. 1 or 2 Family Dwelling. CHANGE OUT 10 WINDOWS AND 3 DOORS (SAME SIZE  & LOCATION); RESTUCCO FRONT OF HOUSE; RESIDENTIAL KITCHEN & BATHROOM REMODEL - REPAIR/REPLACE ONLY W/NO CHANGES IN WALLS OR OPENINGS -- COMBINED W/ELECTRICAL & PLUMBING; DRYWALL/PLASTER, PATCH & PAINT; REPAIR (DRY ROT, WATER, TERMITE) DAMAGED STAIRS BY REPLACING SAME SIZE MEMBERS (LESS THAN 10%) AT FRONT ENTRY.   REPLACE TILE ON ENTRY FLOOR.. Permit Finaled. 9270 W WARBLER WAY","address":"9270 Warbler Way, CA, West Hollywood, 90069, US","ct":"1943.00","ev":"N","hl":"YES","apc":"Central","cpa":"Hollywood","zone":"RE11-1","solar":"N","pin_nbr":"147B169   532","use_code":"1","geolocation":"POINT (-118.39172 34.09893)","status_date":"01/31/2007","permit_group":"Building","refresh_time":"06/10/2026","type_lat_lon":"ADDRESS","business_unit":"Express Permit"},"geometry":{"type":"Point","coordinates":[-118.39172,34.09893]}},{"type":"Feature","properties":{"date":"2005-06-02T00:00:00.000Z","year":2005,"description":"CHANGE OUT 1 DOOR (SAME SIZE AND LOCATION). RESIDENTIAL KITCHEN AND BATHROOM REMODEL-REPAIR/REPLACE ONLY. NO CHANGES IN WALLS OR OPENINGS. COMBINED WITH ELECTRICAL, PLUMBING AND HVAC. DRYWALL/PLASTER PATCH AND PAINT. REPAIR DRY ROT DAMAGED STAIRS BY REPLACING SAME SIZE MEMBERS (LESS THAN 10% DAMAGE).","metadescription":"Bldg-Alter/Repair. 1 or 2 Family Dwelling. CHANGE OUT 1 DOOR (SAME SIZE AND LOCATION). RESIDENTIAL KITCHEN AND BATHROOM REMODEL-REPAIR/REPLACE ONLY. NO CHANGES IN WALLS OR OPENINGS. COMBINED WITH ELECTRICAL, PLUMBING AND HVAC. DRYWALL/PLASTER PATCH AND PAINT. REPAIR DRY ROT DAMAGED STAIRS BY REPLACING SAME SIZE MEMBERS (LESS THAN 10% DAMAGE).. Permit Finaled. 1134 N SIERRA ALTA WAY","address":"1130 Sierra Alta Way, CA, West Hollywood, 90069, US","ct":"1943.00","ev":"N","hl":"YES","apc":"Central","cpa":"Hollywood","zone":"R1-1","solar":"N","pin_nbr":"144B165   238","use_code":"1","geolocation":"POINT (-118.39445 34.0916)","status_date":"01/19/2007","permit_group":"Building","refresh_time":"06/10/2026","type_lat_lon":"ADDRESS","business_unit":"Express Permit"},"geometry":{"type":"Point","coordinates":[-118.39445,34.0916]}},{"type":"Feature","properties":{"date":"2005-05-25T00:00:00.000Z","year":2005,"description":"(N) STAND-ALONE FIBERGLASS SPA, AND RELOCATE (E) POOL EQUIPMENT, AND (N) ELECTRICAL AND MECHANICAL FOR (E) POOL.","metadescription":"Swimming-Pool/Spa. 1 or 2 Family Dwelling. (N) STAND-ALONE FIBERGLASS SPA, AND RELOCATE (E) POOL EQUIPMENT, AND (N) ELECTRICAL AND MECHANICAL FOR (E) POOL.. CofO Issued. 1405 N BLUEBIRD AVE","address":"1405 Bluebird Avenue, CA, West Hollywood, 90069, US","ct":"1943.00","ev":"N","hl":"YES","apc":"Central","cpa":"Hollywood","zone":"RE11-1","solar":"N","pin_nbr":"147B169   810","use_code":"20","geolocation":"POINT (-118.39211 34.0968)","status_date":"04/11/2007","permit_group":"Building","refresh_time":"06/10/2026","type_lat_lon":"ADDRESS","business_unit":"Plan Check at Counter"},"geometry":{"type":"Point","coordinates":[-118.39211,34.0968]}},{"type":"Feature","properties":{"date":"2005-03-17T00:00:00.000Z","year":2005,"description":"REMODEL KITCHEN - INSTALL CABINETS, COUNTERTOPS, TILE, FLOORING, REPAIR DRYWALL, INCLUDING RELATED ELECTRICAL AND PLUMBING WORK.  CHANGE OUT 2 WINDOWS, 1 DOOR (SAME SIZE, TYPE).  VALUATION TO BE VERIFIED BY FIELD INSPECTOR.","metadescription":"Bldg-Alter/Repair. 1 or 2 Family Dwelling. REMODEL KITCHEN - INSTALL CABINETS, COUNTERTOPS, TILE, FLOORING, REPAIR DRYWALL, INCLUDING RELATED ELECTRICAL AND PLUMBING WORK.  CHANGE OUT 2 WINDOWS, 1 DOOR (SAME SIZE, TYPE).  VALUATION TO BE VERIFIED BY FIELD INSPECTOR.. Permit Finaled. 1518 N DOHENY DR","address":"1518 North Doheny Drive, CA, West Hollywood, 90069, US","ct":"1943.00","ev":"N","hl":"YES","apc":"Central","cpa":"Hollywood","zone":"RE11-1","solar":"N","pin_nbr":"147B169   493","use_code":"1","geolocation":"POINT (-118.38938 34.09912)","status_date":"07/22/2005","permit_group":"Building","refresh_time":"06/10/2026","type_lat_lon":"ADDRESS","business_unit":"Express Permit"},"geometry":{"type":"Point","coordinates":[-118.38938,34.09912]}},{"type":"Feature","properties":{"date":"2004-10-04T00:00:00.000Z","year":2004,"description":"REMODEL KITCHEN AND 3 BATHROOMS - INSTALL CABINETS, COUNTERTOPS, FLOORING, REPAIR DRYWALL, INCLUDING RELATED ELECTRICAL AND PLUMBING WORK.  VALUATION TO BE VERIFIED BY FIELD INSPECTOR.","metadescription":"Bldg-Alter/Repair. 1 or 2 Family Dwelling. REMODEL KITCHEN AND 3 BATHROOMS - INSTALL CABINETS, COUNTERTOPS, FLOORING, REPAIR DRYWALL, INCLUDING RELATED ELECTRICAL AND PLUMBING WORK.  VALUATION TO BE VERIFIED BY FIELD INSPECTOR.. Permit Finaled. 9405 W SIERRA MAR PL","address":"9405 Sierra Mar Place, CA, West Hollywood, 90069, US","ct":"1943.00","ev":"N","hl":"YES","apc":"Central","cpa":"Hollywood","zone":"RE11-1","solar":"N","pin_nbr":"147B165   444","use_code":"1","geolocation":"POINT (-118.39442 34.09672)","status_date":"11/28/2005","permit_group":"Building","refresh_time":"06/10/2026","type_lat_lon":"ADDRESS","business_unit":"Express Permit"},"geometry":{"type":"Point","coordinates":[-118.39442,34.09672]}},{"type":"Feature","properties":{"date":"2004-07-28T00:00:00.000Z","year":2004,"description":"WATER DAMAGE REPAIR (LESS THAN 10%) NO STRUCTURAL ON 1ST AND 2ND FLOORS, INCLUDING REPAIR DRYWALL, PAINT, FLOORING, REPLACE CABINETS AND ELECTRICAL WORK. VALUATION TO BE VERIFIED BY FIELD INSPECFTOR.","metadescription":"Bldg-Alter/Repair. 1 or 2 Family Dwelling. WATER DAMAGE REPAIR (LESS THAN 10%) NO STRUCTURAL ON 1ST AND 2ND FLOORS, INCLUDING REPAIR DRYWALL, PAINT, FLOORING, REPLACE CABINETS AND ELECTRICAL WORK. VALUATION TO BE VERIFIED BY FIELD INSPECFTOR.. Issued. 9254 W THRUSH WAY","address":"9254 Thrush Way, CA, West Hollywood, 90069, US","ct":"1943.00","ev":"N","hl":"YES","apc":"Central","cpa":"Hollywood","zone":"RE11-1","solar":"N","pin_nbr":"147B169   351","use_code":"1","geolocation":"POINT (-118.39002 34.10019)","status_date":"07/28/2004","permit_group":"Building","refresh_time":"06/10/2026","type_lat_lon":"ADDRESS","business_unit":"Express Permit"},"geometry":{"type":"Point","coordinates":[-118.39002,34.10019]}},{"type":"Feature","properties":{"date":"2004-03-11T00:00:00.000Z","year":2004,"description":"POOL REMODEL (NO STRUCTURAL WORK), INCL. REPLASTER AND ASSOCIATED ELECTRICAL AND PLUMBING WORK.","metadescription":"Swimming-Pool/Spa. 1 or 2 Family Dwelling. POOL REMODEL (NO STRUCTURAL WORK), INCL. REPLASTER AND ASSOCIATED ELECTRICAL AND PLUMBING WORK.. Permit Finaled. 1577 N DOHENY DR","address":"1571 North Doheny Drive, CA, West Hollywood, 90069, US","ct":"1943.00","ev":"N","hl":"YES","apc":"Central","cpa":"Hollywood","zone":"RE11-1","solar":"N","pin_nbr":"147B169   237","use_code":"20","geolocation":"POINT (-118.38926 34.10084)","status_date":"06/16/2004","permit_group":"Building","refresh_time":"06/10/2026","type_lat_lon":"ADDRESS","business_unit":"Plan Check at Counter"},"geometry":{"type":"Point","coordinates":[-118.38926,34.10084]}},{"type":"Feature","properties":{"date":"2003-12-15T00:00:00.000Z","year":2003,"description":"Change out 2 windows and 2 doors (same size and location). Residential kitchen remodel - repair/replace only; no changes in walls or openings; combined with electrical, plumbing, and HVAC. Residential bathroom remodel (3 bathrooms) - repair/replace only; no changes in walls or openings; combined with electrical, plumbing, and HVAC.","metadescription":"Bldg-Alter/Repair. 1 or 2 Family Dwelling. Change out 2 windows and 2 doors (same size and location). Residential kitchen remodel - repair/replace only; no changes in walls or openings; combined with electrical, plumbing, and HVAC. Residential bathroom remodel (3 bathrooms) - repair/replace only; no changes in walls or openings; combined with electrical, plumbing, and HVAC.. Permit Finaled. 9237 W WARBLER WAY","address":"9237 Warbler Way, CA, West Hollywood, 90069, US","ct":"1943.00","ev":"N","hl":"YES","apc":"Central","cpa":"Hollywood","zone":"RE11-1","solar":"N","pin_nbr":"147B169   467","use_code":"1","geolocation":"POINT (-118.39071 34.0991)","status_date":"05/18/2009","permit_group":"Building","refresh_time":"06/10/2026","type_lat_lon":"ADDRESS","business_unit":"Express Permit"},"geometry":{"type":"Point","coordinates":[-118.39071,34.0991]}},{"type":"Feature","properties":{"date":"2003-06-10T00:00:00.000Z","year":2003,"description":"KITCHEN AND (2) BATH REMODEL.  CHANGE OUT CABINETS, COUNTERTOPS, VANITIES, FLOORING, AND TILE WORK.  REPLACE (10) WINDOWS, SAME SIZE AND LOCATION.  INCLUDE ALL RELATED PLUMBING AND ELECTRICAL.","metadescription":"Bldg-Alter/Repair. 1 or 2 Family Dwelling. KITCHEN AND (2) BATH REMODEL.  CHANGE OUT CABINETS, COUNTERTOPS, VANITIES, FLOORING, AND TILE WORK.  REPLACE (10) WINDOWS, SAME SIZE AND LOCATION.  INCLUDE ALL RELATED PLUMBING AND ELECTRICAL.. Permit Finaled. 1544 N DOHENY DR","address":"1534 North Doheny Drive, CA, West Hollywood, 90069, US","ct":"1943.00","ev":"N","hl":"YES","apc":"Central","cpa":"Hollywood","zone":"RE11-1","solar":"N","pin_nbr":"147B169   358","use_code":"1","geolocation":"POINT (-118.38902 34.09993)","status_date":"08/29/2003","permit_group":"Building","refresh_time":"06/10/2026","type_lat_lon":"ADDRESS","business_unit":"Express Permit"},"geometry":{"type":"Point","coordinates":[-118.38902,34.09993]}},{"type":"Feature","properties":{"date":"2003-05-06T00:00:00.000Z","year":2003,"description":"ENCL. (E)  6'-10\"X 16'-10\" SUNROOM @ 2ND FLOOR. REMODEL  MASTER BATH.  TO INCL. NEW FINISHES, &CABINETRY.  GEN. REPAIRS OF WATER DAMAGE AT BALCONY, STUCCO, SITE DRAIN LINE, POOL PLASTER & TILE. NO NEW SQ. FOOTAGE. RELATED ELECTRICAL & PLUMBING WORK.","metadescription":"Bldg-Alter/Repair. 1 or 2 Family Dwelling. ENCL. (E)  6'-10\"X 16'-10\" SUNROOM @ 2ND FLOOR. REMODEL  MASTER BATH.  TO INCL. NEW FINISHES, &CABINETRY.  GEN. REPAIRS OF WATER DAMAGE AT BALCONY, STUCCO, SITE DRAIN LINE, POOL PLASTER & TILE. NO NEW SQ. FOOTAGE. RELATED ELECTRICAL & PLUMBING WORK.. Permit Finaled. 9271 W FLICKER WAY","address":"9275 Flicker Way, CA, West Hollywood, 90069, US","ct":"1943.00","ev":"N","hl":"YES","apc":"Central","zone":"RE11-1","solar":"N","pin_nbr":"147B165   373","use_code":"1","geolocation":"POINT (-118.39246 34.0976)","status_date":"10/20/2003","permit_group":"Building","refresh_time":"06/10/2026","type_lat_lon":"ADDRESS","business_unit":"Plan Check at Counter"},"geometry":{"type":"Point","coordinates":[-118.39246,34.0976]}},{"type":"Feature","properties":{"date":"2002-12-23T00:00:00.000Z","year":2002,"description":"residential kitchen and bathroom remodel - repair/replace only.  no changes in walls or openings.  electrical, plumbing and hvac combined.","metadescription":"Bldg-Alter/Repair. 1 or 2 Family Dwelling. residential kitchen and bathroom remodel - repair/replace only.  no changes in walls or openings.  electrical, plumbing and hvac combined.. Permit Finaled. 210 N LADERA DR","address":"210 Ladera Drive, CA, Beverly Hills, 90210, US","ct":"2621.00","ev":"N","hl":"YES","apc":"West Los Angeles","zone":"RE40-1","solar":"N","pin_nbr":"141B157    93","use_code":"1","geolocation":"POINT (-118.42308551 34.08175061)","status_date":"06/30/2003","permit_group":"Building","refresh_time":"06/10/2026","type_lat_lon":"PIN","business_unit":"Express Permit"},"geometry":{"type":"Point","coordinates":[-118.42308551,34.08175061]}},{"type":"Feature","properties":{"date":"2002-07-23T00:00:00.000Z","year":2002,"description":"REMODEL (E) KITCHEN AND 2 BATHROOMS.  RELOCATE ONE NON- BEARING PARTITION WALL AT ONE OF THE BATHROOMS, REPLACE ONE WINDOW AT ONE OF THE BATHROOMS TO SMALLER SIZE WINDOW. COMBINE RELATED ELECTRICAL, PLUMBING AND HVAC WORK WITH THIS PERMIT.","metadescription":"Bldg-Alter/Repair. 1 or 2 Family Dwelling. REMODEL (E) KITCHEN AND 2 BATHROOMS.  RELOCATE ONE NON- BEARING PARTITION WALL AT ONE OF THE BATHROOMS, REPLACE ONE WINDOW AT ONE OF THE BATHROOMS TO SMALLER SIZE WINDOW. COMBINE RELATED ELECTRICAL, PLUMBING AND HVAC WORK WITH THIS PERMIT.. Permit Finaled. 9378 W FLICKER WAY","address":"9378 Flicker Way, CA, West Hollywood, 90069, US","ct":"1943.00","ev":"N","hl":"YES","apc":"Central","zone":"RE11-1","solar":"N","pin_nbr":"147B165   527","use_code":"1","geolocation":"POINT (-118.39408 34.09598)","status_date":"11/15/2002","permit_group":"Building","refresh_time":"06/10/2026","type_lat_lon":"ADDRESS","business_unit":"Plan Check at Counter"},"geometry":{"type":"Point","coordinates":[-118.39408,34.09598]}},{"type":"Feature","properties":{"date":"2002-06-26T00:00:00.000Z","year":2002,"description":"ELECTRICAL & PLUMBING PERMITS ADDDED TO PREVIOUSLY PAID BUILDING PERMIT #02016-10000-12296.","metadescription":"Bldg-Alter/Repair. 1 or 2 Family Dwelling. ELECTRICAL & PLUMBING PERMITS ADDDED TO PREVIOUSLY PAID BUILDING PERMIT #02016-10000-12296.. Permit Finaled. 850 S WOOSTER ST","address":"850 South Wooster Street, CA, Los Angeles, 90035, US","ct":"2164.00","ev":"N","apc":"Central","zone":"[Q]R4-1-O","solar":"N","pin_nbr":"132B169    67","use_code":"2","geolocation":"POINT (-118.38226 34.06146)","status_date":"02/25/2003","permit_group":"Building","refresh_time":"06/10/2026","type_lat_lon":"ADDRESS","business_unit":"Express Permit"},"geometry":{"type":"Point","coordinates":[-118.38226,34.06146]}},{"type":"Feature","properties":{"date":"2001-05-31T00:00:00.000Z","year":2001,"description":"change out 30 windows and 20 doors(same size and location) restucco/sa ndblast over existing - entire house. kitchen and bathroom remodel - repair/replace only. no changes in walls or openings. electrical and plumbing, and hvac combined. tear off existing roofing. reroof with class A modified bitumen with 1/2\" cdx plywood, replace existing tile roof w/tile of same weight or less. 25sqrs. drywall/plaster patch a nd paint. termit damage/dry rot less than 10% repair/replace. no str uctural changes. replace(dry rot, water, termite) damaged (roof rafte r, joist or other) with same size & spacing(less than 10% damage) rep air(dry rot, water, termite) damaged stair by replacing same size memb ers.","metadescription":"Bldg-Alter/Repair. 1 or 2 Family Dwelling. change out 30 windows and 20 doors(same size and location) restucco/sa ndblast over existing - entire house. kitchen and bathroom remodel - repair/replace only. no changes in walls or openings. electrical and plumbing, and hvac combined. tear off existing roofing. reroof with class A modified bitumen with 1/2\" cdx plywood, replace existing tile roof w/tile of same weight or less. 25sqrs. drywall/plaster patch a nd paint. termit damage/dry rot less than 10% repair/replace. no str uctural changes. replace(dry rot, water, termite) damaged (roof rafte r, joist or other) with same size & spacing(less than 10% damage) rep air(dry rot, water, termite) damaged stair by replacing same size memb ers.. Permit Finaled. 1416 N BLUEBIRD AVE","address":"1416 Bluebird Avenue, CA, West Hollywood, 90069, US","ct":"1943.00","ev":"N","hl":"YES","apc":"Central","zone":"RE11-1","solar":"N","pin_nbr":"147B169   776","use_code":"1","geolocation":"POINT (-118.3919 34.09703)","status_date":"04/01/2003","permit_group":"Building","refresh_time":"06/10/2026","type_lat_lon":"ADDRESS","business_unit":"Express Permit"},"geometry":{"type":"Point","coordinates":[-118.3919,34.09703]}},{"type":"Feature","properties":{"date":"2001-03-26T00:00:00.000Z","year":2001,"description":"REPLACE 10 WINDOWS AND 6 DOORS - REPAIR DAMAGED ROOF - REMOVE AND REPLACE 7 SQS. OF ASPHALT SHINGLES - RELATED ELECTRICAL AND PLUMBING - VALUATION TO BE VERIFIED BY FIELD INSPECTOR (GENERAL REHABILITATION PERMIT)","metadescription":"Bldg-Alter/Repair. 1 or 2 Family Dwelling. REPLACE 10 WINDOWS AND 6 DOORS - REPAIR DAMAGED ROOF - REMOVE AND REPLACE 7 SQS. OF ASPHALT SHINGLES - RELATED ELECTRICAL AND PLUMBING - VALUATION TO BE VERIFIED BY FIELD INSPECTOR (GENERAL REHABILITATION PERMIT). Permit Expired. 9222 W KINGLET DR","address":"9222 Kinglet Drive, CA, West Hollywood, 90069, US","ct":"1943.00","ev":"N","hl":"YES","apc":"Central","zone":"RE11-1","solar":"N","pin_nbr":"147B169   164","use_code":"1","geolocation":"POINT (-118.38994 34.10158)","status_date":"03/07/2025","permit_group":"Building","refresh_time":"06/10/2026","type_lat_lon":"ADDRESS","business_unit":"Express Permit"},"geometry":{"type":"Point","coordinates":[-118.38994,34.10158]}},{"type":"Feature","properties":{"date":"2001-01-08T00:00:00.000Z","year":2001,"description":"KITCHEN AND BATHROOM REMODEL - REPAIR/REPLACE ONLY. NO CHANGES IN WAL LS OR OPENINGS. ELECTRICAL AND PLUMBING COMBINED. DRYWALL/PLASTER PA TCH AND PAINT.(FIELD INSPECTOR TO VERIFY VALUATION)","metadescription":"Bldg-Alter/Repair. 1 or 2 Family Dwelling. KITCHEN AND BATHROOM REMODEL - REPAIR/REPLACE ONLY. NO CHANGES IN WAL LS OR OPENINGS. ELECTRICAL AND PLUMBING COMBINED. DRYWALL/PLASTER PA TCH AND PAINT.(FIELD INSPECTOR TO VERIFY VALUATION). Permit Finaled. 322 S LAPEER DR","address":"322 South Lapeer Drive, CA, Los Angeles, 90048, US","ct":"2149.00","ev":"N","apc":"Central","zone":"[Q]R1-1-O","solar":"N","pin_nbr":"138B169   651","use_code":"1","geolocation":"POINT (-118.38666 34.07291)","status_date":"05/21/2001","permit_group":"Building","refresh_time":"06/10/2026","type_lat_lon":"ADDRESS","business_unit":"Express Permit"},"geometry":{"type":"Point","coordinates":[-118.38666,34.07291]}},{"type":"Feature","properties":{"date":"2000-11-27T00:00:00.000Z","year":2000,"description":"REMODEL DETACHED REC ROOM AND BATH) - RETILE FLOOR - CHANGE-TOILET AND SINK, AND, REPLACE ELECTRICAL FIXTURES VALUATION TO BE VERIFIED BY FIELD INSPECTOR","metadescription":"Bldg-Alter/Repair. 1 or 2 Family Dwelling. REMODEL DETACHED REC ROOM AND BATH) - RETILE FLOOR - CHANGE-TOILET AND SINK, AND, REPLACE ELECTRICAL FIXTURES VALUATION TO BE VERIFIED BY FIELD INSPECTOR. Permit Finaled. 1300 N SIERRA ALTA WAY","address":"1300 Sierra Alta Way, CA, West Hollywood, 90069, US","ct":"1943.00","ev":"N","hl":"YES","apc":"Central","zone":"RE11-1","solar":"N","pin_nbr":"144B165   130","use_code":"1","geolocation":"POINT (-118.39407 34.09381)","status_date":"12/28/2000","permit_group":"Building","refresh_time":"06/10/2026","type_lat_lon":"ADDRESS","business_unit":"Express Permit"},"geometry":{"type":"Point","coordinates":[-118.39407,34.09381]}},{"type":"Feature","properties":{"date":"1999-11-18T00:00:00.000Z","year":1999,"description":"KITCHEN REMODELING - PLUMBING & ELECTRICAL INCLUDED","metadescription":"Bldg-Alter/Repair. 1 or 2 Family Dwelling. KITCHEN REMODELING - PLUMBING & ELECTRICAL INCLUDED. Permit Finaled. 1135 N SUNSET VALE AVE","address":"1135 Sunset Vale Avenue, CA, West Hollywood, 90069, US","ct":"1943.00","ev":"N","hl":"YES","apc":"Central","zone":"R1-1","solar":"N","pin_nbr":"144B165   239","use_code":"1","geolocation":"POINT (-118.39387 34.09149)","status_date":"07/19/2012","permit_group":"Building","refresh_time":"06/10/2026","type_lat_lon":"ADDRESS","business_unit":"Express Permit"},"geometry":{"type":"Point","coordinates":[-118.39387,34.09149]}},{"type":"Feature","properties":{"date":"1999-10-27T00:00:00.000Z","year":1999,"description":"Add entry(6'x7',42s.f.)&covered front entry porch((5'x5',25.0s.f.); add/remove nonbearing partitions,restructure interior steps to living Rm,remodel 3Bathrms,kitchenDining,Bdrm&utility Rm,replace deteriorated projectionson roof perimeter&balcony railing.Electrical/plumbing/HVAC","metadescription":"Bldg-Addition. 1 or 2 Family Dwelling. Add entry(6'x7',42s.f.)&covered front entry porch((5'x5',25.0s.f.); add/remove nonbearing partitions,restructure interior steps to living Rm,remodel 3Bathrms,kitchenDining,Bdrm&utility Rm,replace deteriorated projectionson roof perimeter&balcony railing.Electrical/plumbing/HVAC. Issued. 1153 N SUNSET HILLS ROAD","address":"1153 Sunset Hills Road, CA, West Hollywood, 90069, US","ct":"1943.00","ev":"N","hl":"YES","apc":"Central","zone":"R1-1","solar":"N","pin_nbr":"144B169   399","use_code":"1","geolocation":"POINT (-118.39264 34.09201)","status_date":"10/27/1999","construction":"Type V-N Construction","permit_group":"Building","refresh_time":"06/10/2026","type_lat_lon":"ADDRESS","business_unit":"Plan Check at Counter","square_footage":"67"},"geometry":{"type":"Point","coordinates":[-118.39264,34.09201]}},{"type":"Feature","properties":{"date":"1999-07-27T00:00:00.000Z","year":1999,"description":"add 1/2 bath in existing family rm (add nonbearing partitions and plum b/electrical)","metadescription":"Bldg-Alter/Repair. 1 or 2 Family Dwelling. add 1/2 bath in existing family rm (add nonbearing partitions and plum b/electrical). Permit Finaled. 1151 N SUNSET VALE AVE","address":"1151 Sunset Vale Avenue, CA, West Hollywood, 90069, US","ct":"1943.00","ev":"N","hl":"YES","apc":"Central","solar":"N","pin_nbr":"144B165   215","use_code":"1","geolocation":"POINT (-118.39387 34.09193)","status_date":"11/29/1999","permit_group":"Building","refresh_time":"06/10/2026","type_lat_lon":"ADDRESS","business_unit":"Plan Check at Counter"},"geometry":{"type":"Point","coordinates":[-118.39387,34.09193]}},{"type":"Feature","properties":{"date":"1999-05-26T00:00:00.000Z","year":1999,"description":"New 1 story 2 car garage (19'x19'), max H=14', type V-N. Minor electrical (2 of 2)","metadescription":"Bldg-New. 1 or 2 Family Dwelling. New 1 story 2 car garage (19'x19'), max H=14', type V-N. Minor electrical (2 of 2). Permit Finaled. 136 S LAPEER DR","address":"136 South Lapeer Drive, CA, Los Angeles, 90048, US","ct":"2149.00","ev":"N","apc":"Central","zone":"R1-1-O","solar":"N","pin_nbr":"138B169   474","use_code":"7","geolocation":"POINT (-118.38666 34.07422)","status_date":"06/20/2000","construction":"Type V-N Construction","permit_group":"Building","refresh_time":"06/10/2026","type_lat_lon":"ADDRESS","business_unit":"Regular Plan Check","square_footage":"361"},"geometry":{"type":"Point","coordinates":[-118.38666,34.07422]}},{"type":"Feature","properties":{"date":"1999-05-17T00:00:00.000Z","year":1999,"description":"PATCH DRYWALL IN KITCHEN, BATHROOM, CHANGE FACE PLATES ON ELECTRICAL, MOVING 4 OUTLETS SWITCHES ABOVE SPLASH IN MASTER BATHROOM & KITCHEN.","metadescription":"Bldg-Alter/Repair. 1 or 2 Family Dwelling. PATCH DRYWALL IN KITCHEN, BATHROOM, CHANGE FACE PLATES ON ELECTRICAL, MOVING 4 OUTLETS SWITCHES ABOVE SPLASH IN MASTER BATHROOM & KITCHEN.. Permit Finaled. 9400 FLICKER WAY","address":"9400 Flicker Way, CA, West Hollywood, 90069, US","ct":"1943.00","ev":"N","hl":"YES","apc":"Central","solar":"N","pin_nbr":"147B165   474","use_code":"1","geolocation":"POINT (-118.39460996 34.09658137)","status_date":"03/15/2001","permit_group":"Building","refresh_time":"06/10/2026","type_lat_lon":"PIN","business_unit":"Express Permit"},"geometry":{"type":"Point","coordinates":[-118.39460996,34.09658137]}},{"type":"Feature","properties":{"date":"1999-01-11T00:00:00.000Z","year":1999,"description":"REMODEL KITCHEN AND BATHROOMS, REPLACE KITCHEN CABINETS, BATHROOM CABINETS, TILE WORK, DRYWALL, ELECTRICAL WORK","metadescription":"Bldg-Alter/Repair. 1 or 2 Family Dwelling. REMODEL KITCHEN AND BATHROOMS, REPLACE KITCHEN CABINETS, BATHROOM CABINETS, TILE WORK, DRYWALL, ELECTRICAL WORK. Permit Closed. 9305 W FLICKER WAY","address":"9301 Flicker Way, CA, West Hollywood, 90069, US","ct":"1943.00","ev":"N","hl":"YES","apc":"Central","solar":"N","pin_nbr":"147B165   383","use_code":"1","geolocation":"POINT (-118.39319 34.09718)","status_date":"05/17/1999","permit_group":"Building","refresh_time":"06/10/2026","type_lat_lon":"ADDRESS","business_unit":"Express Permit"},"geometry":{"type":"Point","coordinates":[-118.39319,34.09718]}},{"type":"Feature","properties":{"date":"1998-12-07T00:00:00.000Z","year":1998,"description":"KITCHEN REMODEL, NEW CABINETS, NON-STRUCTURAL AND RELATED ELECTRICAL WORK, REPLACE WINDOWS AND DOORS, SAME SIZE, SAME LOCATION","metadescription":"Bldg-Alter/Repair. 1 or 2 Family Dwelling. KITCHEN REMODEL, NEW CABINETS, NON-STRUCTURAL AND RELATED ELECTRICAL WORK, REPLACE WINDOWS AND DOORS, SAME SIZE, SAME LOCATION. Permit Closed. 9305 W FLICKER WAY","address":"9301 Flicker Way, CA, West Hollywood, 90069, US","ct":"1943.00","ev":"N","hl":"YES","apc":"Central","solar":"N","pin_nbr":"147B165   383","use_code":"1","geolocation":"POINT (-118.39319 34.09718)","status_date":"05/17/1999","permit_group":"Building","refresh_time":"06/10/2026","type_lat_lon":"ADDRESS","business_unit":"Express Permit"},"geometry":{"type":"Point","coordinates":[-118.39319,34.09718]}},{"type":"Feature","properties":{"date":"1998-11-13T00:00:00.000Z","year":1998,"description":"Revise Permit # 95WL24554 to omit 6'3\"x11'0\"addition(only 40 s.f.is to be added to (E) SFD).Convert (E) storage space@ ground level to Dining Rm & laundry(18'3\"x40',irr. 598 s.f.) Electrical/plumbing/HVAC.","metadescription":"Bldg-Alter/Repair. 1 or 2 Family Dwelling. Revise Permit # 95WL24554 to omit 6'3\"x11'0\"addition(only 40 s.f.is to be added to (E) SFD).Convert (E) storage space@ ground level to Dining Rm & laundry(18'3\"x40',irr. 598 s.f.) Electrical/plumbing/HVAC.. Permit Closed. 1129 S DANIELS DR","address":"1129 Daniels Drive, CA, Los Angeles, 90035, US","ct":"2690.00","ev":"N","apc":"West Los Angeles","zone":"R1-1","solar":"N","pin_nbr":"132A165   127","use_code":"1","geolocation":"POINT (-118.40281 34.05679)","status_date":"08/13/1999","construction":"Type V-N Construction","permit_group":"Building","refresh_time":"06/10/2026","type_lat_lon":"ADDRESS","business_unit":"Plan Check at Counter","square_footage":"40"},"geometry":{"type":"Point","coordinates":[-118.40281,34.05679]}},{"type":"Feature","properties":{"date":"1998-10-22T00:00:00.000Z","year":1998,"description":"remodel in bathroom. includes plumbing and electrical","metadescription":"Bldg-Alter/Repair. Apartment. remodel in bathroom. includes plumbing and electrical. Permit Finaled. 100 S DOHENY DR 1-228","address":"107 South Doheny Drive, CA, Los Angeles, 90048, US","ct":"2149.00","ev":"N","apc":"Central","solar":"N","pin_nbr":"138B169   365","use_code":"35","geolocation":"POINT (-118.38955 34.07508)","status_date":"07/06/1999","permit_group":"Building","refresh_time":"06/10/2026","type_lat_lon":"ADDRESS","business_unit":"Express Permit"},"geometry":{"type":"Point","coordinates":[-118.38955,34.07508]}},{"type":"Feature","properties":{"date":"1998-10-13T00:00:00.000Z","year":1998,"description":"ADD B.B.Q. and PLANTER BOX. to work under 98SL05172 combined permit for plumbing and electrical","metadescription":"Bldg-Addition. 1 or 2 Family Dwelling. ADD B.B.Q. and PLANTER BOX. to work under 98SL05172 combined permit for plumbing and electrical. Permit Finaled. 9215 W FLICKER WAY","address":"9215 Flicker Way, CA, West Hollywood, 90069, US","ct":"1943.00","ev":"N","hl":"Y, YES","apc":"Central","zone":"RE11-1","solar":"N","pin_nbr":"147B169   690","use_code":"1","geolocation":"POINT (-118.3911 34.09758)","status_date":"12/09/1999","permit_group":"Building","refresh_time":"06/10/2026","type_lat_lon":"ADDRESS","business_unit":"Plan Check at Counter"},"geometry":{"type":"Point","coordinates":[-118.3911,34.09758]}},{"type":"Feature","properties":{"date":"1998-08-17T00:00:00.000Z","year":1998,"description":"Remodel bathroom & closet,modify partitions,new doors,cabinets. Electrical/plumbing.","metadescription":"Bldg-Alter/Repair. 1 or 2 Family Dwelling. Remodel bathroom & closet,modify partitions,new doors,cabinets. Electrical/plumbing.. Permit Closed. 1211 S CAMDEN DR","address":"1219 South Camden Drive, CA, Los Angeles, 90035, US","ct":"2690.00","ev":"N","apc":"West Los Angeles","zone":"R1-1","solar":"N","pin_nbr":"132A165   170","use_code":"1","geolocation":"POINT (-118.40111 34.05622)","status_date":"08/10/1999","construction":"Type V-N Construction","permit_group":"Building","refresh_time":"06/10/2026","type_lat_lon":"ADDRESS","business_unit":"Plan Check at Counter"},"geometry":{"type":"Point","coordinates":[-118.40111,34.05622]}},{"type":"Feature","properties":{"date":"1998-07-23T00:00:00.000Z","year":1998,"description":"ENLARGE DEN (12.5'X14',irr., 122 SQ.FT, 1-STORY ADDITION) Electrical/plumbing.","metadescription":"Bldg-Addition. 1 or 2 Family Dwelling. ENLARGE DEN (12.5'X14',irr., 122 SQ.FT, 1-STORY ADDITION) Electrical/plumbing.. Permit Closed. 1471 N DOHENY DR","address":"1467 North Doheny Drive, CA, West Hollywood, 90069, US","ct":"1943.00","ev":"N","hl":"YES","apc":"Central","zone":"RE11-1","solar":"N","pin_nbr":"147B169  1218","use_code":"1","geolocation":"POINT (-118.39038 34.09778)","status_date":"05/24/1999","construction":"Type V-N Construction","permit_group":"Building","refresh_time":"06/10/2026","type_lat_lon":"ADDRESS","business_unit":"Plan Check at Counter","square_footage":"122"},"geometry":{"type":"Point","coordinates":[-118.39038,34.09778]}},{"type":"Feature","properties":{"date":"1998-06-29T00:00:00.000Z","year":1998,"description":"interior remodel ( remodel entry foyer, remodel two bathrms including electrical/plumb, add elevator, remove 2nd stairway)","metadescription":"Bldg-Alter/Repair. 1 or 2 Family Dwelling. interior remodel ( remodel entry foyer, remodel two bathrms including electrical/plumb, add elevator, remove 2nd stairway). Permit Closed. 144 N MONOVALE DR","address":"120 Monovale Drive, CA, Los Angeles, 90077, US","ct":"2621.00","ev":"N","hl":"YES","apc":"West Los Angeles","solar":"N","pin_nbr":"141B157    91","use_code":"1","geolocation":"POINT (-118.42405 34.0813)","status_date":"08/10/1999","permit_group":"Building","refresh_time":"06/10/2026","type_lat_lon":"ADDRESS","business_unit":"Plan Check at Counter"},"geometry":{"type":"Point","coordinates":[-118.42405,34.0813]}},{"type":"Feature","properties":{"date":"1998-06-11T00:00:00.000Z","year":1998,"description":"Remodel 2bathrooms, closet & study; add/remove nonbearing partitions. Electrical/plumbing.","metadescription":"Bldg-Alter/Repair. 1 or 2 Family Dwelling. Remodel 2bathrooms, closet & study; add/remove nonbearing partitions. Electrical/plumbing.. Permit Closed. 144 N MONOVALE DR","address":"120 Monovale Drive, CA, Los Angeles, 90077, US","ct":"2621.00","ev":"N","hl":"Y","apc":"West Los Angeles","zone":"RE40-1","solar":"N","pin_nbr":"141B157    91","use_code":"1","geolocation":"POINT (-118.42405 34.0813)","status_date":"08/10/1999","construction":"Type V-N Construction","permit_group":"Building","refresh_time":"06/10/2026","type_lat_lon":"ADDRESS","business_unit":"Plan Check at Counter"},"geometry":{"type":"Point","coordinates":[-118.42405,34.0813]}},{"type":"Feature","properties":{"date":"1998-05-22T00:00:00.000Z","year":1998,"description":"KITCHEN/GUEST BATH REMODEL- NEW CABINETS, COUNTERS, ASSOCIATED PLUMBING AND ELECTRICAL WORK. SEISMIC GAS SHUT OFF VALVE IS REQUIRED.","metadescription":"Bldg-Alter/Repair. 1 or 2 Family Dwelling. KITCHEN/GUEST BATH REMODEL- NEW CABINETS, COUNTERS, ASSOCIATED PLUMBING AND ELECTRICAL WORK. SEISMIC GAS SHUT OFF VALVE IS REQUIRED.. Permit Closed. 1485 N DOHENY DR","address":"1485 North Doheny Drive, CA, West Hollywood, 90069, US","ct":"1943.00","ev":"N","hl":"YES","apc":"Central","zone":"RE11-1","solar":"N","pin_nbr":"147B169   641","use_code":"1","geolocation":"POINT (-118.39011 34.09825)","status_date":"05/24/1999","permit_group":"Building","refresh_time":"06/10/2026","type_lat_lon":"ADDRESS","business_unit":"Plan Check at Counter"},"geometry":{"type":"Point","coordinates":[-118.39011,34.09825]}},{"type":"Feature","properties":{"date":"1998-03-09T00:00:00.000Z","year":1998,"description":"REVISE 98016-20000-03915 TO REVISE FLOOR PLAN AND ADD POST TO SUPPORT EXIST BEAM AND TO INCLUDE ASSOC PLUMBING AND ELECTRICAL FOR BOTH PERMITS.","metadescription":"Bldg-Alter/Repair. 1 or 2 Family Dwelling. REVISE 98016-20000-03915 TO REVISE FLOOR PLAN AND ADD POST TO SUPPORT EXIST BEAM AND TO INCLUDE ASSOC PLUMBING AND ELECTRICAL FOR BOTH PERMITS.. Permit Expired. 1496 N DOHENY DR","address":"1496 North Doheny Drive, CA, West Hollywood, 90069, US","ct":"1943.00","ev":"N","hl":"YES","apc":"Central","solar":"N","pin_nbr":"147B169   594","use_code":"1","geolocation":"POINT (-118.38971 34.09855)","status_date":"08/18/2008","permit_group":"Building","refresh_time":"06/10/2026","type_lat_lon":"ADDRESS","business_unit":"Plan Check at Counter"},"geometry":{"type":"Point","coordinates":[-118.38971,34.09855]}},{"type":"Feature","properties":{"date":"1998-02-24T00:00:00.000Z","year":1998,"description":"6'X8.5' BDRM EXTENSION AND 8'X9.5' LAUNDRY RM EXTENSION (+127 SQ FT). RAISE ROOF TO MATCH EX'G OVER EAST END OF BLDG. electrical/ plumbing/HVAC","metadescription":"Bldg-Addition. 1 or 2 Family Dwelling. 6'X8.5' BDRM EXTENSION AND 8'X9.5' LAUNDRY RM EXTENSION (+127 SQ FT). RAISE ROOF TO MATCH EX'G OVER EAST END OF BLDG. electrical/ plumbing/HVAC. Permit Finaled. 1120 LA COLLINA DR","address":"1120 La Collina Drive, CA, West Hollywood, 90069, US","ct":"2145.00","ev":"N","apc":"Central","zone":"RE11-1","solar":"N","height":"16","pin_nbr":"144B165   209","use_code":"23","geolocation":"POINT (-118.39522988 34.09179058)","status_date":"05/05/2008","construction":"Type V-N Construction","permit_group":"Building","refresh_time":"06/10/2026","type_lat_lon":"PIN","business_unit":"Plan Check at Counter","square_footage":"127"},"geometry":{"type":"Point","coordinates":[-118.39522988,34.09179058]}},{"type":"Feature","properties":{"date":"1998-01-09T00:00:00.000Z","year":1998,"description":"FIRE DAMAGE REPAIR LESS THAN 10%, INCLUDING ELECTRICAL, PLUMBING AND HVAC REPAIRS.","metadescription":"Bldg-Alter/Repair. 1 or 2 Family Dwelling. FIRE DAMAGE REPAIR LESS THAN 10%, INCLUDING ELECTRICAL, PLUMBING AND HVAC REPAIRS.. Permit Closed. 804 S SHENANDOAH ST","address":"804 South Shenandoah Street, CA, Los Angeles, 90035, US","ct":"2164.00","ev":"N","apc":"Central","solar":"N","pin_nbr":"135B169   191","use_code":"1","geolocation":"POINT (-118.38118 34.0627)","status_date":"08/06/1999","permit_group":"Building","refresh_time":"06/10/2026","type_lat_lon":"ADDRESS","business_unit":"Express Permit"},"geometry":{"type":"Point","coordinates":[-118.38118,34.0627]}},{"type":"Feature","properties":{"date":"1997-11-10T00:00:00.000Z","year":1997,"description":"Remodel kitchen, two bathrooms, replace 9doors & 2 windows; remodel (E) ceilings thru SFD, enclose ( E) carport to convert it into garage. Add 4 skilights. Electrical/plumbing.","metadescription":"Bldg-Alter/Repair. 1 or 2 Family Dwelling. Remodel kitchen, two bathrooms, replace 9doors & 2 windows; remodel (E) ceilings thru SFD, enclose ( E) carport to convert it into garage. Add 4 skilights. Electrical/plumbing.. Permit Closed. 9284 W FLICKER PL","address":"9280 Flicker Place, CA, West Hollywood, 90069, US","ct":"1943.00","ev":"N","hl":"Y","apc":"Central","zone":"RE11-1","solar":"N","pin_nbr":"147B169   614","use_code":"1","geolocation":"POINT (-118.39181 34.09831)","status_date":"10/05/1999","construction":"Type V-N Construction","permit_group":"Building","refresh_time":"06/10/2026","type_lat_lon":"ADDRESS","business_unit":"Plan Check at Counter"},"geometry":{"type":"Point","coordinates":[-118.39181,34.09831]}},{"type":"Feature","properties":{"date":"1997-06-09T00:00:00.000Z","year":1997,"description":"complete work on permit #95WL24554 including electrical/plumb/heat (90 % complete).","metadescription":"Bldg-Alter/Repair. 1 or 2 Family Dwelling. complete work on permit #95WL24554 including electrical/plumb/heat (90 % complete).. Permit Closed. 1129 S DANIELS DR","address":"1129 Daniels Drive, CA, Los Angeles, 90035, US","ct":"2690.00","ev":"N","apc":"West Los Angeles","solar":"N","pin_nbr":"132A165   127","use_code":"1","geolocation":"POINT (-118.40281 34.05679)","status_date":"07/23/1999","permit_group":"Building","refresh_time":"06/10/2026","type_lat_lon":"ADDRESS","business_unit":"Express Permit"},"geometry":{"type":"Point","coordinates":[-118.40281,34.05679]}},{"type":"Feature","properties":{"date":"1997-04-22T00:00:00.000Z","year":1997,"description":"REPLACE 3 WINDOWS (SAME SIZE) AND 1 SLIDING GLASS DOOR OF THE SAME SAME SIZE (TEMPERED), AND DRYWALL FROM ELECTRICAL AND PLUMBING WORK.","metadescription":"Bldg-Alter/Repair. 1 or 2 Family Dwelling. REPLACE 3 WINDOWS (SAME SIZE) AND 1 SLIDING GLASS DOOR OF THE SAME SAME SIZE (TEMPERED), AND DRYWALL FROM ELECTRICAL AND PLUMBING WORK.. Permit Closed. 1124 N SIERRA ALTA WAY","address":"1124 Sierra Alta Way, CA, West Hollywood, 90069, US","ct":"1943.00","ev":"N","hl":"Y","apc":"Central","zone":"R1-1","solar":"N","pin_nbr":"144B165   252","use_code":"1","geolocation":"POINT (-118.39445 34.09131)","status_date":"05/09/1997","permit_group":"Building","refresh_time":"06/10/2026","type_lat_lon":"ADDRESS","business_unit":"Express Permit"},"geometry":{"type":"Point","coordinates":[-118.39445,34.09131]}},{"type":"Feature","properties":{"date":"1997-04-09T00:00:00.000Z","year":1997,"description":"2ND FLOOR ADDITION OVER EXISITNG DECK TO EXTEND EXISTING BR RELATED ELECTRICAL,HVAC","metadescription":"Bldg-Addition. 1 or 2 Family Dwelling. 2ND FLOOR ADDITION OVER EXISITNG DECK TO EXTEND EXISTING BR RELATED ELECTRICAL,HVAC. Permit Closed. 1211 BEVERWIL DR","address":"1211 Rodeo Drive, CA, Los Angeles, 90035, US","ct":"2690.00","ev":"N","apc":"West Los Angeles","zone":"R1-1","solar":"N","pin_nbr":"132A165   209","use_code":"1","geolocation":"POINT (-118.39940916 34.05559422)","status_date":"07/20/1999","permit_group":"Building","refresh_time":"06/10/2026","type_lat_lon":"PIN","business_unit":"Plan Check at Counter"},"geometry":{"type":"Point","coordinates":[-118.39940916,34.05559422]}},{"type":"Feature","properties":{"date":"1997-03-07T00:00:00.000Z","year":1997,"description":"Remodel and convert (E) full bath to 3/4 bath (replacing (E) tub with shower in same location- includes incidental electrical and plumbing) Smoke detectors required","metadescription":"Bldg-Alter/Repair. 1 or 2 Family Dwelling. Remodel and convert (E) full bath to 3/4 bath (replacing (E) tub with shower in same location- includes incidental electrical and plumbing) Smoke detectors required. Permit Expired. 9260 W WARBLER WAY","address":"9260 Warbler Way, CA, West Hollywood, 90069, US","ct":"1943.00","ev":"N","hl":"Y","apc":"Central","zone":"RE11-1","solar":"N","pin_nbr":"147B169   511","use_code":"1","geolocation":"POINT (-118.39167 34.09906)","status_date":"12/11/2006","permit_group":"Building","refresh_time":"06/10/2026","type_lat_lon":"ADDRESS","business_unit":"Express Permit"},"geometry":{"type":"Point","coordinates":[-118.39167,34.09906]}}]}
