{"type":"FeatureCollection","features":[{"type":"Feature","properties":{"date":"2001-07-12T00:00:00.000Z","year":2001,"description":"NEW STRUCTURE SLAB FOR GENERATO& METAL SHED (HOUSING ELECTRICAL EQUIP) OVER BASEMENT (13' X 30').","metadescription":"Bldg-New. Commercial. NEW STRUCTURE SLAB FOR GENERATO& METAL SHED (HOUSING ELECTRICAL EQUIP) OVER BASEMENT (13' X 30').. Permit Finaled. 10000 W SANTA MONICA BLVD","address":"10000 W SANTA MONICA BLVD","ct":"2671.00, 7010.00","ev":"N","apc":"West Los Angeles","zone":"C2-2-O","solar":"N","pin_nbr":"135B161    35","use_code":"23","geolocation":"POINT (-118.41446 34.06351)","status_date":"09/21/2001","construction":"Type I-F.R. Construction","permit_group":"Building","refresh_time":"06/10/2026","type_lat_lon":"ADDRESS","business_unit":"Regular Plan Check"},"geometry":{"type":"Point","coordinates":[-118.41446,34.06351]}}]}
