{"type":"FeatureCollection","features":[{"type":"Feature","properties":{"date":"2025-10-03T00:00:00.000Z","year":2025,"description":"Supplemental Permit #24016-10000-13034, Existing commercial building type V retail store tenant improvement, change of use to dry cleaners total 1,750 sf. G-1 occupancy group.","metadescription":"Bldg-Alter/Repair. Commercial. Supplemental Permit #24016-10000-13034, Existing commercial building type V retail store tenant improvement, change of use to dry cleaners total 1,750 sf. G-1 occupancy group.. Verifications in Progress. 854 S ROBERTSON BLVD","address":"854 South Robertson Boulevard, CA, Los Angeles, 90035, US","ct":"2164.02","ev":"N","apc":"Central","cpa":"Wilshire","zone":"[Q]C2-1-O","solar":"N","pin_nbr":"132B169    78","status_date":"11/19/2025","permit_group":"Building","refresh_time":"06/10/2026","type_lat_lon":"ADDRESS","business_unit":"Plan Check at Counter"},"geometry":{"type":"Point","coordinates":[-118.38339,34.0613]}},{"type":"Feature","properties":{"date":"2024-12-16T00:00:00.000Z","year":2024,"description":"ePlan - addition of ADU per LAMC 12.22 A.33 (c)(d) at 2nd story and roof deck to (e) 1-story detached garage R3/U Occupancy","metadescription":"Bldg-Addition. 1 or 2 Family Dwelling. ePlan - addition of ADU per LAMC 12.22 A.33 (c)(d) at 2nd story and roof deck to (e) 1-story detached garage R3/U Occupancy. Issued. 8764 W CHALMERS DR","address":"905 1/2 South Wooster Street, CA, Los Angeles, 90035, US","ct":"2164.02","ev":"N","apc":"Central","cpa":"Wilshire","zone":"[Q]R3-1-O","solar":"N","height":"24.75","pin_nbr":"132B169   111","use_code":"1","status_date":"12/16/2024","construction":"Type V-B Construction","permit_group":"Building","refresh_time":"06/10/2026","type_lat_lon":"PIN","business_unit":"Regular Plan Check","square_footage":"1242.7"},"geometry":{"type":"Point","coordinates":[-118.38274546,34.06077762]}},{"type":"Feature","properties":{"date":"2021-01-29T00:00:00.000Z","year":2021,"description":"TENANT IMPROVEMENT TO UNIT 10B. (N) FLOORING, MILLWORK, PLUMBING FIXTURES. NO CHANGE TO PARTITIIONS, OCCUPANCY, OR EGRESS.","metadescription":"Bldg-Alter/Repair. Apartment. TENANT IMPROVEMENT TO UNIT 10B. (N) FLOORING, MILLWORK, PLUMBING FIXTURES. NO CHANGE TO PARTITIIONS, OCCUPANCY, OR EGRESS.. Permit Finaled. 9000 W 3RD ST Unit#10B","address":"9000 West 3Rd Street, CA, Los Angeles, 90048, US","ct":"2149.01","ev":"N","apc":"Central","cpa":"Wilshire","zone":"(T)(Q)R4-2-O","solar":"N","pin_nbr":"138B169  1407","use_code":"5","status_date":"12/15/2021","permit_group":"Building","refresh_time":"06/10/2026","type_lat_lon":"ADDRESS","business_unit":"Expanded Counter Plan Check"},"geometry":{"type":"Point","coordinates":[-118.38815,34.07338]}},{"type":"Feature","properties":{"date":"2020-09-29T00:00:00.000Z","year":2020,"description":"TENANT IMPROVEMENT TO UNIT 9B. (N) FLOORING, MILLWORK, PLUMBING FIXTURES. NO CHANGE IN PARTITIONS, OCCUPANCY, OR EGRESS. 2512 SQFT","metadescription":"Bldg-Alter/Repair. Apartment. TENANT IMPROVEMENT TO UNIT 9B. (N) FLOORING, MILLWORK, PLUMBING FIXTURES. NO CHANGE IN PARTITIONS, OCCUPANCY, OR EGRESS. 2512 SQFT. Permit Finaled. 9000 W 3RD ST","address":"9000 West 3Rd Street, CA, Los Angeles, 90048, US","ct":"2149.01","ev":"N","apc":"Central","cpa":"Wilshire","zone":"(T)(Q)R4-2-O","solar":"N","pin_nbr":"138B169  1407","use_code":"5","status_date":"07/15/2021","permit_group":"Building","refresh_time":"06/10/2026","type_lat_lon":"ADDRESS","business_unit":"Expanded Counter Plan Check"},"geometry":{"type":"Point","coordinates":[-118.38815,34.07338]}},{"type":"Feature","properties":{"date":"2018-09-11T00:00:00.000Z","year":2018,"description":"SUPPLEMENTAL PERMIT TO 17016-10000-05165 TO REVISE OCCUPANCY BACK TO OFFICE FOR GROUND LEVEL TENANT SPACE","metadescription":"Bldg-Alter/Repair. Commercial. SUPPLEMENTAL PERMIT TO 17016-10000-05165 TO REVISE OCCUPANCY BACK TO OFFICE FOR GROUND LEVEL TENANT SPACE. Permit Finaled. 812 S ROBERTSON BLVD","address":"812 South Robertson Boulevard, CA, Los Angeles, 90035, US","ct":"2164.02","ev":"N","apc":"Central","cpa":"Wilshire","zone":"[Q]C2-1-O","solar":"N","pin_nbr":"135B169   206","use_code":"13","geolocation":"POINT (-118.38338 34.06244)","status_date":"05/10/2019","construction":"Type V-B Construction","permit_group":"Building","refresh_time":"06/10/2026","type_lat_lon":"ADDRESS","business_unit":"Plan Check at Counter"},"geometry":{"type":"Point","coordinates":[-118.38338,34.06244]}},{"type":"Feature","properties":{"date":"2016-08-17T00:00:00.000Z","year":2016,"description":"Supplemental  Permit  to clarify scope of work and occupancy: Final 200SF single car garage with 125 SF of storage area separated by a partition wall ( no addition)","metadescription":"Bldg-Alter/Repair. 1 or 2 Family Dwelling. Supplemental  Permit  to clarify scope of work and occupancy: Final 200SF single car garage with 125 SF of storage area separated by a partition wall ( no addition). Permit Finaled. 1212 N LA COLLINA DR","address":"1200 La Collina Drive, CA, West Hollywood, 90069, US","ct":"1943.00","ev":"N","hl":"YES","apc":"Central","cpa":"Hollywood","zone":"RE11-1","solar":"N","pin_nbr":"144B165   175","use_code":"1","geolocation":"POINT (-118.39552 34.09283)","status_date":"08/27/2016","permit_group":"Building","refresh_time":"06/10/2026","type_lat_lon":"ADDRESS","business_unit":"Plan Check at Counter"},"geometry":{"type":"Point","coordinates":[-118.39552,34.09283]}},{"type":"Feature","properties":{"date":"2016-04-15T00:00:00.000Z","year":2016,"description":"SUPPLEMENTAL TO 14010-20000-00907 TO SEPARATE ONE ACCESSORY LIVING QUARTERS  TO TWO ACCESSORY LIVING QUARTERS ON COMMON FOUNDATION (Certificate of Occupancy May not be issued until Certificate of Occupancy for the Main Single Family Dwelling has been isued)","metadescription":"Bldg-Alter/Repair. 1 or 2 Family Dwelling. SUPPLEMENTAL TO 14010-20000-00907 TO SEPARATE ONE ACCESSORY LIVING QUARTERS  TO TWO ACCESSORY LIVING QUARTERS ON COMMON FOUNDATION (Certificate of Occupancy May not be issued until Certificate of Occupancy for the Main Single Family Dwelling has been isued). Permit Finaled. 9366 W FLICKER WAY","address":"9369 Flicker Way, CA, West Hollywood, 90069, US","ct":"1943.00","ev":"N","hl":"YES","apc":"Central","cpa":"Hollywood","zone":"RE11-1","solar":"N","pin_nbr":"147B165   604","use_code":"23","geolocation":"POINT (-118.39354321 34.09618329)","status_date":"01/10/2019","permit_group":"Building","refresh_time":"06/10/2026","type_lat_lon":"BUILDING","business_unit":"Regular Plan Check"},"geometry":{"type":"Point","coordinates":[-118.39354321,34.09618329]}},{"type":"Feature","properties":{"date":"2007-06-11T00:00:00.000Z","year":2007,"description":"SUPPLEMENTAL PERMIT TO CAPTURE THE STRUCTURAL INVENTORY FROM PERMIT # 1982LA54558 FOR PURPOSE OF ISSSUING A CERTIFICATE OF OCCUPANCY. ( UPDATE TO CURRENT CODE CLASSIFICATION)","metadescription":"Bldg-Alter/Repair. Apartment. SUPPLEMENTAL PERMIT TO CAPTURE THE STRUCTURAL INVENTORY FROM PERMIT # 1982LA54558 FOR PURPOSE OF ISSSUING A CERTIFICATE OF OCCUPANCY. ( UPDATE TO CURRENT CODE CLASSIFICATION). CofO Issued. 100 N DOHENY DR 1-19","address":"1-17, 100 North Doheny Drive, CA, Los Angeles, 90048, US","ct":"2149.00","ev":"N","apc":"Central","cpa":"Wilshire","zone":"[Q]R4-1-O","solar":"N","pin_nbr":"138B169   343","use_code":"5","geolocation":"POINT (-118.38956 34.07545)","status_date":"06/21/2007","construction":"Type V-1HR Construction","permit_group":"Building","refresh_time":"06/10/2026","type_lat_lon":"ADDRESS","business_unit":"Plan Check at Counter","square_footage":"0"},"geometry":{"type":"Point","coordinates":[-118.38956,34.07545]}},{"type":"Feature","properties":{"date":"2007-05-14T00:00:00.000Z","year":2007,"description":"SUPPLEMENTAL PERMIT TO COMPLETE WORK STARTED UNDER PERMIT 1982 LA 54558, AND TO ALLOW A CERTIFICATE OF OCCUPANCY TO BE ISSUED FOR THE REDUCTION OF UNITS FROM 21 TO 19.  WORK IS  99% COMPLETED PER INSPECTOR REPORT.","metadescription":"Bldg-Alter/Repair. Apartment. SUPPLEMENTAL PERMIT TO COMPLETE WORK STARTED UNDER PERMIT 1982 LA 54558, AND TO ALLOW A CERTIFICATE OF OCCUPANCY TO BE ISSUED FOR THE REDUCTION OF UNITS FROM 21 TO 19.  WORK IS  99% COMPLETED PER INSPECTOR REPORT.. Permit Finaled. 100 N DOHENY DR 1-19","address":"1-17, 100 North Doheny Drive, CA, Los Angeles, 90048, US","ct":"2149.00","ev":"N","apc":"Central","cpa":"Wilshire","zone":"[Q]R4-1-O","solar":"N","pin_nbr":"138B169   343","use_code":"5","geolocation":"POINT (-118.38956 34.07545)","status_date":"02/05/2008","permit_group":"Building","refresh_time":"06/10/2026","type_lat_lon":"ADDRESS","business_unit":"Express Permit"},"geometry":{"type":"Point","coordinates":[-118.38956,34.07545]}},{"type":"Feature","properties":{"date":"2006-02-24T00:00:00.000Z","year":2006,"description":"Proposed 82'-0\"x114'-10\" irregular-shaped, Type III-1 hour construction, 5-story, 33-unit apartment (R-1 Occupancy: 34,893 sq. ft.) over 1-story, Type I construction parking garage over 1 level of subterranean parking garge (S-3 Occupancy: 22,727 sq. ft.).  (FULLY-SPRINKLERED THROUGHOUT)","metadescription":"Bldg-New. Apartment. Proposed 82'-0\"x114'-10\" irregular-shaped, Type III-1 hour construction, 5-story, 33-unit apartment (R-1 Occupancy: 34,893 sq. ft.) over 1-story, Type I construction parking garage over 1 level of subterranean parking garge (S-3 Occupancy: 22,727 sq. ft.).  (FULLY-SPRINKLERED THROUGHOUT). CofO Corrected. 320 N OAKHURST DR 1-33","address":"1-33, 320 North Oakhurst Drive, CA, Beverly Hills, 90210, US","ct":"2149.00","ev":"N","apc":"Central","cpa":"Wilshire","zone":"[Q]R4-1-O","solar":"N","height":"65","pin_nbr":"138B169   665","use_code":"5","geolocation":"POINT (-118.39069 34.07283)","status_date":"01/12/2010","construction":"Type III-1HR Construction","permit_group":"Building","refresh_time":"06/10/2026","type_lat_lon":"ADDRESS","business_unit":"Regular Plan Check","square_footage":"35057"},"geometry":{"type":"Point","coordinates":[-118.39069,34.07283]}},{"type":"Feature","properties":{"date":"2004-11-23T00:00:00.000Z","year":2004,"description":"CORRECT OCCUPANCY(H-3) & ADD FIRE SPRINKLERS TO NEW GENERATOR ROOM ON PERMIT # 04010-20000-02941.","metadescription":"Bldg-Alter/Repair. 1 or 2 Family Dwelling. CORRECT OCCUPANCY(H-3) & ADD FIRE SPRINKLERS TO NEW GENERATOR ROOM ON PERMIT # 04010-20000-02941.. Permit Finaled. 10060 W SUNSET BLVD","address":"10060 West Sunset Boulevard, CA, Los Angeles, 90077, US","ct":"2621.00, 2651.00","ev":"N","apc":"West Los Angeles","zone":"RE40-1","solar":"N","height":"14","pin_nbr":"141B157   122","use_code":"23","geolocation":"POINT (-118.42538237 34.08008299)","status_date":"02/16/2005","construction":"Type V-N Construction","permit_group":"Building","refresh_time":"06/10/2026","type_lat_lon":"PIN","business_unit":"Appointment Plan Check","square_footage":"250"},"geometry":{"type":"Point","coordinates":[-118.42538237,34.08008299]}},{"type":"Feature","properties":{"date":"2002-11-12T00:00:00.000Z","year":2002,"description":"NON STRUCTURAL TENANT IMPROVEMENT AT (E) OFFICE SPACE, NO CHANGE OF USE NOR OCCUPANCY","metadescription":"Bldg-Alter/Repair. Commercial. NON STRUCTURAL TENANT IMPROVEMENT AT (E) OFFICE SPACE, NO CHANGE OF USE NOR OCCUPANCY. Permit Finaled. 822 S ROBERTSON BLVD #202-#204","address":"822 South Robertson Boulevard, CA, Los Angeles, 90035, US","ct":"2164.00","ev":"N","apc":"Central","zone":"[Q]C2-1-O","solar":"N","pin_nbr":"135B169   224","use_code":"13","geolocation":"POINT (-118.38338 34.06221)","status_date":"11/03/2008","permit_group":"Building","refresh_time":"06/10/2026","type_lat_lon":"ADDRESS","business_unit":"Plan Check at Counter"},"geometry":{"type":"Point","coordinates":[-118.38338,34.06221]}},{"type":"Feature","properties":{"date":"1998-06-22T00:00:00.000Z","year":1998,"description":"Change of Retirement hotel (R1 occupancy) to Residential Facility for the Elderly. First & second floor from R1 to R2.1; Third floor from R1 to R2.2. Fourth floor will remain as R1 occupancy. NO SPECIAL CARE TO BE PROVIDED IN THE FACILITY.","metadescription":"Bldg-Alter/Repair. Apartment. Change of Retirement hotel (R1 occupancy) to Residential Facility for the Elderly. First & second floor from R1 to R2.1; Third floor from R1 to R2.2. Fourth floor will remain as R1 occupancy. NO SPECIAL CARE TO BE PROVIDED IN THE FACILITY.. Permit Finaled. 8757 W BURTON WAY","address":"1-78, 8757 Burton Way, CA, Los Angeles, 90048, US","ct":"2149.00","ev":"N","apc":"Central","zone":"R4-1, Q, O","solar":"N","pin_nbr":"138B169   682","use_code":"11","geolocation":"POINT (-118.38306 34.0725)","status_date":"12/21/1998","construction":"Type V-1HR Construction","permit_group":"Building","refresh_time":"06/10/2026","type_lat_lon":"ADDRESS","business_unit":"Regular Plan Check"},"geometry":{"type":"Point","coordinates":[-118.38306,34.0725]}}]}
