{"type":"FeatureCollection","features":[{"type":"Feature","properties":{"date":"2021-10-08T00:00:00.000Z","year":2021,"description":"NEW GARAGE DOOR OPENINGS AT GROUND FLOOR GARAGE. ENCLOSE EXISTING [11'1\" x 8'5\"] COVERED PORCH AT SECOND FLOOR DWELLING UNIT AND RECONFIGURE INTERIOR FLOOR PLAN. ALTERATIONS TO EXTERIOR WALLS FOR INFILL AND NEW OPENINGS.FIRE SPRINKLERS TO BE INSTALLED IN BUILDING","metadescription":"Bldg-Alter/Repair. Apartment. NEW GARAGE DOOR OPENINGS AT GROUND FLOOR GARAGE. ENCLOSE EXISTING [11'1\" x 8'5\"] COVERED PORCH AT SECOND FLOOR DWELLING UNIT AND RECONFIGURE INTERIOR FLOOR PLAN. ALTERATIONS TO EXTERIOR WALLS FOR INFILL AND NEW OPENINGS.FIRE SPRINKLERS TO BE INSTALLED IN BUILDING. Permit Finaled. 332 N OAKHURST DR #105","address":"332 N OAKHURST DR #105","ct":"2149.01","ev":"N","apc":"Central","cpa":"Wilshire","zone":"[Q]R4-1-O","solar":"N","pin_nbr":"138B169   950","use_code":"1","status_date":"03/03/2023","permit_group":"Building","refresh_time":"06/10/2026","type_lat_lon":"ADDRESS","business_unit":"Expanded Counter Plan Check","square_footage":"0"},"geometry":{"type":"Point","coordinates":[-118.3907,34.07391]}},{"type":"Feature","properties":{"date":"2002-12-11T00:00:00.000Z","year":2002,"description":"REMODEL (E) 6'X20'-6\" FRONT PORCH/BREEZWAY (SEE COMMENTS) & CHANGE OUT 4 WINDOWS AT DINING RM & LIVING RM (SAME SIZE/LOCATION/& TYPE) _PER ENGINEERED PLAN","metadescription":"Bldg-Alter/Repair. 1 or 2 Family Dwelling. REMODEL (E) 6'X20'-6\" FRONT PORCH/BREEZWAY (SEE COMMENTS) & CHANGE OUT 4 WINDOWS AT DINING RM & LIVING RM (SAME SIZE/LOCATION/& TYPE) _PER ENGINEERED PLAN. Permit Finaled. 478 S WILLAMAN DR","address":"478 S WILLAMAN DR","ct":"2149.00","ev":"N","apc":"Central","zone":"R1-1-O","solar":"N","pin_nbr":"135B169    31","use_code":"1","geolocation":"POINT (-118.38045 34.06996)","status_date":"11/07/2003","permit_group":"Building","refresh_time":"06/10/2026","type_lat_lon":"ADDRESS","business_unit":"Plan Check at Counter"},"geometry":{"type":"Point","coordinates":[-118.38045,34.06996]}},{"type":"Feature","properties":{"date":"1997-03-10T00:00:00.000Z","year":1997,"description":"ENCLOSE EXIST COVERED PORCH AT FRONT OF EXISTING SFD TO ENLARGE LIVING ROOM RELATED ELECTRICAL NO ACTUAL ADDED FLOOR AREA SINCE PORCH IS ROOFED (7'X8.5----60 SF)","metadescription":"Bldg-Alter/Repair. 1 or 2 Family Dwelling. ENCLOSE EXIST COVERED PORCH AT FRONT OF EXISTING SFD TO ENLARGE LIVING ROOM RELATED ELECTRICAL NO ACTUAL ADDED FLOOR AREA SINCE PORCH IS ROOFED (7'X8.5----60 SF). Permit Closed. 486 S SHERBOURNE DR","address":"486 S SHERBOURNE DR","ev":"N","apc":"Central","zone":"R1-1","solar":"N","pin_nbr":"135B173   134","use_code":"1","geolocation":"POINT (-118.37939 34.06972)","status_date":"08/03/1999","permit_group":"Building","refresh_time":"06/10/2026","type_lat_lon":"ADDRESS","business_unit":"Plan Check at Counter"},"geometry":{"type":"Point","coordinates":[-118.37939,34.06972]}}]}
