{"type":"FeatureCollection","features":[{"type":"Feature","properties":{"date":"2018-05-23T00:00:00.000Z","year":2018,"description":"interior non structural alteration on the 23rd floor to revise the floor unit count from 8 units existing to a proposed 7 units.","metadescription":"Bldg-Alter/Repair. Apartment. interior non structural alteration on the 23rd floor to revise the floor unit count from 8 units existing to a proposed 7 units.. CofO Issued. 10000 W SANTA MONICA BLVD FLOOR 23","address":"10000 W SANTA MONICA BLVD FLOOR 23","ct":"2679.01","ev":"N","apc":"West Los Angeles","cpa":"West Los Angeles","zone":"C2-2-O","solar":"N","pin_nbr":"135B161    35","use_code":"5","geolocation":"POINT (-118.41446 34.06351)","status_date":"08/16/2018","construction":"Type I-A Construction","permit_group":"Building","refresh_time":"06/10/2026","type_lat_lon":"ADDRESS","business_unit":"Regular Plan Check"},"geometry":{"type":"Point","coordinates":[-118.41446,34.06351]}},{"type":"Feature","properties":{"date":"2017-09-01T00:00:00.000Z","year":2017,"description":"T.I. OF EXISTING RESTAURANT INSIDE HOTEL.  NO STRUCTURAL WORK.  NO CHANGE OF USE AND NO CHANGE OF EXISTING PARKING ON SITE","metadescription":"Bldg-Alter/Repair. Commercial. T.I. OF EXISTING RESTAURANT INSIDE HOTEL.  NO STRUCTURAL WORK.  NO CHANGE OF USE AND NO CHANGE OF EXISTING PARKING ON SITE. Permit Finaled. 465 S LA CIENEGA BLVD 1ST FLR","address":"465 S LA CIENEGA BLVD 1ST FLR","ct":"2149.02","ev":"N","apc":"Central","cpa":"Wilshire","zone":"(Q)C2-2D-O","solar":"N","pin_nbr":"135B173   130","use_code":"11","geolocation":"POINT (-118.37662 34.06979)","status_date":"02/16/2018","permit_group":"Building","refresh_time":"06/10/2026","type_lat_lon":"ADDRESS","business_unit":"Plan Check at Counter"},"geometry":{"type":"Point","coordinates":[-118.37662,34.06979]}},{"type":"Feature","properties":{"date":"2002-04-02T00:00:00.000Z","year":2002,"description":"T.I. OF 2ND FLOOR 20,600 SQ. FT. (NO STRUCTURAL WORK INVOLVED).","metadescription":"Bldg-Alter/Repair. Commercial. T.I. OF 2ND FLOOR 20,600 SQ. FT. (NO STRUCTURAL WORK INVOLVED).. Permit Finaled. 10000 W SANTA MONICA BLVD 2ND FLOOR-WEST","address":"10000 W SANTA MONICA BLVD 2ND FLOOR-WEST","ct":"2671.00, 7010.00","ev":"N","apc":"West Los Angeles","zone":"C2-2-O","solar":"N","pin_nbr":"135B161    35","use_code":"13","geolocation":"POINT (-118.41446 34.06351)","status_date":"12/31/2002","permit_group":"Building","refresh_time":"06/10/2026","type_lat_lon":"ADDRESS","business_unit":"Plan Check at Counter"},"geometry":{"type":"Point","coordinates":[-118.41446,34.06351]}}]}
