{"type":"FeatureCollection","features":[{"type":"Feature","properties":{"date":"2025-07-08T00:00:00.000Z","year":2025,"description":"**10% HSAP FOR ZONING REVIEW ONLY (SB330)** new 7 story 38 unit apartment building with 2 levels of subterranean parking. 32 units in LA and 6 units partially in Beverly Hills and partially in LA. 35% density bonus project with 2 incentives and 4 affordable housing units. 2 parcels **PERMIT APPLICATION NO. 16010-10000-05911 SHALL BE WITHDRAWN BEFORE RTI**","metadescription":"Bldg-New. Apartment. **10% HSAP FOR ZONING REVIEW ONLY (SB330)** new 7 story 38 unit apartment building with 2 levels of subterranean parking. 32 units in LA and 6 units partially in Beverly Hills and partially in LA. 35% density bonus project with 2 incentives and 4 affordable housing units. 2 parcels **PERMIT APPLICATION NO. 16010-10000-05911 SHALL BE WITHDRAWN BEFORE RTI**. Quality Review Completed. 328 N OAKHURST DR","address":"328 N OAKHURST DR","ct":"2149.03","ev":"N","apc":"Central","cpa":"Wilshire","zone":"[Q]R4-1-O","solar":"N","pin_nbr":"138B169   548","status_date":"07/28/2025","permit_group":"Building","refresh_time":"06/10/2026","type_lat_lon":"ADDRESS","business_unit":"Regular Plan Check"},"geometry":{"type":"Point","coordinates":[-118.3907,34.07332]}},{"type":"Feature","properties":{"date":"2023-10-17T00:00:00.000Z","year":2023,"description":"*eplan* **** HSAP TO CHECK FOR ZONING REQUIREMENTS ONLY - (SB330) **** NEW 7 STORY WITH MEZZANINE & ROOF DECK 37 UNITS (2% LI = 1 || 16% VLI = 16%) AFFORDABLE HOUSING APARTMENT TO INCLUDE 5 STORY TYPE IIIA APARTMENT OVER 2 STORY TYPE IA APARTMENT/PARKING OVER 2 LEVEL SUBTERRANEAN PARKING, 12.22.A.25 INCENTIVES PLAN CHECK TO VERIFYPZA Review for A NEW MULTI-FAMILY RESIDENTIAL APARTMENT BUILDING WITH ATTACHED SUBTERRANEAN AND AT GRADE PARKING GARAGE. FULLY PRIVATELY FUNDED THE PORTION OF THE PROJECT WITHIN LOS ANGELES CITY LIMITS IS A TOTAL OF 37 APARTMENT UNITS. THE LOS ANGELES PORTION OF THE PROJECT SHARES COMMON SPACES, PARKING ACCESS AND ELEVATORS WITH THE PORTION OF THE PROJECT WITHIN BEVERLY HILLS CITY LIMITS.(7) AFFORDABLE UNITS PROVIDED ON LA-SIDE OF PROJECT AND (3) PROVIDED ON BH-SIDE OF PROJEC","metadescription":"Bldg-New. Apartment. *eplan* **** HSAP TO CHECK FOR ZONING REQUIREMENTS ONLY - (SB330) **** NEW 7 STORY WITH MEZZANINE & ROOF DECK 37 UNITS (2% LI = 1 || 16% VLI = 16%) AFFORDABLE HOUSING APARTMENT TO INCLUDE 5 STORY TYPE IIIA APARTMENT OVER 2 STORY TYPE IA APARTMENT/PARKING OVER 2 LEVEL SUBTERRANEAN PARKING, 12.22.A.25 INCENTIVES PLAN CHECK TO VERIFYPZA Review for A NEW MULTI-FAMILY RESIDENTIAL APARTMENT BUILDING WITH ATTACHED SUBTERRANEAN AND AT GRADE PARKING GARAGE. FULLY PRIVATELY FUNDED THE PORTION OF THE PROJECT WITHIN LOS ANGELES CITY LIMITS IS A TOTAL OF 37 APARTMENT UNITS. THE LOS ANGELES PORTION OF THE PROJECT SHARES COMMON SPACES, PARKING ACCESS AND ELEVATORS WITH THE PORTION OF THE PROJECT WITHIN BEVERLY HILLS CITY LIMITS.(7) AFFORDABLE UNITS PROVIDED ON LA-SIDE OF PROJECT AND (3) PROVIDED ON BH-SIDE OF PROJEC. Quality Review Completed. 412 N OAKHURST DR","address":"412 N OAKHURST DR","ct":"2149.03","ev":"N","apc":"Central","cpa":"Wilshire","zone":"[Q]R4-1-O","solar":"N","pin_nbr":"138B169   228","status_date":"10/31/2023","permit_group":"Building","refresh_time":"06/10/2026","type_lat_lon":"ADDRESS","business_unit":"Regular Plan Check"},"geometry":{"type":"Point","coordinates":[-118.39071,34.07625]}}]}
