{"type":"FeatureCollection","features":[{"type":"Feature","properties":{"date":"2019-07-26T00:00:00.000Z","year":2019,"description":"Land Use Application to allow a 3-story, 8-unit rowhouse building. Parking for 7 vehicles proposed. Existing buildings to be demolished.","metadescription":"Land Use Application to allow a 3-story, 8-unit rowhouse building. Parking for 7 vehicles proposed. Existing buildings to be demolished.. 14359 STONE AVE N","address":"1275 North 145TH Street, WA, SEATTLE, 98133, US","link":"https://services.seattle.gov/portal/customize/LinkToRecord.aspx?altId=3028659-LU","location1":"(47.73397016, -122.34269002)","statuscurrent":"Expired","estprojectcost":"950000","permittypemapped":"Master Use Permit","housingunitsadded":"0","permitclassmapped":"Residential","housingunitsremoved":"0"},"geometry":{"type":"Point","coordinates":[-122.34269002,47.73397016]}},{"type":"Feature","properties":{"date":null,"year":0,"description":"Demolition of (2) residences  subject to field inspection (STFI).","metadescription":"Demolition. Demolition of (2) residences  subject to field inspection (STFI).. 14359 STONE AVE N","address":"1275 North 145TH Street, WA, SEATTLE, 98133, US","link":"https://services.seattle.gov/portal/customize/LinkToRecord.aspx?altId=6651139-DM","location1":"(47.73397016, -122.34269002)","permitnum":"6651139-DM","issueddate":"2019-08-05","relatedmup":"3028659-LU","applieddate":"2018-04-27","expiresdate":"2021-02-05","completeddate":"2021-08-18","statuscurrent":"Completed","estprojectcost":"0","housingcategory":"N/A","permittypemapped":"Demolition","readytoissuedate":"2019 Aug 05 12:00:00 AM","dependentbuilding":"0","permitclassmapped":"Residential","daysoutcorrections":"0","numberreviewcycles":"0"},"geometry":{"type":"Point","coordinates":[-122.34269002,47.73397016]}}]}
