{"type":"FeatureCollection","features":[{"type":"Feature","properties":{"date":null,"year":0,"description":"Endurance Energy is a Geothermal Energy Startup growing in the heart of Seattle. We are developing facilities for testing compact power generation units. In order to carry out tests for our first generation geothermal power generation unit we require a midsized hot water boiler to be installed. This installation is temporary and solely relevant for a certain stage of R&D development after which the boiler installation will be dismantled. This project touches the boiler code  fire code  and","metadescription":"Endurance Energy is a Geothermal Energy Startup growing in the heart of Seattle. We are developing facilities for testing compact power generation units. In order to carry out tests for our first generation geothermal power generation unit we require a midsized hot water boiler to be installed. This installation is temporary and solely relevant for a certain stage of R&D development after which the boiler installation will be dismantled. This project touches the boiler code  fire code  and. 303 NE NORTHLAKE WAY","address":"303 NE NORTHLAKE WAY","link":"https://services.seattle.gov/portal/customize/LinkToRecord.aspx?altId=7101399-CN","location1":"(47.65364047, -122.32526755)","permitnum":"7101399-CN","statuscurrent":"Withdrawn","estprojectcost":"250,000","housingcategory":"N/A","permittypemapped":"Building","dependentbuilding":"0","permitclassmapped":"Non-Residential"},"geometry":{"type":"Point","coordinates":[-122.32526755,47.65364047]}},{"type":"Feature","properties":{"date":null,"year":0,"description":"Remove existing incinerator  upgrade existing boiler equipment  replace two HVAC chillers  add new cooling tower sections  and various architectural and structural modifications associated with these central plant upgrades  per plan. (Building #9  A Wing)","metadescription":"Addition/Alteration. Remove existing incinerator  upgrade existing boiler equipment  replace two HVAC chillers  add new cooling tower sections  and various architectural and structural modifications associated with these central plant upgrades  per plan. (Building #9  A Wing). 1550 N 115TH ST","address":"1550 N 115TH ST","link":"https://services.seattle.gov/portal/customize/LinkToRecord.aspx?altId=6181672-CN","location1":"(47.71425408, -122.33690271)","permitnum":"6181672-CN","issueddate":"2008-10-21","applieddate":"2008-06-18","expiresdate":"2010-04-21","completeddate":"2010-05-24","statuscurrent":"Completed","estprojectcost":"2,000,000","housingcategory":"Commercial Add/Alt","permittypemapped":"Building","dependentbuilding":"0","housingunitsadded":"0","permitclassmapped":"Non-Residential","daysoutcorrections":"0","numberreviewcycles":"0","housingunitsremoved":"0"},"geometry":{"type":"Point","coordinates":[-122.33690271,47.71425408]}},{"type":"Feature","properties":{"date":null,"year":0,"description":"Phase I of II for construction of a boiler enclosure addition and support structure for replacement of boiler equipment / equipment foundations only this phase / build per plans.","metadescription":"Addition/Alteration. Phase I of II for construction of a boiler enclosure addition and support structure for replacement of boiler equipment / equipment foundations only this phase / build per plans.. 1319 WESTERN AVE","address":"1319 WESTERN AVE","link":"https://services.seattle.gov/portal/customize/LinkToRecord.aspx?altId=6073121-CN","location1":"(47.60681147, -122.34013592)","permitnum":"6073121-CN","issueddate":"2006-10-03","relatedmup":"3003527-LU","applieddate":"2006-06-07","expiresdate":"2011-04-03","completeddate":"2009-12-01","statuscurrent":"Completed","estprojectcost":"1,750,000","housingcategory":"N/A","permittypemapped":"Building","dependentbuilding":"0","housingunitsadded":"0","permitclassmapped":"Non-Residential","daysoutcorrections":"0","numberreviewcycles":"0","housingunitsremoved":"0"},"geometry":{"type":"Point","coordinates":[-122.34013592,47.60681147]}}]}
