{"type":"FeatureCollection","features":[{"type":"Feature","properties":{"date":null,"year":0,"description":"Decarbonization of the building HVAC systems including the following:1. Demolish and remove existing rooftop gas-fired heating and ventilation units  gym gas unit heaters  gas piping  flues  weather-proof opening  exhaust fans  and controls.2. Provide five DOAS units with energy recovery for building ventilation. Each of the following rooms will be served by a dedicated DOAS unit: game room  teen room  multipurpose room  after-school room  and the gymnasium.3. Provide seven packaged rooftop","metadescription":"Addition/Alteration. Decarbonization of the building HVAC systems including the following:1. Demolish and remove existing rooftop gas-fired heating and ventilation units  gym gas unit heaters  gas piping  flues  weather-proof opening  exhaust fans  and controls.2. Provide five DOAS units with energy recovery for building ventilation. Each of the following rooms will be served by a dedicated DOAS unit: game room  teen room  multipurpose room  after-school room  and the gymnasium.3. Provide seven packaged rooftop. 2820 S MYRTLE ST","address":"2820 S MYRTLE ST","link":"https://services.seattle.gov/portal/customize/LinkToRecord.aspx?altId=7114452-CN","location1":"(47.5393983, -122.29537049)","permitnum":"7114452-CN","statuscurrent":"Scheduled","estprojectcost":"550,000","housingcategory":"N/A","permittypemapped":"Building","dependentbuilding":"0","permitclassmapped":"Non-Residential","daysoutcorrections":"0","numberreviewcycles":"0"},"geometry":{"type":"Point","coordinates":[-122.29537049,47.5393983]}},{"type":"Feature","properties":{"date":null,"year":0,"description":"Construct tenant improvements to provide fire-resistive construction upgrades to existing medical gas storage room at basement level of existing commercial building [mechanical work under separate permit application]  subject to field inspection (STFI)","metadescription":"Addition/Alteration. Construct tenant improvements to provide fire-resistive construction upgrades to existing medical gas storage room at basement level of existing commercial building [mechanical work under separate permit application]  subject to field inspection (STFI). 9714 3RD AVE NE","address":"9714 3RD AVE NE","link":"https://services.seattle.gov/portal/customize/LinkToRecord.aspx?altId=7114541-CN","location1":"(47.69976058, -122.32508039)","permitnum":"7114541-CN","issueddate":"2025-11-11","applieddate":"2025-11-10","expiresdate":"2027-05-11","statuscurrent":"Issued","estprojectcost":"12,029","housingcategory":"Commercial Add/Alt","permittypemapped":"Building","readytoissuedate":"2025 Nov 11 12:00:00 AM","dependentbuilding":"0","permitclassmapped":"Non-Residential","daysoutcorrections":"0","numberreviewcycles":"0"},"geometry":{"type":"Point","coordinates":[-122.32508039,47.69976058]}},{"type":"Feature","properties":{"date":null,"year":0,"description":"ROW portion only- Puget Sound Energy (PSE) is proposing to replace approximately 1 mile of DuPont underground gas piping between 5021 Beach Drive SW and 3021 Beach Drive SW. The project is broken up into 5 sections of various lengths. The majority of the project is located within the maintained Beach Drive SW Road ROW  but some areas extend off of the Right-of-Way (ROW) and into private property. The off ROW work exclusively consists of the replacement of existing utility pipes providing servic","metadescription":"Shoreline Permit Exemption. ROW portion only- Puget Sound Energy (PSE) is proposing to replace approximately 1 mile of DuPont underground gas piping between 5021 Beach Drive SW and 3021 Beach Drive SW. The project is broken up into 5 sections of various lengths. The majority of the project is located within the maintained Beach Drive SW Road ROW  but some areas extend off of the Right-of-Way (ROW) and into private property. The off ROW work exclusively consists of the replacement of existing utility pipes providing servic. 5400 R BEACH DR SW","address":"5400 R BEACH DR SW","link":"https://services.seattle.gov/portal/customize/LinkToRecord.aspx?altId=6880114-EX","location1":"(47.55409233, -122.39933442)","permitnum":"6880114-EX","statuscurrent":"Completed","estprojectcost":"10,000","housingcategory":"N/A","permittypemapped":"ECA and Shoreline Exemption/Street Improvement Exception Request","dependentbuilding":"0","permitclassmapped":"Residential","daysoutcorrections":"0","numberreviewcycles":"0"},"geometry":{"type":"Point","coordinates":[-122.39933442,47.55409233]}},{"type":"Feature","properties":{"date":null,"year":0,"description":"PSE is requesting a shoreline exemption determination to replace a gas main within the shoreline designation of Lake Washington. The replacement would avoid a lapse in service of the existing structure. This is not a gas piping application.","metadescription":"Shoreline Exemption. PSE is requesting a shoreline exemption determination to replace a gas main within the shoreline designation of Lake Washington. The replacement would avoid a lapse in service of the existing structure. This is not a gas piping application.. 6669 M NE WINDERMERE RD","address":"6669 M NE WINDERMERE RD","link":"https://services.seattle.gov/portal/customize/LinkToRecord.aspx?altId=6725499-EX","location1":"(47.67212049, -122.25288826)","permitnum":"6725499-EX","statuscurrent":"Completed","estprojectcost":"7,500","housingcategory":"N/A","permittypemapped":"ECA and Shoreline Exemption/Street Improvement Exception Request","dependentbuilding":"0","permitclassmapped":"Residential","daysoutcorrections":"0","numberreviewcycles":"0"},"geometry":{"type":"Point","coordinates":[-122.25288826,47.67212049]}},{"type":"Feature","properties":{"date":null,"year":0,"description":"NOT FOR GAS PIPING PROJECTFor Shoreline Exemption - Natural gas service install for customer at 1326 N Northlake Way.  Tie into existing main and install 2 inch PE gas line.  Line to extend 44' (39' in paved ROW  5' on customer's property)  then connect to new meter at SE corner of existing building.  The project will include 1 3'x5' cut within the ROW.  No other asphalt cuts are required for this project.","metadescription":"NOT FOR GAS PIPING PROJECTFor Shoreline Exemption - Natural gas service install for customer at 1326 N Northlake Way.  Tie into existing main and install 2 inch PE gas line.  Line to extend 44' (39' in paved ROW  5' on customer's property)  then connect to new meter at SE corner of existing building.  The project will include 1 3'x5' cut within the ROW.  No other asphalt cuts are required for this project.. 1326 N NORTHLAKE WAY","address":"1326 N NORTHLAKE WAY","link":"https://services.seattle.gov/portal/customize/LinkToRecord.aspx?altId=6749651-CN","location1":"(47.64805991, -122.34149978)","permitnum":"6749651-CN","statuscurrent":"Additional Info Requested","estprojectcost":"15,000","housingcategory":"N/A","permittypemapped":"Building","dependentbuilding":"0","permitclassmapped":"Non-Residential","daysoutcorrections":"0","numberreviewcycles":"0"},"geometry":{"type":"Point","coordinates":[-122.34149978,47.64805991]}},{"type":"Feature","properties":{"date":null,"year":0,"description":"Exception/Exemption Request for: Alterations in existing dentist office including add a medical gas closet  per plan.","metadescription":"Environmentally Critical Area Exemption. Exception/Exemption Request for: Alterations in existing dentist office including add a medical gas closet  per plan.. 11011 MERIDIAN AVE N","address":"11011 MERIDIAN AVE N","link":"https://services.seattle.gov/portal/customize/LinkToRecord.aspx?altId=6639306-EX","location1":"(47.7088742, -122.33494995)","permitnum":"6639306-EX","statuscurrent":"Completed","housingcategory":"N/A","permittypemapped":"ECA and Shoreline Exemption/Street Improvement Exception Request","dependentbuilding":"0","permitclassmapped":"Non-Residential","daysoutcorrections":"0","numberreviewcycles":"0"},"geometry":{"type":"Point","coordinates":[-122.33494995,47.7088742]}},{"type":"Feature","properties":{"date":null,"year":0,"description":"INSTALL (1) PACKAGE ROOFTOP UNIT  (1) ERV SYSTEM  DUCTWORK  GRILLES & REGISTERS ALONG WITH NATURAL GAS PIPING.","metadescription":"Addition/Alteration. INSTALL (1) PACKAGE ROOFTOP UNIT  (1) ERV SYSTEM  DUCTWORK  GRILLES & REGISTERS ALONG WITH NATURAL GAS PIPING.. 4786 1ST AVE S","address":"4786 1ST AVE S","link":"https://services.seattle.gov/portal/customize/LinkToRecord.aspx?altId=6697712-CN","location1":"(47.55901476, -122.33329295)","permitnum":"6697712-CN","statuscurrent":"Additional Info Requested","estprojectcost":"12,270","housingcategory":"Commercial Add/Alt","permittypemapped":"Building","dependentbuilding":"0","permitclassmapped":"Non-Residential","daysoutcorrections":"0","numberreviewcycles":"0"},"geometry":{"type":"Point","coordinates":[-122.33329295,47.55901476]}},{"type":"Feature","properties":{"date":null,"year":0,"description":"Alterations in existing dentist office including add a medical gas closet  per plan.","metadescription":"Addition/Alteration. Alterations in existing dentist office including add a medical gas closet  per plan.. 11011 MERIDIAN AVE N","address":"11011 MERIDIAN AVE N","link":"https://services.seattle.gov/portal/customize/LinkToRecord.aspx?altId=6639306-CN","location1":"(47.7088742, -122.33494995)","permitnum":"6639306-CN","applieddate":"2018-02-09","statuscurrent":"Canceled","estprojectcost":"30,000","housingcategory":"Commercial Add/Alt","permittypemapped":"Building","dependentbuilding":"0","housingunitsadded":"0","permitclassmapped":"Non-Residential","housingunitsremoved":"0"},"geometry":{"type":"Point","coordinates":[-122.33494995,47.7088742]}},{"type":"Feature","properties":{"date":null,"year":0,"description":"Change occupancy to H3 for medical gas closet on 7th floor and occupy per plan. (T.I work for rest of Dr. Maring's tenant space completed under Blanket permit #6154275).","metadescription":"Addition/Alteration. Change occupancy to H3 for medical gas closet on 7th floor and occupy per plan. (T.I work for rest of Dr. Maring's tenant space completed under Blanket permit #6154275).. 509 OLIVE WAY","address":"509 OLIVE WAY","link":"https://services.seattle.gov/portal/customize/LinkToRecord.aspx?altId=6174261-CN","location1":"(47.61275017, -122.33686714)","permitnum":"6174261-CN","issueddate":"2008-03-24","applieddate":"2008-03-19","expiresdate":"2009-09-24","completeddate":"2008-03-26","statuscurrent":"Completed","estprojectcost":"1,000","housingcategory":"Commercial Add/Alt","permittypemapped":"Building","dependentbuilding":"0","housingunitsadded":"0","permitclassmapped":"Non-Residential","daysoutcorrections":"0","numberreviewcycles":"0","housingunitsremoved":"0"},"geometry":{"type":"Point","coordinates":[-122.33686714,47.61275017]}},{"type":"Feature","properties":{"date":null,"year":0,"description":"Alter interior main level to construct dental office - medical gas in basement - occupy per plans","metadescription":"Addition/Alteration. Alter interior main level to construct dental office - medical gas in basement - occupy per plans. 701 34TH AVE","address":"701 34TH AVE","link":"https://services.seattle.gov/portal/customize/LinkToRecord.aspx?altId=6171816-CN","location1":"(47.60806279, -122.28963406)","permitnum":"6171816-CN","issueddate":"2008-05-12","relatedmup":"3008267-LU","applieddate":"2008-03-14","expiresdate":"2009-11-12","completeddate":"2008-08-07","statuscurrent":"Completed","estprojectcost":"100,000","housingcategory":"Commercial Add/Alt","permittypemapped":"Building","dependentbuilding":"0","housingunitsadded":"0","permitclassmapped":"Non-Residential","daysoutcorrections":"0","numberreviewcycles":"0","housingunitsremoved":"0"},"geometry":{"type":"Point","coordinates":[-122.28963406,47.60806279]}}]}
