{"type":"FeatureCollection","features":[{"type":"Feature","properties":{"date":null,"year":0,"description":"MUP FOR A TWO LEVEL PARKING STRUCTURE.  \r\n \r\nREQUIRED PERMITS:  ESTABLISHMENT OF USEs FOR THE PROPERTY WHICH IS IN TWO ZONES, DRIVEWAY CUT, RETAINING WALL, 6630 SQUARE FEET CONCRETE SLAB PARKING AREA FOR 24 PARKING PLACES PLUS A SECOND FLOOR PARKING LEVEL OF 6630 SQUARE FEET AT THE MARKET STREET LEVEL, ELECTRICAL SERVICE TO PARKING STRUCTURE, AND A SEWER/ WATER CONNECTION.","metadescription":"MUP FOR A TWO LEVEL PARKING STRUCTURE.  \r\n \r\nREQUIRED PERMITS:  ESTABLISHMENT OF USEs FOR THE PROPERTY WHICH IS IN TWO ZONES, DRIVEWAY CUT, RETAINING WALL, 6630 SQUARE FEET CONCRETE SLAB PARKING AREA FOR 24 PARKING PLACES PLUS A SECOND FLOOR PARKING LEVEL OF 6630 SQUARE FEET AT THE MARKET STREET LEVEL, ELECTRICAL SERVICE TO PARKING STRUCTURE, AND A SEWER/ WATER CONNECTION.. 2501 NW MARKET ST","address":"2501 NW MARKET ST","link":"https://services.seattle.gov/portal/customize/LinkToRecord.aspx?altId=3022790-LU","location1":"(47.66839666, -122.38982475)","statuscurrent":"Canceled","permittypemapped":"Master Use Permit","permitclassmapped":"Non-Residential"},"geometry":{"type":"Point","coordinates":[-122.38982475,47.66839666]}},{"type":"Feature","properties":{"date":null,"year":0,"description":"retaining wall and storm water connection","metadescription":"Relief from Prohibition on Steep Slope. retaining wall and storm water connection. 1700 FERRY AVE SW","address":"1700 FERRY AVE SW","link":"https://services.seattle.gov/portal/customize/LinkToRecord.aspx?altId=6823587-EX","location1":"(47.58811663, -122.38291353)","permitnum":"6823587-EX","statuscurrent":"Completed","estprojectcost":"80,000","housingcategory":"N/A","permittypemapped":"ECA and Shoreline Exemption/Street Improvement Exception Request","dependentbuilding":"0","permitclassmapped":"Residential","daysoutcorrections":"0","numberreviewcycles":"0"},"geometry":{"type":"Point","coordinates":[-122.38291353,47.58811663]}}]}
