{"type":"FeatureCollection","features":[{"type":"Feature","properties":{"date":"2026-02-18T00:00:00.000Z","year":2026,"description":"REPLACE MACHINE ON EWGT PASSENGER ELEVATOR PE2, 2500LBS CAPACITY, 14 STOPS, SUBJECT TO CITY OF CHICAGO DEPT. OF BUILDINGS ELEVATOR BUREAU INSPECTION (EV003069).","metadescription":"PERMIT - ELEVATOR EQUIPMENT. REPLACE MACHINE ON EWGT PASSENGER ELEVATOR PE2, 2500LBS CAPACITY, 14 STOPS, SUBJECT TO CITY OF CHICAGO DEPT. OF BUILDINGS ELEVATOR BUREAU INSPECTION (EV003069).. 6833","address":"6833 North KEDZIE Avenue, Chicago, IL, CHICAGO, 60645, US","location":"POINT (-87.709171526438 42.005614536586)","pin_list":"1036120003","review_type":"CONVEYANCE DEVICE PERMIT","street_name":"KEDZIE AVE","xcoordinate":"1153890.5764348183","ycoordinate":"1945254.296809005","census_tract":"20301","subtotal_paid":"$300.00","community_area":"2","contact_1_city":"ELK GROVE VILLAGE","contact_1_name":"FUJITEC AMERICA INC.","contact_1_type":"CONTRACTOR-ELEVATOR","contact_2_city":"CHICAGO","contact_2_name":"WINSTON TOWERS II","contact_2_type":"OWNER","other_fee_paid":"$0.00","contact_1_state":"IL","contact_2_state":"IL","processing_time":"0","subtotal_unpaid":"$0.00","subtotal_waived":"$0.00","zoning_fee_paid":"$0.00","other_fee_unpaid":"$0.00","other_fee_waived":"$0.00","street_direction":"N","building_fee_paid":"$300.00","contact_1_zipcode":"60007-","contact_2_zipcode":"60645","zoning_fee_unpaid":"$0.00","zoning_fee_waived":"$0.00","other_fee_subtotal":"$0","building_fee_unpaid":"$0.00","building_fee_waived":"$0.00","zoning_fee_subtotal":"$0","building_fee_subtotal":"$300"},"geometry":{"type":"Point","coordinates":[-87.709171526,42.005614537]}},{"type":"Feature","properties":{"date":"2025-06-18T00:00:00.000Z","year":2025,"description":"REPACE HOIST ROPES ON EWGT PASSENGER ELEVATOR #3, 2500LBS CAPACITY, 15 OPENINGS, SUBJECT TO CITY OF CHICAGO DEPT. OF BUILDINGS ELEVATOR BUREAU INSPECTION(EV003069).","metadescription":"PERMIT - ELEVATOR EQUIPMENT. REPACE HOIST ROPES ON EWGT PASSENGER ELEVATOR #3, 2500LBS CAPACITY, 15 OPENINGS, SUBJECT TO CITY OF CHICAGO DEPT. OF BUILDINGS ELEVATOR BUREAU INSPECTION(EV003069).. 6833","address":"6833 North KEDZIE Avenue, Chicago, IL, CHICAGO, 60645, US","location":"POINT (-87.709171526438 42.005614536586)","pin_list":"1036120003","review_type":"CONVEYANCE DEVICE PERMIT","street_name":"KEDZIE AVE","xcoordinate":"1153890.5764348183","ycoordinate":"1945254.296809005","census_tract":"20301","subtotal_paid":"$425.00","community_area":"2","contact_1_city":"ELK GROVE VILLAGE","contact_1_name":"FUJITEC AMERICA INC.","contact_1_type":"CONTRACTOR-ELEVATOR","contact_2_city":"CHIACGO","contact_2_name":"WINSTON TOWERS II","contact_2_type":"OWNER","other_fee_paid":"$0.00","contact_1_state":"IL","contact_2_state":"IL","processing_time":"0","subtotal_unpaid":"$0.00","subtotal_waived":"$0.00","zoning_fee_paid":"$0.00","other_fee_unpaid":"$0.00","other_fee_waived":"$0.00","street_direction":"N","building_fee_paid":"$425.00","contact_1_zipcode":"60007-","contact_2_zipcode":"60645","zoning_fee_unpaid":"$0.00","zoning_fee_waived":"$0.00","other_fee_subtotal":"$0","building_fee_unpaid":"$0.00","building_fee_waived":"$0.00","zoning_fee_subtotal":"$0","building_fee_subtotal":"$425"},"geometry":{"type":"Point","coordinates":[-87.709171526,42.005614537]}},{"type":"Feature","properties":{"date":"2020-12-11T00:00:00.000Z","year":2020,"description":"INSTALLATION OF THE GARAGE GAS DETECTION SYSTEM AND ADD TO BUILDING BAS SYSTEM","metadescription":"PERMIT – EXPRESS PERMIT PROGRAM. Electrical Work. INSTALLATION OF THE GARAGE GAS DETECTION SYSTEM AND ADD TO BUILDING BAS SYSTEM. COMPLETE. 6833","address":"6833 North KEDZIE Avenue, Chicago, IL, CHICAGO, 60645, US","location":"POINT (-87.709171526438 42.005614536586)","review_type":"EXPRESS PERMIT PROGRAM","street_name":"KEDZIE AVE","xcoordinate":"1153890.5764348183","ycoordinate":"1945254.296809005","census_tract":"20300","subtotal_paid":"$2,025.00","community_area":"2","contact_1_city":"WEST CHICAGO","contact_1_name":"INTEGRATED CONTROL TECHNOLOGIES, LLC","contact_1_type":"ELECTRICAL CONTRACTOR","contact_2_city":"ST. CHARLES","contact_2_name":"MICHAELS KENNETH J","contact_2_type":"APPLICANT","contact_3_city":"WEST CHICAGO","contact_3_name":"INTEGRATED CONTROL TECHNOLOGIES, LLC","contact_3_type":"APPLICANT","other_fee_paid":"$0.00","contact_1_state":"IL","contact_2_state":"IL","contact_3_state":"IL","processing_time":"0","subtotal_unpaid":"$0.00","subtotal_waived":"$0.00","zoning_fee_paid":"$0.00","other_fee_unpaid":"$0.00","other_fee_waived":"$0.00","permit_milestone":"COMPLETE","street_direction":"N","building_fee_paid":"$2,025.00","contact_1_zipcode":"60185","contact_2_zipcode":"60175","contact_3_zipcode":"60185","zoning_fee_unpaid":"$0.00","zoning_fee_waived":"$0.00","other_fee_subtotal":"$0","building_fee_unpaid":"$0.00","building_fee_waived":"$0.00","zoning_fee_subtotal":"$0","building_fee_subtotal":"$2,025"},"geometry":{"type":"Point","coordinates":[-87.709171526,42.005614537]}}]}
