{"type":"FeatureCollection","features":[{"type":"Feature","properties":{"date":"2026-04-15T00:00:00.000Z","year":2026,"description":null,"metadescription":"Demolition / Deconstruction. 3666 TRIUMPH STREET, Vancouver, BC V5K 1V3","address":"3666 Triumph ST, BC, VANCOUVER, V5K1V3, CA","issuedate":"2026-05-28","issueyear":"2026","propertyuse":"Dwelling Uses","geo_point_2d":"49.2835999, -123.0243147","geolocalarea":"Hastings-Sunrise","applicantaddress":"7119 Clarendon St\r\nvancouver, BC  V5S 2K5","permitelapseddays":"43","buildingcontractor":"Van-City Excavating Ltd","projectdescription":"Low Density Housing - Demolition / Deconstruction - To demolish to grade this existing Single Detached House (1923) on this site – declared non rental. \n\n•  This demolition permit also permits abatement work to be completed to WorkSafe standards. \n\n•  This permit is subject to the Green Demolition Bylaw (11023) with a recycling requirement of 75% of non-hazardous construction materials. Note: Pre-1910 houses will need to salvage a minimum of 3 metric tonnes of wood.\n\nDemolition Contractor: Van-City Excavating Ltd. (Harpinderjit Dhillon)\n\nQP: Kinetic OHS services Ltd. (Harvey Wong)","specificusecategory":"Single Detached House"},"geometry":{"type":"Point","coordinates":[-123.0243147,49.2835999]}},{"type":"Feature","properties":{"date":"2024-12-03T00:00:00.000Z","year":2024,"description":null,"metadescription":"Demolition / Deconstruction. 3645 DUNDAS STREET, Vancouver, BC V5K 1S3","address":"BSMT, 3645 Dundas ST, BC, VANCOUVER, V5K1S3, CA","issuedate":"2025-04-14","issueyear":"2025","propertyuse":"Dwelling Uses","geo_point_2d":"49.2850222, -123.0246083","geolocalarea":"Hastings-Sunrise","applicantaddress":"4038 Toronto Street\r\nPort Coquitlam, BC  V3B6X8","permitelapseddays":"132","buildingcontractor":"Seymour Excavating Ltd","projectdescription":"Low Density Housing - Demolition / Deconstruction - Demolition – Green 1922\r\n\r\nTo demolish the existing one family dwelling building ($40,000) on this site.\r\n\r\nThis permit is subject to the Green Demolition Bylaw (11023)\r\n\r\n\r\nNote:  Demo Declaration by Deconstruction  – 75% Recycling Rate of Building Materials Required\r\n\r\nCompany Name: Seymour Excavating Ltd\r\n\r\n\r\n***This permit is issued under the VBBL 2019, with updated energy requirements as per bylaw # 12997 effective Jan 01, 2022.***","specificusecategory":"Single Detached House"},"geometry":{"type":"Point","coordinates":[-123.0246083,49.2850222]}},{"type":"Feature","properties":{"date":"2024-11-05T00:00:00.000Z","year":2024,"description":null,"metadescription":"Demolition / Deconstruction. 3623 TRIUMPH STREET, Vancouver, BC V5K 1V4","address":"3623 Triumph ST, BC, VANCOUVER, V5K1V4, CA","issuedate":"2025-02-20","issueyear":"2025","propertyuse":"Dwelling Uses","geo_point_2d":"49.2841182, -123.0248175","geolocalarea":"Hastings-Sunrise","applicantaddress":"1244 grand boulevard east\r\nnorth vancouver, BC  V7L3X4","permitelapseddays":"107","buildingcontractor":"AKAL DEMOLITION & EXCAVATING LTD","projectdescription":"Low Density Housing - Demolition / Deconstruction - To demolish the existing one family dwelling building ($40,000) on this site by means of deconstruction.\r\n\r\nThis permit is subject to the Green Demolition Bylaw (11023)\r\n\r\n\r\nNote:  Demo Declaration by Deconstruction  – 75% Recycling Rate of Building Materials Required\r\n\r\nCompany Name: AKAL DEMOLITION & EXCAVATING LTD\r\n\r\n\r\n\r\n***This permit is issued under the VBBL 2019, with updated energy requirements as per bylaw # 12997 effective Jan 01, 2022.***","specificusecategory":"Single Detached House"},"geometry":{"type":"Point","coordinates":[-123.0248175,49.2841182]}},{"type":"Feature","properties":{"date":"2023-10-20T00:00:00.000Z","year":2023,"description":null,"metadescription":"Demolition / Deconstruction. 3679 PANDORA STREET, Vancouver, BC V5K 1X1","address":"3671 Pandora ST, BC, VANCOUVER, V5K1X1, CA","issuedate":"2024-05-24","issueyear":"2024","propertyuse":"Dwelling Uses","geo_point_2d":"49.2832087, -123.0241749","geolocalarea":"Hastings-Sunrise","applicantaddress":"289 Alexander Street\r\n# 216\r\nVancouver, BC  V6A4H6","permitelapseddays":"217","buildingcontractor":"GNA Contracting Ltd","projectdescription":"Low Density Housing - Demolition / Deconstruction - To demolish the existing one family dwelling building ($15,000) on this site by means of deconstruction.\r\n\r\nThis permit is subject to the Green Demolition Bylaw (11023)\r\n\r\nGreen Demo Parcel Warning: Building Permit DB-2023-03632 has been suspended pending completion of the associated (green) Demolition Permit BP-2023-03869\r\n\r\nNote:  Demo Declaration by Deconstruction  – 75% Recycling Rate of Building Materials Required\r\nCompany Name: GNA Contracting Ltd. (Contact Name: Onkar Singh Kular) (604-722-1416)\r\n\r\n\r\n***This permit is issued under the VBBL 2019, with updated energy requirements as per bylaw # 12997 effective Jan 01, 2022.***","specificusecategory":"Single Detached House","buildingcontractoraddress":"7589 STIRLING ST  \r\nVancouver, BC  V5P 4H7"},"geometry":{"type":"Point","coordinates":[-123.0241749,49.2832087]}},{"type":"Feature","properties":{"date":"2023-08-15T00:00:00.000Z","year":2023,"description":null,"metadescription":"Demolition / Deconstruction. 3674 OXFORD STREET, Vancouver, BC V5K 1P3","address":"3662 Oxford ST, BC, VANCOUVER, V5K1P3, CA","issuedate":"2023-09-15","issueyear":"2023","propertyuse":"Dwelling Uses","geo_point_2d":"49.2854124, -123.0240609","geolocalarea":"Hastings-Sunrise","applicantaddress":"Unit 517 - 8188 Manitoba Street\r\nVancouver, BC  V5X 0L5","permitelapseddays":"31","buildingcontractor":"Bison Excavation & Demolition","projectdescription":"Low Density Housing - Demolition / Deconstruction - \r\nTo demolish the existing one family dwelling building ($15,000) on this site by means of deconstruction.\r\n\r\nDemo Declaration – Bison Excavation & Demolition Ltd  (604)-710-4382\r\n\r\nThis permit is subject to the Green Demolition Bylaw (11023)\r\n\r\nPre-1950:\r\nGreen Demolition Conditions Apply\r\n75% Recycling Rate of Building Materials Required","specificusecategory":"Single Detached House","buildingcontractoraddress":"6746 Acacia Ave\r\nBurnaby, BC  V5E3J7"},"geometry":{"type":"Point","coordinates":[-123.0240609,49.2854124]}},{"type":"Feature","properties":{"date":"2023-03-07T00:00:00.000Z","year":2023,"description":null,"metadescription":"Demolition / Deconstruction. 3532 E HASTINGS STREET, Vancouver, BC V5K 2A7","address":"3536 Hastings ST E, BC, VANCOUVER, V5K2A7, CA","issuedate":"2024-04-29","issueyear":"2024","propertyuse":"Dwelling Uses,Retail Uses","geo_point_2d":"49.2808555, -123.0273632","geolocalarea":"Hastings-Sunrise","applicantaddress":"1206-1166 Alberni Street\r\nVancouver, BC  V6E 3Z3","permitelapseddays":"419","buildingcontractor":"Pro-Can Construction Group Corp","projectdescription":"Enquiry Centre - Demolition / Deconstruction - To demolish this existing two-storey with basement mixed-use building containing 6 residential units on this site to grade, per engineered demolition plan submitted by B. Schwalger, P. Eng, of aDB Engineering, dated February 27, 2023.\r\n\r\nScope of work to include berming of the foundation wall.\r\n\r\nRelated to S&A permit BP-2023-00869.\r\n\r\nOk for SIPs per J. Zhang - Mar 7/23\r\n\r\nSchedule B, Structural, Bradley Schwalger, P. Eng, 604-568-9373.\r\n\r\nNotes:\r\n1. Notice of Demolition must be provided to District Building Inspector 24 hours in advance of demolition by calling 3-1-1 or 604-873-7000 outside of Vancouver.\r\n2. All work must be conducted in accordance with Safe Work Procedures approved by Qualified Professional and WorkSafeBC requirements. \r\n3. Demo to grade only. No soil disturbance or excavation of soil other than that which is incidental to the demolition is permitted under this permit.","specificusecategory":"Multiple Dwelling,Retail Store"},"geometry":{"type":"Point","coordinates":[-123.0273632,49.2808555]}},{"type":"Feature","properties":{"date":"2023-01-11T00:00:00.000Z","year":2023,"description":null,"metadescription":"Demolition / Deconstruction. 3565 TRIUMPH STREET, Vancouver, BC V5K 1V2","address":"3565 Triumph ST, BC, VANCOUVER, V5K1V2, CA","issuedate":"2024-02-23","issueyear":"2024","propertyuse":"Dwelling Uses","geo_point_2d":"49.2841149, -123.0266594","geolocalarea":"Hastings-Sunrise","applicantaddress":"7350 Killarney St\r\nVancouver, BC  V5S 2Y7","permitelapseddays":"408","buildingcontractor":"Canadian Excavating Ltd","projectdescription":"Low Density Housing - Demolition / Deconstruction - To demolish the existing one family dwelling building ($15,000) on this site by means of deconstruction.\r\n\r\nDemo Declaration –Canadian Excavating Ltd (604)-728-0434\r\n\r\nHeritage Listed\r\n\r\nGreen Demolition Conditions Apply : 90% Recycling Rate of Building Materials with 3 Tonnes of Wood Salvage Required","specificusecategory":"Duplex","buildingcontractoraddress":"6898 130 St\r\nSurrey, BC  V3W 4J5"},"geometry":{"type":"Point","coordinates":[-123.0266594,49.2841149]}},{"type":"Feature","properties":{"date":"2022-11-16T00:00:00.000Z","year":2022,"description":null,"metadescription":"Demolition / Deconstruction. 3684 LOUGHEED HIGHWAY, Vancouver, BC V5M 2A8","address":"110, 2250 Boundary RD, BC, BURNABY, V5M3Z3, CA","issuedate":"2023-12-20","issueyear":"2023","propertyuse":"Service Uses","geo_point_2d":"49.2651693, -123.024288","geolocalarea":"Renfrew-Collingwood","applicantaddress":"Unit 12 6055 138 Street\r\nSurrey, BC  V3X 0J1","permitelapseddays":"399","buildingcontractor":"Hans Demolition and Excavating Ltd.","projectdescription":"Enquiry Centre - Demolition / Deconstruction - To demolish this existing commercial building to grade.\r\n\r\nNo rental housing unit(s)\r\nCommercial use - No Recycling Required\r\n\r\nRelated Salvage and Abatement permit BP-2022-05190\r\n\r\nNote:\r\n1) Notice of Demolition must be provided to District Building Inspector 24 hours in advance of demolition by calling 3-1-1 or 604-873-7000 outside of Vancouver.","specificusecategory":"Restaurant - Class 1","buildingcontractoraddress":"12498 55 Ave\r\nSurrey, BC  V3X 3V5"},"geometry":{"type":"Point","coordinates":[-123.024288,49.2651693]}},{"type":"Feature","properties":{"date":"2022-06-27T00:00:00.000Z","year":2022,"description":null,"metadescription":"Demolition / Deconstruction. 3646 E 28TH AVENUE, Vancouver, BC V5R 1T7","address":"3646 28th AVE E, BC, VANCOUVER, V5R1T7, CA","issuedate":"2024-01-02","issueyear":"2024","propertyuse":"Dwelling Uses","geo_point_2d":"49.2451036, -123.0247644","geolocalarea":"Renfrew-Collingwood","applicantaddress":"5575 Eleanor Street\r\nBurnaby, BC  V5J 3E1","permitelapseddays":"554","buildingcontractor":"Bhullar Excavating and Demolition","projectdescription":"Low Density Housing - Demolition / Deconstruction - To demolish the existing single detached house building ($15,000) on this site by means of deconstruction.\r\n\r\nDemolition – Pre 1950’s\r\nGreen Demolition Conditions Apply : 75% Recycling Rate of Building Materials Required\r\n\r\nThis permit is subject to the Green Demolition Bylaw (11023)\r\n\r\nNote:  Demo Declaration by Deconstruction  – \r\nBhullar Excavating and Demolition / Baghail Bhullar / 778-891-4556","specificusecategory":"Single Detached House"},"geometry":{"type":"Point","coordinates":[-123.0247644,49.2451036]}},{"type":"Feature","properties":{"date":"2022-06-21T00:00:00.000Z","year":2022,"description":null,"metadescription":"Demolition / Deconstruction. 3566 TRIUMPH STREET, Vancouver, BC V5K 1V1","address":"3566 Triumph ST, BC, VANCOUVER, V5K1V1, CA","issuedate":"2023-01-19","issueyear":"2023","propertyuse":"Dwelling Uses","geo_point_2d":"49.2836016, -123.0266649","geolocalarea":"Hastings-Sunrise","applicantaddress":"280 East 59th Ave\r\nVancouver, BC  V5X1X9","permitelapseddays":"212","buildingcontractor":"AKAL DEMOLITION & EXCAVATING LTD","projectdescription":"Low Density Housing - Demolition / Deconstruction - To demolish the existing one family dwelling building ($15,000) on this site by means of deconstruction.\r\n\r\nDemolition – Pre-1950\r\nGreen Demolition Conditions Apply : 75% Recycling Rate of Building Materials Required\r\n\r\nThis permit is subject to the Green Demolition Bylaw (11023)\r\n\r\nNote:  Demo Declaration by Deconstruction  \r\nAkal Demolition and Excavating Ltd / Harpreet S Sidhu / 778-318-1373","specificusecategory":"Single Detached House"},"geometry":{"type":"Point","coordinates":[-123.0266649,49.2836016]}},{"type":"Feature","properties":{"date":"2022-05-11T00:00:00.000Z","year":2022,"description":null,"metadescription":"Demolition / Deconstruction. 3561 E HASTINGS STREET, Vancouver, BC","address":"BSMT, 3562 Franklin ST, BC, VANCOUVER, V5K1Y5, CA","issuedate":"2023-08-29","issueyear":"2023","propertyuse":"Retail Uses","geo_point_2d":"49.2814076, -123.0268056","geolocalarea":"Hastings-Sunrise","applicantaddress":"300-1030 W Georgia Street\r\nVancouer, BC  V6E 2Y3","permitelapseddays":"475","buildingcontractor":"Clearview Demolition Ltd","projectdescription":"Enquiry Centre - Demolition / Deconstruction - To demolish the existing one-storey commercial building to grade as per engineered demo plan provided by aDB Structural Engineering Inc. dated August 16, 2022\r\n\r\nScope of work to include berming of the foundation wall and backfill to match existing grade.\r\n\r\nRelated to S&A permit BP-2022-02519.\r\n\r\nSchedule B, Structural, Bradley Schwalger, P.Eng, 604-568-9373.","specificusecategory":"Retail Store","buildingcontractoraddress":"8285 Lickman Road   \r\nChilliwack, BC  V2R 3Z9"},"geometry":{"type":"Point","coordinates":[-123.0268056,49.2814076]}},{"type":"Feature","properties":{"date":"2022-04-11T00:00:00.000Z","year":2022,"description":null,"metadescription":"Demolition / Deconstruction. 3635 CAMBRIDGE STREET, Vancouver, BC V5K 1M5","address":"3, 3635 Cambridge ST, BC, VANCOUVER, V5K1M5, CA","issuedate":"2022-08-02","issueyear":"2022","propertyuse":"Dwelling Uses","geo_point_2d":"49.2870068, -123.0247146","geolocalarea":"Hastings-Sunrise","applicantaddress":"3524 Oxford St\r\nVancouver, BC  V5K 1P1","permitelapseddays":"113","buildingcontractor":"PTL Contracting Ltd","projectdescription":"Low Density Housing - Demolition / Deconstruction - To demolish the existing one family dwelling building ($15,000) on this site by means of deconstruction.\r\n\r\nDemo Declaration – PTL Contracting Ltd  (604)-327-6863\r\n\r\nThis permit is subject to the Green Demolition Bylaw (11023)\r\n\r\nPre-1950:\r\nGreen Demolition Conditions Apply\r\n75% Recycling Rate of Building Materials Required","specificusecategory":"Single Detached House","buildingcontractoraddress":"5649 ASH ST  \r\nVancouver, BC  V5Z 3G8"},"geometry":{"type":"Point","coordinates":[-123.0247146,49.2870068]}},{"type":"Feature","properties":{"date":"2022-04-06T00:00:00.000Z","year":2022,"description":null,"metadescription":"Demolition / Deconstruction. 3666 YALE STREET, Vancouver, BC V5K 1C8","address":"3656 Yale ST, BC, VANCOUVER, V5K1C8, CA","issuedate":"2022-10-18","issueyear":"2022","propertyuse":"Dwelling Uses","geo_point_2d":"49.2903808, -123.0242506","geolocalarea":"Hastings-Sunrise","applicantaddress":"835\r\nChestnut\r\nNew Westminster, BC  V3L4N3","permitelapseddays":"195","buildingcontractor":"PTL Contracting Ltd","projectdescription":"Low Density Housing - Demolition / Deconstruction - To demolish the existing one family dwelling building ($15,000) on this site by means of deconstruction.\r\n\r\nDemolition – Pre 1950’s\r\nGreen Demolition Conditions Apply : 75% Recycling Rate of Building Materials Required\r\n\r\nThis permit is subject to the Green Demolition Bylaw (11023)\r\n\r\nNote:  Demo Declaration by Deconstruction  – \r\nPTL Contracting Ltd. (Sukhbir Singh Sihota)   (604) 327-6863","specificusecategory":"Single Detached House","buildingcontractoraddress":"5649 ASH ST  \r\nVancouver, BC  V5Z 3G8"},"geometry":{"type":"Point","coordinates":[-123.0242506,49.2903808]}},{"type":"Feature","properties":{"date":"2022-02-22T00:00:00.000Z","year":2022,"description":null,"metadescription":"Demolition / Deconstruction. 333 BOUNDARY ROAD, Vancouver, BC V5K 4S1","address":"333 Boundary RD, BC, VANCOUVER, V5K4S1, CA","issuedate":"2022-10-03","issueyear":"2022","propertyuse":"Dwelling Uses","geo_point_2d":"49.281795, -123.023867","geolocalarea":"Hastings-Sunrise","applicantaddress":"4038 Toronto Street\r\nPort Coquitlam, BC  V3B6X8","permitelapseddays":"223","buildingcontractor":"BESTWAY EXCAVATING & DEMOLITION 2008 LTD","projectdescription":"Low Density Housing - Demolition / Deconstruction - To demolish the existing one family dwelling building ($15,000) on this site by means of deconstruction.\r\n\r\nDemo Declaration – Bestway Excavating & Demolition 2008 Ltd (778)-881-7580\r\n\r\nThis permit is subject to the Green Demolition Bylaw (11023)\r\n\r\nPre-1950:\r\nGreen Demolition Conditions Apply\r\n75% Recycling Rate of Building Materials Required","specificusecategory":"Single Detached House"},"geometry":{"type":"Point","coordinates":[-123.023867,49.281795]}},{"type":"Feature","properties":{"date":"2021-12-03T00:00:00.000Z","year":2021,"description":null,"metadescription":"Demolition / Deconstruction. 4994 RUBY STREET, Vancouver, BC V5R 4K2","address":"4994 Ruby ST, BC, VANCOUVER, V5R4K2, CA","issuedate":"2022-06-03","issueyear":"2022","propertyuse":"Dwelling Uses","geo_point_2d":"49.2396958, -123.0259624","geolocalarea":"Renfrew-Collingwood","applicantaddress":"7119 Clarendon St\r\nvancouver, BC  V5S 2K5","permitelapseddays":"182","buildingcontractor":"GNA Contracting Ltd","projectdescription":"Low Density Housing - Demolition / Deconstruction - To demolish the existing one family dwelling building ($15,000) on this site by means of deconstruction.\r\n\r\nGreen Demolition Conditions Apply\r\n75% Recycling Rate of Building Materials Required\r\n\r\nThis permit is subject to the Green Demolition Bylaw (11023)","specificusecategory":"Single Detached House","buildingcontractoraddress":"7589 STIRLING ST  \r\nVancouver, BC  V5P 4H7"},"geometry":{"type":"Point","coordinates":[-123.0259624,49.2396958]}},{"type":"Feature","properties":{"date":"2021-08-23T00:00:00.000Z","year":2021,"description":null,"metadescription":"Demolition / Deconstruction. 3683 DUNDAS STREET, Vancouver, BC V5K 1S3","address":"3693 Dundas ST, BC, VANCOUVER, V5K1S3, CA","issuedate":"2022-05-06","issueyear":"2022","propertyuse":"Dwelling Uses","geo_point_2d":"49.2850212, -123.0239211","geolocalarea":"Hastings-Sunrise","applicantaddress":"#110 - 8828 Heather Street\r\nVancouver, BC  V6P 3S8","permitelapseddays":"256","buildingcontractor":"King Kubota Services Ltd","projectdescription":"Low Density Housing - Demolition / Deconstruction - To demolish the existing one family dwelling building ($15,000) on this site by means of deconstruction.\r\n\r\nDemo Declaration – King Kubota Services Ltd. (604-984-0902)\r\n\r\nThis permit is subject to the Green Demolition Bylaw (11023)\r\n\r\nPre-1950 Green Demolition Conditions Apply\r\n75% Recycling Rate of Building Materials Required","specificusecategory":"Single Detached House","buildingcontractoraddress":"140 Mountain Hwy  \r\nNorth Vancouver, BC  V7J 2K5"},"geometry":{"type":"Point","coordinates":[-123.0239211,49.2850212]}},{"type":"Feature","properties":{"date":"2021-08-09T00:00:00.000Z","year":2021,"description":null,"metadescription":"Demolition / Deconstruction. 3621 YALE STREET, Vancouver, BC V5K 1C7","address":"3629 Yale ST, BC, VANCOUVER, V5K1C7, CA","issuedate":"2022-07-04","issueyear":"2022","propertyuse":"Dwelling Uses","geo_point_2d":"49.2909895, -123.0250913","geolocalarea":"Hastings-Sunrise","applicantaddress":"15132 67 ave\r\nSurrey, BC  V3S9G9","permitelapseddays":"329","buildingcontractor":"Canadian Excavating Ltd","projectdescription":"Low Density Housing - Demolition / Deconstruction - To demolish the existing one family dwelling building ($15,000) on this site by means of deconstruction.\r\n\r\nDemo Declaration – Canadian Excavating Ltd  (604)-728-0434\r\n\r\nThis permit is subject to the Green Demolition Bylaw (11023)\r\n\r\nPre-1950:\r\nGreen Demolition Conditions Apply\r\n75% Recycling Rate of Building Materials Required","specificusecategory":"Single Detached House","buildingcontractoraddress":"6898 130 St\r\nSurrey, BC  V3W 4J5"},"geometry":{"type":"Point","coordinates":[-123.0250913,49.2909895]}},{"type":"Feature","properties":{"date":"2021-07-26T00:00:00.000Z","year":2021,"description":null,"metadescription":"Demolition / Deconstruction. 5207 HOY STREET, Vancouver, BC V5R 4N9","address":"5207 Hoy ST, BC, VANCOUVER, V5R4N9, CA","issuedate":"2022-03-03","issueyear":"2022","propertyuse":"Dwelling Uses","geo_point_2d":"49.2373286, -123.0263612","geolocalarea":"Renfrew-Collingwood","applicantaddress":"111 E 60TH AV\r\nVANCOUVER, BC  V5X1Z5","permitelapseddays":"220","buildingcontractor":"Kingsman Excavating Ltd.","projectdescription":"Low Density Housing - Demolition / Deconstruction - To demolish the existing one family dwelling building ($15,000) on this site by means of deconstruction.\r\n\r\nDemo Declaration – Bhullar Excavating and Demolition (778)-891-4556\r\n\r\nThis permit is subject to the Green Demolition Bylaw (11023)\r\n\r\nPre-1950:\r\nGreen Demolition Conditions Apply\r\n75% Recycling Rate of Building Materials Required","specificusecategory":"Single Detached House","buildingcontractoraddress":"Unit 1104, 7360 137 ST\r\nSurrey, BC  V3S4N8"},"geometry":{"type":"Point","coordinates":[-123.0263612,49.2373286]}},{"type":"Feature","properties":{"date":"2021-05-28T00:00:00.000Z","year":2021,"description":null,"metadescription":"Demolition / Deconstruction. 3540 OXFORD STREET, Vancouver, BC V5K 1P1","address":"3540 Oxford ST, BC, VANCOUVER, V5K1P1, CA","issuedate":"2021-10-05","issueyear":"2021","propertyuse":"Dwelling Uses","geo_point_2d":"49.2854105, -123.0269337","geolocalarea":"Hastings-Sunrise","applicantaddress":"8088 13th Ave\r\nBurnaby , BC  V3N 2G2","permitelapseddays":"130","buildingcontractor":"88 Homes Ltd","projectdescription":"Low Density Housing - Demolition / Deconstruction - To demolish the existing one family dwelling building ($15,000) on this site by means of deconstruction.\r\n\r\nThis permit is subject to the Green Demolition Bylaw (11023)\r\n\r\nNote: Pre-1950 recycling requirement:  75% of non-hazardous construction waste","specificusecategory":"Duplex w/Secondary Suite","buildingcontractoraddress":"8089 11th Ave  \r\nBurnaby, BC  V3N 2N8"},"geometry":{"type":"Point","coordinates":[-123.0269337,49.2854105]}},{"type":"Feature","properties":{"date":"2021-05-20T00:00:00.000Z","year":2021,"description":null,"metadescription":"Demolition / Deconstruction. 3644 E 28TH AVENUE, Vancouver, BC V5R 1T7","address":"3646 28th AVE E, BC, VANCOUVER, V5R1T7, CA","issuedate":"2021-09-22","issueyear":"2021","propertyuse":"Dwelling Uses","geo_point_2d":"49.2451074, -123.0249015","geolocalarea":"Renfrew-Collingwood","applicantaddress":"4038 Toronto Street\r\nPort Coquitlam, BC  V3B6X8","permitelapseddays":"125","buildingcontractor":"1199734 BC Ltd","projectdescription":"Low Density Housing - Demolition / Deconstruction - To demolish the existing one family dwelling building ($15,000) on this site by means of deconstruction.\r\n\r\nDemo Declaration – Gurcharan Sangera of 1199734 BC Ltd. \r\n\r\nThis permit is subject to the Green Demolition Bylaw (11023)","specificusecategory":"Single Detached House"},"geometry":{"type":"Point","coordinates":[-123.0249015,49.2451074]}},{"type":"Feature","properties":{"date":"2021-05-04T00:00:00.000Z","year":2021,"description":null,"metadescription":"Demolition / Deconstruction. 5195 HOY STREET, Vancouver, BC V5R 4N9","address":"5195 Hoy ST, BC, VANCOUVER, V5R4N9, CA","issuedate":"2021-08-30","issueyear":"2021","propertyuse":"Dwelling Uses","geo_point_2d":"49.2375035, -123.0261715","geolocalarea":"Renfrew-Collingwood","applicantaddress":"5736 St. Margarets Street\r\nVancouver, BC  V5R 3H5","permitelapseddays":"118","buildingcontractor":"Canadian Excavating Ltd","projectdescription":"Low Density Housing - Demolition / Deconstruction - To demolish the existing one family dwelling building ($15,000) on this site by means of deconstruction.\r\n\r\nDemo Declaration – Canadian Excavating Ltd. (604) 728-0434\r\n\r\nThis permit is subject to the Green Demolition Bylaw (11023)\r\n\r\nPre-1950:\r\nGreen Demolition Conditions Apply\r\n75% Recycling Rate of Building Materials Required","specificusecategory":"Single Detached House","buildingcontractoraddress":"6898 130 St\r\nSurrey, BC  V3W 4J5"},"geometry":{"type":"Point","coordinates":[-123.0261715,49.2375035]}},{"type":"Feature","properties":{"date":"2021-04-08T00:00:00.000Z","year":2021,"description":null,"metadescription":"Demolition / Deconstruction. 3619 FRANKLIN STREET, Vancouver, BC V5K 1Y7","address":"BSMT, 3625 Franklin ST, BC, VANCOUVER, V5K1Y7, CA","issuedate":"2022-01-10","issueyear":"2022","propertyuse":"Dwelling Uses","geo_point_2d":"49.2823075, -123.0251398","geolocalarea":"Hastings-Sunrise","applicantaddress":"1307 East 55th Avenue\r\nVancouver, BC  V5X 1P4","permitelapseddays":"277","buildingcontractor":"Bhullar Excavating and Demolition","projectdescription":"Low Density Housing - Demolition / Deconstruction - To demolish the existing one family dwelling building ($15,000) on this site by means of deconstruction.\r\n\r\nThis permit is subject to the Green Demolition Bylaw (11023)\r\nBaghail Bullar- Bhullar Excavating & Demolition (778-891-4556)\r\n\r\nNote: Pre-1950 recycling requirement:  75% of non-hazardous construction waste","specificusecategory":"Duplex w/Secondary Suite"},"geometry":{"type":"Point","coordinates":[-123.0251398,49.2823075]}},{"type":"Feature","properties":{"date":"2021-03-05T00:00:00.000Z","year":2021,"description":null,"metadescription":"Demolition / Deconstruction. 5180 ABERDEEN STREET, Vancouver, BC V5R 4M3","address":"2, 5180 Aberdeen ST, BC, VANCOUVER, V5R4M3, CA","issuedate":"2021-09-21","issueyear":"2021","propertyuse":"Dwelling Uses","geo_point_2d":"49.2374827, -123.0267221","geolocalarea":"Renfrew-Collingwood","applicantaddress":"6625 FRASER ST\r\nVANCOUVER, BC  V5X 3T6","permitelapseddays":"200","buildingcontractor":"Majha Demolition & Excavating Ltd","projectdescription":"Low Density Housing - Demolition / Deconstruction - To demolish the existing one family dwelling building ($15,000) on this site by means of deconstruction.\r\n\r\nDemo Declaration – Majah Demolition and Excavating Ltd  (604) 441 5302\r\nThis permit is subject to the Green Demolition Bylaw (11023)\r\n\r\nPre-1950:\r\nGreen Demolition Conditions Apply\r\n75% Recycling Rate of Building Materials Required","specificusecategory":"Single Detached House"},"geometry":{"type":"Point","coordinates":[-123.0267221,49.2374827]}},{"type":"Feature","properties":{"date":"2020-10-27T00:00:00.000Z","year":2020,"description":null,"metadescription":"Demolition / Deconstruction. 3664 CORNETT ROAD, Vancouver, BC V5M 2H5","address":"2375 Boundary RD, BC, VANCOUVER, V5M4W5, CA","issuedate":"2021-01-05","issueyear":"2021","propertyuse":"Manufacturing Uses","geo_point_2d":"49.2609788, -123.0244728","geolocalarea":"Renfrew-Collingwood","applicantaddress":"#120 - 1412 W 7th Avenue\r\nVancouver, BC  V6H 1C1","permitelapseddays":"70","projectdescription":"Enquiry Centre - Demolition / Deconstruction - To permit demolition of this existing Industrial Building On this site. \r\n\r\nRelated Permits:\r\n3664 Cornett Road - BP-2020-03336 – Demolition \r\n3664 Cornett Road - BP-2020-03337 – Salvage & Abatement\r\n\r\n3610 Cornett Road – BP-2020-03338 – Demolition\r\n3610 Cornett Road – BP-2020-03341 – Salvage & Abatement","specificusecategory":"Not Applicable"},"geometry":{"type":"Point","coordinates":[-123.0244728,49.2609788]}},{"type":"Feature","properties":{"date":"2020-07-29T00:00:00.000Z","year":2020,"description":null,"metadescription":"Demolition / Deconstruction. 3600 E HASTINGS STREET, Vancouver, BC V5K 2A9","address":"3600 Hastings ST E, BC, VANCOUVER, V5K2A9, CA","issuedate":"2020-11-26","issueyear":"2020","propertyuse":"Retail Uses","geo_point_2d":"49.280861, -123.0252738","geolocalarea":"Hastings-Sunrise","applicantaddress":"#300-1030 West Georgia Street\r\nVancouver, BC  V6H 1L9","permitelapseddays":"120","buildingcontractor":"Clearview Demolition Ltd","projectdescription":"Enquiry Centre - Demolition / Deconstruction - To demolish this existing commercial building (1941) on this site.\r\n\r\nDemo Declaration – Chris Duffy of Clearview Demolition Ltd (604) 535-3026\r\n\r\nNotice of Demolition must be provided to District Building Inspector 24 hours in advance of demolition. This can be provided by requesting an inspection through your online account, or by calling 3-1-1 or 604-873-7000 outside Vancouver.","specificusecategory":"Retail Store"},"geometry":{"type":"Point","coordinates":[-123.0252738,49.280861]}},{"type":"Feature","properties":{"date":"2020-07-29T00:00:00.000Z","year":2020,"description":null,"metadescription":"Demolition / Deconstruction. 3680 E HASTINGS STREET, Vancouver, BC V5K 2A9","address":"218, 3680 Hastings ST E, BC, VANCOUVER, V5K2A9, CA","issuedate":"2021-01-22","issueyear":"2021","propertyuse":"Office Uses","geo_point_2d":"49.2808584, -123.0238721","geolocalarea":"Hastings-Sunrise","applicantaddress":"#300-1030 West Georgia Street\r\nVancouver, BC  V6H 1L9","permitelapseddays":"177","buildingcontractor":"Clearview Demolition Ltd","projectdescription":"Enquiry Centre - Demolition / Deconstruction - To demolish this existing commercial building (1978) on this site.\r\n\r\nDemo Declaration – Chris Duffy of Clearview Demolition Ltd (604) 535-3026\r\n\r\nNotice of Demolition must be provided to District Building Inspector 24 hours in advance of demolition. This can be provided by requesting an inspection through your online account, or by calling 3-1-1 or 604-873-7000 outside Vancouver.","specificusecategory":"General Office"},"geometry":{"type":"Point","coordinates":[-123.0238721,49.2808584]}},{"type":"Feature","properties":{"date":"2020-07-28T00:00:00.000Z","year":2020,"description":null,"metadescription":"Demolition / Deconstruction. 3555 E HASTINGS STREET, Vancouver, BC V5K 2A8","address":"3531 Hastings ST E, BC, VANCOUVER, V5K2A8, CA","issuedate":"2020-11-26","issueyear":"2020","propertyuse":"Service Uses","geo_point_2d":"49.2814024, -123.0269433","geolocalarea":"Hastings-Sunrise","applicantaddress":"#300-1030 West Georgia Street\r\nVancouver, BC  V6H 1L9","permitelapseddays":"121","buildingcontractor":"Clearview Demolition Ltd","projectdescription":"Enquiry Centre - Demolition / Deconstruction - To demolish this existing commercial building (1960) on this site.\r\n\r\nDemo Declaration – Chris Duffy of Clearview Demolition Ltd (604) 535-3026\r\n\r\nNotice of Demolition must be provided to District Building Inspector 24 hours in advance of demolition. This can be provided by requesting an inspection through your online account, or by calling 3-1-1 or 604-873-7000 outside Vancouver.","specificusecategory":"Restaurant - Class 1"},"geometry":{"type":"Point","coordinates":[-123.0269433,49.2814024]}},{"type":"Feature","properties":{"date":"2020-06-04T00:00:00.000Z","year":2020,"description":null,"metadescription":"Demolition / Deconstruction. 3543 DUNDAS STREET, Vancouver, BC V5K 1S2","address":"4, 3543 Dundas ST, BC, VANCOUVER, V5K1S2, CA","issuedate":"2020-10-26","issueyear":"2020","propertyuse":"Dwelling Uses","geo_point_2d":"49.2850269, -123.0270683","geolocalarea":"Hastings-Sunrise","applicantaddress":"#500-815 Hornby Street\r\nVancouver, BC  V6Z 2E6","permitelapseddays":"144","buildingcontractor":"Bhullar Excavating and Demolition","projectdescription":"Low Density Housing - Demolition / Deconstruction - To demolish the existing one family dwelling building ($15,000) on this site by means of deconstruction.\r\n\r\nDemolition – Pre 1950’s\r\n\r\nPre-1950\r\nGreen Demolition Conditions Apply : 75% Recycling Rate of Building Materials Required\r\n\r\nThis permit is subject to the Green Demolition Bylaw (11023)\r\n\r\nNote:  Demo Declaration by Deconstruction  – \r\nCompany Name Bhullar Excavating Demolition Inc. \r\n(Contact Name: Baghail Bhullar)   (778) 891-4556","specificusecategory":"Single Detached House"},"geometry":{"type":"Point","coordinates":[-123.0270683,49.2850269]}},{"type":"Feature","properties":{"date":"2020-05-05T00:00:00.000Z","year":2020,"description":null,"metadescription":"Demolition / Deconstruction. 3537 DUNDAS STREET, Vancouver, BC V5K 1S2","address":"1, 3537 Dundas ST, BC, VANCOUVER, V5K1S2, CA","issuedate":"2020-09-02","issueyear":"2020","propertyuse":"Dwelling Uses","geo_point_2d":"49.2850255, -123.0273433","geolocalarea":"Hastings-Sunrise","applicantaddress":"1-3537 Dundas st\r\nVancouver, BC  V5K1S2","permitelapseddays":"120","buildingcontractor":"Hans Demolition and Excavating Ltd.","projectdescription":"Low Density Housing - Demolition / Deconstruction - Demolition – Conventional (Standard)\r\n\r\nTo demolish the existing one family dwelling building ($15,000) on this site.","specificusecategory":"Single Detached House","buildingcontractoraddress":"12498 55 Ave\r\nSurrey, BC  V3X 3V5"},"geometry":{"type":"Point","coordinates":[-123.0273433,49.2850255]}},{"type":"Feature","properties":{"date":"2020-03-05T00:00:00.000Z","year":2020,"description":null,"metadescription":"Demolition / Deconstruction. 3577 VANNESS AVENUE, Vancouver, BC V5R 5B5","address":"1, 3577 Vanness AVE, BC, VANCOUVER, V5R5B5, CA","issuedate":"2021-02-11","issueyear":"2021","propertyuse":"Dwelling Uses","geo_point_2d":"49.2367555, -123.0271394","geolocalarea":"Renfrew-Collingwood","applicantaddress":"2279 East 39th Avenue\r\nVancouver, BC  V5P 1H9","permitelapseddays":"343","buildingcontractor":"J B Siteworks Inc","projectdescription":"Low Density Housing - Demolition / Deconstruction - To demolish the existing one family dwelling building ($15,000) on this site by means of deconstruction.\r\n\r\nDemo Declaration – J B Siteworks Inc. 778-829-8546\r\n\r\nThis permit is subject to the Green Demolition Bylaw (11023)\r\n\r\nPre-1950 Green Demolition Conditions Apply\r\n75% Recycling Rate of Building Materials Required","specificusecategory":"Single Detached House"},"geometry":{"type":"Point","coordinates":[-123.0271394,49.2367555]}},{"type":"Feature","properties":{"date":"2020-02-24T00:00:00.000Z","year":2020,"description":null,"metadescription":"Demolition / Deconstruction. 5212 HOY STREET, Vancouver, BC V5R 4P1","address":"5212 Hoy ST, BC, VANCOUVER, V5R4P1, CA","issuedate":"2020-07-21","issueyear":"2020","propertyuse":"Dwelling Uses","geo_point_2d":"49.2371298, -123.0256874","geolocalarea":"Renfrew-Collingwood","applicantaddress":"1126 E 60th Ave\r\nVancouver, BC  V5X2A7","permitelapseddays":"148","buildingcontractor":"J B Siteworks Inc","projectdescription":"Low Density Housing - Demolition / Deconstruction - Demolition – Conventional (Standard)\r\n\r\nTo demolish the existing one family dwelling building ($15,000) on this site.","specificusecategory":"Duplex"},"geometry":{"type":"Point","coordinates":[-123.0256874,49.2371298]}},{"type":"Feature","properties":{"date":"2020-02-13T00:00:00.000Z","year":2020,"description":null,"metadescription":"Demolition / Deconstruction. 5022 HOY STREET, Vancouver, BC V5R 4N7","address":"5098 Hoy ST, BC, VANCOUVER, V5R4N7, CA","issuedate":"2020-10-15","issueyear":"2020","propertyuse":"Dwelling Uses","geo_point_2d":"49.2392098, -123.0246753","geolocalarea":"Renfrew-Collingwood","applicantaddress":"952 east 53rd avenue\r\nvancouver, BC  V5X 1J6","permitelapseddays":"245","buildingcontractor":"East West Excavating Ltd","projectdescription":"Low Density Housing - Demolition / Deconstruction - Demolition – Conventional (Standard)\r\n\r\nTo demolish the existing one family dwelling building ($15,000) on this site.","specificusecategory":"Single Detached House","buildingcontractoraddress":"968 E 53RD AV  \r\nVancouver, BC  V5X 1J6"},"geometry":{"type":"Point","coordinates":[-123.0246753,49.2392098]}},{"type":"Feature","properties":{"date":"2019-12-23T00:00:00.000Z","year":2019,"description":null,"metadescription":"Demolition / Deconstruction. 2055 BOUNDARY ROAD, Vancouver, BC V5M 3Z1","address":"228, 2055 Boundary RD, BC, VANCOUVER, V5M3Z1, CA","issuedate":"2020-02-12","issueyear":"2020","propertyuse":"Manufacturing Uses","geo_point_2d":"49.2663117, -123.0242284","geolocalarea":"Hastings-Sunrise","applicantaddress":"2288 Manitoba St\r\nVancouver, BC  V5Y4B5","permitelapseddays":"51","buildingcontractor":"Matcon Demolition Ltd","projectdescription":"Enquiry Centre - Demolition / Deconstruction - To demolish this existing industrial building ($371,385) on this site.\r\n\r\nOkay for SIPs as per E.Kai Dec 23/19\r\n\r\nRelated to S&A BP-2019-03823","specificusecategory":"Printing or Publishing","buildingcontractoraddress":"2208 Hartley Avenue  \r\nCoquitlam, BC  V3K 6X3"},"geometry":{"type":"Point","coordinates":[-123.0242284,49.2663117]}},{"type":"Feature","properties":{"date":"2019-06-14T00:00:00.000Z","year":2019,"description":null,"metadescription":"Demolition / Deconstruction. 25 N KOOTENAY STREET, Vancouver, BC V5K 3P8","address":"25 Kootenay ST N, BC, VANCOUVER, V5K3P8, CA","issuedate":"2019-11-27","issueyear":"2019","propertyuse":"Dwelling Uses","geo_point_2d":"49.2851068, -123.026046","geolocalarea":"Hastings-Sunrise","applicantaddress":"604 Columbia st\r\n425\r\nNew Westmister, BC  V3M 1A5","permitelapseddays":"166","buildingcontractor":"ON TIME EXCAVATING & DEMOLITION LTD","projectdescription":"Low Density Housing - Demolition / Deconstruction - DEMOLITION BY DECONSTRUCTION\r\n\r\nDemolition – Pre 1950’s\r\n\r\nTo demolish the existing one family dwelling building ($15,000) on this site by means of deconstruction.\r\n\r\nThis permit is subject to the Green Demolition Bylaw (11023)\r\n\r\nPre-1950\r\nGreen Demolition Conditions Apply\r\n75% Recycling Rate of Building Materials Required\r\n\r\nNote:  Demo Declaration by Deconstruction  – \r\nOn Time Excavating & Demolition Ltd. (Ciagan McLain)   (604)-613-0007","specificusecategory":"Single Detached House","buildingcontractoraddress":"8872 138A ST\r\nSURREY, BC  V3V 5X1"},"geometry":{"type":"Point","coordinates":[-123.026046,49.2851068]}},{"type":"Feature","properties":{"date":"2018-12-13T00:00:00.000Z","year":2018,"description":null,"metadescription":"Demolition / Deconstruction. 3594 MONMOUTH AVENUE, Vancouver, BC V5R 5S2","address":"3596 Monmouth AVE, BC, VANCOUVER, V5R5S2, CA","issuedate":"2019-05-23","issueyear":"2019","propertyuse":"Dwelling Uses","geo_point_2d":"49.2395082, -123.0266747","geolocalarea":"Renfrew-Collingwood","applicantaddress":"2662 e 52\r\nvancouver, BC  V5S 1S7","permitelapseddays":"161","buildingcontractor":"SOURCE ONE EXCAVATING LTD","projectdescription":"Low Density Housing - Demolition / Deconstruction - Demolition – Conventional (Standard)\r\n\r\nTo demolish the existing one family dwelling building ($15,000) on this site.\r\n\r\nDemolition: Source One Excavating Ltd.\r\n\r\nSalvage & Abatement Work to be completed, report to be reviewed & approved by Environmental Protection Branch, S & A permit to be finalized prior to the commencement of demolition work.","specificusecategory":"Duplex w/Secondary Suite"},"geometry":{"type":"Point","coordinates":[-123.0266747,49.2395082]}},{"type":"Feature","properties":{"date":"2018-06-26T00:00:00.000Z","year":2018,"description":null,"metadescription":"Demolition / Deconstruction. 3633 RAE AVENUE, Vancouver, BC V5R 2P6","address":"3639 Rae AVE, BC, VANCOUVER, V5R2P6, CA","issuedate":"2019-03-28","issueyear":"2019","propertyuse":"Dwelling Uses","geo_point_2d":"49.2371203, -123.0250152","geolocalarea":"Renfrew-Collingwood","applicantaddress":"4112 Heather Street\r\nVancouver, BC  V5Z 0B5","permitelapseddays":"275","buildingcontractor":"Hans Demolition and Excavating Ltd.","projectdescription":"Enquiry Centre - Demolition / Deconstruction - To demolish this existing one family dwelling on this site.\r\n\r\nRelated S&A Permit: BP-2018-03456.\r\n\r\nNote: Notice of Demolition must be provided to District Building Inspector 24 hours in advance of demolition by calling 3-1-1 or 604-873-7000 outside Vancouver","specificusecategory":"Single Detached House","buildingcontractoraddress":"12498 55 Ave\r\nSurrey, BC  V3X 3V5"},"geometry":{"type":"Point","coordinates":[-123.0250152,49.2371203]}},{"type":"Feature","properties":{"date":"2018-06-26T00:00:00.000Z","year":2018,"description":null,"metadescription":"Demolition / Deconstruction. 3625 RAE AVENUE, Vancouver, BC V5R 2P6","address":"3641 Rae AVE, BC, VANCOUVER, V5R2P6, CA","issuedate":"2019-03-28","issueyear":"2019","propertyuse":"Dwelling Uses","geo_point_2d":"49.2371784, -123.0251625","geolocalarea":"Renfrew-Collingwood","applicantaddress":"4112 Heather Street\r\nVancouver, BC  V5Z 0B5","permitelapseddays":"275","buildingcontractor":"Hans Demolition and Excavating Ltd.","projectdescription":"Enquiry Centre - Demolition / Deconstruction - To demolish this existing one family dwelling on this site.\r\n\r\nRelated S&A Permit: BP-2018-03454.\r\n\r\nNote: Notice of Demolition must be provided to District Building Inspector 24 hours in advance of demolition by calling 3-1-1 or 604-873-7000 outside Vancouver","specificusecategory":"Single Detached House","buildingcontractoraddress":"12498 55 Ave\r\nSurrey, BC  V3X 3V5"},"geometry":{"type":"Point","coordinates":[-123.0251625,49.2371784]}},{"type":"Feature","properties":{"date":"2018-06-26T00:00:00.000Z","year":2018,"description":null,"metadescription":"Demolition / Deconstruction. 3639 RAE AVENUE, Vancouver, BC V5R 2P6","address":"3639 Rae AVE, BC, VANCOUVER, V5R2P6, CA","issuedate":"2019-03-28","issueyear":"2019","propertyuse":"Dwelling Uses","geo_point_2d":"49.237063, -123.0248953","geolocalarea":"Renfrew-Collingwood","applicantaddress":"4112 Heather Street\r\nVancouver, BC  V5Z 0B5","permitelapseddays":"275","buildingcontractor":"Hans Demolition and Excavating Ltd.","projectdescription":"Enquiry Centre - Demolition / Deconstruction - To demolish this existing one family dwelling on this site.\r\n\r\nRelated S&A Permit: BP-2018-03459\r\n\r\nNote: Notice of Demolition must be provided to District Building Inspector 24 hours in advance of demolition by calling 3-1-1 or 604-873-7000 outside Vancouver","specificusecategory":"Single Detached House","buildingcontractoraddress":"12498 55 Ave\r\nSurrey, BC  V3X 3V5"},"geometry":{"type":"Point","coordinates":[-123.0248953,49.237063]}},{"type":"Feature","properties":{"date":"2018-06-26T00:00:00.000Z","year":2018,"description":null,"metadescription":"Demolition / Deconstruction. 3647 RAE AVENUE, Vancouver, BC V5R 2P6","address":"3639 Rae AVE, BC, VANCOUVER, V5R2P6, CA","issuedate":"2019-03-28","issueyear":"2019","propertyuse":"Dwelling Uses","geo_point_2d":"49.2370146, -123.0247748","geolocalarea":"Renfrew-Collingwood","applicantaddress":"4112 Heather Street\r\nVancouver, BC  V5Z 0B5","permitelapseddays":"275","buildingcontractor":"Hans Demolition and Excavating Ltd.","projectdescription":"Enquiry Centre - Demolition / Deconstruction - To demolish this existing one family dwelling on this site.\r\n\r\nRelated S&A Permit: BP-2018-03461.\r\n\r\nNote: Notice of Demolition must be provided to District Building Inspector 24 hours in advance of demolition by calling 3-1-1 or 604-873-7000 outside Vancouver","specificusecategory":"Single Detached House","buildingcontractoraddress":"12498 55 Ave\r\nSurrey, BC  V3X 3V5"},"geometry":{"type":"Point","coordinates":[-123.0247748,49.2370146]}},{"type":"Feature","properties":{"date":"2018-04-05T00:00:00.000Z","year":2018,"description":null,"metadescription":"Demolition / Deconstruction. 3591 E PENDER STREET, Vancouver, BC V5K 2E2","address":"3597 Pender ST E, BC, VANCOUVER, V5K2E2, CA","issuedate":"2018-09-27","issueyear":"2018","propertyuse":"Dwelling Uses","geo_point_2d":"49.2804966, -123.0261081","geolocalarea":"Hastings-Sunrise","applicantaddress":"8562 11TH AVENUE\r\nBURNABY, BC  V3N2P7","permitelapseddays":"175","buildingcontractor":"East West Excavating Ltd","projectdescription":"Low Density Housing - Demolition / Deconstruction - To demolish the existing one family dwelling building ($15,000) on this site.","specificusecategory":"Single Detached House w/Sec Suite","buildingcontractoraddress":"968 E 53RD AV  \r\nVancouver, BC  V5X 1J6"},"geometry":{"type":"Point","coordinates":[-123.0261081,49.2804966]}},{"type":"Feature","properties":{"date":"2017-05-11T00:00:00.000Z","year":2017,"description":null,"metadescription":"Demolition / Deconstruction. 3662 MCGILL STREET, Vancouver, BC V5K 1J4","address":"APT, 3672 McGill ST, BC, VANCOUVER, V5K1J4, CA","issuedate":"2018-01-18","issueyear":"2018","propertyuse":"Dwelling Uses","geo_point_2d":"49.2883966, -123.024158","geolocalarea":"Hastings-Sunrise","applicantaddress":"180 - 2250 Boundary Road\r\nBurnaby, BC  V5M 3Z3","permitelapseddays":"252","buildingcontractor":"Gr8 Demolition & Excavation Ltd","projectdescription":"Low Density Housing - Demolition / Deconstruction - To demolish the existing one family dwelling building on this site.\r\n\r\nNote:  Demo Declaration – GR8 Demolition and Excavation  604.720.7057","specificusecategory":"Single Detached House","buildingcontractoraddress":"2382 KINGSWAY  \r\nUnit 7\r\nVancouver, BC  V5R 5G9"},"geometry":{"type":"Point","coordinates":[-123.024158,49.2883966]}},{"type":"Feature","properties":{"date":"2017-02-01T00:00:00.000Z","year":2017,"description":null,"metadescription":"Demolition / Deconstruction. 3520 DUNDAS STREET, Vancouver, BC V5K 1S1","address":"BSMT, 3522 Dundas ST, BC, VANCOUVER, V5K1S1, CA","issuedate":"2017-08-24","issueyear":"2017","propertyuse":"Dwelling Uses","geo_point_2d":"49.2845107, -123.0276237","geolocalarea":"Hastings-Sunrise","applicantaddress":"2088 Madison Avenue \r\n# 2105\r\nBurnaby, BC  V5C6T5","permitelapseddays":"204","buildingcontractor":"Vancouver Excavating and Contracting Ltd","projectdescription":"Low Density Housing - Demolition / Deconstruction - Deconstruction of 1FD\r\n\r\n\r\nPLEASE CONTACT Andrew_bobic@hotmail.com 604-780-5909.NOT THE APPLICANT FOR ISSUES THAT ARISE WITH THIS PERMTI","specificusecategory":"Single Detached House","buildingcontractoraddress":"25 Howard Ave  \r\nBurnaby, BC  V5B 3P3"},"geometry":{"type":"Point","coordinates":[-123.0276237,49.2845107]}},{"type":"Feature","properties":{"date":"2016-12-23T00:00:00.000Z","year":2016,"description":null,"metadescription":"Demolition / Deconstruction. 3673 DUNDAS STREET, Vancouver, BC V5K 1S3","address":"3671 Dundas ST, BC, VANCOUVER, V5K1S3, CA","issuedate":"2018-03-09","issueyear":"2018","propertyuse":"Dwelling Uses","geo_point_2d":"49.2850262, -123.0240994","geolocalarea":"Hastings-Sunrise","applicantaddress":"5411 Buckingham Avenue\r\nBurnaby, BC  V5E1Z9","permitelapseddays":"441","buildingcontractor":"Hans Demolition and Excavating Ltd.","projectdescription":"Low Density Housing - Demolition / Deconstruction - To demolish the existing one family dwelling building ($15,000) on this site by means of deconstruction. Building permit for DB-2016-04694 (1FD+SS)\r\n\r\nNote: Pre-1940 recycling requirement:  75% of non-hazardous construction waste\r\n\r\nThis permit is subject to the Green Demolition Bylaw (11023)\r\n\r\nDemolition Contractor: Hans Demolition and Excavating Ltd.: 604-250-3834","specificusecategory":"Single Detached House w/Sec Suite","buildingcontractoraddress":"12498 55 Ave\r\nSurrey, BC  V3X 3V5"},"geometry":{"type":"Point","coordinates":[-123.0240994,49.2850262]}},{"type":"Feature","properties":{"date":"2016-12-12T00:00:00.000Z","year":2016,"description":null,"metadescription":"Demolition / Deconstruction. 3582 FRANKLIN STREET, Vancouver, BC V5K 1Y5","address":"3580 Franklin ST, BC, VANCOUVER, V5K1Y5, CA","issuedate":"2017-03-29","issueyear":"2017","propertyuse":"Dwelling Uses","geo_point_2d":"49.2817923, -123.0263823","geolocalarea":"Hastings-Sunrise","applicantaddress":"4188 FIR ST\r\n \r\nBurnaby, BC  V5G 0B2","permitelapseddays":"107","buildingcontractor":"All Star Excavating & Demolition Ltd","projectdescription":"Low Density Housing - Demolition / Deconstruction - To demolish the existing one family dwelling building ($15,000) on this site by means of deconstruction.\r\n\r\nNote: Pre-1940 recycling requirement: 75% of non-hazardous construction waste","specificusecategory":"Single Detached House","buildingcontractoraddress":"11764 Kerr Bay\r\nDelta, BC  V4C 1K1"},"geometry":{"type":"Point","coordinates":[-123.0263823,49.2817923]}},{"type":"Feature","properties":{"date":"2016-08-31T00:00:00.000Z","year":2016,"description":null,"metadescription":"Demolition / Deconstruction. 3649 FRANKLIN STREET, Vancouver, BC V5K 1Y7","address":"3651 Franklin ST, BC, VANCOUVER, V5K1Y7, CA","issuedate":"2017-03-06","issueyear":"2017","propertyuse":"Dwelling Uses","geo_point_2d":"49.2823066, -123.0244527","geolocalarea":"Hastings-Sunrise","applicantaddress":"8088 13th Ave\r\nBurnaby , BC  V3N 2G2","permitelapseddays":"187","buildingcontractor":"PTL Contracting Ltd","projectdescription":"Low Density Housing - Demolition / Deconstruction - To demolish the existing one family dwelling building on this site \r\nby means of deconstruction (75%).","specificusecategory":"Single Detached House w/Sec Suite","buildingcontractoraddress":"5649 ASH ST  \r\nVancouver, BC  V5Z 3G8"},"geometry":{"type":"Point","coordinates":[-123.0244527,49.2823066]}}]}
