{"type":"FeatureCollection","features":[{"type":"Feature","properties":{"date":"2026-07-07T04:00:00.000Z","year":2026,"description":"REPLACEMENT FACE ONLY OF ILLUMINATED NON-ADVERTISING DOUBLE-SIDED ACCESSORY SIGN ON EXISTING TENANT DIRECTORY SIGN ON GROUND STRUCTURE - IN PROPERTY LINES - FEDEX OFFICE. NO CHANGE OF USE, EGRESS OR OCCUPANCY.","metadescription":"Sign. REPLACEMENT FACE ONLY OF ILLUMINATED NON-ADVERTISING DOUBLE-SIDED ACCESSORY SIGN ON EXISTING TENANT DIRECTORY SIGN ON GROUND STRUCTURE - IN PROPERTY LINES - FEDEX OFFICE. NO CHANGE OF USE, EGRESS OR OCCUPANCY.. Permit Issued. 249-23 ROCKAWAY BOULEVARD","address":"249-23 ROCKAWAY BOULEVARD","bbl":"4138950080","bin":"4292076","lot":"80","nta":"Rosedale","c_b_no":"413","census_tract":"66401","approved_date":"2026-07-02T00:00:00.000","filing_reason":"Initial Permit","work_on_floor":"Open Space","community_board":"413","sequence_number":"1","tracking_number":"980016155","applicant_license":"000228","job_filing_number":"Q01419346-I1","applicant_last_name":"FITZGERALD","owner_business_name":"ISJ MANAGEMENT CORP.","applicant_first_name":"SCOTT","applicant_business_name":"SIGNSTAR NYC","permittee_s_license_type":"S","applicant_business_address":"654 4TH AVENUE","filing_representative_last_name":"TULLOCH","filing_representative_first_name":"STEVEN","filing_representative_business_name":"LOUIS STRIAR INC."},"geometry":{"type":"Point","coordinates":[-73.741202,40.638214]}},{"type":"Feature","properties":{"date":"2025-11-24T05:00:00.000Z","year":2025,"description":"Installation of solar system on the roof as per plan. No change in use, egress or occupancy","metadescription":"Solar. Installation of solar system on the roof as per plan. No change in use, egress or occupancy. Permit Issued. MOSS PLACE","address":"MOSS PLACE","bbl":"4155100052","lot":"52","c_b_no":"414","house_no":"10-14","approved_date":"2025 Nov 20 12:00:00 AM","filing_reason":"Initial Permit","work_on_floor":"Roof","community_board":"414","sequence_number":"1","tracking_number":"418859724","applicant_license":"612990","census_tract_2020":"103202","job_filing_number":"Q01321745-I1","applicant_last_name":"POLLACK","estimated_job_costs":"53861.7","owner_business_name":"Not Applicable","applicant_first_name":"THOMAS","applicant_business_name":"TRINITY SOLAR LLC","permittee_s_license_type":"GC","applicant_business_address":"2180 FIFTH AVENUE.UNIT 1A","filing_representative_last_name":"GUADALUPE","filing_representative_first_name":"JULIO","filing_representative_business_name":"ACA ASSOCIATES","neighborhood_tabulation_area_nta_2020":"Far Rockaway-Bayswater"},"geometry":{"type":"Point","coordinates":[-73.74361,40.60809]}},{"type":"Feature","properties":{"date":"2025-11-18T05:00:00.000Z","year":2025,"description":"INSTALLATION OF TEMPORARY CONSTRUCTION FENCE AS PER PLANS. NO CHANGE IN USE, OCCUPANCY, OR EGRESS UNDER THIS APPLICATION.","metadescription":"Construction Fence. INSTALLATION OF TEMPORARY CONSTRUCTION FENCE AS PER PLANS. NO CHANGE IN USE, OCCUPANCY, OR EGRESS UNDER THIS APPLICATION.. Permit Issued. HARRIS STREET","address":"HARRIS STREET","bbl":"4155100101","lot":"101","c_b_no":"414","house_no":"11-39","approved_date":"2025 Nov 18 12:00:00 AM","filing_reason":"Initial Permit","work_on_floor":"Ground Floor","community_board":"414","sequence_number":"1","tracking_number":"845795249","applicant_license":"604425","census_tract_2020":"103202","job_filing_number":"Q01302739-I1","applicant_last_name":"SINGH","estimated_job_costs":"4200","owner_business_name":"Housing Preservation & Development","applicant_first_name":"AMRIK","applicant_business_name":"MARK CONTRACTING NY INC","permittee_s_license_type":"GC","applicant_business_address":"94-32 209TH ST 1ST FLOOR","neighborhood_tabulation_area_nta_2020":"Far Rockaway-Bayswater"},"geometry":{"type":"Point","coordinates":[-73.743574,40.607931]}},{"type":"Feature","properties":{"date":"2025-04-04T04:00:00.000Z","year":2025,"description":"New osp gas piping and plumbing modifications and related finishes as per plans. There will be no change in use, egress, or occupancy.","metadescription":"Plumbing. New osp gas piping and plumbing modifications and related finishes as per plans. There will be no change in use, egress, or occupancy.. Signed-off. ROCKAWAY BOULEVARD","address":"ROCKAWAY BOULEVARD","bbl":"4138950080","lot":"80","c_b_no":"413","house_no":"249-23","approved_date":"2024 Jun 07 12:00:00 AM","filing_reason":"Initial Permit","work_on_floor":"Open Space","community_board":"413","sequence_number":"1","tracking_number":"264613670","applicant_license":"001826","census_tract_2020":"66401","job_filing_number":"Q01056919-I1","applicant_last_name":"MCDONOUGH","estimated_job_costs":"50000","owner_business_name":"ISJ MANAGEMENT CORP.","applicant_first_name":"ROBERT","applicant_business_name":"BEDROCK PLBG. & HTG., INC","permittee_s_license_type":"P","applicant_business_address":"101-14 JAMAICA AVENUE","filing_representative_last_name":"Rubin","filing_representative_first_name":"Steven","filing_representative_business_name":"LEWSAN CONSULTANTS","neighborhood_tabulation_area_nta_2020":"Rosedale"},"geometry":{"type":"Point","coordinates":[-73.741202,40.638214]}},{"type":"Feature","properties":{"date":"2025-04-04T04:00:00.000Z","year":2025,"description":"Plumbing worktype associated with the construction of a drive thru and canopy, which includes installation of a on-site inlet and conveyance piping. There will be no change in use, egress, or occupancy.","metadescription":"Plumbing. Plumbing worktype associated with the construction of a drive thru and canopy, which includes installation of a on-site inlet and conveyance piping. There will be no change in use, egress, or occupancy.. Signed-off. ROCKAWAY BOULEVARD","address":"ROCKAWAY BOULEVARD","bbl":"4138950080","lot":"80","c_b_no":"413","house_no":"249-23","approved_date":"2024 May 06 12:00:00 AM","filing_reason":"Initial Permit","work_on_floor":"Open Space","community_board":"413","sequence_number":"1","tracking_number":"446741051","applicant_license":"001826","census_tract_2020":"66401","job_filing_number":"Q01038471-I1","applicant_last_name":"MCDONOUGH","estimated_job_costs":"25000","owner_business_name":"ISJ MANAGEMENT CORP.","applicant_first_name":"ROBERT","applicant_business_name":"BEDROCK PLBG. & HTG., INC","permittee_s_license_type":"P","applicant_business_address":"101-14 JAMAICA AVENUE","filing_representative_last_name":"Rubin","filing_representative_first_name":"Steven","filing_representative_business_name":"LEWSAN CONSULTANTS","neighborhood_tabulation_area_nta_2020":"Rosedale"},"geometry":{"type":"Point","coordinates":[-73.741202,40.638214]}},{"type":"Feature","properties":{"date":"2025-03-24T04:00:00.000Z","year":2025,"description":"CONNECT TO EXISTING GAS PIPING FOR SIX (6) REPLACEMENT COMMERCIAL GAS-FIRED DRYER UNITS AS PER PLANS. NO CHANGE IN USE, EGRESS OR OCCUPANCY.","metadescription":"Plumbing. CONNECT TO EXISTING GAS PIPING FOR SIX (6) REPLACEMENT COMMERCIAL GAS-FIRED DRYER UNITS AS PER PLANS. NO CHANGE IN USE, EGRESS OR OCCUPANCY.. Permit Issued. REDFERN AVENUE","address":"REDFERN AVENUE","bbl":"4155030002","lot":"2","c_b_no":"414","house_no":"11-07","approved_date":"2025 Mar 10 12:00:00 AM","filing_reason":"Initial Permit","work_on_floor":"Floor Number(s) 001 through 001","community_board":"414","sequence_number":"1","tracking_number":"103719394","applicant_license":"000868","census_tract_2020":"103202","job_filing_number":"Q01176010-S1","applicant_last_name":"WASOFF","estimated_job_costs":"50000","owner_business_name":"PR","applicant_first_name":"MARVIN","applicant_business_name":"WASOFF PLBG & UTILITY CO","permittee_s_license_type":"P","applicant_business_address":"36-05C COLLEGE POINT BLVD","neighborhood_tabulation_area_nta_2020":"Far Rockaway-Bayswater"},"geometry":{"type":"Point","coordinates":[-73.74705,40.611669]}},{"type":"Feature","properties":{"date":"2025-03-24T04:00:00.000Z","year":2025,"description":"REPLACE SIX (6) COMMERCIAL GAS-FIRED DRYER UNITS AS PER PLANS. NO CHANGE IN USE, EGRESS OR OCCUPANCY.","metadescription":"Mechanical Systems. REPLACE SIX (6) COMMERCIAL GAS-FIRED DRYER UNITS AS PER PLANS. NO CHANGE IN USE, EGRESS OR OCCUPANCY.. Permit Issued. REDFERN AVENUE","address":"REDFERN AVENUE","bbl":"4155030002","lot":"2","c_b_no":"414","house_no":"11-07","approved_date":"2025 Mar 11 12:00:00 AM","filing_reason":"Initial Permit","work_on_floor":"Floor Number(s) 001 through 001","community_board":"414","sequence_number":"1","tracking_number":"555534542","applicant_license":"009060","census_tract_2020":"103202","job_filing_number":"Q01176010-I1","applicant_last_name":"WASOFF","estimated_job_costs":"650000","owner_business_name":"PR","applicant_first_name":"MARVIN","applicant_business_name":"WASOFF PLUMBING & UTILITY","permittee_s_license_type":"GC","applicant_business_address":"36-05C COLLEGE POINT BLVD","neighborhood_tabulation_area_nta_2020":"Far Rockaway-Bayswater"},"geometry":{"type":"Point","coordinates":[-73.74705,40.611669]}},{"type":"Feature","properties":{"date":"2025-02-05T05:00:00.000Z","year":2025,"description":"Scope of work includes addition of new dual order point canopy and new concrete island for reused menu board for tenant Chick-Fil-A. There will be no change in use, egress, or occupancy.","metadescription":"General Construction. Scope of work includes addition of new dual order point canopy and new concrete island for reused menu board for tenant Chick-Fil-A. There will be no change in use, egress, or occupancy.. Permit Issued. ROCKAWAY BOULEVARD","address":"ROCKAWAY BOULEVARD","bbl":"4138950080","lot":"80","c_b_no":"413","house_no":"249-23","approved_date":"2024 Jul 31 12:00:00 AM","filing_reason":"Renewal Permit with Changes","work_on_floor":"Open Space","community_board":"413","sequence_number":"2","tracking_number":"244978479","applicant_license":"005367","census_tract_2020":"66401","job_filing_number":"Q01044506-I1","applicant_last_name":"SCHIMENTI","estimated_job_costs":"100003.05","owner_business_name":"ISJ MANAGEMENT CORP.","applicant_first_name":"MATTHEW","applicant_middle_name":"C","applicant_business_name":"SCHIMENTI CONSTRUCTION CO","permittee_s_license_type":"GC","applicant_business_address":"575 LEXINGTON AVENUE 18TH FL","filing_representative_last_name":"Mohamed","filing_representative_first_name":"Nageb","filing_representative_business_name":"BOHLER ENGINEERING","neighborhood_tabulation_area_nta_2020":"Rosedale"},"geometry":{"type":"Point","coordinates":[-73.741202,40.638214]}},{"type":"Feature","properties":{"date":"2025-02-05T05:00:00.000Z","year":2025,"description":"Provide new gas-fired infrared heaters and fans with integral on-off switch for new order point canopy as per plans. There will be no change in use, egress, or occupancy.","metadescription":"Mechanical Systems. Provide new gas-fired infrared heaters and fans with integral on-off switch for new order point canopy as per plans. There will be no change in use, egress, or occupancy.. Permit Issued. ROCKAWAY BOULEVARD","address":"ROCKAWAY BOULEVARD","bbl":"4138950080","lot":"80","c_b_no":"413","house_no":"249-23","approved_date":"2024 Jun 07 12:00:00 AM","filing_reason":"Initial Permit","work_on_floor":"Open Space","community_board":"413","sequence_number":"1","tracking_number":"183718177","applicant_license":"005367","census_tract_2020":"66401","job_filing_number":"Q01051069-I1","applicant_last_name":"SCHIMENTI","estimated_job_costs":"75000","owner_business_name":"ISJ MANAGEMENT CORP.","applicant_first_name":"MATTHEW","applicant_middle_name":"C","applicant_business_name":"SCHIMENTI CONSTRUCTION CO","permittee_s_license_type":"GC","applicant_business_address":"575 LEXINGTON AVENUE 18TH FL","filing_representative_last_name":"Mohamed","filing_representative_first_name":"Nageb","filing_representative_business_name":"BOHLER ENGINEERING","neighborhood_tabulation_area_nta_2020":"Rosedale"},"geometry":{"type":"Point","coordinates":[-73.741202,40.638214]}},{"type":"Feature","properties":{"date":"2025-02-05T05:00:00.000Z","year":2025,"description":"Foundation and Framing scope for new canopy as per plans. There will be no change in use, egress, or occupancy.","metadescription":"Foundation. Foundation and Framing scope for new canopy as per plans. There will be no change in use, egress, or occupancy.. Permit Issued. ROCKAWAY BOULEVARD","address":"ROCKAWAY BOULEVARD","bbl":"4138950080","lot":"80","c_b_no":"413","house_no":"249-23","approved_date":"2024 Aug 09 12:00:00 AM","filing_reason":"Renewal Permit with Changes","work_on_floor":"Open Space","community_board":"413","sequence_number":"2","tracking_number":"987742611","applicant_license":"005367","census_tract_2020":"66401","job_filing_number":"Q01073501-I1","applicant_last_name":"SCHIMENTI","estimated_job_costs":"200000","owner_business_name":"ISJ MANAGEMENT CORP.","applicant_first_name":"MATTHEW","applicant_middle_name":"C","applicant_business_name":"SCHIMENTI CONSTRUCTION CO","permittee_s_license_type":"GC","applicant_business_address":"575 LEXINGTON AVENUE 18TH FL","filing_representative_last_name":"Mohamed","filing_representative_first_name":"Nageb","filing_representative_business_name":"BOHLER ENGINEERING","neighborhood_tabulation_area_nta_2020":"Rosedale"},"geometry":{"type":"Point","coordinates":[-73.741202,40.638214]}},{"type":"Feature","properties":{"date":"2024-11-19T05:00:00.000Z","year":2024,"description":"Scope of work includes addition of new dual order point canopy and new concrete island for reused menu board for tenant Chick-Fil-A. There will be no change in use, egress, or occupancy.","metadescription":"General Construction. Scope of work includes addition of new dual order point canopy and new concrete island for reused menu board for tenant Chick-Fil-A. There will be no change in use, egress, or occupancy.. Permit Issued. ROCKAWAY BOULEVARD","address":"ROCKAWAY BOULEVARD","bbl":"4138950080","lot":"80","c_b_no":"413","house_no":"249-23","approved_date":"2024 Jul 31 12:00:00 AM","filing_reason":"Initial Permit","work_on_floor":"Open Space","community_board":"413","sequence_number":"1","tracking_number":"375931576","applicant_license":"036468","census_tract_2020":"66401","job_filing_number":"Q01044506-I1","applicant_last_name":"MALONE","estimated_job_costs":"100003.05","owner_business_name":"ISJ MANAGEMENT CORP.","applicant_first_name":"MAUREEN","applicant_middle_name":"M","applicant_business_name":"CONBOY & MANNION CONTRACT","permittee_s_license_type":"GC","applicant_business_address":"36 PHILA STREET.2ND FLOOR","filing_representative_last_name":"Mohamed","filing_representative_first_name":"Nageb","filing_representative_business_name":"BOHLER ENGINEERING","neighborhood_tabulation_area_nta_2020":"Rosedale"},"geometry":{"type":"Point","coordinates":[-73.741202,40.638214]}},{"type":"Feature","properties":{"date":"2024-11-19T05:00:00.000Z","year":2024,"description":"Foundation and Framing scope for new canopy as per plans. There will be no change in use, egress, or occupancy.","metadescription":"Foundation. Foundation and Framing scope for new canopy as per plans. There will be no change in use, egress, or occupancy.. Permit Issued. ROCKAWAY BOULEVARD","address":"ROCKAWAY BOULEVARD","bbl":"4138950080","lot":"80","c_b_no":"413","house_no":"249-23","approved_date":"2024 Aug 09 12:00:00 AM","filing_reason":"Initial Permit","work_on_floor":"Open Space","community_board":"413","sequence_number":"1","tracking_number":"924980223","applicant_license":"036468","census_tract_2020":"66401","job_filing_number":"Q01073501-I1","applicant_last_name":"MALONE","estimated_job_costs":"200000","owner_business_name":"ISJ MANAGEMENT CORP.","applicant_first_name":"MAUREEN","applicant_middle_name":"M","applicant_business_name":"CONBOY & MANNION CONTRACT","permittee_s_license_type":"GC","applicant_business_address":"36 PHILA STREET.2ND FLOOR","filing_representative_last_name":"Mohamed","filing_representative_first_name":"Nageb","filing_representative_business_name":"BOHLER ENGINEERING","neighborhood_tabulation_area_nta_2020":"Rosedale"},"geometry":{"type":"Point","coordinates":[-73.741202,40.638214]}},{"type":"Feature","properties":{"date":"2024-10-17T04:00:00.000Z","year":2024,"description":"INSTALLATION OF SOLAR PANELS ON ROOF. NO CHANGE IN USE, EGRESS, OR OCCUPANCY.","metadescription":"Solar. INSTALLATION OF SOLAR PANELS ON ROOF. NO CHANGE IN USE, EGRESS, OR OCCUPANCY.. Signed-off. 225 STREET","address":"225 STREET","bbl":"4108140021","lot":"21","c_b_no":"413","house_no":"94-18","approved_date":"2024 Oct 15 12:00:00 AM","filing_reason":"Initial Permit","work_on_floor":"Roof","community_board":"413","sequence_number":"1","tracking_number":"379120409","applicant_license":"621544","census_tract_2020":"568","job_filing_number":"Q01080625-I1","applicant_last_name":"YOUNG","estimated_job_costs":"83570","owner_business_name":"Not Applicable","applicant_first_name":"GRANT","applicant_business_name":"SUNCO CAPITAL LLC","permittee_s_license_type":"GC","applicant_business_address":"150 EILEEN WAY STE#5","filing_representative_last_name":"CLACKEN","filing_representative_first_name":"ZHANA","filing_representative_business_name":"SUNCO CAPITAL LLC","neighborhood_tabulation_area_nta_2020":"Queens Village"},"geometry":{"type":"Point","coordinates":[-73.730135,40.721644]}},{"type":"Feature","properties":{"date":"2024-10-04T04:00:00.000Z","year":2024,"description":"INSTALLATION OF SOLAR PANELS ON ROOF. NO CHANGE IN USE, EGRESS, OR OCCUPANCY.","metadescription":"Solar. INSTALLATION OF SOLAR PANELS ON ROOF. NO CHANGE IN USE, EGRESS, OR OCCUPANCY.. Signed-off. 225 STREET","address":"225 STREET","bbl":"4108140025","lot":"25","c_b_no":"413","house_no":"94-30","approved_date":"2024 Sep 10 12:00:00 AM","filing_reason":"Initial Permit","work_on_floor":"Roof","community_board":"413","sequence_number":"1","tracking_number":"857764634","applicant_license":"621544","census_tract_2020":"568","job_filing_number":"Q01103017-I1","applicant_last_name":"YOUNG","estimated_job_costs":"68609","owner_business_name":"Not Applicable","applicant_first_name":"GRANT","applicant_business_name":"SUNCO CAPITAL LLC","permittee_s_license_type":"GC","applicant_business_address":"150 EILEEN WAY STE#5","filing_representative_last_name":"CLACKEN","filing_representative_first_name":"ZHANA","filing_representative_business_name":"SUNCO CAPITAL LLC","neighborhood_tabulation_area_nta_2020":"Queens Village"},"geometry":{"type":"Point","coordinates":[-73.730078,40.721504]}},{"type":"Feature","properties":{"date":"2024-06-18T04:00:00.000Z","year":2024,"description":"FILING HEREWITH TAX ABATEMENT APPLICATION FOR INSTALLATION OF ROOF MOUNTED SOLAR PANELS.  NO CHANGE IN USE, EGRESS OR OCCUPANCY.","metadescription":"Solar. FILING HEREWITH TAX ABATEMENT APPLICATION FOR INSTALLATION OF ROOF MOUNTED SOLAR PANELS.  NO CHANGE IN USE, EGRESS OR OCCUPANCY.. Signed-off. HOOK CREEK BOULEVARD","address":"HOOK CREEK BOULEVARD","bbl":"4128900012","lot":"12","c_b_no":"413","house_no":"129-18","approved_date":"2024 Jun 12 12:00:00 AM","filing_reason":"Initial Permit","work_on_floor":"Roof","community_board":"413","sequence_number":"1","tracking_number":"556424754","applicant_license":"613329","census_tract_2020":"61602","job_filing_number":"Q01060902-I1","applicant_last_name":"JOYCE","estimated_job_costs":"56000","owner_business_name":"Not Applicable","applicant_first_name":"PAUL","applicant_business_name":"SUNRUN INSTALLATION SVC","permittee_s_license_type":"GC","applicant_business_address":"775 FIERO LN STE 200","filing_representative_last_name":"DE LOS SANTOS","filing_representative_first_name":"ROSA","filing_representative_business_name":"SUNRUN","neighborhood_tabulation_area_nta_2020":"Rosedale"},"geometry":{"type":"Point","coordinates":[-73.725819,40.678884]}},{"type":"Feature","properties":{"date":"2023-04-11T04:00:00.000Z","year":2023,"description":"INSTALL NEW TANKLESS HOT WATER HEATER. NO CHANGE IN USE, EGRESS, OR OCCUPANCY.","metadescription":"Plumbing. INSTALL NEW TANKLESS HOT WATER HEATER. NO CHANGE IN USE, EGRESS, OR OCCUPANCY.. Signed-off. 257 STREET","address":"257 STREET","bbl":"4136300015","lot":"15","c_b_no":"413","house_no":"137-04","approved_date":"2023 Apr 06 12:00:00 AM","filing_reason":"Initial Permit","work_on_floor":"Cellar","community_board":"413","sequence_number":"1","tracking_number":"631321402","applicant_license":"001393","census_tract_2020":"656","job_filing_number":"Q00846101-S1","applicant_last_name":"RICHARDS","estimated_job_costs":"5000","owner_business_name":"PR","applicant_first_name":"LEONARD","applicant_business_name":"L.RICHARDS PLBG & HTG","permittee_s_license_type":"P","applicant_business_address":"185-04 WILLIAMSON AVENUE","filing_representative_last_name":"CASTRO","filing_representative_first_name":"YINY","filing_representative_business_name":"PREMIUM EXPEDITING SERVICES","neighborhood_tabulation_area_nta_2020":"Rosedale"},"geometry":{"type":"Point","coordinates":[-73.72694,40.659775]}},{"type":"Feature","properties":{"date":"2023-03-21T04:00:00.000Z","year":2023,"description":"RENOVATION OF EXISTING TWO-FAMILY HOUSE. REPAIR AND REPLACE FIRE DAMAGED AREAS. NO STRUCTURAL WORK INVOLVED. NO CHANGE IN USE, EGRESS, OR OCCUPANCY.","metadescription":"General Construction. RENOVATION OF EXISTING TWO-FAMILY HOUSE. REPAIR AND REPLACE FIRE DAMAGED AREAS. NO STRUCTURAL WORK INVOLVED. NO CHANGE IN USE, EGRESS, OR OCCUPANCY.. Signed-off. 257 STREET","address":"257 STREET","bbl":"4136300015","lot":"15","c_b_no":"413","house_no":"137-04","approved_date":"2023 Mar 20 12:00:00 AM","filing_reason":"Initial Permit","work_on_floor":"Cellar, Floor Number(s) 1 through 2","community_board":"413","sequence_number":"1","tracking_number":"915731965","applicant_license":"606628","census_tract_2020":"656","job_filing_number":"Q00846101-I1","applicant_last_name":"LAM","estimated_job_costs":"20000","owner_business_name":"PR","applicant_first_name":"CHOY","applicant_business_name":"KING'S USA GROUP INC","permittee_s_license_type":"GC","applicant_business_address":"112-45 ROOSEVELT AVENUE, 2ND FL","neighborhood_tabulation_area_nta_2020":"Rosedale"},"geometry":{"type":"Point","coordinates":[-73.72694,40.659775]}},{"type":"Feature","properties":{"date":"2022-04-19T04:00:00.000Z","year":2022,"description":"GROUND STRUCTURE FOR ACCESSORY MENU BOARD SIGN INSIDE PROPERTY LINE. NO CHANGE IN USE, EGRESS, OR OCCUPANCY.","metadescription":"General Construction. GROUND STRUCTURE FOR ACCESSORY MENU BOARD SIGN INSIDE PROPERTY LINE. NO CHANGE IN USE, EGRESS, OR OCCUPANCY.. Signed-off. ROCKAWAY BOULEVARD","address":"ROCKAWAY BOULEVARD","bbl":"4138950080","lot":"80","c_b_no":"413","house_no":"249-23","approved_date":"2022 Apr 15 12:00:00 AM","filing_reason":"Initial Permit","work_on_floor":"Open Space","community_board":"413","sequence_number":"1","tracking_number":"199734510","applicant_license":"001540","census_tract_2020":"66401","job_filing_number":"Q00701582-I1","applicant_last_name":"MAUCERI","estimated_job_costs":"2500","owner_business_name":"ISJ MANAGEMENT CORP.","applicant_first_name":"JAMES","applicant_business_name":"MAUCERI SIGN CO INC","permittee_s_license_type":"GC","applicant_business_address":"148-27 GUY R BREWER BLVD","filing_representative_last_name":"HUBER","filing_representative_first_name":"GINA MARIE","filing_representative_business_name":"MAUCERI SIGN CO.","neighborhood_tabulation_area_nta_2020":"Rosedale"},"geometry":{"type":"Point","coordinates":[-73.741202,40.638214]}},{"type":"Feature","properties":{"date":"2022-04-15T04:00:00.000Z","year":2022,"description":"ERECT AN ILLUMINATED BUSINESS ACCESSORY PYLON CABINET ON PERMITTED STRUCTURE Q00701552. NO CHANGE IN USE, EGRESS, OR OCCUPANCY.","metadescription":"Sign. ERECT AN ILLUMINATED BUSINESS ACCESSORY PYLON CABINET ON PERMITTED STRUCTURE Q00701552. NO CHANGE IN USE, EGRESS, OR OCCUPANCY.. Signed-off. ROCKAWAY BOULEVARD","address":"ROCKAWAY BOULEVARD","bbl":"4138950080","lot":"80","c_b_no":"413","house_no":"249-23","approved_date":"2022 Apr 15 12:00:00 AM","filing_reason":"Initial Permit","work_on_floor":"Open Space","community_board":"413","sequence_number":"1","tracking_number":"969468206","applicant_license":"000166","census_tract_2020":"66401","job_filing_number":"Q00701503-I1","applicant_last_name":"MAUCERI","estimated_job_costs":"7488","owner_business_name":"ISJ MANAGEMENT CORP.","applicant_first_name":"JAMES","applicant_business_name":"MAUCERI SIGN CO., INC","permittee_s_license_type":"S","applicant_business_address":"148-27 GUY R. BREWER BLVD","filing_representative_last_name":"HUBER","filing_representative_first_name":"GINA MARIE","filing_representative_business_name":"MAUCERI SIGN CO.","neighborhood_tabulation_area_nta_2020":"Rosedale"},"geometry":{"type":"Point","coordinates":[-73.741202,40.638214]}},{"type":"Feature","properties":{"date":"2022-04-15T04:00:00.000Z","year":2022,"description":"GROUND STRUCTURE FOR ACCESSORY MENU BOARD SIGN INSIDE PROPERTY LINE. NO CHANGE IN USE, EGRESS, OR OCCUPANCY.","metadescription":"General Construction. GROUND STRUCTURE FOR ACCESSORY MENU BOARD SIGN INSIDE PROPERTY LINE. NO CHANGE IN USE, EGRESS, OR OCCUPANCY.. Signed-off. ROCKAWAY BOULEVARD","address":"ROCKAWAY BOULEVARD","bbl":"4138950080","lot":"80","c_b_no":"413","house_no":"249-23","approved_date":"2022 Apr 14 12:00:00 AM","filing_reason":"Initial Permit","work_on_floor":"Open Space","community_board":"413","sequence_number":"1","tracking_number":"332427231","applicant_license":"001540","census_tract_2020":"66401","job_filing_number":"Q00701567-I1","applicant_last_name":"MAUCERI","estimated_job_costs":"2500","owner_business_name":"ISJ MANAGEMENT CORP.","applicant_first_name":"JAMES","applicant_business_name":"MAUCERI SIGN CO INC","permittee_s_license_type":"GC","applicant_business_address":"148-27 GUY R BREWER BLVD","filing_representative_last_name":"HUBER","filing_representative_first_name":"GINA MARIE","filing_representative_business_name":"MAUCERI SIGN CO.","neighborhood_tabulation_area_nta_2020":"Rosedale"},"geometry":{"type":"Point","coordinates":[-73.741202,40.638214]}},{"type":"Feature","properties":{"date":"2022-04-15T04:00:00.000Z","year":2022,"description":"ERECT AN ILLUMINATED BUSINESS ACCESSORY CHANGEABLE COPY READER BOARD CABINET ON PERMITTED STRUCTURE Q00701552. NO CHANGE IN USE, EGRESS, OR OCCUPANCY.","metadescription":"Sign. ERECT AN ILLUMINATED BUSINESS ACCESSORY CHANGEABLE COPY READER BOARD CABINET ON PERMITTED STRUCTURE Q00701552. NO CHANGE IN USE, EGRESS, OR OCCUPANCY.. Signed-off. ROCKAWAY BOULEVARD","address":"ROCKAWAY BOULEVARD","bbl":"4138950080","lot":"80","c_b_no":"413","house_no":"249-23","approved_date":"2022 Apr 15 12:00:00 AM","filing_reason":"Initial Permit","work_on_floor":"Open Space","community_board":"413","sequence_number":"1","tracking_number":"787308219","applicant_license":"000166","census_tract_2020":"66401","job_filing_number":"Q00701509-I1","applicant_last_name":"MAUCERI","estimated_job_costs":"3861","owner_business_name":"ISJ MANAGEMENT CORP.","applicant_first_name":"JAMES","applicant_business_name":"MAUCERI SIGN CO., INC","permittee_s_license_type":"S","applicant_business_address":"148-27 GUY R. BREWER BLVD","filing_representative_last_name":"HUBER","filing_representative_first_name":"GINA MARIE","filing_representative_business_name":"MAUCERI SIGN CO.","neighborhood_tabulation_area_nta_2020":"Rosedale"},"geometry":{"type":"Point","coordinates":[-73.741202,40.638214]}},{"type":"Feature","properties":{"date":"2022-04-14T04:00:00.000Z","year":2022,"description":"GROUND STRUCTURE FOR ACCESSORY PYLON SIGN INSIDE PROPERTY LINE. NO CHANGE IN USE, EGRESS, OR OCCUPANCY.","metadescription":"General Construction. GROUND STRUCTURE FOR ACCESSORY PYLON SIGN INSIDE PROPERTY LINE. NO CHANGE IN USE, EGRESS, OR OCCUPANCY.. Signed-off. ROCKAWAY BOULEVARD","address":"ROCKAWAY BOULEVARD","bbl":"4138950080","lot":"80","c_b_no":"413","house_no":"249-23","approved_date":"2022 Apr 13 12:00:00 AM","filing_reason":"Initial Permit","work_on_floor":"Open Space","community_board":"413","sequence_number":"1","tracking_number":"107474026","applicant_license":"001540","census_tract_2020":"66401","job_filing_number":"Q00701552-I1","applicant_last_name":"MAUCERI","estimated_job_costs":"2500","owner_business_name":"ISJ MANAGEMENT CORP.","applicant_first_name":"JAMES","applicant_business_name":"MAUCERI SIGN CO INC","permittee_s_license_type":"GC","applicant_business_address":"148-27 GUY R BREWER BLVD","filing_representative_last_name":"HUBER","filing_representative_first_name":"GINA MARIE","filing_representative_business_name":"MAUCERI SIGN CO.","neighborhood_tabulation_area_nta_2020":"Rosedale"},"geometry":{"type":"Point","coordinates":[-73.741202,40.638214]}},{"type":"Feature","properties":{"date":"2022-03-23T04:00:00.000Z","year":2022,"description":"ERECT AN ILLUMINATED BUSINESS ACCESSORY WALL SIGN. NO CHANGE IN USE, EGRESS, OR OCCUPANCY.","metadescription":"Sign. ERECT AN ILLUMINATED BUSINESS ACCESSORY WALL SIGN. NO CHANGE IN USE, EGRESS, OR OCCUPANCY.. Signed-off. ROCKAWAY BOULEVARD","address":"ROCKAWAY BOULEVARD","bbl":"4138950080","lot":"80","c_b_no":"413","house_no":"249-23","approved_date":"2022 Mar 23 12:00:00 AM","filing_reason":"Initial Permit","work_on_floor":"Ground Floor","community_board":"413","sequence_number":"1","tracking_number":"411139410","applicant_license":"000166","census_tract_2020":"66401","job_filing_number":"Q00701474-I1","applicant_last_name":"MAUCERI","estimated_job_costs":"6903","owner_business_name":"ISJ MANAGEMENT CORP.","applicant_first_name":"JAMES","applicant_business_name":"MAUCERI SIGN CO., INC","permittee_s_license_type":"S","applicant_business_address":"148-27 GUY R. BREWER BLVD","filing_representative_last_name":"HUBER","filing_representative_first_name":"GINA MARIE","filing_representative_business_name":"MAUCERI SIGN CO.","neighborhood_tabulation_area_nta_2020":"Rosedale"},"geometry":{"type":"Point","coordinates":[-73.741202,40.638214]}},{"type":"Feature","properties":{"date":"2022-03-23T04:00:00.000Z","year":2022,"description":"ERECT AN ILLUMINATED BUSINESS ACCESSORY WALL SIGN. NO CHANGE IN USE, EGRESS, OR OCCUPANCY.","metadescription":"Sign. ERECT AN ILLUMINATED BUSINESS ACCESSORY WALL SIGN. NO CHANGE IN USE, EGRESS, OR OCCUPANCY.. Signed-off. ROCKAWAY BOULEVARD","address":"ROCKAWAY BOULEVARD","bbl":"4138950080","lot":"80","c_b_no":"413","house_no":"249-23","approved_date":"2022 Mar 23 12:00:00 AM","filing_reason":"Initial Permit","work_on_floor":"Ground Floor","community_board":"413","sequence_number":"1","tracking_number":"969000321","applicant_license":"000166","census_tract_2020":"66401","job_filing_number":"Q00701491-I1","applicant_last_name":"MAUCERI","estimated_job_costs":"6903","owner_business_name":"ISJ MANAGEMENT CORP.","applicant_first_name":"JAMES","applicant_business_name":"MAUCERI SIGN CO., INC","permittee_s_license_type":"S","applicant_business_address":"148-27 GUY R. BREWER BLVD","filing_representative_last_name":"HUBER","filing_representative_first_name":"GINA MARIE","filing_representative_business_name":"MAUCERI SIGN CO.","neighborhood_tabulation_area_nta_2020":"Rosedale"},"geometry":{"type":"Point","coordinates":[-73.741202,40.638214]}},{"type":"Feature","properties":{"date":"2022-03-23T04:00:00.000Z","year":2022,"description":"ERECT AN ILLUMINATED BUSINESS ACCESSORY WALL SIGN. NO CHANGE IN USE, EGRESS, OR OCCUPANCY.","metadescription":"Sign. ERECT AN ILLUMINATED BUSINESS ACCESSORY WALL SIGN. NO CHANGE IN USE, EGRESS, OR OCCUPANCY.. Signed-off. ROCKAWAY BOULEVARD","address":"ROCKAWAY BOULEVARD","bbl":"4138950080","lot":"80","c_b_no":"413","house_no":"249-23","approved_date":"2022 Mar 23 12:00:00 AM","filing_reason":"Initial Permit","work_on_floor":"Ground Floor","community_board":"413","sequence_number":"1","tracking_number":"983980365","applicant_license":"000166","census_tract_2020":"66401","job_filing_number":"Q00701462-I1","applicant_last_name":"MAUCERI","estimated_job_costs":"6903","owner_business_name":"ISJ MANAGEMENT CORP.","applicant_first_name":"JAMES","applicant_business_name":"MAUCERI SIGN CO., INC","permittee_s_license_type":"S","applicant_business_address":"148-27 GUY R. BREWER BLVD","filing_representative_last_name":"HUBER","filing_representative_first_name":"GINA MARIE","filing_representative_business_name":"MAUCERI SIGN CO.","neighborhood_tabulation_area_nta_2020":"Rosedale"},"geometry":{"type":"Point","coordinates":[-73.741202,40.638214]}},{"type":"Feature","properties":{"date":"2022-03-23T04:00:00.000Z","year":2022,"description":"ERECT AN ILLUMINATED BUSINESS ACCESSORY WALL SIGN. NO CHANGE IN USE, EGRESS, OR OCCUPANCY.","metadescription":"Sign. ERECT AN ILLUMINATED BUSINESS ACCESSORY WALL SIGN. NO CHANGE IN USE, EGRESS, OR OCCUPANCY.. Signed-off. ROCKAWAY BOULEVARD","address":"ROCKAWAY BOULEVARD","bbl":"4138950080","lot":"80","c_b_no":"413","house_no":"249-23","approved_date":"2022 Mar 23 12:00:00 AM","filing_reason":"Initial Permit","work_on_floor":"Ground Floor","community_board":"413","sequence_number":"1","tracking_number":"299076322","applicant_license":"000166","census_tract_2020":"66401","job_filing_number":"Q00701485-I1","applicant_last_name":"MAUCERI","estimated_job_costs":"6903","owner_business_name":"ISJ MANAGEMENT CORP.","applicant_first_name":"JAMES","applicant_business_name":"MAUCERI SIGN CO., INC","permittee_s_license_type":"S","applicant_business_address":"148-27 GUY R. BREWER BLVD","filing_representative_last_name":"HUBER","filing_representative_first_name":"GINA MARIE","filing_representative_business_name":"MAUCERI SIGN CO.","neighborhood_tabulation_area_nta_2020":"Rosedale"},"geometry":{"type":"Point","coordinates":[-73.741202,40.638214]}},{"type":"Feature","properties":{"date":"2022-01-27T05:00:00.000Z","year":2022,"description":"Filing herewith site plumbing plans for the construction of a new 2 domestic water service line and a new 4 fire water service line, a new 6 sanitary sewer service and an on-site storm water retention system. No change in use, egress, or occupancy.","metadescription":"Plumbing. Filing herewith site plumbing plans for the construction of a new 2 domestic water service line and a new 4 fire water service line, a new 6 sanitary sewer service and an on-site storm water retention system. No change in use, egress, or occupancy.. Signed-off. ROCKAWAY BOULEVARD","address":"ROCKAWAY BOULEVARD","bbl":"4138950080","lot":"80","c_b_no":"413","house_no":"249-23","approved_date":"2021 Jan 13 12:00:00 AM","filing_reason":"Initial Permit","work_on_floor":"Open Space","community_board":"413","sequence_number":"1","tracking_number":"493004860","applicant_license":"001744","census_tract_2020":"66401","job_filing_number":"Q00443961-I1","applicant_last_name":"ALISEO","estimated_job_costs":"60000","owner_business_name":"ISJ MANAGEMENT CORP.","applicant_first_name":"ANDREW","applicant_business_name":"AAA PLUMBING & HTNG LLC","permittee_s_license_type":"P","applicant_business_address":"4295 ARTHUR KILL ROAD,SUITE 2A","filing_representative_last_name":"PODLUCKY","filing_representative_first_name":"KAREN","filing_representative_business_name":"KAREN PODLUCKY","neighborhood_tabulation_area_nta_2020":"Rosedale"},"geometry":{"type":"Point","coordinates":[-73.741202,40.638214]}},{"type":"Feature","properties":{"date":"2021-04-16T04:00:00.000Z","year":2021,"description":"INSTALLATION OF TEMPORARY FENCE AS PER PLANS. NO CHANGE IN USE, EGRESS OR OCCUPANCY.","metadescription":"Construction Fence. INSTALLATION OF TEMPORARY FENCE AS PER PLANS. NO CHANGE IN USE, EGRESS OR OCCUPANCY.. Signed-off. ROCKAWAY BOULEVARD","address":"ROCKAWAY BOULEVARD","bbl":"4138950080","lot":"80","c_b_no":"413","house_no":"249-33","approved_date":"2021 Apr 13 12:00:00 AM","filing_reason":"Initial Permit","work_on_floor":"Open Space","community_board":"413","sequence_number":"1","tracking_number":"740164630","applicant_license":"617232","census_tract_2020":"66401","job_filing_number":"Q00497346-I1","applicant_last_name":"GAZHELI","estimated_job_costs":"1","owner_business_name":"OWNERS REP","applicant_first_name":"ERIND","applicant_business_name":"CORE SCAFFOLD SYSTEMS INC","permittee_s_license_type":"GC","applicant_business_address":"417 MYRTLE AVE SUITE 14","filing_representative_last_name":"SEPULVEDA","filing_representative_first_name":"ELY","filing_representative_business_name":"AE DESIGN SOLUTION INC.","neighborhood_tabulation_area_nta_2020":"Rosedale"},"geometry":{"type":"Point","coordinates":[-73.741202,40.638214]}}]}
