{"type":"FeatureCollection","features":[{"type":"Feature","properties":{"date":"2026-07-23T04:00:00.000Z","year":2026,"description":"FILING FOR (1) CAR GARAGE","metadescription":"General Construction. FILING FOR (1) CAR GARAGE. Permit Issued. 220-33 GAR 100 AVENUE","address":"220-15 100 AVE, NY, New York, 11429, US","bin":"4625061","lot":"52","nta":"Queens Village","c_b_no":"413","census_tract":"568","approved_date":"2026-03-09T00:00:00.000","filing_reason":"Initial Permit","work_on_floor":"Floor Number(s) 1","community_board":"413","sequence_number":"1","tracking_number":"680756240","applicant_license":"027156","job_filing_number":"Q01034767-I1","applicant_last_name":"KUNDU","owner_business_name":"ISLAMIC CENTER OF JACKSON HEIGHTS I","applicant_first_name":"GOURANGA","applicant_middle_name":"C","applicant_business_name":"ZK DEVELOPMENT CORP","permittee_s_license_type":"GC","applicant_business_address":"38-25 55TH ST"},"geometry":{"type":"Point","coordinates":[-73.732787,40.715252]}}]}
