{"type":"FeatureCollection","features":[{"type":"Feature","properties":{"date":"2025-10-06T04:00:00.000Z","year":2025,"description":"INSTALLATION OF SOLAR PANELS, ROOFTOP,RAILED, GRID-TIED, 15 MODULES, 6.45KW","metadescription":"Solar. INSTALLATION OF SOLAR PANELS, ROOFTOP,RAILED, GRID-TIED, 15 MODULES, 6.45KW. Signed-off. 225 STREET","address":"94-34 225 ST, NY, New York, 11428, US","bbl":"4108140031","lot":"31","c_b_no":"413","house_no":"9450","approved_date":"2025 Oct 03 12:00:00 AM","filing_reason":"Initial Permit","work_on_floor":"Roof","community_board":"413","sequence_number":"1","tracking_number":"905066444","applicant_license":"104468","census_tract_2020":"568","job_filing_number":"Q01297263-I1","applicant_last_name":"Makar","estimated_job_costs":"51600","owner_business_name":"Not Applicable","applicant_first_name":"Mina","applicant_business_name":"MOMENTUM SOLAR","permittee_s_license_type":"PE","applicant_business_address":"3096 B HAMILTON BLVD","neighborhood_tabulation_area_nta_2020":"Queens Village"},"geometry":{"type":"Point","coordinates":[-73.729989,40.721273]}},{"type":"Feature","properties":{"date":"2024-10-17T04:00:00.000Z","year":2024,"description":"INSTALLATION OF SOLAR PANELS ON ROOF. NO CHANGE IN USE, EGRESS, OR OCCUPANCY.","metadescription":"Solar. INSTALLATION OF SOLAR PANELS ON ROOF. NO CHANGE IN USE, EGRESS, OR OCCUPANCY.. Signed-off. 225 STREET","address":"94-18 225 ST, NY, New York, 11428, US","bbl":"4108140021","lot":"21","c_b_no":"413","house_no":"94-18","approved_date":"2024 Oct 15 12:00:00 AM","filing_reason":"Initial Permit","work_on_floor":"Roof","community_board":"413","sequence_number":"1","tracking_number":"379120409","applicant_license":"621544","census_tract_2020":"568","job_filing_number":"Q01080625-I1","applicant_last_name":"YOUNG","estimated_job_costs":"83570","owner_business_name":"Not Applicable","applicant_first_name":"GRANT","applicant_business_name":"SUNCO CAPITAL LLC","permittee_s_license_type":"GC","applicant_business_address":"150 EILEEN WAY STE#5","filing_representative_last_name":"CLACKEN","filing_representative_first_name":"ZHANA","filing_representative_business_name":"SUNCO CAPITAL LLC","neighborhood_tabulation_area_nta_2020":"Queens Village"},"geometry":{"type":"Point","coordinates":[-73.730135,40.721644]}},{"type":"Feature","properties":{"date":"2024-10-04T04:00:00.000Z","year":2024,"description":"INSTALLATION OF SOLAR PANELS ON ROOF. NO CHANGE IN USE, EGRESS, OR OCCUPANCY.","metadescription":"Solar. INSTALLATION OF SOLAR PANELS ON ROOF. NO CHANGE IN USE, EGRESS, OR OCCUPANCY.. Signed-off. 225 STREET","address":"94-22 225 ST, NY, New York, 11428, US","bbl":"4108140025","lot":"25","c_b_no":"413","house_no":"94-30","approved_date":"2024 Sep 10 12:00:00 AM","filing_reason":"Initial Permit","work_on_floor":"Roof","community_board":"413","sequence_number":"1","tracking_number":"857764634","applicant_license":"621544","census_tract_2020":"568","job_filing_number":"Q01103017-I1","applicant_last_name":"YOUNG","estimated_job_costs":"68609","owner_business_name":"Not Applicable","applicant_first_name":"GRANT","applicant_business_name":"SUNCO CAPITAL LLC","permittee_s_license_type":"GC","applicant_business_address":"150 EILEEN WAY STE#5","filing_representative_last_name":"CLACKEN","filing_representative_first_name":"ZHANA","filing_representative_business_name":"SUNCO CAPITAL LLC","neighborhood_tabulation_area_nta_2020":"Queens Village"},"geometry":{"type":"Point","coordinates":[-73.730078,40.721504]}}]}
