{"type":"FeatureCollection","features":[{"type":"Feature","properties":{"date":"1997-02-28T05:00:00.000Z","year":1997,"description":"New Residence W/Att Garage & Covered Patio","metadescription":"MP. New. New Residence W/Att Garage & Covered Patio. Final. 2414 CLOUD PEAK LN","address":"2414 CLOUD PEAK LN","link":"https://abc.austintexas.gov/web/permit/public-search-other?t_detail=1&t_selected_folderrsn=3348996","tcad_id":"R359492","location":"    (30.51538554, -97.71883088)","day_issued":"FRIDAY","project_id":"3348996","condominium":"No","status_date":"05/22/2007","jurisdiction":"ROUND ROCK ETJ","housing_units":"1","issuance_method":"Permit Center","number_of_floors":"2","permit_type_desc":"Mechanical Permit","master_permit_num":"644792","fiscal_year_issued":"1997","permit_class_mapped":"Residential","issued_in_last_30_days":"No","certificate_of_occupancy":"No","property_legal_description":"STONE CANYON SEC 3 BLOCK AA LOT 28"},"geometry":{"type":"Point","coordinates":[-97.71883088,30.51538554]}},{"type":"Feature","properties":{"date":"1997-02-28T05:00:00.000Z","year":1997,"description":"New Residence W/Att Garage & Covered Patio","metadescription":"EP. New. New Residence W/Att Garage & Covered Patio. Final. 2414 CLOUD PEAK LN","address":"2414 CLOUD PEAK LN","link":"https://abc.austintexas.gov/web/permit/public-search-other?t_detail=1&t_selected_folderrsn=4258022","tcad_id":"R359492","location":"    (30.51538554, -97.71883088)","day_issued":"FRIDAY","project_id":"4258022","condominium":"No","status_date":"05/22/2007","jurisdiction":"ROUND ROCK ETJ","housing_units":"1","issuance_method":"Permit Center","number_of_floors":"2","permit_type_desc":"Electrical Permit","master_permit_num":"644792","fiscal_year_issued":"1997","permit_class_mapped":"Residential","issued_in_last_30_days":"No","certificate_of_occupancy":"No","property_legal_description":"STONE CANYON SEC 3 BLOCK AA LOT 28"},"geometry":{"type":"Point","coordinates":[-97.71883088,30.51538554]}},{"type":"Feature","properties":{"date":"1997-02-28T05:00:00.000Z","year":1997,"description":"New Residence W/Att Garage & Covered Patio","metadescription":"PP. New. New Residence W/Att Garage & Covered Patio. Final. 2414 CLOUD PEAK LN","address":"2414 CLOUD PEAK LN","link":"https://abc.austintexas.gov/web/permit/public-search-other?t_detail=1&t_selected_folderrsn=3702057","tcad_id":"R359492","location":"    (30.51538554, -97.71883088)","day_issued":"FRIDAY","project_id":"3702057","condominium":"No","status_date":"05/22/2007","jurisdiction":"ROUND ROCK ETJ","housing_units":"1","issuance_method":"Permit Center","number_of_floors":"2","permit_type_desc":"Plumbing Permit","master_permit_num":"644792","fiscal_year_issued":"1997","permit_class_mapped":"Residential","issued_in_last_30_days":"No","certificate_of_occupancy":"No","property_legal_description":"STONE CANYON SEC 3 BLOCK AA LOT 28"},"geometry":{"type":"Point","coordinates":[-97.71883088,30.51538554]}},{"type":"Feature","properties":{"date":"1997-02-28T05:00:00.000Z","year":1997,"description":"New Residence W/Att Garage & Covered Patio","metadescription":"BP. New. New Residence W/Att Garage & Covered Patio. Final. 2414 CLOUD PEAK LN","address":"2414 CLOUD PEAK LN","link":"https://abc.austintexas.gov/web/permit/public-search-other?t_detail=1&t_selected_folderrsn=644792","tcad_id":"R359492","location":"    (30.51538554, -97.71883088)","day_issued":"FRIDAY","project_id":"644792","condominium":"No","status_date":"05/22/2007","jurisdiction":"ROUND ROCK ETJ","housing_units":"1","issuance_method":"Permit Center","number_of_floors":"2","permit_type_desc":"Building Permit","fiscal_year_issued":"1997","permit_class_mapped":"Residential","issued_in_last_30_days":"No","certificate_of_occupancy":"Yes","property_legal_description":"STONE CANYON SEC 3 BLOCK AA LOT 28"},"geometry":{"type":"Point","coordinates":[-97.71883088,30.51538554]}},{"type":"Feature","properties":{"date":"1997-01-27T05:00:00.000Z","year":1997,"description":"Two Story Residence W/Att Garage & Cover Patio","metadescription":"PP. New. Two Story Residence W/Att Garage & Cover Patio. Final. 2439 CLOUD PEAK LN","address":"2439 CLOUD PEAK LN","link":"https://abc.austintexas.gov/web/permit/public-search-other?t_detail=1&t_selected_folderrsn=3701274","tcad_id":"R359484","location":"    (30.51476483, -97.71779308)","day_issued":"MONDAY","project_id":"3701274","condominium":"No","status_date":"05/22/2007","jurisdiction":"ROUND ROCK ETJ","housing_units":"1","issuance_method":"Permit Center","number_of_floors":"2","permit_type_desc":"Plumbing Permit","master_permit_num":"644003","fiscal_year_issued":"1997","permit_class_mapped":"Residential","issued_in_last_30_days":"No","certificate_of_occupancy":"No","property_legal_description":"S6352 - Stone Canyon Sec 3 BLOCK AA Lot 20"},"geometry":{"type":"Point","coordinates":[-97.71779308,30.51476483]}},{"type":"Feature","properties":{"date":"1997-01-27T05:00:00.000Z","year":1997,"description":"Two Story Residence W/Att Garage & Cover Patio","metadescription":"MP. New. Two Story Residence W/Att Garage & Cover Patio. Final. 2439 CLOUD PEAK LN","address":"2439 CLOUD PEAK LN","link":"https://abc.austintexas.gov/web/permit/public-search-other?t_detail=1&t_selected_folderrsn=3347935","tcad_id":"R359484","location":"    (30.51476483, -97.71779308)","day_issued":"MONDAY","project_id":"3347935","condominium":"No","status_date":"05/22/2007","jurisdiction":"ROUND ROCK ETJ","housing_units":"1","issuance_method":"Permit Center","number_of_floors":"2","permit_type_desc":"Mechanical Permit","master_permit_num":"644003","fiscal_year_issued":"1997","permit_class_mapped":"Residential","issued_in_last_30_days":"No","certificate_of_occupancy":"No","property_legal_description":"S6352 - Stone Canyon Sec 3 BLOCK AA Lot 20"},"geometry":{"type":"Point","coordinates":[-97.71779308,30.51476483]}},{"type":"Feature","properties":{"date":"1997-01-27T05:00:00.000Z","year":1997,"description":"Two Story Residence W/Att Garage & Cover Patio","metadescription":"EP. New. Two Story Residence W/Att Garage & Cover Patio. Final. 2439 CLOUD PEAK LN","address":"2439 CLOUD PEAK LN","link":"https://abc.austintexas.gov/web/permit/public-search-other?t_detail=1&t_selected_folderrsn=4256900","tcad_id":"R359484","location":"    (30.51476483, -97.71779308)","day_issued":"MONDAY","project_id":"4256900","condominium":"No","status_date":"05/22/2007","jurisdiction":"ROUND ROCK ETJ","housing_units":"1","issuance_method":"Permit Center","number_of_floors":"2","permit_type_desc":"Electrical Permit","master_permit_num":"644003","fiscal_year_issued":"1997","permit_class_mapped":"Residential","issued_in_last_30_days":"No","certificate_of_occupancy":"No","property_legal_description":"S6352 - Stone Canyon Sec 3 BLOCK AA Lot 20"},"geometry":{"type":"Point","coordinates":[-97.71779308,30.51476483]}},{"type":"Feature","properties":{"date":"1997-01-27T05:00:00.000Z","year":1997,"description":"Two Story Residence W/Att Garage & Cover Patio","metadescription":"BP. New. Two Story Residence W/Att Garage & Cover Patio. Final. 2439 CLOUD PEAK LN","address":"2439 CLOUD PEAK LN","link":"https://abc.austintexas.gov/web/permit/public-search-other?t_detail=1&t_selected_folderrsn=644003","tcad_id":"R359484","location":"    (30.51476483, -97.71779308)","day_issued":"MONDAY","project_id":"644003","condominium":"No","status_date":"05/22/2007","jurisdiction":"ROUND ROCK ETJ","housing_units":"1","issuance_method":"Permit Center","number_of_floors":"2","permit_type_desc":"Building Permit","fiscal_year_issued":"1997","permit_class_mapped":"Residential","issued_in_last_30_days":"No","certificate_of_occupancy":"Yes","property_legal_description":"S6352 - Stone Canyon Sec 3 BLOCK AA Lot 20"},"geometry":{"type":"Point","coordinates":[-97.71779308,30.51476483]}},{"type":"Feature","properties":{"date":"1996-03-11T05:00:00.000Z","year":1996,"description":"New One Stry Resid W/Att Gar & Cov Por &Patio","metadescription":"MP. New. New One Stry Resid W/Att Gar & Cov Por &Patio. Final. 18112 WHITEWATER CV","address":"18112 WHITEWATER CV","link":"https://abc.austintexas.gov/web/permit/public-search-other?t_detail=1&t_selected_folderrsn=3337734","tcad_id":"R351603","location":"    (30.51982239, -97.72061332)","day_issued":"MONDAY","project_id":"3337734","condominium":"No","status_date":"05/22/2007","jurisdiction":"ROUND ROCK ETJ","housing_units":"1","issuance_method":"Permit Center","number_of_floors":"1","permit_type_desc":"Mechanical Permit","master_permit_num":"636398","fiscal_year_issued":"1996","permit_class_mapped":"Residential","issued_in_last_30_days":"No","certificate_of_occupancy":"No","property_legal_description":"S6211 - Stone Canyon Sec 1 BLOCK O Lot 24"},"geometry":{"type":"Point","coordinates":[-97.72061332,30.51982239]}},{"type":"Feature","properties":{"date":"1996-03-11T05:00:00.000Z","year":1996,"description":"New One Stry Resid W/Att Gar & Cov Por &Patio","metadescription":"BP. New. New One Stry Resid W/Att Gar & Cov Por &Patio. Final. 18112 WHITEWATER CV","address":"18112 WHITEWATER CV","link":"https://abc.austintexas.gov/web/permit/public-search-other?t_detail=1&t_selected_folderrsn=636398","tcad_id":"R351603","location":"    (30.51982239, -97.72061332)","day_issued":"MONDAY","project_id":"636398","condominium":"No","status_date":"05/22/2007","jurisdiction":"ROUND ROCK ETJ","housing_units":"1","issuance_method":"Permit Center","number_of_floors":"1","permit_type_desc":"Building Permit","fiscal_year_issued":"1996","permit_class_mapped":"Residential","issued_in_last_30_days":"No","certificate_of_occupancy":"Yes","property_legal_description":"S6211 - Stone Canyon Sec 1 BLOCK O Lot 24"},"geometry":{"type":"Point","coordinates":[-97.72061332,30.51982239]}},{"type":"Feature","properties":{"date":"1996-03-11T05:00:00.000Z","year":1996,"description":"New One Stry Resid W/Att Gar & Cov Por &Patio","metadescription":"EP. New. New One Stry Resid W/Att Gar & Cov Por &Patio. Final. 18112 WHITEWATER CV","address":"18112 WHITEWATER CV","link":"https://abc.austintexas.gov/web/permit/public-search-other?t_detail=1&t_selected_folderrsn=4246275","tcad_id":"R351603","location":"    (30.51982239, -97.72061332)","day_issued":"MONDAY","project_id":"4246275","condominium":"No","status_date":"05/22/2007","jurisdiction":"ROUND ROCK ETJ","housing_units":"1","issuance_method":"Permit Center","number_of_floors":"1","permit_type_desc":"Electrical Permit","master_permit_num":"636398","fiscal_year_issued":"1996","permit_class_mapped":"Residential","issued_in_last_30_days":"No","certificate_of_occupancy":"No","property_legal_description":"S6211 - Stone Canyon Sec 1 BLOCK O Lot 24"},"geometry":{"type":"Point","coordinates":[-97.72061332,30.51982239]}},{"type":"Feature","properties":{"date":"1996-03-11T05:00:00.000Z","year":1996,"description":"New One Stry Resid W/Att Gar & Cov Por &Patio","metadescription":"PP. New. New One Stry Resid W/Att Gar & Cov Por &Patio. Final. 18112 WHITEWATER CV","address":"18112 WHITEWATER CV","link":"https://abc.austintexas.gov/web/permit/public-search-other?t_detail=1&t_selected_folderrsn=3694418","tcad_id":"R351603","location":"    (30.51982239, -97.72061332)","day_issued":"MONDAY","project_id":"3694418","condominium":"No","status_date":"05/22/2007","jurisdiction":"ROUND ROCK ETJ","housing_units":"1","issuance_method":"Permit Center","number_of_floors":"1","permit_type_desc":"Plumbing Permit","master_permit_num":"636398","fiscal_year_issued":"1996","permit_class_mapped":"Residential","issued_in_last_30_days":"No","certificate_of_occupancy":"No","property_legal_description":"S6211 - Stone Canyon Sec 1 BLOCK O Lot 24"},"geometry":{"type":"Point","coordinates":[-97.72061332,30.51982239]}}]}
