{"type":"FeatureCollection","features":[{"type":"Feature","properties":{"date":"2021-12-28T05:00:00.000Z","year":2021,"description":"Plumbing for tenant finish out for St. Davids  ETJ. 6534 sq ft","metadescription":"PP. New. Plumbing for tenant finish out for St. Davids  ETJ. 6534 sq ft. Final. 1201 W LOUIS HENNA BLVD EB","address":"1201 W LOUIS HENNA BLVD EB","link":"https://abc.austintexas.gov/web/permit/public-search-other?t_detail=1&t_selected_folderrsn=12838126","tcad_id":"R525545","location":"    (30.47695644, -97.69030436)","day_issued":"TUESDAY","project_id":"12838126","condominium":"No","status_date":"02/28/2022","jurisdiction":"AUSTIN 2 MILE ETJ","housing_units":"1","contractor_zip":"78626","contractor_city":"Georgetown","issuance_method":"Permit Center","contractor_phone":"5128067500","contractor_trade":"Plumbing Contractor","number_of_floors":"1","permit_type_desc":"Plumbing Permit","fiscal_year_issued":"2022","plumbing_valuation":"$0.00","total_new_add_sqft":"6,536","permit_class_mapped":"Commercial","contractor_address_2":"2500  NE Inn","contractor_full_name":"Erik Christiansen","issued_in_last_30_days":"No","certificate_of_occupancy":"No","property_legal_description":"S10542 - FOREST PARK MEDICAL PARK"},"geometry":{"type":"Point","coordinates":[-97.69030436,30.47695644]}},{"type":"Feature","properties":{"date":"2019-10-28T04:00:00.000Z","year":2019,"description":"Tenant finish out of commercial space EUD.  Our project is in an ETJ and will only need a plumbing trade permit. We have a set of construction drawings and a contract with a General Contractor.","metadescription":"PP. New. Tenant finish out of commercial space EUD.  Our project is in an ETJ and will only need a plumbing trade permit. We have a set of construction drawings and a contract with a General Contractor.. Final. 1201 W LOUIS HENNA BLVD EB BLDG B","address":"1201 W LOUIS HENNA BLVD EB BLDG B","link":"https://abc.austintexas.gov/web/permit/public-search-other?t_detail=1&t_selected_folderrsn=12343616","tcad_id":"R525545","location":"    (30.47695644, -97.69030436)","day_issued":"MONDAY","project_id":"12343616","condominium":"No","status_date":"05/11/2020","jurisdiction":"AUSTIN 2 MILE ETJ","housing_units":"1","contractor_zip":"78759-____","contractor_city":"AUSTIN","issuance_method":"Permit Center","contractor_phone":"7376373999","contractor_trade":"Plumbing Contractor","number_of_floors":"1","permit_type_desc":"Plumbing Permit","fiscal_year_issued":"2020","total_new_add_sqft":"20,037","permit_class_mapped":"Commercial","contractor_address_2":"11402  MURCI","contractor_full_name":"Curtis Novinger","issued_in_last_30_days":"No","certificate_of_occupancy":"No","property_legal_description":"S10542 - FOREST PARK MEDICAL PARK"},"geometry":{"type":"Point","coordinates":[-97.69030436,30.47695644]}}]}
