{"type":"FeatureCollection","features":[{"type":"Feature","properties":{"date":"2023-01-13T05:00:00.000Z","year":2023,"description":"For the erection of a new, three (3) story detached structure (w/roof deck and pilot house enclosing access stairs only) to be used as Group R-3 (SFD), as per plans; see sub-permits for all MEP work; separate permit required for FSP work; building to be fully sprinklered as per NFPA 13D throughout; if field conditions vary, contact design engineer prior to the start of any work; covered walkway or sidewalk closure shall be required within eleven (11) feet of the building facade in accordance with Section 3306 in the 2018 IBC (separate building and/or Streets Department permit required prior to start of any work); blower door testing shall be performed in accordance with ASTM E 779 or ASTM E 1827 by an approved third party agency; see ZP-2022-006672 for zoning/use approval; see SR-2022-016832 for work within the public right-of-way.\n\nPERMIT AMENDED ON 3/14/24: New plan calls for a smaller/shorter home. ORIGINAL GROSS FLOOR AREA 1,042 S.F. NEW PROPOSED GROSS FLOOR AREA 884 S.F PROPERTY TO REMAIN THREE STORIES.","metadescription":"Residential Building. New Construction. For the erection of a new, three (3) story detached structure (w/roof deck and pilot house enclosing access stairs only) to be used as Group R-3 (SFD), as per plans; see sub-permits for all MEP work; separate permit required for FSP work; building to be fully sprinklered as per NFPA 13D throughout; if field conditions vary, contact design engineer prior to the start of any work; covered walkway or sidewalk closure shall be required within eleven (11) feet of the building facade in accordance with Section 3306 in the 2018 IBC (separate building and/or Streets Department permit required prior to start of any work); blower door testing shall be performed in accordance with ASTM E 779 or ASTM E 1827 by an approved third party agency; see ZP-2022-006672 for zoning/use approval; see SR-2022-016832 for work within the public right-of-way.\n\nPERMIT AMENDED ON 3/14/24: New plan calls for a smaller/shorter home. ORIGINAL GROSS FLOOR AREA 1,042 S.F. NEW PROPOSED GROSS FLOOR AREA 884 S.F PROPERTY TO REMAIN THREE STORIES.. Completed. 4315 BOONE ST","address":"4315 BOONE ST","the_geom":"0101000020E6100000AFDF817A0CCE52C0188181AE6C034440","geocode_x":"2677066.0899851500","geocode_y":"262755.9766239600","opa_owner":"ONEILL BRIAN PATRICK, PATRINO JENNY LYN","censustract":"021400","posse_jobid":"538655164","numberofunits":"1","mostrecentinsp":"2025-12-10 15:04:25+00","systemofrecord":"ECLIPSE","addressobjectid":"15897090","numberofstories":"3.0","opa_account_num":"211269100","areaofdisturbance":"1042.0","permitdescription":"Residential Building Permit","zoningpermitjobid":"484865788","contractoraddress1":"Vich Construction LLC\n308 W Queen\nPhiladelphia, PA  19144\nUSA","permitcompleteddate":"2025-12-10 16:47:59+00","the_geom_webmercator":"0101000020110F000036F7DE6E25F15FC15319E7B8B1935241","certificateofoccupancydate":"2025-12-11 12:28:49+00","certificateofoccupancylink":"https://eclipse.phila.gov/phillylmsprod/pub/lms/download.aspx?PosseObjectId=941126974&hash=F59C4B81A5E9E9ED382F8806252375C9702E1AC6ED195AE423BD43F9BF964AC3","certificateofoccupancyrequired":"Y"},"geometry":{"type":"Point","coordinates":[-75.21951163,40.026754201]}},{"type":"Feature","properties":{"date":"2021-04-13T04:00:00.000Z","year":2021,"description":"This permit is to comply the CF-2021-016628 for Partial Demolition without permits and without Right of Way permit from the Street's Department.\n*CONTRACTOR HAS NO EMPLOYEES PER NOTARIZED LETTER*\nEZ PERMIT STANDARDS ALTERATIONS - For alterations to an Existing One Family Dwelling as per attached standard. Deviations from this standard will result in permit revocation and require submission of construction plans.  Structural alteration or repair is expressly prohibited under this permit. Prohibited structural work any modifications to exterior walls, party walls, floor/roof framing or foundations, including underpinning, excavation, and removal of foundation slab. WORK IN THE BASEMENT OR CELLAR IS NOT INCLUDED ON THE EZ ALT PERMIT. Separate permits required for Mechanical, Electric and Plumbing. Very small upgrades being made throughout the property, no changes occurring to the exterior of the property. Non-structural alterations and there will be no demolition of weight bearing walls.","metadescription":"Residential Building. Addition and/or Alteration. This permit is to comply the CF-2021-016628 for Partial Demolition without permits and without Right of Way permit from the Street's Department.\n*CONTRACTOR HAS NO EMPLOYEES PER NOTARIZED LETTER*\nEZ PERMIT STANDARDS ALTERATIONS - For alterations to an Existing One Family Dwelling as per attached standard. Deviations from this standard will result in permit revocation and require submission of construction plans.  Structural alteration or repair is expressly prohibited under this permit. Prohibited structural work any modifications to exterior walls, party walls, floor/roof framing or foundations, including underpinning, excavation, and removal of foundation slab. WORK IN THE BASEMENT OR CELLAR IS NOT INCLUDED ON THE EZ ALT PERMIT. Separate permits required for Mechanical, Electric and Plumbing. Very small upgrades being made throughout the property, no changes occurring to the exterior of the property. Non-structural alterations and there will be no demolition of weight bearing walls.. Completed. 1318 N 60TH ST","address":"1318 N 60TH ST","the_geom":"0101000020E61000007A0E59CB57CF52C0E32CAFB969FC4340","geocode_x":"2671972.3880712900","geocode_y":"242647.8663145300","opa_owner":"JIMENEZ YOLANDA M","censustract":"010100","posse_jobid":"326678307","mostrecentinsp":"2022-03-07 15:59:58+00","systemofrecord":"ECLIPSE","addressobjectid":"131067726","numberofstories":"3.0","opa_account_num":"342205900","areaofdisturbance":"1200.0","permitdescription":"Residential Building Permit","contractoraddress1":"A.Y.D. Construction LLC\n1548 S Opal Street \nPhiladelphia , PA  19146\nUSA","permitcompleteddate":"2022-04-28 17:40:56+00","the_geom_webmercator":"0101000020110F0000CA44CF3458F35FC1A8EE0DB4EB8B5241","certificateofoccupancyrequired":"N"},"geometry":{"type":"Point","coordinates":[-75.239733541,39.971976481]}},{"type":"Feature","properties":{"date":"2018-05-09T18:52:28.000Z","year":2018,"description":"EZ EXTERIOR WALL COVERINGS- FOR THE APPLICATION OF EXTERIOR WALL COVERINGS AS PER ATTACHED STANDARD. DEVIATIONS FROM THIS STANDARD WILL RESULT IN PERMIT REVOCATION AND REQUIRE SUBMISSION OF CONSTRUCTION PLANS. STREETS DEPT. PERMIT/APPROVAL REQUIRED FOR SCAFFOLDING IN THE RIGHT OF WAY. PERMIT TO COMPLY WITH CASE NO. 594958. WINDOWS TO COMPLY WITH PRESCRIPTIVE U FACTORS OF THE 2009 IECC.","metadescription":"BP_ALTER. MINOR. EZ EXTERIOR WALL COVERINGS- FOR THE APPLICATION OF EXTERIOR WALL COVERINGS AS PER ATTACHED STANDARD. DEVIATIONS FROM THIS STANDARD WILL RESULT IN PERMIT REVOCATION AND REQUIRE SUBMISSION OF CONSTRUCTION PLANS. STREETS DEPT. PERMIT/APPROVAL REQUIRED FOR SCAFFOLDING IN THE RIGHT OF WAY. PERMIT TO COMPLY WITH CASE NO. 594958. WINDOWS TO COMPLY WITH PRESCRIPTIVE U FACTORS OF THE 2009 IECC.. COMPLETED. 3124 N BROAD ST","address":"3124 N BROAD ST","the_geom":"0101000020E6100000C1277CDAD1C952C0A1E9569517004440","geocode_x":"2695842.2957199600","geocode_y":"253813.2570694600","opa_owner":"SUAREZ JOSE ALBERTO      SUAREZ CARMEN","censustract":"19132-2421","contractorzip":"19135-    ","contractorcity":"PHILA","mostrecentinsp":"2018-10-01 17:39:00+00","systemofrecord":"HANSEN","addressobjectid":"50551","contractorstate":"PA","opa_account_num":"871515360","permitdescription":"ALTERATION PERMIT","contractoraddress1":"6823 DITMAN ST","permitcompleteddate":"2018-10-02 11:41:05+00","the_geom_webmercator":"0101000020110F00003D88457CF6E95FC1A6066BB7FF8F5241"},"geometry":{"type":"Point","coordinates":[-75.153433439,40.000719707]}},{"type":"Feature","properties":{"date":"2017-06-15T17:21:00.000Z","year":2017,"description":"FOR THE COMPLETE DEMOLITION OF MORE THAN 2/3RDS OF INTERIOR STRUCTURAL FRAMING WITHIN AN EXISTING TWO (2) STORY MASONRY AND WOOD ATTACHED STRUCTURE; STRUCTURE TO BE DEMOLISHED BY HAND AND WITH HAND TOOLS ONLY; FRONT WALL, FRONT PORTIONS OF FLOORS, AND PARTY WALLS TO REMAIN; FOUNDATION TO REMAIN; RECONSTRUCTION WORK (SEE AP#754196) TO BEGIN IMMEDIATELY UPON COMPLETION OF DEMO WORK; NO WORK WITHIN THE PUBLIC RIGHT-OF-WAY. *PERMIT RECEIVED FROM DOWNSTAIRS*","metadescription":"BP_DEMO. FULL. FOR THE COMPLETE DEMOLITION OF MORE THAN 2/3RDS OF INTERIOR STRUCTURAL FRAMING WITHIN AN EXISTING TWO (2) STORY MASONRY AND WOOD ATTACHED STRUCTURE; STRUCTURE TO BE DEMOLISHED BY HAND AND WITH HAND TOOLS ONLY; FRONT WALL, FRONT PORTIONS OF FLOORS, AND PARTY WALLS TO REMAIN; FOUNDATION TO REMAIN; RECONSTRUCTION WORK (SEE AP#754196) TO BEGIN IMMEDIATELY UPON COMPLETION OF DEMO WORK; NO WORK WITHIN THE PUBLIC RIGHT-OF-WAY. *PERMIT RECEIVED FROM DOWNSTAIRS*. COMPLETED. 2318 WAVERLY ST","address":"2318 WAVERLY ST","the_geom":"0101000020E6100000BA5B32F387CB52C092EE579532F94340","geocode_x":"2688925.1912045000","geocode_y":"233980.9427826000","opa_owner":"SALVI ANTHONY TR         SALVI ERICA S TR","censustract":"19146-1124","contractorzip":"19137-    ","contractorcity":"PHILADELPHIA","mostrecentinsp":"2017-06-23 11:11:00+00","systemofrecord":"HANSEN","addressobjectid":"603235","contractorstate":"PA","opa_account_num":"081112100","permitdescription":"DEMOLITION PERMIT","contractoraddress1":"2521 ORTHODOX ST","permitcompleteddate":"2017-06-26 11:12:58+00","the_geom_webmercator":"0101000020110F00002C31F0A2DEEC5FC1FAE14EA45B885241"},"geometry":{"type":"Point","coordinates":[-75.180172729,39.946856182]}},{"type":"Feature","properties":{"date":"2014-07-14T18:23:54.000Z","year":2014,"description":"COMPLETE DEMOLITION OF A DETACHED ONE STORY STRUCTURE FORMERLY USED AS A BANK DRIVE THROUGH.  ACTIVITY TO BE CONDUCTED AS PRESCRIBED IN SURVEY/WORK/OPERATIONS PLAN AND IN ACCORDANCE WITH THE DEPT'S REQUIREMENTS FOR DEMOLITION ACTIVITY.  AREA TO BE FENCED-OFF.  ALL ACTIVITY INCLUDING STAGING AREA TO BE WITHIN SUBJECT LOT.  SECURE STREETS DEPT APPROVAL FOR ACTIVITY OR TEMPORARY STRUCTURES PLACED IN PUBLIC RIGHT-OF-WAY.  PERMIT HOLDER MUST KEEP COPY OF DEMOLITION SITE PLAN AND OTHER SUPPORTING DOCUMENTATION ON-SITE AND ORGANIZED FOR REVIEW BY CITY INSPECTORS AND CITY TASK FORCES. PERMIT HOLDER TO OBTAIN FORMAL APPROVAL FOR UTILITY SHUT OFF, IF APPLICABLE.  SITE TO BE COMPLETED WITH ASPHALT PAVING AS SPECIFIED IN SUBMITTED DOCUMENTS.","metadescription":"BP_DEMO. FULL. COMPLETE DEMOLITION OF A DETACHED ONE STORY STRUCTURE FORMERLY USED AS A BANK DRIVE THROUGH.  ACTIVITY TO BE CONDUCTED AS PRESCRIBED IN SURVEY/WORK/OPERATIONS PLAN AND IN ACCORDANCE WITH THE DEPT'S REQUIREMENTS FOR DEMOLITION ACTIVITY.  AREA TO BE FENCED-OFF.  ALL ACTIVITY INCLUDING STAGING AREA TO BE WITHIN SUBJECT LOT.  SECURE STREETS DEPT APPROVAL FOR ACTIVITY OR TEMPORARY STRUCTURES PLACED IN PUBLIC RIGHT-OF-WAY.  PERMIT HOLDER MUST KEEP COPY OF DEMOLITION SITE PLAN AND OTHER SUPPORTING DOCUMENTATION ON-SITE AND ORGANIZED FOR REVIEW BY CITY INSPECTORS AND CITY TASK FORCES. PERMIT HOLDER TO OBTAIN FORMAL APPROVAL FOR UTILITY SHUT OFF, IF APPLICABLE.  SITE TO BE COMPLETED WITH ASPHALT PAVING AS SPECIFIED IN SUBMITTED DOCUMENTS.. COMPLETED. 475-77 GREEN LN","address":"475-77 GREEN LN","the_geom":"0101000020E61000005DD98A52D4CD52C0C851E20C45044440","geocode_x":"2677956.5576445700","geocode_y":"265187.8838605600","opa_owner":"SWITCHBACK RIDGE II LLC","censustract":"19128-0000","contractorzip":"08036-    ","contractorcity":"HAINESPORT","mostrecentinsp":"2014-10-12 00:41:00+00","systemofrecord":"HANSEN","addressobjectid":"323758","contractorstate":"NJ","opa_account_num":"885819800","permitdescription":"DEMOLITION PERMIT","contractoraddress1":"1704 MARNE HIGHWAY","permitcompleteddate":"2015-02-03 14:50:00+00","the_geom_webmercator":"0101000020110F0000670ED90BC6F05FC1D49450B6A1945241"},"geometry":{"type":"Point","coordinates":[-75.216084133,40.033357249]}},{"type":"Feature","properties":{"date":"2009-04-23T19:27:00.000Z","year":2009,"description":"5/16/09 - TENT ERECTED ON RIGHT-OF-WAY PERMIT# 2009-00147A","metadescription":"OPS PERMIT. TENTS. 5/16/09 - TENT ERECTED ON RIGHT-OF-WAY PERMIT# 2009-00147A. COMPLETED. 2349 FAIRMOUNT AVE","address":"2349 FAIRMOUNT AVE","the_geom":"0101000020E61000009A49887E51CB52C07CA35350D9FB4340","geocode_x":"2689636.8745864800","geocode_y":"241550.3227307000","opa_owner":"P B R FAIRMOUNT LLC","censustract":"19130-2515","contractorzip":"18936-    ","contractorcity":"MONTGOMERYVILLE","mostrecentinsp":"2009-05-18 12:50:00+00","systemofrecord":"HANSEN","addressobjectid":"283447","contractorstate":"PA","opa_account_num":"881808635","permitdescription":"OPERATIONS PERMIT","contractoraddress1":"1084 BETHLEHEM PIKE","permitcompleteddate":"2009-04-28 21:39:43+00","the_geom_webmercator":"0101000020110F0000A129512382EC5FC10BA6E4AA4B8B5241"},"geometry":{"type":"Point","coordinates":[-75.176849015,39.96756939]}}]}
