{"type":"FeatureCollection","features":[{"type":"Feature","properties":{"date":"2018-09-20T00:00:00.000Z","year":2018,"description":"FENCES: 145FT 0IN X 6FT 0IN: QTY 1","metadescription":"PERMIT - EASY PERMIT PROCESS. FENCES: 145FT 0IN X 6FT 0IN: QTY 1. 5024","address":"5024 North DELPHIA Avenue, Chicago, IL, CHICAGO, 60656, US","location":"POINT (-87.841189331491 41.970943845747)","pin_list":"1211329005","review_type":"EASY PERMIT WEB","street_name":"DELPHIA AVE","xcoordinate":"1118082.0274788581","ycoordinate":"1932386.2196854209","census_tract":"760803","subtotal_paid":"$225.00","community_area":"76","contact_1_city":"ST. CHARLES","contact_1_name":"PEERLESS ENTERPRISES INC.","contact_1_type":"CONTRACTOR-GENERAL CONTRACTOR","contact_2_city":"WEST CHICAGO","contact_2_name":"JOHN BELLI","contact_2_type":"OWNER OCCUPIED","contact_3_city":"CHICAGO","contact_3_name":"PHILLIP DECARLO","contact_3_type":"OWNER OCCUPIED","other_fee_paid":"$0.00","contact_1_state":"IL","contact_2_state":"IL","contact_3_state":"IL","processing_time":"0","subtotal_unpaid":"$0.00","subtotal_waived":"$0.00","zoning_fee_paid":"$75.00","other_fee_unpaid":"$0.00","other_fee_waived":"$0.00","street_direction":"N","building_fee_paid":"$150.00","contact_1_zipcode":"60174","contact_2_zipcode":"60185","contact_3_zipcode":"60656","zoning_fee_unpaid":"$0.00","zoning_fee_waived":"$0.00","other_fee_subtotal":"$0","building_fee_unpaid":"$0.00","building_fee_waived":"$0.00","zoning_fee_subtotal":"$75","building_fee_subtotal":"$150"},"geometry":{"type":"Point","coordinates":[-87.841189331,41.970943846]}},{"type":"Feature","properties":{"date":"2006-04-07T00:00:00.000Z","year":2006,"description":"ERECT 37 LINEAR FEET OF 6' HIGH WOOD FENCE AND 55 LINEAR FEET OF 4' HIGH WROUGHT IRON FENCE","metadescription":"PERMIT - EASY PERMIT PROCESS. ERECT 37 LINEAR FEET OF 6' HIGH WOOD FENCE AND 55 LINEAR FEET OF 4' HIGH WROUGHT IRON FENCE. 8512","address":"8512 West ARGYLE Street, Chicago, IL, CHICAGO, 60656, US","location":"POINT (-87.839007352938 41.970298794398)","review_type":"EASY PERMIT","street_name":"ARGYLE ST","xcoordinate":"1118676.745414463","ycoordinate":"1932154.5768524336","subtotal_paid":"$120.00","contact_1_city":"CHICAGO","contact_1_name":"JOVAN ZRNIC","contact_1_type":"OWNER AS GENERAL CONTRACTOR","other_fee_paid":"$0.00","contact_1_state":"IL","processing_time":"0","subtotal_unpaid":"$0.00","subtotal_waived":"$0.00","zoning_fee_paid":"$75.00","other_fee_unpaid":"$0.00","other_fee_waived":"$0.00","street_direction":"W","building_fee_paid":"$45.00","contact_1_zipcode":"60706","zoning_fee_unpaid":"$0.00","zoning_fee_waived":"$0.00","other_fee_subtotal":"$0","building_fee_unpaid":"$0.00","building_fee_waived":"$0.00","zoning_fee_subtotal":"$75","building_fee_subtotal":"$45"},"geometry":{"type":"Point","coordinates":[-87.839007353,41.970298794]}}]}
