{"type":"FeatureCollection","features":[{"type":"Feature","properties":{"date":"2026-06-01T04:00:00.000Z","year":2026,"description":"A construction fence is located along the sidewalk surrounding the work area.","metadescription":"Construction Fence. A construction fence is located along the sidewalk surrounding the work area.. Permit Issued. EAST  243 STREET","address":"707 E 243 ST, NY, New York, 10470, US","bbl":"2051150028","lot":"28","c_b_no":"212","house_no":"708","approved_date":"2026 Jun 01 12:00:00 AM","filing_reason":"Initial Permit","work_on_floor":"Sidewalk","community_board":"212","sequence_number":"1","tracking_number":"315293292","applicant_license":"001863","census_tract_2020":"442","job_filing_number":"X01405644-I1","applicant_last_name":"PROCIDA","estimated_job_costs":"10000","owner_business_name":"SDF EAST 243RD STREET HDFC","applicant_first_name":"JOSEPH","applicant_business_name":"PROCIDA CONSTRUCTION CORP","permittee_s_license_type":"GC","applicant_business_address":"456 EAST 173RD STREET","filing_representative_last_name":"ANDRAWES","filing_representative_first_name":"JACKLIN","filing_representative_business_name":"MJ ENGINEERING & DESIGN","neighborhood_tabulation_area_nta_2020":"Wakefield-Woodlawn"},"geometry":{"type":"Point","coordinates":[-73.848649,40.906257]}},{"type":"Feature","properties":{"date":"2025-06-27T04:00:00.000Z","year":2025,"description":"Construction fence at the sidewalk and side yard to protect the construction area and provide enclosure to the building.","metadescription":"Construction Fence. Construction fence at the sidewalk and side yard to protect the construction area and provide enclosure to the building.. Permit Issued. EAST  243 STREET","address":"707 E 243 ST, NY, New York, 10470, US","bbl":"2051150028","lot":"28","c_b_no":"212","house_no":"708","approved_date":"2022 Aug 22 12:00:00 AM","filing_reason":"Renewal Permit Without Changes","work_on_floor":"Sidewalk","community_board":"212","sequence_number":"4","tracking_number":"387660934","applicant_license":"001863","census_tract_2020":"442","job_filing_number":"X00792703-I1","applicant_last_name":"PROCIDA","estimated_job_costs":"10000","owner_business_name":"SDF EAST 243RD STREET HDFC","applicant_first_name":"JOSEPH","applicant_business_name":"PROCIDA CONSTRUCTION CORP","permittee_s_license_type":"GC","applicant_business_address":"456 EAST 173RD STREET","filing_representative_last_name":"ANDRAWES","filing_representative_first_name":"JACKLIN","filing_representative_business_name":"MJ ENGINEERING & DESIGN","neighborhood_tabulation_area_nta_2020":"Wakefield-Woodlawn"},"geometry":{"type":"Point","coordinates":[-73.848649,40.906257]}},{"type":"Feature","properties":{"date":"2024-07-10T04:00:00.000Z","year":2024,"description":"Construction fence at the sidewalk and side yard to protect the construction area and provide enclosure to the building.","metadescription":"Construction Fence. Construction fence at the sidewalk and side yard to protect the construction area and provide enclosure to the building.. Permit Issued. EAST  243 STREET","address":"707 E 243 ST, NY, New York, 10470, US","bbl":"2051150028","lot":"28","c_b_no":"212","house_no":"708","approved_date":"2022 Aug 22 12:00:00 AM","filing_reason":"Renewal Permit Without Changes","work_on_floor":"Sidewalk","community_board":"212","sequence_number":"3","tracking_number":"323381283","applicant_license":"001863","census_tract_2020":"442","job_filing_number":"X00792703-I1","applicant_last_name":"PROCIDA","estimated_job_costs":"10000","owner_business_name":"SDF EAST 243RD STREET HDFC","applicant_first_name":"JOSEPH","applicant_business_name":"PROCIDA CONSTRUCTION CORP","permittee_s_license_type":"GC","applicant_business_address":"456 EAST 173RD STREET","filing_representative_last_name":"ANDRAWES","filing_representative_first_name":"JACKLIN","filing_representative_business_name":"MJ ENGINEERING & DESIGN","neighborhood_tabulation_area_nta_2020":"Wakefield-Woodlawn"},"geometry":{"type":"Point","coordinates":[-73.848649,40.906257]}},{"type":"Feature","properties":{"date":"2023-08-09T04:00:00.000Z","year":2023,"description":"Construction fence at the sidewalk and side yard to protect the construction area and provide enclosure to the building.","metadescription":"Construction Fence. Construction fence at the sidewalk and side yard to protect the construction area and provide enclosure to the building.. Permit Issued. EAST  243 STREET","address":"707 E 243 ST, NY, New York, 10470, US","bbl":"2051150028","lot":"28","c_b_no":"212","house_no":"708","approved_date":"2022 Aug 22 12:00:00 AM","filing_reason":"Renewal Permit Without Changes","work_on_floor":"Sidewalk","community_board":"212","sequence_number":"2","tracking_number":"131621943","applicant_license":"001863","census_tract_2020":"442","job_filing_number":"X00792703-I1","applicant_last_name":"PROCIDA","estimated_job_costs":"10000","owner_business_name":"SDF EAST 243RD STREET HDFC","applicant_first_name":"JOSEPH","applicant_business_name":"PROCIDA CONSTRUCTION CORP","permittee_s_license_type":"GC","applicant_business_address":"456 EAST 173RD STREET","filing_representative_last_name":"ANDRAWES","filing_representative_first_name":"JACKLIN","filing_representative_business_name":"MJ ENGINEERING & DESIGN","neighborhood_tabulation_area_nta_2020":"Wakefield-Woodlawn"},"geometry":{"type":"Point","coordinates":[-73.848649,40.906257]}},{"type":"Feature","properties":{"date":"2022-08-22T04:00:00.000Z","year":2022,"description":"Construction fence at the sidewalk and side yard to protect the construction area and provide enclosure to the building.","metadescription":"Construction Fence. Construction fence at the sidewalk and side yard to protect the construction area and provide enclosure to the building.. Permit Issued. EAST  243 STREET","address":"707 E 243 ST, NY, New York, 10470, US","bbl":"2051150028","lot":"28","c_b_no":"212","house_no":"708","approved_date":"2022 Aug 22 12:00:00 AM","filing_reason":"Initial Permit","work_on_floor":"Sidewalk","community_board":"212","sequence_number":"1","tracking_number":"242570674","applicant_license":"001863","census_tract_2020":"442","job_filing_number":"X00792703-I1","applicant_last_name":"PROCIDA","estimated_job_costs":"10000","owner_business_name":"SDF EAST 243RD STREET HDFC","applicant_first_name":"JOSEPH","applicant_business_name":"PROCIDA CONSTRUCTION CORP","permittee_s_license_type":"GC","applicant_business_address":"456.EAST 173RD STREET","filing_representative_last_name":"ANDRAWES","filing_representative_first_name":"JACKLIN","filing_representative_business_name":"MJ ENGINEERING & DESIGN","neighborhood_tabulation_area_nta_2020":"Wakefield-Woodlawn"},"geometry":{"type":"Point","coordinates":[-73.848649,40.906257]}},{"type":"Feature","properties":{"date":"2022-07-18T04:00:00.000Z","year":2022,"description":"FENCE APPLICATION","metadescription":"Construction Fence. FENCE APPLICATION. Signed-off. WHITE PLAINS ROAD","address":"4827 WHITE PLAINS RD, NY, New York, 10470, US","bbl":"2051100001","lot":"1","c_b_no":"212","house_no":"4831","approved_date":"2020 Dec 02 12:00:00 AM","filing_reason":"Renewal Permit Without Changes","work_on_floor":"Open Space","community_board":"212","sequence_number":"3","tracking_number":"866167733","applicant_license":"622614","census_tract_2020":"414","job_filing_number":"X00425575-I1","applicant_last_name":"LANDAU","estimated_job_costs":"1000","owner_business_name":"AFS SYSTEMS INC","applicant_first_name":"YOEL","applicant_business_name":"JSB WORKS INC","permittee_s_license_type":"GC","applicant_business_address":"500 DEKALB AVE. STE.323","filing_representative_last_name":"ROSEN","filing_representative_first_name":"CHANY","filing_representative_business_name":"CAVALRY ASSOCIATES","neighborhood_tabulation_area_nta_2020":"Wakefield-Woodlawn"},"geometry":{"type":"Point","coordinates":[-73.8488,40.90663]}},{"type":"Feature","properties":{"date":"2021-07-20T04:00:00.000Z","year":2021,"description":"FENCE APPLICATION","metadescription":"Construction Fence. FENCE APPLICATION. Signed-off. WHITE PLAINS ROAD","address":"4827 WHITE PLAINS RD, NY, New York, 10470, US","bbl":"2051100001","lot":"1","c_b_no":"212","house_no":"4831","approved_date":"2020 Dec 02 12:00:00 AM","filing_reason":"Renewal Permit Without Changes","work_on_floor":"Open Space","community_board":"212","sequence_number":"2","tracking_number":"564277491","applicant_license":"622614","census_tract_2020":"414","job_filing_number":"X00425575-I1","applicant_last_name":"LANDAU","estimated_job_costs":"1000","owner_business_name":"AFS SYSTEMS INC","applicant_first_name":"YOEL","applicant_business_name":"JSB WORKS INC","permittee_s_license_type":"GC","applicant_business_address":"500 DEKALB AVE. STE.323","filing_representative_last_name":"ROSEN","filing_representative_first_name":"CHANY","filing_representative_business_name":"CAVALRY ASSOCIATES","neighborhood_tabulation_area_nta_2020":"Wakefield-Woodlawn"},"geometry":{"type":"Point","coordinates":[-73.8488,40.90663]}},{"type":"Feature","properties":{"date":"2021-04-28T04:00:00.000Z","year":2021,"description":"FENCE APPLICATION","metadescription":"Construction Fence. FENCE APPLICATION. Signed-off. WHITE PLAINS ROAD","address":"4827 WHITE PLAINS RD, NY, New York, 10470, US","bbl":"2051100001","lot":"1","c_b_no":"212","house_no":"4831","approved_date":"2020 Dec 02 12:00:00 AM","filing_reason":"Initial Permit","work_on_floor":"Open Space","community_board":"212","sequence_number":"1","tracking_number":"115484561","applicant_license":"622614","census_tract_2020":"414","job_filing_number":"X00425575-I1","applicant_last_name":"LANDAU","estimated_job_costs":"1000","owner_business_name":"AFS SYSTEMS INC","applicant_first_name":"YOEL","applicant_business_name":"JSB WORKS INC","permittee_s_license_type":"GC","applicant_business_address":"500 DEKALB AVE. STE.323","filing_representative_last_name":"ROSEN","filing_representative_first_name":"CHANY","filing_representative_business_name":"CAVALRY ASSOCIATES","neighborhood_tabulation_area_nta_2020":"Wakefield-Woodlawn"},"geometry":{"type":"Point","coordinates":[-73.8488,40.90663]}}]}
