{"type":"FeatureCollection","features":[{"type":"Feature","properties":{"date":"2023-10-20T04:00:00.000Z","year":2023,"description":"NEW 10'-0 (INCLUDING SPLAYS) CURB CUT IN CONJUNCTION WITH NEW BUILDING X00659818.","metadescription":"Curb Cut. NEW 10'-0 (INCLUDING SPLAYS) CURB CUT IN CONJUNCTION WITH NEW BUILDING X00659818.. Signed-off. MURDOCK AVENUE","address":"MURDOCK AVENUE","bbl":"2051190065","lot":"65","c_b_no":"212","house_no":"4819","approved_date":"2022 Feb 14 12:00:00 AM","filing_reason":"Initial Permit","work_on_floor":"Ground Floor","community_board":"212","sequence_number":"1","tracking_number":"322323236","applicant_license":"620722","census_tract_2020":"442","job_filing_number":"X00663736-I1","applicant_last_name":"BABAYEV","estimated_job_costs":"5000","owner_business_name":"PR","applicant_first_name":"ZOHAR","applicant_business_name":"YAFE MEOD CORP","permittee_s_license_type":"GC","applicant_business_address":"17 BARSTOW ROAD .SUITE 401","neighborhood_tabulation_area_nta_2020":"Wakefield-Woodlawn"},"geometry":{"type":"Point","coordinates":[-73.845554,40.9053]}},{"type":"Feature","properties":{"date":"2022-04-06T04:00:00.000Z","year":2022,"description":"FOUNDATION FILING IN CONJUNCTION WITH NEW BUILDING APPLICATION X00502411. NO CHANGE IN USE, EGRESS OR OCCUPANCY.","metadescription":"Foundation. FOUNDATION FILING IN CONJUNCTION WITH NEW BUILDING APPLICATION X00502411. NO CHANGE IN USE, EGRESS OR OCCUPANCY.. Signed-off. WHITE PLAINS ROAD","address":"WHITE PLAINS ROAD","bbl":"2051100102","lot":"102","c_b_no":"212","house_no":"4829","approved_date":"2022 Mar 31 12:00:00 AM","filing_reason":"Initial Permit","work_on_floor":"Floor Number(s) 001 through 001","community_board":"212","sequence_number":"1","tracking_number":"549978591","applicant_license":"622614","census_tract_2020":"414","job_filing_number":"X00583843-I1","applicant_last_name":"LANDAU","estimated_job_costs":"1000","owner_business_name":"AFS SYSTEMS INC","applicant_first_name":"YOEL","applicant_business_name":"JSB WORKS INC","permittee_s_license_type":"GC","applicant_business_address":"500 DEKALB AVE. STE.323","filing_representative_last_name":"GELBER","filing_representative_first_name":"FRADEE","filing_representative_business_name":"CAVALRY ASSOCIATES.COM","neighborhood_tabulation_area_nta_2020":"Wakefield-Woodlawn"},"geometry":{"type":"Point","coordinates":[-73.848829,40.906595]}}]}
