{"type":"FeatureCollection","features":[{"type":"Feature","properties":{"date":"2025-10-27T04:00:00.000Z","year":2025,"description":"INSTALLATPIPE ION OF SIDEWALK SHED AND PIPE SCAFFOLDING AS PER PLANS. ALL EQUIPMENT SHALL COMPLY WITH CHAPTER # 33 OF THE 2014 CODE, NO CHANGESS IN USE IN EGRESS OR OCCUPANCY UNDER THIS APPLICATION.","metadescription":"Sidewalk Shed. INSTALLATPIPE ION OF SIDEWALK SHED AND PIPE SCAFFOLDING AS PER PLANS. ALL EQUIPMENT SHALL COMPLY WITH CHAPTER # 33 OF THE 2014 CODE, NO CHANGESS IN USE IN EGRESS OR OCCUPANCY UNDER THIS APPLICATION.. Permit Issued. EAST  243 STREET","address":"EAST  243 STREET","bbl":"2051150028","lot":"28","c_b_no":"212","house_no":"708","approved_date":"2022 Oct 12 12:00:00 AM","filing_reason":"Renewal Permit Without Changes","work_on_floor":"Open Space","community_board":"212","sequence_number":"4","tracking_number":"787585956","applicant_license":"620254","census_tract_2020":"442","job_filing_number":"X08001716-I1","applicant_last_name":"KAUR","estimated_job_costs":"5000","owner_business_name":"PLATINUM SERVICES NY LLC","applicant_first_name":"MANDIP","applicant_business_name":"PLATINUM SERVICES NY LLC","permittee_s_license_type":"GC","applicant_business_address":"53-28 11TH STREET 2ND FL","filing_representative_last_name":"MARIAPPAN","filing_representative_first_name":"RAMANI","filing_representative_business_name":"ROYAL EXPEDITING","neighborhood_tabulation_area_nta_2020":"Wakefield-Woodlawn"},"geometry":{"type":"Point","coordinates":[-73.848649,40.906257]}},{"type":"Feature","properties":{"date":"2025-10-27T04:00:00.000Z","year":2025,"description":"INSTALLATPIPE ION OF SIDEWALK SHED AND PIPE SCAFFOLDING AS PER PLANS. ALL EQUIPMENT SHALL COMPLY WITH CHAPTER # 33 OF THE 2014 CODE, NO CHANGESS IN USE IN EGRESS OR OCCUPANCY UNDER THIS APPLICATION.","metadescription":"Supported Scaffold. INSTALLATPIPE ION OF SIDEWALK SHED AND PIPE SCAFFOLDING AS PER PLANS. ALL EQUIPMENT SHALL COMPLY WITH CHAPTER # 33 OF THE 2014 CODE, NO CHANGESS IN USE IN EGRESS OR OCCUPANCY UNDER THIS APPLICATION.. Permit Issued. EAST  243 STREET","address":"EAST  243 STREET","bbl":"2051150028","lot":"28","c_b_no":"212","house_no":"708","approved_date":"2022 Oct 12 12:00:00 AM","filing_reason":"Renewal Permit Without Changes","work_on_floor":"Open Space","community_board":"212","sequence_number":"4","tracking_number":"787585956","applicant_license":"620254","census_tract_2020":"442","job_filing_number":"X08001716-I1","applicant_last_name":"KAUR","estimated_job_costs":"5000","owner_business_name":"PLATINUM SERVICES NY LLC","applicant_first_name":"MANDIP","applicant_business_name":"PLATINUM SERVICES NY LLC","permittee_s_license_type":"GC","applicant_business_address":"53-28 11TH STREET 2ND FL","filing_representative_last_name":"MARIAPPAN","filing_representative_first_name":"RAMANI","filing_representative_business_name":"ROYAL EXPEDITING","neighborhood_tabulation_area_nta_2020":"Wakefield-Woodlawn"},"geometry":{"type":"Point","coordinates":[-73.848649,40.906257]}},{"type":"Feature","properties":{"date":"2025-10-27T04:00:00.000Z","year":2025,"description":"INSTALLATION OF 300 psf SIDEWALK SHED AS PER PLANS. SIDEWALK SHED SHALL  COMPLY WITH CHAPTER #33 OF THE 2014 CODE. NO CHANGE IN USE, EGRESS OR OCCUPANCY UNDER THIS APPLICATION.","metadescription":"Sidewalk Shed. INSTALLATION OF 300 psf SIDEWALK SHED AS PER PLANS. SIDEWALK SHED SHALL  COMPLY WITH CHAPTER #33 OF THE 2014 CODE. NO CHANGE IN USE, EGRESS OR OCCUPANCY UNDER THIS APPLICATION.. Permit Issued. EAST  243 STREET","address":"EAST  243 STREET","bbl":"2051150047","lot":"47","c_b_no":"212","house_no":"738","approved_date":"2022 Oct 12 12:00:00 AM","filing_reason":"Renewal Permit Without Changes","work_on_floor":"Sidewalk","community_board":"212","sequence_number":"4","tracking_number":"276878594","applicant_license":"620254","census_tract_2020":"442","job_filing_number":"X08003863-I1","applicant_last_name":"KAUR","estimated_job_costs":"5000","owner_business_name":"PLATINUM SERVICES NY LLC","applicant_first_name":"MANDIP","applicant_business_name":"PLATINUM SERVICES NY LLC","permittee_s_license_type":"GC","applicant_business_address":"53-28 11TH STREET 2ND FL","filing_representative_last_name":"MARIAPPAN","filing_representative_first_name":"RAMANI","filing_representative_business_name":"ROYAL EXPEDITING","neighborhood_tabulation_area_nta_2020":"Wakefield-Woodlawn"},"geometry":{"type":"Point","coordinates":[-73.848233,40.906146]}},{"type":"Feature","properties":{"date":"2025-10-27T04:00:00.000Z","year":2025,"description":"INSTALLATPIPE ION OF SIDEWALK SHED AND PIPE SCAFFOLDING AS PER PLANS. ALL EQUIPMENT SHALL COMPLY WITH CHAPTER # 33 OF THE 2014 CODE, NO CHANGESS IN USE IN EGRESS OR OCCUPANCY UNDER THIS APPLICATION.","metadescription":"Sidewalk Shed. INSTALLATPIPE ION OF SIDEWALK SHED AND PIPE SCAFFOLDING AS PER PLANS. ALL EQUIPMENT SHALL COMPLY WITH CHAPTER # 33 OF THE 2014 CODE, NO CHANGESS IN USE IN EGRESS OR OCCUPANCY UNDER THIS APPLICATION.. Permit Issued. EAST  243 STREET","address":"EAST  243 STREET","bbl":"2051150028","lot":"28","c_b_no":"212","house_no":"708","approved_date":"2022 Oct 12 12:00:00 AM","filing_reason":"Renewal Permit Without Changes","work_on_floor":"Open Space","community_board":"212","sequence_number":"4","tracking_number":"494038347","applicant_license":"620254","census_tract_2020":"442","job_filing_number":"X08001716-I1","applicant_last_name":"KAUR","estimated_job_costs":"5000","owner_business_name":"PLATINUM SERVICES NY LLC","applicant_first_name":"MANDIP","applicant_business_name":"PLATINUM SERVICES NY LLC","permittee_s_license_type":"GC","applicant_business_address":"53-28 11TH STREET 2ND FL","filing_representative_last_name":"MARIAPPAN","filing_representative_first_name":"RAMANI","filing_representative_business_name":"ROYAL EXPEDITING","neighborhood_tabulation_area_nta_2020":"Wakefield-Woodlawn"},"geometry":{"type":"Point","coordinates":[-73.848649,40.906257]}},{"type":"Feature","properties":{"date":"2025-10-27T04:00:00.000Z","year":2025,"description":"INSTALLATPIPE ION OF SIDEWALK SHED AND PIPE SCAFFOLDING AS PER PLANS. ALL EQUIPMENT SHALL COMPLY WITH CHAPTER # 33 OF THE 2014 CODE, NO CHANGESS IN USE IN EGRESS OR OCCUPANCY UNDER THIS APPLICATION.","metadescription":"Supported Scaffold. INSTALLATPIPE ION OF SIDEWALK SHED AND PIPE SCAFFOLDING AS PER PLANS. ALL EQUIPMENT SHALL COMPLY WITH CHAPTER # 33 OF THE 2014 CODE, NO CHANGESS IN USE IN EGRESS OR OCCUPANCY UNDER THIS APPLICATION.. Permit Issued. EAST  243 STREET","address":"EAST  243 STREET","bbl":"2051150028","lot":"28","c_b_no":"212","house_no":"708","approved_date":"2022 Oct 12 12:00:00 AM","filing_reason":"Renewal Permit Without Changes","work_on_floor":"Open Space","community_board":"212","sequence_number":"4","tracking_number":"494038347","applicant_license":"620254","census_tract_2020":"442","job_filing_number":"X08001716-I1","applicant_last_name":"KAUR","estimated_job_costs":"5000","owner_business_name":"PLATINUM SERVICES NY LLC","applicant_first_name":"MANDIP","applicant_business_name":"PLATINUM SERVICES NY LLC","permittee_s_license_type":"GC","applicant_business_address":"53-28 11TH STREET 2ND FL","filing_representative_last_name":"MARIAPPAN","filing_representative_first_name":"RAMANI","filing_representative_business_name":"ROYAL EXPEDITING","neighborhood_tabulation_area_nta_2020":"Wakefield-Woodlawn"},"geometry":{"type":"Point","coordinates":[-73.848649,40.906257]}},{"type":"Feature","properties":{"date":"2025-06-09T04:00:00.000Z","year":2025,"description":"INSTALLATION OF PIPE SCAFFOLDING AS PER PLANS. PIPE SCAFFOLDING SHALL COMPLY WITH CHAPTER # 33 OF THE 2022 CODE. NO CHANGE IN USE OCCUPANCY OR EGRESS UNDER THIS APPLICATION.","metadescription":"Supported Scaffold. INSTALLATION OF PIPE SCAFFOLDING AS PER PLANS. PIPE SCAFFOLDING SHALL COMPLY WITH CHAPTER # 33 OF THE 2022 CODE. NO CHANGE IN USE OCCUPANCY OR EGRESS UNDER THIS APPLICATION.. Permit Issued. EAST  243 STREET","address":"EAST  243 STREET","bbl":"2051150047","lot":"47","c_b_no":"212","house_no":"738","approved_date":"2024 Jun 13 12:00:00 AM","filing_reason":"Renewal Permit with Changes","work_on_floor":"Facade","community_board":"212","sequence_number":"2","tracking_number":"443708194","applicant_license":"620254","census_tract_2020":"442","job_filing_number":"X01061225-I1","applicant_last_name":"SINGH","estimated_job_costs":"5000","owner_business_name":"PLATINUM SERVICES NY LLC","applicant_first_name":"PRABHJIT","applicant_business_name":"PLATINUM SERVICES NY LLC","permittee_s_license_type":"GC","applicant_business_address":"53-28 11TH STREET 2ND FL","filing_representative_last_name":"MARIAPPAN","filing_representative_first_name":"RAMANI","filing_representative_business_name":"ROYAL EXPEDITING","neighborhood_tabulation_area_nta_2020":"Wakefield-Woodlawn"},"geometry":{"type":"Point","coordinates":[-73.848233,40.906146]}},{"type":"Feature","properties":{"date":"2024-10-30T04:00:00.000Z","year":2024,"description":"INSTALLATPIPE ION OF SIDEWALK SHED AND PIPE SCAFFOLDING AS PER PLANS. ALL EQUIPMENT SHALL COMPLY WITH CHAPTER # 33 OF THE 2014 CODE, NO CHANGESS IN USE IN EGRESS OR OCCUPANCY UNDER THIS APPLICATION.","metadescription":"Supported Scaffold. INSTALLATPIPE ION OF SIDEWALK SHED AND PIPE SCAFFOLDING AS PER PLANS. ALL EQUIPMENT SHALL COMPLY WITH CHAPTER # 33 OF THE 2014 CODE, NO CHANGESS IN USE IN EGRESS OR OCCUPANCY UNDER THIS APPLICATION.. Permit Issued. EAST  243 STREET","address":"EAST  243 STREET","bbl":"2051150028","lot":"28","c_b_no":"212","house_no":"708","approved_date":"2022 Oct 12 12:00:00 AM","filing_reason":"Renewal Permit with Changes","work_on_floor":"Open Space","community_board":"212","sequence_number":"3","tracking_number":"859551901","applicant_license":"620254","census_tract_2020":"442","job_filing_number":"X08001716-I1","applicant_last_name":"KAUR","estimated_job_costs":"5000","owner_business_name":"PLATINUM SERVICES NY LLC","applicant_first_name":"MANDIP","applicant_business_name":"PLATINUM SERVICES NY LLC","permittee_s_license_type":"GC","applicant_business_address":"53-28 11TH STREET 2ND FL","filing_representative_last_name":"MARIAPPAN","filing_representative_first_name":"RAMANI","filing_representative_business_name":"ROYAL EXPEDITING","neighborhood_tabulation_area_nta_2020":"Wakefield-Woodlawn"},"geometry":{"type":"Point","coordinates":[-73.848649,40.906257]}},{"type":"Feature","properties":{"date":"2024-10-30T04:00:00.000Z","year":2024,"description":"INSTALLATION OF 300 psf SIDEWALK SHED AS PER PLANS. SIDEWALK SHED SHALL  COMPLY WITH CHAPTER #33 OF THE 2014 CODE. NO CHANGE IN USE, EGRESS OR OCCUPANCY UNDER THIS APPLICATION.","metadescription":"Sidewalk Shed. INSTALLATION OF 300 psf SIDEWALK SHED AS PER PLANS. SIDEWALK SHED SHALL  COMPLY WITH CHAPTER #33 OF THE 2014 CODE. NO CHANGE IN USE, EGRESS OR OCCUPANCY UNDER THIS APPLICATION.. Permit Issued. EAST  243 STREET","address":"EAST  243 STREET","bbl":"2051150047","lot":"47","c_b_no":"212","house_no":"738","approved_date":"2022 Oct 12 12:00:00 AM","filing_reason":"Renewal Permit with Changes","work_on_floor":"Sidewalk","community_board":"212","sequence_number":"3","tracking_number":"848596921","applicant_license":"620254","census_tract_2020":"442","job_filing_number":"X08003863-I1","applicant_last_name":"KAUR","estimated_job_costs":"5000","owner_business_name":"PLATINUM SERVICES NY LLC","applicant_first_name":"MANDIP","applicant_business_name":"PLATINUM SERVICES NY LLC","permittee_s_license_type":"GC","applicant_business_address":"53-28 11TH STREET 2ND FL","filing_representative_last_name":"MARIAPPAN","filing_representative_first_name":"RAMANI","filing_representative_business_name":"ROYAL EXPEDITING","neighborhood_tabulation_area_nta_2020":"Wakefield-Woodlawn"},"geometry":{"type":"Point","coordinates":[-73.848233,40.906146]}},{"type":"Feature","properties":{"date":"2024-10-30T04:00:00.000Z","year":2024,"description":"INSTALLATPIPE ION OF SIDEWALK SHED AND PIPE SCAFFOLDING AS PER PLANS. ALL EQUIPMENT SHALL COMPLY WITH CHAPTER # 33 OF THE 2014 CODE, NO CHANGESS IN USE IN EGRESS OR OCCUPANCY UNDER THIS APPLICATION.","metadescription":"Sidewalk Shed. INSTALLATPIPE ION OF SIDEWALK SHED AND PIPE SCAFFOLDING AS PER PLANS. ALL EQUIPMENT SHALL COMPLY WITH CHAPTER # 33 OF THE 2014 CODE, NO CHANGESS IN USE IN EGRESS OR OCCUPANCY UNDER THIS APPLICATION.. Permit Issued. EAST  243 STREET","address":"EAST  243 STREET","bbl":"2051150028","lot":"28","c_b_no":"212","house_no":"708","approved_date":"2022 Oct 12 12:00:00 AM","filing_reason":"Renewal Permit with Changes","work_on_floor":"Open Space","community_board":"212","sequence_number":"3","tracking_number":"859551901","applicant_license":"620254","census_tract_2020":"442","job_filing_number":"X08001716-I1","applicant_last_name":"KAUR","estimated_job_costs":"5000","owner_business_name":"PLATINUM SERVICES NY LLC","applicant_first_name":"MANDIP","applicant_business_name":"PLATINUM SERVICES NY LLC","permittee_s_license_type":"GC","applicant_business_address":"53-28 11TH STREET 2ND FL","filing_representative_last_name":"MARIAPPAN","filing_representative_first_name":"RAMANI","filing_representative_business_name":"ROYAL EXPEDITING","neighborhood_tabulation_area_nta_2020":"Wakefield-Woodlawn"},"geometry":{"type":"Point","coordinates":[-73.848649,40.906257]}},{"type":"Feature","properties":{"date":"2024-10-28T04:00:00.000Z","year":2024,"description":"INSTALLATPIPE ION OF SIDEWALK SHED AND PIPE SCAFFOLDING AS PER PLANS. ALL EQUIPMENT SHALL COMPLY WITH CHAPTER # 33 OF THE 2014 CODE, NO CHANGESS IN USE IN EGRESS OR OCCUPANCY UNDER THIS APPLICATION.","metadescription":"Supported Scaffold. INSTALLATPIPE ION OF SIDEWALK SHED AND PIPE SCAFFOLDING AS PER PLANS. ALL EQUIPMENT SHALL COMPLY WITH CHAPTER # 33 OF THE 2014 CODE, NO CHANGESS IN USE IN EGRESS OR OCCUPANCY UNDER THIS APPLICATION.. Permit Issued. EAST  243 STREET","address":"EAST  243 STREET","bbl":"2051150028","lot":"28","c_b_no":"212","house_no":"708","approved_date":"2022 Oct 12 12:00:00 AM","filing_reason":"Renewal Permit with Changes","work_on_floor":"Open Space","community_board":"212","sequence_number":"3","tracking_number":"989318262","applicant_license":"620254","census_tract_2020":"442","job_filing_number":"X08001716-I1","applicant_last_name":"KAUR","estimated_job_costs":"5000","owner_business_name":"PLATINUM SERVICES NY LLC","applicant_first_name":"MANDIP","applicant_business_name":"PLATINUM SERVICES NY LLC","permittee_s_license_type":"GC","applicant_business_address":"53-28 11TH STREET 2ND FL","filing_representative_last_name":"MARIAPPAN","filing_representative_first_name":"RAMANI","filing_representative_business_name":"ROYAL EXPEDITING","neighborhood_tabulation_area_nta_2020":"Wakefield-Woodlawn"},"geometry":{"type":"Point","coordinates":[-73.848649,40.906257]}},{"type":"Feature","properties":{"date":"2024-10-28T04:00:00.000Z","year":2024,"description":"INSTALLATPIPE ION OF SIDEWALK SHED AND PIPE SCAFFOLDING AS PER PLANS. ALL EQUIPMENT SHALL COMPLY WITH CHAPTER # 33 OF THE 2014 CODE, NO CHANGESS IN USE IN EGRESS OR OCCUPANCY UNDER THIS APPLICATION.","metadescription":"Sidewalk Shed. INSTALLATPIPE ION OF SIDEWALK SHED AND PIPE SCAFFOLDING AS PER PLANS. ALL EQUIPMENT SHALL COMPLY WITH CHAPTER # 33 OF THE 2014 CODE, NO CHANGESS IN USE IN EGRESS OR OCCUPANCY UNDER THIS APPLICATION.. Permit Issued. EAST  243 STREET","address":"EAST  243 STREET","bbl":"2051150028","lot":"28","c_b_no":"212","house_no":"708","approved_date":"2022 Oct 12 12:00:00 AM","filing_reason":"Renewal Permit with Changes","work_on_floor":"Open Space","community_board":"212","sequence_number":"3","tracking_number":"989318262","applicant_license":"620254","census_tract_2020":"442","job_filing_number":"X08001716-I1","applicant_last_name":"KAUR","estimated_job_costs":"5000","owner_business_name":"PLATINUM SERVICES NY LLC","applicant_first_name":"MANDIP","applicant_business_name":"PLATINUM SERVICES NY LLC","permittee_s_license_type":"GC","applicant_business_address":"53-28 11TH STREET 2ND FL","filing_representative_last_name":"MARIAPPAN","filing_representative_first_name":"RAMANI","filing_representative_business_name":"ROYAL EXPEDITING","neighborhood_tabulation_area_nta_2020":"Wakefield-Woodlawn"},"geometry":{"type":"Point","coordinates":[-73.848649,40.906257]}},{"type":"Feature","properties":{"date":"2024-06-13T04:00:00.000Z","year":2024,"description":"INSTALLATION OF PIPE SCAFFOLDING AS PER PLANS. PIPE SCAFFOLDING SHALL COMPLY WITH CHAPTER # 33 OF THE 2022 CODE. NO CHANGE IN USE OCCUPANCY OR EGRESS UNDER THIS APPLICATION.","metadescription":"Supported Scaffold. INSTALLATION OF PIPE SCAFFOLDING AS PER PLANS. PIPE SCAFFOLDING SHALL COMPLY WITH CHAPTER # 33 OF THE 2022 CODE. NO CHANGE IN USE OCCUPANCY OR EGRESS UNDER THIS APPLICATION.. Permit Issued. EAST  243 STREET","address":"EAST  243 STREET","bbl":"2051150047","lot":"47","c_b_no":"212","house_no":"738","approved_date":"2024 Jun 13 12:00:00 AM","filing_reason":"Initial Permit","work_on_floor":"Facade","community_board":"212","sequence_number":"1","tracking_number":"612955545","applicant_license":"620254","census_tract_2020":"442","job_filing_number":"X01061225-I1","applicant_last_name":"SINGH","estimated_job_costs":"5000","owner_business_name":"PLATINUM SERVICES NY LLC","applicant_first_name":"PRABHJIT","applicant_business_name":"PLATINUM SERVICES NY LLC","permittee_s_license_type":"GC","applicant_business_address":"53-28 11TH STREET 2ND FL","neighborhood_tabulation_area_nta_2020":"Wakefield-Woodlawn"},"geometry":{"type":"Point","coordinates":[-73.848233,40.906146]}},{"type":"Feature","properties":{"date":"2023-11-06T05:00:00.000Z","year":2023,"description":"INSTALLATION OF 300 psf SIDEWALK SHED AS PER PLANS. SIDEWALK SHED SHALL  COMPLY WITH CHAPTER #33 OF THE 2014 CODE. NO CHANGE IN USE, EGRESS OR OCCUPANCY UNDER THIS APPLICATION.","metadescription":"Sidewalk Shed. INSTALLATION OF 300 psf SIDEWALK SHED AS PER PLANS. SIDEWALK SHED SHALL  COMPLY WITH CHAPTER #33 OF THE 2014 CODE. NO CHANGE IN USE, EGRESS OR OCCUPANCY UNDER THIS APPLICATION.. Permit Issued. EAST  243 STREET","address":"EAST  243 STREET","bbl":"2051150047","lot":"47","c_b_no":"212","house_no":"738","approved_date":"2022 Oct 12 12:00:00 AM","filing_reason":"Renewal Permit Without Changes","work_on_floor":"Sidewalk","community_board":"212","sequence_number":"2","tracking_number":"792436474","applicant_license":"620254","census_tract_2020":"442","job_filing_number":"X08003863-I1","applicant_last_name":"KAUR","estimated_job_costs":"5000","owner_business_name":"PLATINUM SERVICES NY LLC","applicant_first_name":"MANDIP","applicant_business_name":"PLATINUM SERVICES NY LLC","permittee_s_license_type":"GC","applicant_business_address":"53-28 11TH STREET 2ND FL","neighborhood_tabulation_area_nta_2020":"Wakefield-Woodlawn"},"geometry":{"type":"Point","coordinates":[-73.848233,40.906146]}},{"type":"Feature","properties":{"date":"2023-11-06T05:00:00.000Z","year":2023,"description":"INSTALLATPIPE ION OF SIDEWALK SHED AND PIPE SCAFFOLDING AS PER PLANS. ALL EQUIPMENT SHALL COMPLY WITH CHAPTER # 33 OF THE 2014 CODE, NO CHANGESS IN USE IN EGRESS OR OCCUPANCY UNDER THIS APPLICATION.","metadescription":"Sidewalk Shed. INSTALLATPIPE ION OF SIDEWALK SHED AND PIPE SCAFFOLDING AS PER PLANS. ALL EQUIPMENT SHALL COMPLY WITH CHAPTER # 33 OF THE 2014 CODE, NO CHANGESS IN USE IN EGRESS OR OCCUPANCY UNDER THIS APPLICATION.. Permit Issued. EAST  243 STREET","address":"EAST  243 STREET","bbl":"2051150028","lot":"28","c_b_no":"212","house_no":"708","approved_date":"2022 Oct 12 12:00:00 AM","filing_reason":"Renewal Permit Without Changes","work_on_floor":"Open Space","community_board":"212","sequence_number":"2","tracking_number":"760828148","applicant_license":"620254","census_tract_2020":"442","job_filing_number":"X08001716-I1","applicant_last_name":"KAUR","estimated_job_costs":"5000","owner_business_name":"PLATINUM SERVICES NY LLC","applicant_first_name":"MANDIP","applicant_business_name":"PLATINUM SERVICES NY LLC","permittee_s_license_type":"GC","applicant_business_address":"53-28 11TH STREET 2ND FL","neighborhood_tabulation_area_nta_2020":"Wakefield-Woodlawn"},"geometry":{"type":"Point","coordinates":[-73.848649,40.906257]}},{"type":"Feature","properties":{"date":"2023-11-06T05:00:00.000Z","year":2023,"description":"INSTALLATPIPE ION OF SIDEWALK SHED AND PIPE SCAFFOLDING AS PER PLANS. ALL EQUIPMENT SHALL COMPLY WITH CHAPTER # 33 OF THE 2014 CODE, NO CHANGESS IN USE IN EGRESS OR OCCUPANCY UNDER THIS APPLICATION.","metadescription":"Supported Scaffold. INSTALLATPIPE ION OF SIDEWALK SHED AND PIPE SCAFFOLDING AS PER PLANS. ALL EQUIPMENT SHALL COMPLY WITH CHAPTER # 33 OF THE 2014 CODE, NO CHANGESS IN USE IN EGRESS OR OCCUPANCY UNDER THIS APPLICATION.. Permit Issued. EAST  243 STREET","address":"EAST  243 STREET","bbl":"2051150028","lot":"28","c_b_no":"212","house_no":"708","approved_date":"2022 Oct 12 12:00:00 AM","filing_reason":"Renewal Permit Without Changes","work_on_floor":"Open Space","community_board":"212","sequence_number":"2","tracking_number":"760828148","applicant_license":"620254","census_tract_2020":"442","job_filing_number":"X08001716-I1","applicant_last_name":"KAUR","estimated_job_costs":"5000","owner_business_name":"PLATINUM SERVICES NY LLC","applicant_first_name":"MANDIP","applicant_business_name":"PLATINUM SERVICES NY LLC","permittee_s_license_type":"GC","applicant_business_address":"53-28 11TH STREET 2ND FL","neighborhood_tabulation_area_nta_2020":"Wakefield-Woodlawn"},"geometry":{"type":"Point","coordinates":[-73.848649,40.906257]}},{"type":"Feature","properties":{"date":"2023-11-03T04:00:00.000Z","year":2023,"description":"INSTALLATPIPE ION OF SIDEWALK SHED AND PIPE SCAFFOLDING AS PER PLANS. ALL EQUIPMENT SHALL COMPLY WITH CHAPTER # 33 OF THE 2014 CODE, NO CHANGESS IN USE IN EGRESS OR OCCUPANCY UNDER THIS APPLICATION.","metadescription":"Sidewalk Shed. INSTALLATPIPE ION OF SIDEWALK SHED AND PIPE SCAFFOLDING AS PER PLANS. ALL EQUIPMENT SHALL COMPLY WITH CHAPTER # 33 OF THE 2014 CODE, NO CHANGESS IN USE IN EGRESS OR OCCUPANCY UNDER THIS APPLICATION.. Permit Issued. EAST  243 STREET","address":"EAST  243 STREET","bbl":"2051150028","lot":"28","c_b_no":"212","house_no":"708","approved_date":"2022 Oct 12 12:00:00 AM","filing_reason":"Renewal Permit Without Changes","work_on_floor":"Open Space","community_board":"212","sequence_number":"2","tracking_number":"587945547","applicant_license":"620254","census_tract_2020":"442","job_filing_number":"X08001716-I1","applicant_last_name":"KAUR","estimated_job_costs":"5000","owner_business_name":"PLATINUM SERVICES NY LLC","applicant_first_name":"MANDIP","applicant_business_name":"PLATINUM SERVICES NY LLC","permittee_s_license_type":"GC","applicant_business_address":"53-28 11TH STREET 2ND FL","neighborhood_tabulation_area_nta_2020":"Wakefield-Woodlawn"},"geometry":{"type":"Point","coordinates":[-73.848649,40.906257]}},{"type":"Feature","properties":{"date":"2023-11-03T04:00:00.000Z","year":2023,"description":"INSTALLATPIPE ION OF SIDEWALK SHED AND PIPE SCAFFOLDING AS PER PLANS. ALL EQUIPMENT SHALL COMPLY WITH CHAPTER # 33 OF THE 2014 CODE, NO CHANGESS IN USE IN EGRESS OR OCCUPANCY UNDER THIS APPLICATION.","metadescription":"Supported Scaffold. INSTALLATPIPE ION OF SIDEWALK SHED AND PIPE SCAFFOLDING AS PER PLANS. ALL EQUIPMENT SHALL COMPLY WITH CHAPTER # 33 OF THE 2014 CODE, NO CHANGESS IN USE IN EGRESS OR OCCUPANCY UNDER THIS APPLICATION.. Permit Issued. EAST  243 STREET","address":"EAST  243 STREET","bbl":"2051150028","lot":"28","c_b_no":"212","house_no":"708","approved_date":"2022 Oct 12 12:00:00 AM","filing_reason":"Renewal Permit Without Changes","work_on_floor":"Open Space","community_board":"212","sequence_number":"2","tracking_number":"587945547","applicant_license":"620254","census_tract_2020":"442","job_filing_number":"X08001716-I1","applicant_last_name":"KAUR","estimated_job_costs":"5000","owner_business_name":"PLATINUM SERVICES NY LLC","applicant_first_name":"MANDIP","applicant_business_name":"PLATINUM SERVICES NY LLC","permittee_s_license_type":"GC","applicant_business_address":"53-28 11TH STREET 2ND FL","neighborhood_tabulation_area_nta_2020":"Wakefield-Woodlawn"},"geometry":{"type":"Point","coordinates":[-73.848649,40.906257]}},{"type":"Feature","properties":{"date":"2022-10-17T04:00:00.000Z","year":2022,"description":"INSTALLATPIPE ION OF SIDEWALK SHED AND PIPE SCAFFOLDING AS PER PLANS. ALL EQUIPMENT SHALL COMPLY WITH CHAPTER # 33 OF THE 2014 CODE, NO CHANGESS IN USE IN EGRESS OR OCCUPANCY UNDER THIS APPLICATION.","metadescription":"Sidewalk Shed. INSTALLATPIPE ION OF SIDEWALK SHED AND PIPE SCAFFOLDING AS PER PLANS. ALL EQUIPMENT SHALL COMPLY WITH CHAPTER # 33 OF THE 2014 CODE, NO CHANGESS IN USE IN EGRESS OR OCCUPANCY UNDER THIS APPLICATION.. Permit Issued. EAST  243 STREET","address":"EAST  243 STREET","bbl":"2051150028","lot":"28","c_b_no":"212","house_no":"708","approved_date":"2022 Oct 12 12:00:00 AM","filing_reason":"Initial Permit","work_on_floor":"Open Space","community_board":"212","sequence_number":"1","tracking_number":"735125399","applicant_license":"620254","census_tract_2020":"442","job_filing_number":"X08001716-I1","applicant_last_name":"KAUR","estimated_job_costs":"5000","owner_business_name":"PLATINUM SERVICES NY LLC","applicant_first_name":"MANDIP","applicant_business_name":"PLATINUM SERVICES NY LLC","permittee_s_license_type":"GC","applicant_business_address":"53-28 11TH STREET 2ND FL","neighborhood_tabulation_area_nta_2020":"Wakefield-Woodlawn"},"geometry":{"type":"Point","coordinates":[-73.848649,40.906257]}},{"type":"Feature","properties":{"date":"2022-10-17T04:00:00.000Z","year":2022,"description":"INSTALLATPIPE ION OF SIDEWALK SHED AND PIPE SCAFFOLDING AS PER PLANS. ALL EQUIPMENT SHALL COMPLY WITH CHAPTER # 33 OF THE 2014 CODE, NO CHANGESS IN USE IN EGRESS OR OCCUPANCY UNDER THIS APPLICATION.","metadescription":"Supported Scaffold. INSTALLATPIPE ION OF SIDEWALK SHED AND PIPE SCAFFOLDING AS PER PLANS. ALL EQUIPMENT SHALL COMPLY WITH CHAPTER # 33 OF THE 2014 CODE, NO CHANGESS IN USE IN EGRESS OR OCCUPANCY UNDER THIS APPLICATION.. Permit Issued. EAST  243 STREET","address":"EAST  243 STREET","bbl":"2051150028","lot":"28","c_b_no":"212","house_no":"708","approved_date":"2022 Oct 12 12:00:00 AM","filing_reason":"Initial Permit","work_on_floor":"Open Space","community_board":"212","sequence_number":"1","tracking_number":"735125399","applicant_license":"620254","census_tract_2020":"442","job_filing_number":"X08001716-I1","applicant_last_name":"KAUR","estimated_job_costs":"5000","owner_business_name":"PLATINUM SERVICES NY LLC","applicant_first_name":"MANDIP","applicant_business_name":"PLATINUM SERVICES NY LLC","permittee_s_license_type":"GC","applicant_business_address":"53-28 11TH STREET 2ND FL","neighborhood_tabulation_area_nta_2020":"Wakefield-Woodlawn"},"geometry":{"type":"Point","coordinates":[-73.848649,40.906257]}},{"type":"Feature","properties":{"date":"2022-10-12T04:00:00.000Z","year":2022,"description":"INSTALLATION OF TEMPORARY DEBRIS CHUTE AND ASSOCIATED SCAFFOLD AS PER PLANS DURING CONSTRUCTION. NO CHANGE IN USE, EGRESS OR OCCUPANCY. CHUTE SHALL COMPLY WITH CHAPTER 33 OF NYC BUILDING CODE OF 2014.","metadescription":"Protection and Mechanical Methods. INSTALLATION OF TEMPORARY DEBRIS CHUTE AND ASSOCIATED SCAFFOLD AS PER PLANS DURING CONSTRUCTION. NO CHANGE IN USE, EGRESS OR OCCUPANCY. CHUTE SHALL COMPLY WITH CHAPTER 33 OF NYC BUILDING CODE OF 2014.. Signed-off. EAST  243 STREET","address":"EAST  243 STREET","bbl":"2051150047","lot":"47","c_b_no":"212","house_no":"738","approved_date":"2022 Oct 12 12:00:00 AM","filing_reason":"Initial Permit","work_on_floor":"Open Space","community_board":"212","sequence_number":"1","tracking_number":"271375162","applicant_license":"612573","census_tract_2020":"442","job_filing_number":"X08009660-I1","applicant_last_name":"HORAN","estimated_job_costs":"4000","owner_business_name":"ALBA SERVICES INC","applicant_first_name":"ANDREW","applicant_business_name":"ALBA SERVICES INC","permittee_s_license_type":"GC","applicant_business_address":"240 W 52ND STREET","neighborhood_tabulation_area_nta_2020":"Wakefield-Woodlawn"},"geometry":{"type":"Point","coordinates":[-73.848233,40.906146]}},{"type":"Feature","properties":{"date":"2022-10-12T04:00:00.000Z","year":2022,"description":"INSTALLATPIPE ION OF SIDEWALK SHED AND PIPE SCAFFOLDING AS PER PLANS. ALL EQUIPMENT SHALL COMPLY WITH CHAPTER # 33 OF THE 2014 CODE, NO CHANGESS IN USE IN EGRESS OR OCCUPANCY UNDER THIS APPLICATION.","metadescription":"Sidewalk Shed. INSTALLATPIPE ION OF SIDEWALK SHED AND PIPE SCAFFOLDING AS PER PLANS. ALL EQUIPMENT SHALL COMPLY WITH CHAPTER # 33 OF THE 2014 CODE, NO CHANGESS IN USE IN EGRESS OR OCCUPANCY UNDER THIS APPLICATION.. Permit Issued. EAST  243 STREET","address":"EAST  243 STREET","bbl":"2051150028","lot":"28","c_b_no":"212","house_no":"708","approved_date":"2022 Oct 12 12:00:00 AM","filing_reason":"Initial Permit","work_on_floor":"Open Space","community_board":"212","sequence_number":"1","tracking_number":"668956831","applicant_license":"620254","census_tract_2020":"442","job_filing_number":"X08001716-I1","applicant_last_name":"KAUR","estimated_job_costs":"5000","owner_business_name":"PLATINUM SERVICES NY LLC","applicant_first_name":"MANDIP","applicant_business_name":"PLATINUM SERVICES NY LLC","permittee_s_license_type":"GC","applicant_business_address":"53-28 11TH STREET 2ND FL","neighborhood_tabulation_area_nta_2020":"Wakefield-Woodlawn"},"geometry":{"type":"Point","coordinates":[-73.848649,40.906257]}},{"type":"Feature","properties":{"date":"2022-10-12T04:00:00.000Z","year":2022,"description":"INSTALLATION OF 300 psf SIDEWALK SHED AS PER PLANS. SIDEWALK SHED SHALL  COMPLY WITH CHAPTER #33 OF THE 2014 CODE. NO CHANGE IN USE, EGRESS OR OCCUPANCY UNDER THIS APPLICATION.","metadescription":"Sidewalk Shed. INSTALLATION OF 300 psf SIDEWALK SHED AS PER PLANS. SIDEWALK SHED SHALL  COMPLY WITH CHAPTER #33 OF THE 2014 CODE. NO CHANGE IN USE, EGRESS OR OCCUPANCY UNDER THIS APPLICATION.. Permit Issued. EAST  243 STREET","address":"EAST  243 STREET","bbl":"2051150047","lot":"47","c_b_no":"212","house_no":"738","approved_date":"2022 Oct 12 12:00:00 AM","filing_reason":"Initial Permit","work_on_floor":"Sidewalk","community_board":"212","sequence_number":"1","tracking_number":"924630745","applicant_license":"620254","census_tract_2020":"442","job_filing_number":"X08003863-I1","applicant_last_name":"KAUR","estimated_job_costs":"5000","owner_business_name":"PLATINUM SERVICES NY LLC","applicant_first_name":"MANDIP","applicant_business_name":"PLATINUM SERVICES NY LLC","permittee_s_license_type":"GC","applicant_business_address":"53-28 11TH STREET 2ND FL","neighborhood_tabulation_area_nta_2020":"Wakefield-Woodlawn"},"geometry":{"type":"Point","coordinates":[-73.848233,40.906146]}},{"type":"Feature","properties":{"date":"2022-10-12T04:00:00.000Z","year":2022,"description":"INSTALLATPIPE ION OF SIDEWALK SHED AND PIPE SCAFFOLDING AS PER PLANS. ALL EQUIPMENT SHALL COMPLY WITH CHAPTER # 33 OF THE 2014 CODE, NO CHANGESS IN USE IN EGRESS OR OCCUPANCY UNDER THIS APPLICATION.","metadescription":"Supported Scaffold. INSTALLATPIPE ION OF SIDEWALK SHED AND PIPE SCAFFOLDING AS PER PLANS. ALL EQUIPMENT SHALL COMPLY WITH CHAPTER # 33 OF THE 2014 CODE, NO CHANGESS IN USE IN EGRESS OR OCCUPANCY UNDER THIS APPLICATION.. Permit Issued. EAST  243 STREET","address":"EAST  243 STREET","bbl":"2051150028","lot":"28","c_b_no":"212","house_no":"708","approved_date":"2022 Oct 12 12:00:00 AM","filing_reason":"Initial Permit","work_on_floor":"Open Space","community_board":"212","sequence_number":"1","tracking_number":"668956831","applicant_license":"620254","census_tract_2020":"442","job_filing_number":"X08001716-I1","applicant_last_name":"KAUR","estimated_job_costs":"5000","owner_business_name":"PLATINUM SERVICES NY LLC","applicant_first_name":"MANDIP","applicant_business_name":"PLATINUM SERVICES NY LLC","permittee_s_license_type":"GC","applicant_business_address":"53-28 11TH STREET 2ND FL","neighborhood_tabulation_area_nta_2020":"Wakefield-Woodlawn"},"geometry":{"type":"Point","coordinates":[-73.848649,40.906257]}},{"type":"Feature","properties":{"date":"2022-10-12T04:00:00.000Z","year":2022,"description":"INSTALLATION OF TEMPORARY DEBRIS CHUTE AND ASSOCIATED SCAFFOLD AS PER PLANS DURING CONSTRUCTION. NO CHANGE IN USE, EGRESS OR OCCUPANCY. CHUTE SHALL COMPLY WITH CHAPTER 33 OF NYC BUILDING CODE OF 2014.","metadescription":"Protection and Mechanical Methods. INSTALLATION OF TEMPORARY DEBRIS CHUTE AND ASSOCIATED SCAFFOLD AS PER PLANS DURING CONSTRUCTION. NO CHANGE IN USE, EGRESS OR OCCUPANCY. CHUTE SHALL COMPLY WITH CHAPTER 33 OF NYC BUILDING CODE OF 2014.. Signed-off. EAST  243 STREET","address":"EAST  243 STREET","bbl":"2051150028","lot":"28","c_b_no":"212","house_no":"708","approved_date":"2022 Oct 12 12:00:00 AM","filing_reason":"Initial Permit","work_on_floor":"Open Space","community_board":"212","sequence_number":"1","tracking_number":"472696646","applicant_license":"612573","census_tract_2020":"442","job_filing_number":"X08009672-I1","applicant_last_name":"HORAN","estimated_job_costs":"4000","owner_business_name":"ALBA SERVICES INC","applicant_first_name":"ANDREW","applicant_business_name":"ALBA SERVICES INC","permittee_s_license_type":"GC","applicant_business_address":"240 W 52ND STREET","neighborhood_tabulation_area_nta_2020":"Wakefield-Woodlawn"},"geometry":{"type":"Point","coordinates":[-73.848649,40.906257]}},{"type":"Feature","properties":{"date":"2022-06-28T04:00:00.000Z","year":2022,"description":"INSTALLATION OF 300 PSF SIDEWALK SHED AND OVERHEAD PROTECTION AS PER PLANS. ALL EQUIPMENT SHALL COMPLY WITH CHAPTER #33 OF THE 2014 CODE. NO CHANGE IN USE, EGRESS OR OCCUPANCY UNDER THIS APPLICATION.","metadescription":"Sidewalk Shed. INSTALLATION OF 300 PSF SIDEWALK SHED AND OVERHEAD PROTECTION AS PER PLANS. ALL EQUIPMENT SHALL COMPLY WITH CHAPTER #33 OF THE 2014 CODE. NO CHANGE IN USE, EGRESS OR OCCUPANCY UNDER THIS APPLICATION.. Signed-off. WHITE PLAINS ROAD","address":"WHITE PLAINS ROAD","bbl":"2051100102","lot":"102","c_b_no":"212","house_no":"4829","approved_date":"2022 Jun 27 12:00:00 AM","filing_reason":"Initial Permit","work_on_floor":"Sidewalk","community_board":"212","sequence_number":"1","tracking_number":"158012930","applicant_license":"620856","census_tract_2020":"414","job_filing_number":"X00763351-I1","applicant_last_name":"WEISS","estimated_job_costs":"5000","owner_business_name":"AFS SYSTEMS INC","applicant_first_name":"STEVEN","applicant_business_name":"MANHATTAN D ENTERPRISES","permittee_s_license_type":"GC","applicant_business_address":"111-07 101ST AVENUE","neighborhood_tabulation_area_nta_2020":"Wakefield-Woodlawn"},"geometry":{"type":"Point","coordinates":[-73.848829,40.906595]}},{"type":"Feature","properties":{"date":"2022-06-24T04:00:00.000Z","year":2022,"description":"INSTALLATION OF 300 PSF SIDEWALK SHED AS PER PLANS. ALL EQUIPMENT SHALL COMPLY WITH CHAPTER #33 OF THE 2014 CODE. NO CHANGE IN USE, EGRESS OR OCCUPANCY UNDER THIS APPLICATION.","metadescription":"Sidewalk Shed. INSTALLATION OF 300 PSF SIDEWALK SHED AS PER PLANS. ALL EQUIPMENT SHALL COMPLY WITH CHAPTER #33 OF THE 2014 CODE. NO CHANGE IN USE, EGRESS OR OCCUPANCY UNDER THIS APPLICATION.. Signed-off. WHITE PLAINS ROAD","address":"WHITE PLAINS ROAD","bbl":"2051100001","lot":"1","c_b_no":"212","house_no":"4831","approved_date":"2022 Jun 24 12:00:00 AM","filing_reason":"Initial Permit","work_on_floor":"Sidewalk","community_board":"212","sequence_number":"1","tracking_number":"916633443","applicant_license":"620856","census_tract_2020":"414","job_filing_number":"X00763372-I1","applicant_last_name":"WEISS","estimated_job_costs":"5000","owner_business_name":"AFS SYSTEMS INC","applicant_first_name":"STEVEN","applicant_business_name":"MANHATTAN D ENTERPRISES","permittee_s_license_type":"GC","applicant_business_address":"111-07 101ST AVENUE","neighborhood_tabulation_area_nta_2020":"Wakefield-Woodlawn"},"geometry":{"type":"Point","coordinates":[-73.8488,40.90663]}},{"type":"Feature","properties":{"date":"2021-04-27T04:00:00.000Z","year":2021,"description":"PROPOSED INSTALLATION OF HEAVY DUTY SIDEWALK SHED FOR REMEDIAL REPAIRS AS PER PLANS. NO CHANGE IN USE OCCUPANCY OR EGRESS UNDER THIS APPLICATION. LIVE LOAD 300 PER SQUARE FEET. SIDEWALK SHED SHALL COMPLY WITH CHAPTER # 33 OF THE 2014 CODE","metadescription":"Sidewalk Shed. PROPOSED INSTALLATION OF HEAVY DUTY SIDEWALK SHED FOR REMEDIAL REPAIRS AS PER PLANS. NO CHANGE IN USE OCCUPANCY OR EGRESS UNDER THIS APPLICATION. LIVE LOAD 300 PER SQUARE FEET. SIDEWALK SHED SHALL COMPLY WITH CHAPTER # 33 OF THE 2014 CODE. Permit Issued. EAST 243 STREET","address":"EAST 243 STREET","bbl":"2051150028","lot":"28","c_b_no":"212","house_no":"708","approved_date":"2019 Aug 09 12:00:00 AM","filing_reason":"Renewal Permit Without Changes","work_on_floor":"Open Space","community_board":"212","sequence_number":"4","tracking_number":"335073562","applicant_license":"620602","census_tract_2020":"442","job_filing_number":"X00206070-I1","applicant_last_name":"SINGH","estimated_job_costs":"9000","owner_business_name":"TOPLINE NYC CONTRACTING","applicant_first_name":"JOGINDER","applicant_business_name":"TOPLINE NYC CONTRACTING","permittee_s_license_type":"GC","applicant_business_address":"92-19 101 STREET","filing_representative_last_name":"KUMAR","filing_representative_first_name":"RAKESH","filing_representative_business_name":"PERMIT SERVICE","neighborhood_tabulation_area_nta_2020":"Wakefield-Woodlawn"},"geometry":{"type":"Point","coordinates":[-73.848649,40.906257]}},{"type":"Feature","properties":{"date":"2021-04-27T04:00:00.000Z","year":2021,"description":"PROPOSED INSTALLATION OF HEAVY DUTY SIDEWALK SHED FOR REMEDIAL REPAIRS AS PER PLANS. NO CHANGE IN USE OCCUPANCY OR EGRESS UNDER THIS APPLICATION. LIVE LOAD 300 PER SQUARE FEET. SIDEWALK SHED SHALL COMPLY WITH CHAPTER # 33 OF THE 2014 CODE","metadescription":"Sidewalk Shed. PROPOSED INSTALLATION OF HEAVY DUTY SIDEWALK SHED FOR REMEDIAL REPAIRS AS PER PLANS. NO CHANGE IN USE OCCUPANCY OR EGRESS UNDER THIS APPLICATION. LIVE LOAD 300 PER SQUARE FEET. SIDEWALK SHED SHALL COMPLY WITH CHAPTER # 33 OF THE 2014 CODE. Permit Issued. EAST 243 STREET","address":"EAST 243 STREET","bbl":"2051150047","lot":"47","c_b_no":"212","house_no":"740","approved_date":"2019 Aug 08 12:00:00 AM","filing_reason":"Renewal Permit Without Changes","work_on_floor":"Open Space","community_board":"212","sequence_number":"4","tracking_number":"864401911","applicant_license":"620602","census_tract_2020":"442","job_filing_number":"X00206067-I1","applicant_last_name":"SINGH","estimated_job_costs":"9000","owner_business_name":"TOPLINE NYC CONTRACTING","applicant_first_name":"JOGINDER","applicant_business_name":"TOPLINE NYC CONTRACTING","permittee_s_license_type":"GC","applicant_business_address":"92-19 101 STREET","filing_representative_last_name":"KUMAR","filing_representative_first_name":"RAKESH","filing_representative_business_name":"PERMIT SERVICE","neighborhood_tabulation_area_nta_2020":"Wakefield-Woodlawn"},"geometry":{"type":"Point","coordinates":[-73.848233,40.906146]}},{"type":"Feature","properties":{"date":"2020-10-16T04:00:00.000Z","year":2020,"description":"IMMEDIATE EMERGENCY FOR SIDEWALK SHED","metadescription":"Sidewalk Shed. IMMEDIATE EMERGENCY FOR SIDEWALK SHED. Permit Issued. WHITE PLAINS ROAD","address":"WHITE PLAINS ROAD","bbl":"2051160026","lot":"26","c_b_no":"212","house_no":"4856","approved_date":"2020 Jun 05 12:00:00 AM","filing_reason":"Initial Permit","work_on_floor":"Sidewalk","community_board":"212","sequence_number":"1","tracking_number":"649823673","applicant_license":"602353","census_tract_2020":"442","job_filing_number":"X00353711-I1","applicant_last_name":"CHOKDER","estimated_job_costs":"16000","owner_business_name":"HPD","applicant_first_name":"RAZZAQUE","applicant_business_name":"INNOVATIVE CONSTRUCTION &","permittee_s_license_type":"GC","applicant_business_address":"86-16 QUEENS BLVD SUITE 207","neighborhood_tabulation_area_nta_2020":"Wakefield-Woodlawn"},"geometry":{"type":"Point","coordinates":[-73.848753,40.906655]}},{"type":"Feature","properties":{"date":"2020-04-23T04:00:00.000Z","year":2020,"description":"PROPOSED INSTALLATION OF HEAVY DUTY SIDEWALK SHED FOR REMEDIAL REPAIRS AS PER PLANS. NO CHANGE IN USE OCCUPANCY OR EGRESS UNDER THIS APPLICATION. LIVE LOAD 300 PER SQUARE FEET. SIDEWALK SHED SHALL COMPLY WITH CHAPTER # 33 OF THE 2014 CODE","metadescription":"Sidewalk Shed. PROPOSED INSTALLATION OF HEAVY DUTY SIDEWALK SHED FOR REMEDIAL REPAIRS AS PER PLANS. NO CHANGE IN USE OCCUPANCY OR EGRESS UNDER THIS APPLICATION. LIVE LOAD 300 PER SQUARE FEET. SIDEWALK SHED SHALL COMPLY WITH CHAPTER # 33 OF THE 2014 CODE. Permit Issued. EAST 243 STREET","address":"EAST 243 STREET","bbl":"2051150047","lot":"47","c_b_no":"212","house_no":"740","approved_date":"2019 Aug 08 12:00:00 AM","filing_reason":"Renewal Permit Without Changes","work_on_floor":"Open Space","community_board":"212","sequence_number":"3","tracking_number":"255107591","applicant_license":"620602","census_tract_2020":"442","job_filing_number":"X00206067-I1","applicant_last_name":"SINGH","estimated_job_costs":"9000","owner_business_name":"TOPLINE NYC CONTRACTING","applicant_first_name":"JOGINDER","applicant_business_name":"TOPLINE NYC CONTRACTING","permittee_s_license_type":"GC","applicant_business_address":"92-19 101 STREET","filing_representative_last_name":"KUMAR","filing_representative_first_name":"RAKESH","filing_representative_business_name":"PERMIT SERVICE","neighborhood_tabulation_area_nta_2020":"Wakefield-Woodlawn"},"geometry":{"type":"Point","coordinates":[-73.848233,40.906146]}},{"type":"Feature","properties":{"date":"2020-04-23T04:00:00.000Z","year":2020,"description":"PROPOSED INSTALLATION OF HEAVY DUTY SIDEWALK SHED FOR REMEDIAL REPAIRS AS PER PLANS. NO CHANGE IN USE OCCUPANCY OR EGRESS UNDER THIS APPLICATION. LIVE LOAD 300 PER SQUARE FEET. SIDEWALK SHED SHALL COMPLY WITH CHAPTER # 33 OF THE 2014 CODE","metadescription":"Sidewalk Shed. PROPOSED INSTALLATION OF HEAVY DUTY SIDEWALK SHED FOR REMEDIAL REPAIRS AS PER PLANS. NO CHANGE IN USE OCCUPANCY OR EGRESS UNDER THIS APPLICATION. LIVE LOAD 300 PER SQUARE FEET. SIDEWALK SHED SHALL COMPLY WITH CHAPTER # 33 OF THE 2014 CODE. Permit Issued. EAST 243 STREET","address":"EAST 243 STREET","bbl":"2051150028","lot":"28","c_b_no":"212","house_no":"708","approved_date":"2019 Aug 09 12:00:00 AM","filing_reason":"Renewal Permit Without Changes","work_on_floor":"Open Space","community_board":"212","sequence_number":"3","tracking_number":"315755454","applicant_license":"620602","census_tract_2020":"442","job_filing_number":"X00206070-I1","applicant_last_name":"SINGH","estimated_job_costs":"9000","owner_business_name":"TOPLINE NYC CONTRACTING","applicant_first_name":"JOGINDER","applicant_business_name":"TOPLINE NYC CONTRACTING","permittee_s_license_type":"GC","applicant_business_address":"92-19 101 STREET","filing_representative_last_name":"KUMAR","filing_representative_first_name":"RAKESH","filing_representative_business_name":"PERMIT SERVICE","neighborhood_tabulation_area_nta_2020":"Wakefield-Woodlawn"},"geometry":{"type":"Point","coordinates":[-73.848649,40.906257]}},{"type":"Feature","properties":{"date":"2019-12-26T05:00:00.000Z","year":2019,"description":"PROPOSED INSTALLATION OF HEAVY DUTY SIDEWALK SHED FOR REMEDIAL REPAIRS AS PER PLANS. NO CHANGE IN USE OCCUPANCY OR EGRESS UNDER THIS APPLICATION. LIVE LOAD 300 PER SQUARE FEET. SIDEWALK SHED SHALL COMPLY WITH CHAPTER # 33 OF THE 2014 CODE","metadescription":"Sidewalk Shed. PROPOSED INSTALLATION OF HEAVY DUTY SIDEWALK SHED FOR REMEDIAL REPAIRS AS PER PLANS. NO CHANGE IN USE OCCUPANCY OR EGRESS UNDER THIS APPLICATION. LIVE LOAD 300 PER SQUARE FEET. SIDEWALK SHED SHALL COMPLY WITH CHAPTER # 33 OF THE 2014 CODE. Permit Issued. EAST 243 STREET","address":"EAST 243 STREET","bbl":"2051150028","lot":"28","c_b_no":"212","house_no":"708","approved_date":"2019 Aug 09 12:00:00 AM","filing_reason":"Renewal Permit Without Changes","work_on_floor":"Open Space","community_board":"212","sequence_number":"2","tracking_number":"650346513","applicant_license":"620602","census_tract_2020":"442","job_filing_number":"X00206070-I1","applicant_last_name":"SINGH","estimated_job_costs":"9000","owner_business_name":"TOPLINE NYC CONTRACTING","applicant_first_name":"JOGINDER","applicant_business_name":"TOPLINE NYC CONTRACTING","permittee_s_license_type":"GC","applicant_business_address":"9219 101 STREET","filing_representative_last_name":"KUMAR","filing_representative_first_name":"RAKESH","filing_representative_business_name":"PERMIT SERVICE","neighborhood_tabulation_area_nta_2020":"Wakefield-Woodlawn"},"geometry":{"type":"Point","coordinates":[-73.848649,40.906257]}},{"type":"Feature","properties":{"date":"2019-12-26T05:00:00.000Z","year":2019,"description":"PROPOSED INSTALLATION OF HEAVY DUTY SIDEWALK SHED FOR REMEDIAL REPAIRS AS PER PLANS. NO CHANGE IN USE OCCUPANCY OR EGRESS UNDER THIS APPLICATION. LIVE LOAD 300 PER SQUARE FEET. SIDEWALK SHED SHALL COMPLY WITH CHAPTER # 33 OF THE 2014 CODE","metadescription":"Sidewalk Shed. PROPOSED INSTALLATION OF HEAVY DUTY SIDEWALK SHED FOR REMEDIAL REPAIRS AS PER PLANS. NO CHANGE IN USE OCCUPANCY OR EGRESS UNDER THIS APPLICATION. LIVE LOAD 300 PER SQUARE FEET. SIDEWALK SHED SHALL COMPLY WITH CHAPTER # 33 OF THE 2014 CODE. Permit Issued. EAST 243 STREET","address":"EAST 243 STREET","bbl":"2051150047","lot":"47","c_b_no":"212","house_no":"740","approved_date":"2019 Aug 08 12:00:00 AM","filing_reason":"Renewal Permit Without Changes","work_on_floor":"Open Space","community_board":"212","sequence_number":"2","tracking_number":"354278126","applicant_license":"620602","census_tract_2020":"442","job_filing_number":"X00206067-I1","applicant_last_name":"SINGH","estimated_job_costs":"9000","owner_business_name":"TOPLINE NYC CONTRACTING","applicant_first_name":"JOGINDER","applicant_business_name":"TOPLINE NYC CONTRACTING","permittee_s_license_type":"GC","applicant_business_address":"9219 101 STREET","filing_representative_last_name":"KUMAR","filing_representative_first_name":"RAKESH","filing_representative_business_name":"PERMIT SERVICE","neighborhood_tabulation_area_nta_2020":"Wakefield-Woodlawn"},"geometry":{"type":"Point","coordinates":[-73.848233,40.906146]}},{"type":"Feature","properties":{"date":"2019-08-09T04:00:00.000Z","year":2019,"description":"PROPOSED INSTALLATION OF HEAVY DUTY SIDEWALK SHED FOR REMEDIAL REPAIRS AS PER PLANS. NO CHANGE IN USE OCCUPANCY OR EGRESS UNDER THIS APPLICATION. LIVE LOAD 300 PER SQUARE FEET. SIDEWALK SHED SHALL COMPLY WITH CHAPTER # 33 OF THE 2014 CODE","metadescription":"Sidewalk Shed. PROPOSED INSTALLATION OF HEAVY DUTY SIDEWALK SHED FOR REMEDIAL REPAIRS AS PER PLANS. NO CHANGE IN USE OCCUPANCY OR EGRESS UNDER THIS APPLICATION. LIVE LOAD 300 PER SQUARE FEET. SIDEWALK SHED SHALL COMPLY WITH CHAPTER # 33 OF THE 2014 CODE. Permit Issued. EAST 243 STREET","address":"EAST 243 STREET","bbl":"2051150028","lot":"28","c_b_no":"212","house_no":"708","approved_date":"2019 Aug 09 12:00:00 AM","filing_reason":"Initial Permit","work_on_floor":"Open Space","community_board":"212","sequence_number":"1","tracking_number":"944248314","applicant_license":"620602","census_tract_2020":"442","job_filing_number":"X00206070-I1","applicant_last_name":"SINGH","estimated_job_costs":"9000","owner_business_name":"TOPLINE NYC CONTRACTING","applicant_first_name":"JOGINDER","applicant_business_name":"TOPLINE NYC CONTRACTING","permittee_s_license_type":"GC","applicant_business_address":"9219 101 STREET","neighborhood_tabulation_area_nta_2020":"Wakefield-Woodlawn"},"geometry":{"type":"Point","coordinates":[-73.848649,40.906257]}},{"type":"Feature","properties":{"date":"2019-08-08T04:00:00.000Z","year":2019,"description":"PROPOSED INSTALLATION OF HEAVY DUTY SIDEWALK SHED FOR REMEDIAL REPAIRS AS PER PLANS. NO CHANGE IN USE OCCUPANCY OR EGRESS UNDER THIS APPLICATION. LIVE LOAD 300 PER SQUARE FEET. SIDEWALK SHED SHALL COMPLY WITH CHAPTER # 33 OF THE 2014 CODE","metadescription":"Sidewalk Shed. PROPOSED INSTALLATION OF HEAVY DUTY SIDEWALK SHED FOR REMEDIAL REPAIRS AS PER PLANS. NO CHANGE IN USE OCCUPANCY OR EGRESS UNDER THIS APPLICATION. LIVE LOAD 300 PER SQUARE FEET. SIDEWALK SHED SHALL COMPLY WITH CHAPTER # 33 OF THE 2014 CODE. Permit Issued. EAST 243 STREET","address":"EAST 243 STREET","bbl":"2051150047","lot":"47","c_b_no":"212","house_no":"740","approved_date":"2019 Aug 08 12:00:00 AM","filing_reason":"Initial Permit","work_on_floor":"Open Space","community_board":"212","sequence_number":"1","tracking_number":"949686027","applicant_license":"620602","census_tract_2020":"442","job_filing_number":"X00206067-I1","applicant_last_name":"SINGH","estimated_job_costs":"9000","owner_business_name":"TOPLINE NYC CONTRACTING","applicant_first_name":"JOGINDER","applicant_business_name":"TOPLINE NYC CONTRACTING","permittee_s_license_type":"GC","applicant_business_address":"9219 101 STREET","neighborhood_tabulation_area_nta_2020":"Wakefield-Woodlawn"},"geometry":{"type":"Point","coordinates":[-73.848233,40.906146]}}]}
