{"type":"FeatureCollection","features":[{"type":"Feature","properties":{"date":"2026-05-26T04:00:00.000Z","year":2026,"description":"Proposed Structural work is in conjunction with ALteration application JOB NO# 220212801","metadescription":"Structural. Proposed Structural work is in conjunction with ALteration application JOB NO# 220212801. Permit Issued. EAST  243 STREET","address":"EAST  243 STREET","bbl":"2051150047","lot":"47","c_b_no":"212","house_no":"740","approved_date":"2022 Jun 23 12:00:00 AM","filing_reason":"Renewal Permit Without Changes","work_on_floor":"Cellar, Floor Number(s) 001 through 006, Roof","community_board":"212","sequence_number":"4","tracking_number":"829804903","applicant_license":"001863","census_tract_2020":"442","job_filing_number":"X00675425-I1","applicant_last_name":"PROCIDA","estimated_job_costs":"5000","owner_business_name":"NEIGHBORHOOD RENEWAL HDFC","applicant_first_name":"JOSEPH","applicant_business_name":"PROCIDA CONSTRUCTION CORP","permittee_s_license_type":"GC","applicant_business_address":"456 EAST 173RD STREET","filing_representative_last_name":"OHANA","filing_representative_first_name":"DAVID","filing_representative_business_name":"JM ZONING","neighborhood_tabulation_area_nta_2020":"Wakefield-Woodlawn"},"geometry":{"type":"Point","coordinates":[-73.848233,40.906146]}},{"type":"Feature","properties":{"date":"2025-06-03T04:00:00.000Z","year":2025,"description":"Proposed Structural work is in conjunction with ALteration application JOB NO# 220212801","metadescription":"Structural. Proposed Structural work is in conjunction with ALteration application JOB NO# 220212801. Permit Issued. EAST  243 STREET","address":"EAST  243 STREET","bbl":"2051150047","lot":"47","c_b_no":"212","house_no":"740","approved_date":"2022 Jun 23 12:00:00 AM","filing_reason":"Renewal Permit Without Changes","work_on_floor":"Cellar, Floor Number(s) 001 through 006, Roof","community_board":"212","sequence_number":"3","tracking_number":"718491761","applicant_license":"001863","census_tract_2020":"442","job_filing_number":"X00675425-I1","applicant_last_name":"PROCIDA","estimated_job_costs":"5000","owner_business_name":"NEIGHBORHOOD RENEWAL HDFC","applicant_first_name":"JOSEPH","applicant_business_name":"PROCIDA CONSTRUCTION CORP","permittee_s_license_type":"GC","applicant_business_address":"456 EAST 173RD STREET","filing_representative_last_name":"OHANA","filing_representative_first_name":"DAVID","filing_representative_business_name":"JM ZONING","neighborhood_tabulation_area_nta_2020":"Wakefield-Woodlawn"},"geometry":{"type":"Point","coordinates":[-73.848233,40.906146]}},{"type":"Feature","properties":{"date":"2024-06-24T04:00:00.000Z","year":2024,"description":"Proposed Structural work is in conjunction with ALteration application JOB NO# 220212801","metadescription":"Structural. Proposed Structural work is in conjunction with ALteration application JOB NO# 220212801. Permit Issued. EAST  243 STREET","address":"EAST  243 STREET","bbl":"2051150047","lot":"47","c_b_no":"212","house_no":"740","approved_date":"2022 Jun 23 12:00:00 AM","filing_reason":"Renewal Permit Without Changes","work_on_floor":"Cellar, Floor Number(s) 001 through 006, Roof","community_board":"212","sequence_number":"2","tracking_number":"546858757","applicant_license":"001863","census_tract_2020":"442","job_filing_number":"X00675425-I1","applicant_last_name":"PROCIDA","estimated_job_costs":"5000","owner_business_name":"NEIGHBORHOOD RENEWAL HDFC","applicant_first_name":"JOSEPH","applicant_business_name":"PROCIDA CONSTRUCTION CORP","permittee_s_license_type":"GC","applicant_business_address":"456 EAST 173RD STREET","filing_representative_last_name":"OHANA","filing_representative_first_name":"DAVID","filing_representative_business_name":"JM ZONING","neighborhood_tabulation_area_nta_2020":"Wakefield-Woodlawn"},"geometry":{"type":"Point","coordinates":[-73.848233,40.906146]}},{"type":"Feature","properties":{"date":"2023-07-06T04:00:00.000Z","year":2023,"description":"Proposed Structural work is in conjunction with ALteration application JOB NO# 220212801","metadescription":"Structural. Proposed Structural work is in conjunction with ALteration application JOB NO# 220212801. Permit Issued. EAST  243 STREET","address":"EAST  243 STREET","bbl":"2051150047","lot":"47","c_b_no":"212","house_no":"740","approved_date":"2022 Jun 23 12:00:00 AM","filing_reason":"Initial Permit","work_on_floor":"Cellar, Floor Number(s) 001 through 006, Roof","community_board":"212","sequence_number":"1","tracking_number":"893898787","applicant_license":"001863","census_tract_2020":"442","job_filing_number":"X00675425-I1","applicant_last_name":"PROCIDA","estimated_job_costs":"5000","owner_business_name":"NEIGHBORHOOD RENEWAL HDFC","applicant_first_name":"JOSEPH","applicant_business_name":"PROCIDA CONSTRUCTION CORP","permittee_s_license_type":"GC","applicant_business_address":"456 EAST 173RD STREET","filing_representative_last_name":"OHANA","filing_representative_first_name":"DAVID","filing_representative_business_name":"JM ZONING","neighborhood_tabulation_area_nta_2020":"Wakefield-Woodlawn"},"geometry":{"type":"Point","coordinates":[-73.848233,40.906146]}},{"type":"Feature","properties":{"date":"2022-07-06T04:00:00.000Z","year":2022,"description":"STRUCTURAL FILING IN CONJUNCTION WITH NB 240292367. THIS APPLICATION IS FOR STRUCTURAL WORK ONLY.","metadescription":"Structural. STRUCTURAL FILING IN CONJUNCTION WITH NB 240292367. THIS APPLICATION IS FOR STRUCTURAL WORK ONLY.. Permit Issued. WHITE PLAINS ROAD","address":"WHITE PLAINS ROAD","bbl":"2051100001","lot":"1","c_b_no":"212","house_no":"4831","approved_date":"2021 Sep 08 12:00:00 AM","filing_reason":"Initial Permit","work_on_floor":"Floor Number(s) 001 through 004, Penthouse 005 through 005, Roof","community_board":"212","sequence_number":"1","tracking_number":"170834576","applicant_license":"622614","census_tract_2020":"414","job_filing_number":"X00553749-I1","applicant_last_name":"LANDAU","estimated_job_costs":"1000","owner_business_name":"AFS SYSTEMS INC","applicant_first_name":"YOEL","applicant_business_name":"JSB WORKS INC","permittee_s_license_type":"GC","applicant_business_address":"500 DEKALB AVE. STE.323","filing_representative_last_name":"GELBER","filing_representative_first_name":"FRADEE","filing_representative_business_name":"CAVALRY ASSOCIATES.COM","neighborhood_tabulation_area_nta_2020":"Wakefield-Woodlawn"},"geometry":{"type":"Point","coordinates":[-73.8488,40.90663]}}]}
