{"type":"FeatureCollection","features":[{"type":"Feature","properties":{"date":"2026-03-19T00:00:00.000Z","year":2026,"description":"SELF CERT 2019 CBC: FULL PERMIT FOR A STEEL AND WOOD PERGOLA IN THE BACK OF EXISTING 1-STORY MASONRY BUILDING (EXISTING RESTAURANT) AND DEMOLITION OF EXISTING 1-STORY STRUCTURE AT REAR ENTRY AND NEW WOOD FRAME STORAGE SHED AS PER PLANS. (N.I.C.; OCCUPANCY GROUP A-2, TYPE IIIA CONSTRUCTION)","metadescription":"PERMIT - RENOVATION/ALTERATION. SELF CERT 2019 CBC: FULL PERMIT FOR A STEEL AND WOOD PERGOLA IN THE BACK OF EXISTING 1-STORY MASONRY BUILDING (EXISTING RESTAURANT) AND DEMOLITION OF EXISTING 1-STORY STRUCTURE AT REAR ENTRY AND NEW WOOD FRAME STORAGE SHED AS PER PLANS. (N.I.C.; OCCUPANCY GROUP A-2, TYPE IIIA CONSTRUCTION). ACTIVE. 2043","address":"2043 West HOWARD Street, Chicago, IL, CHICAGO, 60645, US","location":"POINT (-87.682115623039 42.019351789004)","pin_list":"1130309007","review_type":"SELF CERT","street_name":"HOWARD ST","xcoordinate":"1161206.035279087","ycoordinate":"1950315.0214372412","census_tract":"10201","subtotal_paid":"$975.00","community_area":"1","contact_1_city":"CHICAGO","contact_1_name":"DRAPSZO, VICTOR","contact_1_type":"ARCHITECT","contact_2_city":"CHICAGO","contact_2_name":"DRAPSZO, VICTOR","contact_2_type":"SELF CERT ARCHITECT","contact_3_city":"CHICAGO","contact_3_name":"QUALITY FAST CONSTRUCTION LLC","contact_3_type":"CONTRACTOR-GENERAL CONTRACTOR","contact_4_city":"CHICAGO","contact_4_name":"KIDANE HAILE","contact_4_type":"OWNER","other_fee_paid":"$0.00","contact_1_state":"IL","contact_2_state":"IL","contact_3_state":"IL","contact_4_state":"IL","processing_time":"101","subtotal_unpaid":"$0.00","subtotal_waived":"$0.00","zoning_fee_paid":"$75.00","other_fee_unpaid":"$0.00","other_fee_waived":"$0.00","permit_milestone":"INSPECTIONS","street_direction":"W","building_fee_paid":"$900.00","contact_1_zipcode":"60647","contact_2_zipcode":"60647","contact_3_zipcode":"60621","contact_4_zipcode":"60640","zoning_fee_unpaid":"$0.00","zoning_fee_waived":"$0.00","other_fee_subtotal":"$0","building_fee_unpaid":"$0.00","building_fee_waived":"$0.00","zoning_fee_subtotal":"$75","building_fee_subtotal":"$900"},"geometry":{"type":"Point","coordinates":[-87.682115623,42.019351789]}},{"type":"Feature","properties":{"date":"2024-12-18T00:00:00.000Z","year":2024,"description":"REVISIONS TO BUSINESS TO RESTAURANT ALTERATION PERMIT #101025279 (W/REINSTATEMENT 101058554) TO CONSTRUCT 6 NEW FULLY BUILTOUT TEST KITCHENS IN BASEMENT.(OCCUPANCY GROUP A-2; TYPE III-B CONSTRUCTION)(CONDITIONAL PERMIT SUBJECT TO FIELD INSPECTIONS)","metadescription":"PERMIT - RENOVATION/ALTERATION. REVISIONS TO BUSINESS TO RESTAURANT ALTERATION PERMIT #101025279 (W/REINSTATEMENT 101058554) TO CONSTRUCT 6 NEW FULLY BUILTOUT TEST KITCHENS IN BASEMENT.(OCCUPANCY GROUP A-2; TYPE III-B CONSTRUCTION)(CONDITIONAL PERMIT SUBJECT TO FIELD INSPECTIONS). ACTIVE. 2209","address":"2209 West HOWARD Street, Chicago, IL, CHICAGO, 60645, US","location":"POINT (-87.685067403286 42.019380643974)","pin_list":"1130307049","review_type":"STANDARD PLAN REVIEW","street_name":"HOWARD ST","xcoordinate":"1160403.8618287952","ycoordinate":"1950319.4475473787","census_tract":"20100","subtotal_paid":"$1,480.63","community_area":"2","contact_1_city":"HUNTLEY","contact_1_name":"CASTEL, ENRIQUE N","contact_1_type":"ARCHITECT","contact_2_city":"BELLWOOD","contact_2_name":"ATEC CONSTRUCTION INC","contact_2_type":"CONTRACTOR-ELECTRICAL","contact_3_city":"SCHAUMBURG","contact_3_name":"SR HOME IMPROVEMENTS LLC","contact_3_type":"CONTRACTOR-GENERAL CONTRACTOR","contact_4_city":"LYONS","contact_4_name":"JACOBSON MASONRY, INC.","contact_4_type":"MASONRY CONTRACTOR","contact_5_city":"LOMBARD","contact_5_name":"AFZAL LOKHANDWALA","contact_5_type":"OWNER","contact_6_city":"MORTON GROVE","contact_6_name":"VERTEX MECHANICAL INC","contact_6_type":"CONTRACTOR-PLUMBER/PLUMBING","contact_7_city":"GRAYSLAKE","contact_7_name":"DORADO ENTERPRISES","contact_7_type":"CONTRACTOR-REFRIGERATION","contact_8_city":"GRAYSLAKE","contact_8_name":"DORADO ENTERPRISES","contact_8_type":"CONTRACTOR-VENTILATION","other_fee_paid":"$0.00","contact_1_state":"IL","contact_2_state":"IL","contact_3_state":"IL","contact_4_state":"IL","contact_5_state":"IL","contact_6_state":"IL","contact_7_state":"IL","contact_8_state":"IL","processing_time":"98","subtotal_unpaid":"$0.00","subtotal_waived":"$0.00","zoning_fee_paid":"$75.00","other_fee_unpaid":"$0.00","other_fee_waived":"$0.00","permit_milestone":"INSPECTIONS","street_direction":"W","building_fee_paid":"$1,405.63","contact_1_zipcode":"60142","contact_2_zipcode":"60104","contact_3_zipcode":"60138","contact_4_zipcode":"60534","contact_5_zipcode":"60148","contact_6_zipcode":"60053-","contact_7_zipcode":"60080-","contact_8_zipcode":"60080-","zoning_fee_unpaid":"$0.00","zoning_fee_waived":"$0.00","other_fee_subtotal":"$0","building_fee_unpaid":"$0.00","building_fee_waived":"$0.00","zoning_fee_subtotal":"$75","building_fee_subtotal":"$1,405.63"},"geometry":{"type":"Point","coordinates":[-87.685067403,42.019380644]}},{"type":"Feature","properties":{"date":"2024-07-19T00:00:00.000Z","year":2024,"description":"SELF-CERT 2019 CBRC INTERIOR REMODEL OF FORMER BANK SPACE WITHIN 1-STORY MASONRY STRIP CENTER TO NAIL SALON. WORK INCLUDES INSTALLATION OF 26 PLUMBED PEDICURE CHAIRS, 16 MANICURE TABLES, TWO TOILET ROOMS, UTILITY ROOM AND BREAK ROOM PER PLANS","metadescription":"PERMIT - RENOVATION/ALTERATION. SELF-CERT 2019 CBRC INTERIOR REMODEL OF FORMER BANK SPACE WITHIN 1-STORY MASONRY STRIP CENTER TO NAIL SALON. WORK INCLUDES INSTALLATION OF 26 PLUMBED PEDICURE CHAIRS, 16 MANICURE TABLES, TWO TOILET ROOMS, UTILITY ROOM AND BREAK ROOM PER PLANS. ACTIVE. 7574","address":"7578 North WESTERN Avenue, Chicago, IL, CHICAGO, 60645, US","location":"POINT (-87.690323269441 42.019355493169)","pin_list":"1025402004","review_type":"SELF CERT","street_name":"WESTERN AVE","xcoordinate":"1158975.7432525165","ycoordinate":"1950299.5092201023","census_tract":"20200","subtotal_paid":"$1,230.23","community_area":"2","contact_1_city":"NORTHBROOK","contact_1_name":"GENSBURG, SARA E F","contact_1_type":"SELF CERT ARCHITECT","contact_2_city":"CHICAGO","contact_2_name":"NEWTECH ENGINEERING, LTD.","contact_2_type":"CONTRACTOR-ELECTRICAL","contact_3_city":"SCHAUMBURG","contact_3_name":"SUNERGY BUILDER INC","contact_3_type":"CONTRACTOR-GENERAL CONTRACTOR","contact_4_city":"CHICAGO","contact_4_name":"TAY XUAN VO","contact_4_type":"OWNER OCCUPIED","contact_5_city":"GURNEE","contact_5_name":"TOMASZ GODLEWSKI","contact_5_type":"CONTRACTOR-PLUMBER/PLUMBING","contact_6_city":"CHICAGO","contact_6_name":"JOHN'S HEATING INC","contact_6_type":"CONTRACTOR-REFRIGERATION","contact_7_city":"CHICAGO","contact_7_name":"JOHN'S HEATING","contact_7_type":"CONTRACTOR-VENTILATION","other_fee_paid":"$0.00","contact_1_state":"IL","contact_2_state":"IL","contact_3_state":"IL","contact_4_state":"IL","contact_5_state":"IL","contact_6_state":"IL","contact_7_state":"IL","processing_time":"18","subtotal_unpaid":"$0.00","subtotal_waived":"$0.00","zoning_fee_paid":"$75.00","other_fee_unpaid":"$0.00","other_fee_waived":"$0.00","permit_condition":"THE SITE IS A STRIP CENTER WHICH HAD A BANK TENANT WITH DRIVE THROUGH FACILITY. THE PROPOSED WORK IS TO CONVERT BANK TENANT INTO A PERSONAL SERVICE (NAIL SALON) WHICH REQUIRES A SPECIAL USE. THE APPLICANT HAS OBTAIN UNDER CAL:183-24-S . THE PROPOSED MUST NOW REMOVE ALL RELATED ITEMS SERVING THE DRIVE THROUGH FACILITY. THE PLANS SHOW THE REMOVAL ON THE SITE PLAN AND SHEET A1. THE DRIVE THROUGH WINDOW WILL NOW BE A FIXED WINDOW","permit_milestone":"INSPECTIONS","street_direction":"N","building_fee_paid":"$1,155.23","contact_1_zipcode":"60062-","contact_2_zipcode":"60616","contact_3_zipcode":"60173","contact_4_zipcode":"60634","contact_5_zipcode":"60031","contact_6_zipcode":"60616-","contact_7_zipcode":"60616-","zoning_fee_unpaid":"$0.00","zoning_fee_waived":"$0.00","other_fee_subtotal":"$0","building_fee_unpaid":"$0.00","building_fee_waived":"$0.00","zoning_fee_subtotal":"$75","building_fee_subtotal":"$1,155.23"},"geometry":{"type":"Point","coordinates":[-87.690323269,42.019355493]}},{"type":"Feature","properties":{"date":"2023-11-27T00:00:00.000Z","year":2023,"description":"REVISION TO EXISTING PERMIT # 100963238 FOR REMOVAL OF KITCHEN HOOD, REMOVAL OF SKYLIGHT AND REMOVAL OF WINDOWS (EXISTING 1200 AMP TO REMAIN)","metadescription":"PERMIT - RENOVATION/ALTERATION. REVISION TO EXISTING PERMIT # 100963238 FOR REMOVAL OF KITCHEN HOOD, REMOVAL OF SKYLIGHT AND REMOVAL OF WINDOWS (EXISTING 1200 AMP TO REMAIN). COMPLETE. 2017","address":"2017 West HOWARD Street, Chicago, IL, CHICAGO, 60645, US","location":"POINT (-87.681217839581 42.019343950731)","pin_list":"1130310028","review_type":"STANDARD PLAN REVIEW","street_name":"HOWARD ST","xcoordinate":"1161450.0137468239","ycoordinate":"1950314.0225227925","census_tract":"10201","subtotal_paid":"$625.00","community_area":"1","contact_1_city":"EVANSTON","contact_1_name":"LEVY LEVY HOLDING LLC","contact_1_type":"OWNER","contact_2_city":"CHICAGO","contact_2_name":"DRAPSZO, VICTOR","contact_2_type":"ARCHITECT","contact_3_city":"PLAINFILED","contact_3_name":"PURE POWER ELECTRICAL,CORP.","contact_3_type":"CONTRACTOR-ELECTRICAL","contact_4_city":"OAK PARK","contact_4_name":"EVAN MIRANDA CONSTRUCTION INC","contact_4_type":"CONTRACTOR-GENERAL CONTRACTOR","contact_5_city":"CHICAGO","contact_5_name":"T & M PLUMBING INCORPORATED","contact_5_type":"CONTRACTOR-PLUMBER/PLUMBING","contact_6_city":"MAYWOOD","contact_6_name":"M & M HEATING AND COOLING, INC","contact_6_type":"CONTRACTOR-REFRIGERATION","contact_7_city":"MAYWOOD","contact_7_name":"M & M HEATING AND COOLING, INC","contact_7_type":"CONTRACTOR-VENTILATION","other_fee_paid":"$0.00","contact_1_state":"IL","contact_2_state":"IL","contact_3_state":"IL","contact_4_state":"IL","contact_5_state":"IL","contact_6_state":"IL","contact_7_state":"IL","processing_time":"55","subtotal_unpaid":"$0.00","subtotal_waived":"$0.00","zoning_fee_paid":"$75.00","other_fee_unpaid":"$0.00","other_fee_waived":"$0.00","permit_milestone":"COMPLETE","street_direction":"W","building_fee_paid":"$550.00","contact_1_zipcode":"60202","contact_2_zipcode":"60647","contact_3_zipcode":"60585","contact_4_zipcode":"60304","contact_5_zipcode":"60634-","contact_6_zipcode":"60153-","contact_7_zipcode":"60153-","zoning_fee_unpaid":"$0.00","zoning_fee_waived":"$0.00","other_fee_subtotal":"$0","building_fee_unpaid":"$0.00","building_fee_waived":"$0.00","zoning_fee_subtotal":"$75","building_fee_subtotal":"$550"},"geometry":{"type":"Point","coordinates":[-87.68121784,42.019343951]}},{"type":"Feature","properties":{"date":"2023-10-30T00:00:00.000Z","year":2023,"description":"SPR 2019 CBC: PROPOSED INTERIOR REMODEL OF AN EXISTING 3,400 SQ.FT. SINGLE STORY DUNKIN'-BASKIN ROBBINS DRIVE THRU RESTAURANT, EXTERIOR FACADE UPGRADES AND ASSOCIATED ELECTRICAL AND PLUMBING WORK, PER PLANS. OCCUPANCY: A-2, SMALL ASSEMBLY, CONSTRUCTION TYPE: IIIA","metadescription":"PERMIT - RENOVATION/ALTERATION. SPR 2019 CBC: PROPOSED INTERIOR REMODEL OF AN EXISTING 3,400 SQ.FT. SINGLE STORY DUNKIN'-BASKIN ROBBINS DRIVE THRU RESTAURANT, EXTERIOR FACADE UPGRADES AND ASSOCIATED ELECTRICAL AND PLUMBING WORK, PER PLANS. OCCUPANCY: A-2, SMALL ASSEMBLY, CONSTRUCTION TYPE: IIIA. EXPIRED. 7578","address":"7578 North WESTERN Avenue, Chicago, IL, CHICAGO, 60645, US","location":"POINT (-87.690322022083 42.019438998687)","pin_list":"1025402004","review_type":"STANDARD PLAN REVIEW","street_name":"WESTERN AVE","xcoordinate":"1158975.8535919827","ycoordinate":"1950329.9418025876","census_tract":"20200","subtotal_paid":"$3,192.00","community_area":"2","contact_1_city":"CHICAGO","contact_1_name":"FOSTER, ANDREW T","contact_1_type":"ARCHITECT","contact_2_city":"WHEELING","contact_2_name":"CM ELECTRIC, INC.","contact_2_type":"CONTRACTOR-ELECTRICAL","contact_3_city":"ELK GROVE VILLAGE","contact_3_name":"PKS CONSTRUCTION INC","contact_3_type":"CONTRACTOR-GENERAL CONTRACTOR","contact_4_city":"MARENGO","contact_4_name":"A & L PLUMBING INC.","contact_4_type":"CONTRACTOR-PLUMBER/PLUMBING","contact_5_city":"SCHILLER PARK","contact_5_name":"AIRLAB COMPANY","contact_5_type":"CONTRACTOR-REFRIGERATION","contact_6_city":"SCHILLER PARK","contact_6_name":"AIRLAB COMPANY","contact_6_type":"CONTRACTOR-VENTILATION","contact_7_city":"SANDY SPRINGS","contact_7_name":"ROMAN NAHAYLO","contact_7_type":"OWNER","other_fee_paid":"$0.00","contact_1_state":"IL","contact_2_state":"IL","contact_3_state":"IL","contact_4_state":"IL","contact_5_state":"IL","contact_6_state":"IL","contact_7_state":"GA","processing_time":"168","subtotal_unpaid":"$0.00","subtotal_waived":"$0.00","zoning_fee_paid":"$75.00","other_fee_unpaid":"$0.00","other_fee_waived":"$0.00","permit_milestone":"INSPECTIONS","street_direction":"N","building_fee_paid":"$3,117.00","contact_1_zipcode":"60659","contact_2_zipcode":"60090-","contact_3_zipcode":"60007","contact_4_zipcode":"60152-","contact_5_zipcode":"60176-","contact_6_zipcode":"60176-","contact_7_zipcode":"30328","zoning_fee_unpaid":"$0.00","zoning_fee_waived":"$0.00","other_fee_subtotal":"$0","building_fee_unpaid":"$0.00","building_fee_waived":"$0.00","zoning_fee_subtotal":"$75","building_fee_subtotal":"$3,117"},"geometry":{"type":"Point","coordinates":[-87.690322022,42.019438999]}},{"type":"Feature","properties":{"date":"2023-10-03T00:00:00.000Z","year":2023,"description":"SELF-CERT 2019 CBRC - FRONT & REAR ADDITIONS, ALTERATIONS AND CHANGE OF OCCUPANCY FOR VACANT GROUND-LEVEL BUSINESS SPACE IN 1-STORY BUILDING WITH BASEMENT TO POP-UP RESTAURANT CONCEPT, ADDITION ON REAR OF BUIDLING FOR COOLERS AND PORTION OF BACK OF BUILDING, ADDITION ON FRONT FOR NEW ENTRANCES, ON-SITE WORK FOR NEW TRASH ENCLOSURE AND RE-STRIPPING OF PARKING SPACES, MODIFICATION OF SIDEWALK FOR LARGER PATIO AREA (OCCUPANCY GROUP A-2; TYPE II-B CONSTRUCTION)","metadescription":"PERMIT - RENOVATION/ALTERATION. SELF-CERT 2019 CBRC - FRONT & REAR ADDITIONS, ALTERATIONS AND CHANGE OF OCCUPANCY FOR VACANT GROUND-LEVEL BUSINESS SPACE IN 1-STORY BUILDING WITH BASEMENT TO POP-UP RESTAURANT CONCEPT, ADDITION ON REAR OF BUIDLING FOR COOLERS AND PORTION OF BACK OF BUILDING, ADDITION ON FRONT FOR NEW ENTRANCES, ON-SITE WORK FOR NEW TRASH ENCLOSURE AND RE-STRIPPING OF PARKING SPACES, MODIFICATION OF SIDEWALK FOR LARGER PATIO AREA (OCCUPANCY GROUP A-2; TYPE II-B CONSTRUCTION). ACTIVE. 2209","address":"2209 West HOWARD Street, Chicago, IL, CHICAGO, 60645, US","location":"POINT (-87.685067403286 42.019380643974)","pin_list":"1130307049","review_type":"SELF CERT","street_name":"HOWARD ST","xcoordinate":"1160403.8618287952","ycoordinate":"1950319.4475473787","census_tract":"20100","subtotal_paid":"$3,625.00","community_area":"2","contact_1_city":"HUNTLEY","contact_1_name":"CASTEL, ENRIQUE N","contact_1_type":"SELF CERT ARCHITECT","contact_2_city":"PROSPECT HEIGHTS","contact_2_name":"D&G ELECTRIC SERVICE INC.","contact_2_type":"CONTRACTOR-ELECTRICAL","contact_3_city":"SCHAUMBURG","contact_3_name":"PDC GROUP, INC","contact_3_type":"CONTRACTOR-GENERAL CONTRACTOR","contact_4_city":"CHICAGO","contact_4_name":"ALPINE CONSTRUCTION CO","contact_4_type":"MASONRY CONTRACTOR","contact_5_city":"LOMBARD","contact_5_name":"AFZAL LOKHANDWALA","contact_5_type":"OWNER","contact_6_city":"WOOD DALE","contact_6_name":"AHC MECHANICAL, INC","contact_6_type":"CONTRACTOR-PLUMBER/PLUMBING","contact_7_city":"WOOD DALE","contact_7_name":"ALBERGO HOULIHAN CAVALZANI MEC","contact_7_type":"CONTRACTOR-REFRIGERATION","contact_8_city":"WOOD DALE","contact_8_name":"ALBERGO HOULIHAN CAVALZANI MEC","contact_8_type":"CONTRACTOR-VENTILATION","other_fee_paid":"$0.00","contact_1_state":"IL","contact_2_state":"IL","contact_3_state":"IL","contact_4_state":"IL","contact_5_state":"IL","contact_6_state":"IL","contact_7_state":"IL","contact_8_state":"IL","processing_time":"69","subtotal_unpaid":"$0.00","subtotal_waived":"$0.00","zoning_fee_paid":"$75.00","other_fee_unpaid":"$0.00","other_fee_waived":"$0.00","permit_condition":"SU FOR DRIVE THROUGH WAS DENIED.","permit_milestone":"INSPECTIONS","street_direction":"W","building_fee_paid":"$3,550.00","contact_1_zipcode":"60142","contact_2_zipcode":"60070","contact_3_zipcode":"60193","contact_4_zipcode":"60630","contact_5_zipcode":"60148","contact_6_zipcode":"60191-","zoning_fee_unpaid":"$0.00","zoning_fee_waived":"$0.00","other_fee_subtotal":"$0","building_fee_unpaid":"$0.00","building_fee_waived":"$0.00","zoning_fee_subtotal":"$75","building_fee_subtotal":"$3,550"},"geometry":{"type":"Point","coordinates":[-87.685067403,42.019380644]}},{"type":"Feature","properties":{"date":"2022-09-14T00:00:00.000Z","year":2022,"description":"INTERIOR REMODELING FOR RESTAURANT IN EXISTING 1 STORY MASONRY BUILDING WITH BASEMENT","metadescription":"PERMIT - RENOVATION/ALTERATION. INTERIOR REMODELING FOR RESTAURANT IN EXISTING 1 STORY MASONRY BUILDING WITH BASEMENT. EXPIRED. 2017","address":"2017 West HOWARD Street, Chicago, IL, CHICAGO, 60645, US","location":"POINT (-87.681217839581 42.019343950731)","pin_list":"1130310028","review_type":"STANDARD PLAN REVIEW","street_name":"HOWARD ST","xcoordinate":"1161450.0137468239","ycoordinate":"1950314.0225227925","census_tract":"10201","subtotal_paid":"$2,761.77","community_area":"1","contact_1_city":"EVANSTON","contact_1_name":"LEVY LEVY HOLDING LLC","contact_1_type":"OWNER","contact_2_city":"CHICAGO","contact_2_name":"DRAPSZO, VICTOR","contact_2_type":"ARCHITECT","contact_3_city":"ELK GROVE VILLAGE","contact_3_name":"EURO CONNECTION II INC","contact_3_type":"CONTRACTOR-ELECTRICAL","contact_4_city":"CHICAGO","contact_4_name":"ANTHONY PATTERSON","contact_4_type":"CONTRACTOR-GENERAL CONTRACTOR","contact_5_city":"CHICAGO","contact_5_name":"ROLAND CONSTRUCTION,INC.","contact_5_type":"MASONRY CONTRACTOR","contact_6_city":"CHICAGO","contact_6_name":"E R A PLUMBING & SEWER INC","contact_6_type":"CONTRACTOR-PLUMBER/PLUMBING","contact_7_city":"CHICAGO","contact_7_name":"ANTHONY PATTERSON","contact_7_type":"CONTRACTOR-REFRIGERATION","contact_8_city":"CHICAGO","contact_8_name":"ANTHONY PATTERSON","contact_8_type":"CONTRACTOR-VENTILATION","other_fee_paid":"$0.00","contact_1_state":"IL","contact_2_state":"IL","contact_3_state":"IL","contact_4_state":"IL","contact_5_state":"IL","contact_6_state":"IL","contact_7_state":"IL","contact_8_state":"IL","processing_time":"0","subtotal_unpaid":"$0.00","subtotal_waived":"$0.00","zoning_fee_paid":"$75.00","other_fee_unpaid":"$0.00","other_fee_waived":"$0.00","permit_milestone":"CERTIFICATE OF OCCUPANCY PENDING (TEMPORARY OR PARTIAL OCCUPANCY APPROVED)","street_direction":"W","building_fee_paid":"$2,686.77","contact_1_zipcode":"60202","contact_2_zipcode":"60647","contact_3_zipcode":"60007-","contact_4_zipcode":"60623","contact_5_zipcode":"60622-","contact_6_zipcode":"60623-","contact_7_zipcode":"60623-","contact_8_zipcode":"60623-","zoning_fee_unpaid":"$0.00","zoning_fee_waived":"$0.00","other_fee_subtotal":"$0","building_fee_unpaid":"$0.00","building_fee_waived":"$0.00","zoning_fee_subtotal":"$75","building_fee_subtotal":"$2,686.77"},"geometry":{"type":"Point","coordinates":[-87.68121784,42.019343951]}},{"type":"Feature","properties":{"date":"2021-11-18T00:00:00.000Z","year":2021,"description":"INTERIOR ALTERATION IN THE EXIST. RETAIL SPACES FOR THE EXPANSION OF EXISTING DAYCARE IN THE EXIST. 1-STORY BLDG.  COMPLYING EXISTING TOILET ROOMS UP TO ADA STANDARDS. PROVIDING HAND SINKS.  MINIMAL MECH, ELEC, PLUMBING WORKS PER PLANS.**CERTIFIED CORRECTIONS SUBJECT TO FIELD INSPECTIONS & AUDIT **","metadescription":"PERMIT - RENOVATION/ALTERATION. INTERIOR ALTERATION IN THE EXIST. RETAIL SPACES FOR THE EXPANSION OF EXISTING DAYCARE IN THE EXIST. 1-STORY BLDG.  COMPLYING EXISTING TOILET ROOMS UP TO ADA STANDARDS. PROVIDING HAND SINKS.  MINIMAL MECH, ELEC, PLUMBING WORKS PER PLANS.**CERTIFIED CORRECTIONS SUBJECT TO FIELD INSPECTIONS & AUDIT **. SUSPENDED. 2053","address":"2049 West HOWARD Street, Chicago, IL, CHICAGO, 60645, US","location":"POINT (-87.682469707344 42.019354140977)","pin_list":"1130309004","review_type":"STANDARD PLAN REVIEW","street_name":"HOWARD ST","xcoordinate":"1161109.81264352","ycoordinate":"1950315.1466572725","census_tract":"10201","subtotal_paid":"$3,325.00","community_area":"1","contact_1_city":"CHICAGO","contact_1_name":"CHUNG-YUL SUH","contact_1_type":"OWNER","contact_2_city":"ROLLING MEADOWS","contact_2_name":"KIM, JOHN YUP","contact_2_type":"ARCHITECT","contact_3_city":"ARLINGTON HEIGHTS","contact_3_name":"NOAH ELECTRIC CORPORATION","contact_3_type":"CONTRACTOR-ELECTRICAL","contact_4_city":"NORTHBROOK","contact_4_name":"PNK CONSTRUCTION, INC.","contact_4_type":"CONTRACTOR-GENERAL CONTRACTOR","contact_5_city":"CHICAGO","contact_5_name":"JIN HWAN KO","contact_5_type":"CONTRACTOR-PLUMBER/PLUMBING","contact_6_city":"MOUNT PROSPECT","contact_6_name":"LION HEATING & COOLING","contact_6_type":"CONTRACTOR-VENTILATION","other_fee_paid":"$250.00","contact_1_state":"IL","contact_2_state":"IL","contact_3_state":"IL","contact_4_state":"IL","contact_5_state":"IL","contact_6_state":"IL","processing_time":"476","subtotal_unpaid":"$0.00","subtotal_waived":"$0.00","zoning_fee_paid":"$75.00","other_fee_unpaid":"$0.00","other_fee_waived":"$0.00","permit_condition":"PDL (8-20-2021) IS ON FILE","permit_milestone":"INSPECTIONS","street_direction":"W","building_fee_paid":"$3,000.00","contact_1_zipcode":"60614","contact_2_zipcode":"60008","contact_3_zipcode":"60004","contact_4_zipcode":"60062","contact_5_zipcode":"60659-","contact_6_zipcode":"60056-","zoning_fee_unpaid":"$0.00","zoning_fee_waived":"$0.00","other_fee_subtotal":"$250","building_fee_unpaid":"$0.00","building_fee_waived":"$0.00","zoning_fee_subtotal":"$75","building_fee_subtotal":"$3,000"},"geometry":{"type":"Point","coordinates":[-87.682469707,42.019354141]}},{"type":"Feature","properties":{"date":"2020-12-21T00:00:00.000Z","year":2020,"description":"SWAPPING (9) EXISTING ANTENNAS WITH (6) NEW ANTENNAS. SWAPPING (3) EXISTING CABINETS WITH (3) NEW CABINETS. REPLACEMENT OF RADIO AND ANCILLARY EQUIPMENT. NO CHANGES TO USE OR HEIGHT. PREVIOUS PERMIT #100771066. T-MOBILE SITE CH41658A.","metadescription":"PERMIT - RENOVATION/ALTERATION. SWAPPING (9) EXISTING ANTENNAS WITH (6) NEW ANTENNAS. SWAPPING (3) EXISTING CABINETS WITH (3) NEW CABINETS. REPLACEMENT OF RADIO AND ANCILLARY EQUIPMENT. NO CHANGES TO USE OR HEIGHT. PREVIOUS PERMIT #100771066. T-MOBILE SITE CH41658A.. COMPLETE. 2219","address":"2219 West HOWARD Street, Chicago, IL, CHICAGO, 60645, US","location":"POINT (-87.685464286921 42.019387405308)","review_type":"STANDARD PLAN REVIEW","street_name":"HOWARD ST","xcoordinate":"1160295.9971587092","ycoordinate":"1950321.0948566648","census_tract":"20100","subtotal_paid":"$900.00","community_area":"2","contact_1_city":"DOWNERS GROVE","contact_1_name":"MIKE BLASUTTI","contact_1_type":"OWNER","contact_2_city":"ST CHARLES","contact_2_name":"FAKRODDIN, NABI R","contact_2_type":"STRUCTURAL ENGINEER","contact_3_city":"GENOA CITY","contact_3_name":"TODD VOLLING","contact_3_type":"CONTRACTOR-ELECTRICAL","contact_4_city":"CHICAGO","contact_4_name":"NTP WIRELESS","contact_4_type":"EXPEDITOR","contact_5_city":"CHICAGO","contact_5_name":"KEY TOWER LLC","contact_5_type":"CONTRACTOR-GENERAL CONTRACTOR","other_fee_paid":"$0.00","contact_1_state":"IL","contact_2_state":"IL","contact_3_state":"WI","contact_4_state":"IL","contact_5_state":"IL","processing_time":"29","subtotal_unpaid":"$0.00","subtotal_waived":"$0.00","zoning_fee_paid":"$150.00","other_fee_unpaid":"$0.00","other_fee_waived":"$0.00","permit_milestone":"COMPLETE","street_direction":"W","building_fee_paid":"$750.00","contact_1_zipcode":"60515","contact_2_zipcode":"60174","contact_3_zipcode":"53128","contact_4_zipcode":"60654-","contact_5_zipcode":"60613","zoning_fee_unpaid":"$0.00","zoning_fee_waived":"$0.00","other_fee_subtotal":"$0","building_fee_unpaid":"$0.00","building_fee_waived":"$0.00","zoning_fee_subtotal":"$150","building_fee_subtotal":"$750"},"geometry":{"type":"Point","coordinates":[-87.685464287,42.019387405]}},{"type":"Feature","properties":{"date":"2020-09-30T00:00:00.000Z","year":2020,"description":"PROPOSED DRIVE-THRU LANE TO AN EXISTING 1 STORY 3B CONSTRUCTION RESTAURANT BUILDING PER PLANS","metadescription":"PERMIT - RENOVATION/ALTERATION. PROPOSED DRIVE-THRU LANE TO AN EXISTING 1 STORY 3B CONSTRUCTION RESTAURANT BUILDING PER PLANS. COMPLETE. 2321","address":"2321 West HOWARD Street, Chicago, IL, CHICAGO, 60645, US","location":"POINT (-87.688628187756 42.019413270594)","pin_list":"1130301043","review_type":"STANDARD PLAN REVIEW","street_name":"HOWARD ST","xcoordinate":"1159436.1928947587","ycoordinate":"1950324.028650065","census_tract":"20100","subtotal_paid":"$725.00","community_area":"2","contact_1_city":"CHICAGO","contact_1_name":"JYM INVESTMENT LLC JYM INVESTMENT","contact_1_type":"OWNER","contact_2_city":"HOFFMAN ESTATES","contact_2_name":"BUCKLEY, THOMAS W","contact_2_type":"ARCHITECT","contact_3_city":"SCHAUMBURG","contact_3_name":"INFINITE CONSTRUCTION INC","contact_3_type":"CONTRACTOR-GENERAL CONTRACTOR","contact_4_city":"WILMETTE","contact_4_name":"NEW LOOK EXTERIORS","contact_4_type":"MASONRY CONTRACTOR","contact_5_city":"CHICAGO","contact_5_name":"PERSAUD CONSTRUCTION","contact_5_type":"MASONRY CONTRACTOR","other_fee_paid":"$0.00","contact_1_state":"IL","contact_2_state":"IL","contact_3_state":"IL","contact_4_state":"IL","contact_5_state":"IL","processing_time":"217","subtotal_unpaid":"$0.00","subtotal_waived":"$0.00","zoning_fee_paid":"$75.00","other_fee_unpaid":"$0.00","other_fee_waived":"$0.00","permit_milestone":"COMPLETE","street_direction":"W","building_fee_paid":"$650.00","contact_1_zipcode":"60025","contact_2_zipcode":"60195","contact_3_zipcode":"60193","contact_4_zipcode":"60091","contact_5_zipcode":"60647","zoning_fee_unpaid":"$0.00","zoning_fee_waived":"$0.00","other_fee_subtotal":"$0","building_fee_unpaid":"$0.00","building_fee_waived":"$0.00","zoning_fee_subtotal":"$75","building_fee_subtotal":"$650"},"geometry":{"type":"Point","coordinates":[-87.688628188,42.019413271]}},{"type":"Feature","properties":{"date":"2019-06-25T00:00:00.000Z","year":2019,"description":"ALTERATIONS TO AN EXISTING RESTAURANT TO AN EXISTING 1 STORY BRICK BUILDING","metadescription":"PERMIT - RENOVATION/ALTERATION. ALTERATIONS TO AN EXISTING RESTAURANT TO AN EXISTING 1 STORY BRICK BUILDING. COMPLETE. 2321","address":"2321 West HOWARD Street, Chicago, IL, CHICAGO, 60645, US","location":"POINT (-87.688628187756 42.019413270594)","pin_list":"1130301043","review_type":"STANDARD PLAN REVIEW","street_name":"HOWARD ST","xcoordinate":"1159436.1928947587","ycoordinate":"1950324.028650065","census_tract":"20100","subtotal_paid":"$810.95","community_area":"2","contact_1_city":"CHICAGO","contact_1_name":"JYM INVESTMENT LLC JYM INVESTMENT LLC","contact_1_type":"OWNER","contact_2_city":"HOFFMAN ESTATES","contact_2_name":"BUCKLEY, THOMAS W","contact_2_type":"ARCHITECT","contact_3_city":"GLENVIEW","contact_3_name":"J & Y ELECTR. CONTRACTOR & SER","contact_3_type":"CONTRACTOR-ELECTRICAL","contact_4_city":"SCHAUMBURG","contact_4_name":"INFINITE CONSTRUCTION INC","contact_4_type":"CONTRACTOR-GENERAL CONTRACTOR","contact_5_city":"CHICAGO","contact_5_name":"JIN HWAN KO","contact_5_type":"CONTRACTOR-PLUMBER/PLUMBING","contact_6_city":"LAKE ZURICH","contact_6_name":"T & S HEATING COOLING","contact_6_type":"CONTRACTOR-REFRIGERATION","contact_7_city":"LAKE ZURICH","contact_7_name":"T & S HEATING COOLING","contact_7_type":"CONTRACTOR-VENTILATION","other_fee_paid":"$0.00","contact_1_state":"IL","contact_2_state":"IL","contact_3_state":"IL","contact_4_state":"IL","contact_5_state":"IL","contact_6_state":"IL","contact_7_state":"IL","processing_time":"134","subtotal_unpaid":"$0.00","subtotal_waived":"$0.00","zoning_fee_paid":"$75.00","other_fee_unpaid":"$0.00","other_fee_waived":"$0.00","permit_milestone":"COMPLETE","street_direction":"W","building_fee_paid":"$735.95","contact_1_zipcode":"60025","contact_2_zipcode":"60195","contact_3_zipcode":"60025-","contact_4_zipcode":"60193","contact_5_zipcode":"60659-","contact_6_zipcode":"60047-","contact_7_zipcode":"60047-","zoning_fee_unpaid":"$0.00","zoning_fee_waived":"$0.00","other_fee_subtotal":"$0","building_fee_unpaid":"$0.00","building_fee_waived":"$0.00","zoning_fee_subtotal":"$75","building_fee_subtotal":"$735.95"},"geometry":{"type":"Point","coordinates":[-87.688628188,42.019413271]}},{"type":"Feature","properties":{"date":"2019-04-30T00:00:00.000Z","year":2019,"description":"REPLACE (3) EXISTING ANTENNAS WITH (3) NEW ANTENNAS WITH ASSOCIATED CABLING ON NEW PIPE MOUNTS ON EXISTING SPRINT FACILITY, AS PER PLANS. SPRINT SITE# CH01XC150. ELECTRICAL PERMIT# 100814402. PREVIOUS BUILDING PERMIT# 100680807.","metadescription":"PERMIT - RENOVATION/ALTERATION. REPLACE (3) EXISTING ANTENNAS WITH (3) NEW ANTENNAS WITH ASSOCIATED CABLING ON NEW PIPE MOUNTS ON EXISTING SPRINT FACILITY, AS PER PLANS. SPRINT SITE# CH01XC150. ELECTRICAL PERMIT# 100814402. PREVIOUS BUILDING PERMIT# 100680807.. COMPLETE. 2101","address":"2059 West HOWARD Street, Chicago, IL, CHICAGO, 60645, US","location":"POINT (-87.683061655971 42.019359224207)","pin_list":"1130308024","review_type":"STANDARD PLAN REVIEW","street_name":"HOWARD ST","xcoordinate":"1160948.9470566893","ycoordinate":"1950315.7764159578","census_tract":"10201","subtotal_paid":"$825.00","community_area":"1","contact_1_city":"OVERLAND PARK","contact_1_name":"SPRINT COMMUNICATIONS","contact_1_type":"OWNER OCCUPIED","contact_2_city":"ROSEMONT","contact_2_name":"ROKACH, ABRAHAM J","contact_2_type":"STRUCTURAL ENGINEER","contact_3_city":"VALPARAISO","contact_3_name":"MICHAEL C. SMITH","contact_3_type":"CONTRACTOR-ELECTRICAL","contact_4_city":"SCHAUMBURG","contact_4_name":"JEREMY EDWARD BOONE","contact_4_type":"EXPEDITOR","contact_5_city":"WANAMINGO","contact_5_name":"VERTICAL LIMIT CONSTRUCTION LLC","contact_5_type":"CONTRACTOR-GENERAL CONTRACTOR","other_fee_paid":"$0.00","contact_1_state":"KS","contact_2_state":"IL","contact_3_state":"IN","contact_4_state":"IL","contact_5_state":"MN","processing_time":"0","subtotal_unpaid":"$0.00","subtotal_waived":"$0.00","zoning_fee_paid":"$75.00","other_fee_unpaid":"$0.00","other_fee_waived":"$0.00","permit_milestone":"COMPLETE","street_direction":"W","building_fee_paid":"$750.00","contact_1_zipcode":"66251","contact_2_zipcode":"60018","contact_3_zipcode":"46385","contact_4_zipcode":"60173-","contact_5_zipcode":"55983","zoning_fee_unpaid":"$0.00","zoning_fee_waived":"$0.00","other_fee_subtotal":"$0","building_fee_unpaid":"$0.00","building_fee_waived":"$0.00","zoning_fee_subtotal":"$75","building_fee_subtotal":"$750"},"geometry":{"type":"Point","coordinates":[-87.683061656,42.019359224]}},{"type":"Feature","properties":{"date":"2018-08-14T00:00:00.000Z","year":2018,"description":"SWAPPING (9) EXISTING ANTENNAS WITH (9) NEW ANTENNAS, ADDITION OF (1). REPLACEMENT OF RADIO AND ANCILLARY EQUIPMENT ON EXISTINGROOFTOP. PREVIOUS PERMIT #100703345. ELECTRICAL PERMIT #100764732.T-MOBILE SITE CH41658A.","metadescription":"PERMIT - RENOVATION/ALTERATION. SWAPPING (9) EXISTING ANTENNAS WITH (9) NEW ANTENNAS, ADDITION OF (1). REPLACEMENT OF RADIO AND ANCILLARY EQUIPMENT ON EXISTINGROOFTOP. PREVIOUS PERMIT #100703345. ELECTRICAL PERMIT #100764732.T-MOBILE SITE CH41658A.. COMPLETE. 2219","address":"2219 West HOWARD Street, Chicago, IL, CHICAGO, 60645, US","location":"POINT (-87.685464286921 42.019387405308)","review_type":"STANDARD PLAN REVIEW","street_name":"HOWARD ST","xcoordinate":"1160295.9971587092","ycoordinate":"1950321.0948566648","census_tract":"20100","subtotal_paid":"$825.00","community_area":"2","contact_1_city":"CHICAGO","contact_1_name":"MIKE BLASUTTI","contact_1_type":"OWNER","contact_2_city":"TOWER LAKES","contact_2_name":"PACYNIAK THADDEUS A","contact_2_type":"ARCHITECT","contact_3_city":"TINLEY PARK","contact_3_name":"NET CELL SOLUTIONS INC","contact_3_type":"CONTRACTOR-ELECTRICAL","contact_4_city":"CHICAGO","contact_4_name":"NTP WIRELESS","contact_4_type":"EXPEDITOR","contact_5_city":"ALGONQUIN","contact_5_name":"FRONTLINE COMMUNICATIONS CONTRACTING INC","contact_5_type":"CONTRACTOR-GENERAL CONTRACTOR","other_fee_paid":"$0.00","contact_1_state":"IL","contact_2_state":"IL","contact_3_state":"IL","contact_4_state":"IL","contact_5_state":"IL","processing_time":"13","subtotal_unpaid":"$0.00","subtotal_waived":"$0.00","zoning_fee_paid":"$75.00","other_fee_unpaid":"$0.00","other_fee_waived":"$0.00","permit_milestone":"COMPLETE","street_direction":"W","building_fee_paid":"$750.00","contact_1_zipcode":"60631","contact_2_zipcode":"60010-","contact_3_zipcode":"60477","contact_4_zipcode":"60654-","contact_5_zipcode":"60102","zoning_fee_unpaid":"$0.00","zoning_fee_waived":"$0.00","other_fee_subtotal":"$0","building_fee_unpaid":"$0.00","building_fee_waived":"$0.00","zoning_fee_subtotal":"$75","building_fee_subtotal":"$750"},"geometry":{"type":"Point","coordinates":[-87.685464287,42.019387405]}},{"type":"Feature","properties":{"date":"2018-02-25T00:00:00.000Z","year":2018,"description":"ADDENDUM TO PREVIOUSLY ISSUED BUILDING PERMIT (100714166) - ELIMINATE THE TENANT BUILD-OUT FOR T-01 (B OF A) & T-03 FROM THE PREVIOUSLY APPROVED SCOPE OF WORK - ONLY SPACE FOR T-01 TO REMAIN WITHIN SCOPE, PER PLANS","metadescription":"PERMIT - RENOVATION/ALTERATION. ADDENDUM TO PREVIOUSLY ISSUED BUILDING PERMIT (100714166) - ELIMINATE THE TENANT BUILD-OUT FOR T-01 (B OF A) & T-03 FROM THE PREVIOUSLY APPROVED SCOPE OF WORK - ONLY SPACE FOR T-01 TO REMAIN WITHIN SCOPE, PER PLANS. COMPLETE. 7574","address":"7578 North WESTERN Avenue, Chicago, IL, CHICAGO, 60645, US","location":"POINT (-87.690323269441 42.019355493169)","pin_list":"1025402004","review_type":"STANDARD PLAN REVIEW","street_name":"WESTERN AVE","xcoordinate":"1158975.7432525165","ycoordinate":"1950299.5092201023","census_tract":"20200","subtotal_paid":"$575.00","community_area":"2","contact_1_city":"LEMONT","contact_1_name":"AAIM HOWARD & WESTERN LLC ALI ATA","contact_1_type":"OWNER","contact_2_city":"HOFFMAN ESTATES","contact_2_name":"PUROHIT, HEMAL M","contact_2_type":"ARCHITECT","contact_3_city":"CHICAGO","contact_3_name":"ADAMS ELECTRICAL SERVICES","contact_3_type":"CONTRACTOR-ELECTRICAL","contact_4_city":"LEMONT","contact_4_name":"AAIM DEVELOPMENT INC","contact_4_type":"CONTRACTOR-GENERAL CONTRACTOR","contact_5_city":"CHICAGO","contact_5_name":"GILCO MECHANICAL CONTRACTORS","contact_5_type":"CONTRACTOR-PLUMBER/PLUMBING","contact_6_city":"BEDFORD PARK","contact_6_name":"THERMO-POL, INC.","contact_6_type":"CONTRACTOR-VENTILATION","other_fee_paid":"$0.00","contact_1_state":"IL","contact_2_state":"IL","contact_3_state":"IL","contact_4_state":"IL","contact_5_state":"IL","contact_6_state":"IL","processing_time":"0","subtotal_unpaid":"$0.00","subtotal_waived":"$0.00","zoning_fee_paid":"$75.00","other_fee_unpaid":"$0.00","other_fee_waived":"$0.00","permit_milestone":"COMPLETE","street_direction":"N","building_fee_paid":"$500.00","contact_1_zipcode":"60439","contact_2_zipcode":"60192","contact_3_zipcode":"60653-","contact_4_zipcode":"60439","contact_5_zipcode":"60620","contact_6_zipcode":"60638-","zoning_fee_unpaid":"$0.00","zoning_fee_waived":"$0.00","other_fee_subtotal":"$0","building_fee_unpaid":"$0.00","building_fee_waived":"$0.00","zoning_fee_subtotal":"$75","building_fee_subtotal":"$500"},"geometry":{"type":"Point","coordinates":[-87.690323269,42.019355493]}},{"type":"Feature","properties":{"date":"2018-02-02T00:00:00.000Z","year":2018,"description":"SELF-CERT. PROJECT: INTERIOR ALTERATIONS IN EXISTING 1-STORY RETAIL BUILDING FOR NEW BANK ATM SPACE, NEW PARTITIONS, MECHANICAL, ELECTRICAL, AND NEW EXTERIOR LIGHT POLE IN EXISTING PARKING LOT AS PER PLANS. NO PLUMBING WORK. PERMIT COVERS 7574-76 N. WESTERN AVE.","metadescription":"PERMIT - RENOVATION/ALTERATION. SELF-CERT. PROJECT: INTERIOR ALTERATIONS IN EXISTING 1-STORY RETAIL BUILDING FOR NEW BANK ATM SPACE, NEW PARTITIONS, MECHANICAL, ELECTRICAL, AND NEW EXTERIOR LIGHT POLE IN EXISTING PARKING LOT AS PER PLANS. NO PLUMBING WORK. PERMIT COVERS 7574-76 N. WESTERN AVE.. COMPLETE. 7574","address":"7578 North WESTERN Avenue, Chicago, IL, CHICAGO, 60645, US","location":"POINT (-87.690323269441 42.019355493169)","pin_list":"1025402004","review_type":"SELF CERT","street_name":"WESTERN AVE","xcoordinate":"1158975.7432525165","ycoordinate":"1950299.5092201023","census_tract":"20200","subtotal_paid":"$450.00","community_area":"2","contact_1_city":"CHICAGO","contact_1_name":"COHOON JR, ROBERT G","contact_1_type":"SELF CERT ARCHITECT","contact_2_city":"ORLAND PARK","contact_2_name":"FENNELL ELECTRIC, INC.","contact_2_type":"CONTRACTOR-ELECTRICAL","contact_3_city":"CHICAGO","contact_3_name":"JOHN LYLE & ASSOCIATES","contact_3_type":"EXPEDITOR","contact_4_city":"ARLINGTON HEIGHTS","contact_4_name":"BANCARE, INC","contact_4_type":"CONTRACTOR-GENERAL CONTRACTOR","contact_5_city":"ITASCA","contact_5_name":"DANMAR CONCRETE INC","contact_5_type":"MASONRY CONTRACTOR","contact_6_city":"CHICAGO","contact_6_name":"BANK OF AMERICA","contact_6_type":"OWNER OCCUPIED","contact_7_city":"DES PLAINES","contact_7_name":"MIDWESCO MECHANICAL & ENERGY","contact_7_type":"CONTRACTOR-REFRIGERATION","contact_8_city":"DES PLAINES","contact_8_name":"MIDWESCO MECHANICAL & ENERGY","contact_8_type":"CONTRACTOR-VENTILATION","other_fee_paid":"$0.00","contact_1_state":"IL","contact_2_state":"IL","contact_3_state":"IL","contact_4_state":"IL","contact_5_state":"IL","contact_6_state":"IL","contact_7_state":"IL","contact_8_state":"IL","processing_time":"0","subtotal_unpaid":"$0.00","subtotal_waived":"$375.00","zoning_fee_paid":"$0.00","other_fee_unpaid":"$0.00","other_fee_waived":"$0.00","permit_milestone":"COMPLETE","street_direction":"N","building_fee_paid":"$450.00","contact_1_zipcode":"60603","contact_2_zipcode":"60467-","contact_3_zipcode":"60602-","contact_4_zipcode":"60004","contact_5_zipcode":"60143","contact_6_zipcode":"60603","contact_7_zipcode":"60018-","contact_8_zipcode":"60018-","zoning_fee_unpaid":"$0.00","zoning_fee_waived":"$75.00","other_fee_subtotal":"$0","building_fee_unpaid":"$0.00","building_fee_waived":"$300.00","zoning_fee_subtotal":"$75","building_fee_subtotal":"$750"},"geometry":{"type":"Point","coordinates":[-87.690323269,42.019355493]}},{"type":"Feature","properties":{"date":"2017-08-18T00:00:00.000Z","year":2017,"description":"PROPOSED DEMISING OF THREE (3) SPACES FROM ONE (1) TENANT SPACE - TWO (2) INTERIOR TENANT BUILD-OUTS FOR 'BUSINESS' USE & ONE (1) INT. TENANT BUILD-OUT FOR 'MERCANTILE' USE, PER PLANS. RMIT INCLUDES THE ADDRESSES OF 7576 N. WESTERN AVE AND 7539 W. HOWARD ST.","metadescription":"PERMIT - RENOVATION/ALTERATION. PROPOSED DEMISING OF THREE (3) SPACES FROM ONE (1) TENANT SPACE - TWO (2) INTERIOR TENANT BUILD-OUTS FOR 'BUSINESS' USE & ONE (1) INT. TENANT BUILD-OUT FOR 'MERCANTILE' USE, PER PLANS. RMIT INCLUDES THE ADDRESSES OF 7576 N. WESTERN AVE AND 7539 W. HOWARD ST.. COMPLETE. 7574","address":"7578 North WESTERN Avenue, Chicago, IL, CHICAGO, 60645, US","location":"POINT (-87.690323269441 42.019355493169)","pin_list":"1025402004","review_type":"STANDARD PLAN REVIEW","street_name":"WESTERN AVE","xcoordinate":"1158975.7432525165","ycoordinate":"1950299.5092201023","census_tract":"20200","subtotal_paid":"$2,232.72","community_area":"2","contact_1_city":"LEMONT","contact_1_name":"AAIM HOWARD & WESTERN LLC ALI ATA","contact_1_type":"OWNER","contact_2_city":"HOFFMAN ESTATES","contact_2_name":"PUROHIT, HEMAL M","contact_2_type":"ARCHITECT","contact_3_city":"CHICAGO","contact_3_name":"ADAMS ELECTRICAL SERVICES","contact_3_type":"CONTRACTOR-ELECTRICAL","contact_4_city":"LEMONT","contact_4_name":"AAIM DEVELOPMENT INC","contact_4_type":"CONTRACTOR-GENERAL CONTRACTOR","contact_5_city":"CHICAGO","contact_5_name":"GILCO MECHANICAL CONTRACTORS","contact_5_type":"CONTRACTOR-PLUMBER/PLUMBING","contact_6_city":"BEDFORD PARK","contact_6_name":"THERMO-POL, INC.","contact_6_type":"CONTRACTOR-REFRIGERATION","contact_7_city":"BEDFORD PARK","contact_7_name":"THERMO-POL, INC.","contact_7_type":"CONTRACTOR-VENTILATION","other_fee_paid":"$0.00","contact_1_state":"IL","contact_2_state":"IL","contact_3_state":"IL","contact_4_state":"IL","contact_5_state":"IL","contact_6_state":"IL","contact_7_state":"IL","processing_time":"39","subtotal_unpaid":"$0.00","subtotal_waived":"$375.00","zoning_fee_paid":"$0.00","other_fee_unpaid":"$0.00","other_fee_waived":"$0.00","permit_milestone":"COMPLETE","street_direction":"N","building_fee_paid":"$2,232.72","contact_1_zipcode":"60439","contact_2_zipcode":"60192","contact_3_zipcode":"60653-","contact_4_zipcode":"60439","contact_5_zipcode":"60620","contact_6_zipcode":"60638-","contact_7_zipcode":"60638-","zoning_fee_unpaid":"$0.00","zoning_fee_waived":"$75.00","other_fee_subtotal":"$0","building_fee_unpaid":"$0.00","building_fee_waived":"$300.00","zoning_fee_subtotal":"$75","building_fee_subtotal":"$2,532.72"},"geometry":{"type":"Point","coordinates":[-87.690323269,42.019355493]}},{"type":"Feature","properties":{"date":"2017-07-18T00:00:00.000Z","year":2017,"description":"SWAPPING OF (3) ANTENNAS AND INSTALLATION OF (1) EQUIPMENT CABINET AND RADIO EQUIPMENT; NO CHANGES TO GROUND EQUIPMENT, EXISTING USE OR STRUCTURE HEIGHT. PREVIOUS PERMIT #100486030. SITE ID #CH41658A.","metadescription":"PERMIT - RENOVATION/ALTERATION. SWAPPING OF (3) ANTENNAS AND INSTALLATION OF (1) EQUIPMENT CABINET AND RADIO EQUIPMENT; NO CHANGES TO GROUND EQUIPMENT, EXISTING USE OR STRUCTURE HEIGHT. PREVIOUS PERMIT #100486030. SITE ID #CH41658A.. COMPLETE. 2219","address":"2219 West HOWARD Street, Chicago, IL, CHICAGO, 60645, US","location":"POINT (-87.685464286921 42.019387405308)","review_type":"STANDARD PLAN REVIEW","street_name":"HOWARD ST","xcoordinate":"1160295.9971587092","ycoordinate":"1950321.0948566648","census_tract":"20100","subtotal_paid":"$1,725.00","community_area":"2","contact_1_city":"CHICAGO","contact_1_name":"MIKE BLASUTTI","contact_1_type":"OWNER","contact_2_city":"VALE","contact_2_name":"FOSTER MATTHEW","contact_2_type":"STRUCTURAL ENGINEER","contact_3_city":"ELGIN","contact_3_name":"BRIAN K PETERSEN","contact_3_type":"CONTRACTOR-ELECTRICAL","contact_4_city":"CHICAGO","contact_4_name":"NTP WIRELESS","contact_4_type":"EXPEDITOR","contact_5_city":"ELGIN","contact_5_name":"SAC WIRELESS, LLC.","contact_5_type":"CONTRACTOR-GENERAL CONTRACTOR","other_fee_paid":"$0.00","contact_1_state":"IL","contact_2_state":"NC","contact_3_state":"IL","contact_4_state":"IL","contact_5_state":"IL","processing_time":"19","subtotal_unpaid":"$0.00","subtotal_waived":"$0.00","zoning_fee_paid":"$75.00","other_fee_unpaid":"$0.00","other_fee_waived":"$0.00","permit_milestone":"COMPLETE","street_direction":"W","building_fee_paid":"$1,650.00","contact_1_zipcode":"60631","contact_2_zipcode":"28168","contact_3_zipcode":"60124-","contact_4_zipcode":"60654-","contact_5_zipcode":"60123","zoning_fee_unpaid":"$0.00","zoning_fee_waived":"$0.00","other_fee_subtotal":"$0","building_fee_unpaid":"$0.00","building_fee_waived":"$0.00","zoning_fee_subtotal":"$75","building_fee_subtotal":"$1,650"},"geometry":{"type":"Point","coordinates":[-87.685464287,42.019387405]}},{"type":"Feature","properties":{"date":"2017-01-17T00:00:00.000Z","year":2017,"description":"-ADDITION OF 3 ANTENNAS-ADDITION OF 3 RRUS-SPRINT CH01XC150OLD PERMIT#B20017377","metadescription":"PERMIT - RENOVATION/ALTERATION. -ADDITION OF 3 ANTENNAS-ADDITION OF 3 RRUS-SPRINT CH01XC150OLD PERMIT#B20017377. COMPLETE. 2101","address":"2059 West HOWARD Street, Chicago, IL, CHICAGO, 60645, US","location":"POINT (-87.683061655971 42.019359224207)","review_type":"STANDARD PLAN REVIEW","street_name":"HOWARD ST","xcoordinate":"1160948.9470566893","ycoordinate":"1950315.7764159578","census_tract":"10201","subtotal_paid":"$825.00","community_area":"1","contact_1_name":"SPRINT COMMUNICATIONS","contact_1_type":"OWNER OCCUPIED","contact_2_city":"MIDDLETON","contact_2_name":"MOORE, THOMAS E","contact_2_type":"STRUCTURAL ENGINEER","contact_3_city":"CHICAGO","contact_3_name":"K & A ELECTRIC","contact_3_type":"CONTRACTOR-ELECTRICAL","contact_4_city":"ELGIN","contact_4_name":"LCCLAW","contact_4_type":"EXPEDITOR","contact_5_city":"LISLE","contact_5_name":"IMG DEVELOPMENT LLC","contact_5_type":"CONTRACTOR-GENERAL CONTRACTOR","other_fee_paid":"$0.00","contact_2_state":"WI","contact_3_state":"IL","contact_4_state":"IL","contact_5_state":"IL","processing_time":"6","subtotal_unpaid":"$0.00","subtotal_waived":"$0.00","zoning_fee_paid":"$75.00","other_fee_unpaid":"$0.00","other_fee_waived":"$0.00","permit_milestone":"COMPLETE","street_direction":"W","building_fee_paid":"$750.00","contact_2_zipcode":"53562","contact_3_zipcode":"60630","contact_4_zipcode":"60120-","contact_5_zipcode":"60532","zoning_fee_unpaid":"$0.00","zoning_fee_waived":"$0.00","other_fee_subtotal":"$0","building_fee_unpaid":"$0.00","building_fee_waived":"$0.00","zoning_fee_subtotal":"$75","building_fee_subtotal":"$750"},"geometry":{"type":"Point","coordinates":[-87.683061656,42.019359224]}},{"type":"Feature","properties":{"date":"2015-10-06T00:00:00.000Z","year":2015,"description":"REMOVE AND REPLACE EXISTING 3 STORY ENCLOSED WOOD PORCH WITH NEW 3 STORY OPEN WOOD PORCH AND PER PLAN.","metadescription":"PERMIT - RENOVATION/ALTERATION. REMOVE AND REPLACE EXISTING 3 STORY ENCLOSED WOOD PORCH WITH NEW 3 STORY OPEN WOOD PORCH AND PER PLAN.. COMPLETE. 2335","address":"2335 West HOWARD Street, Chicago, IL, CHICAGO, 60645, US","location":"POINT (-87.68910150503 42.019419393235)","pin_list":"1130300009","review_type":"STANDARD PLAN REVIEW","street_name":"HOWARD ST","xcoordinate":"1159307.560684087","ycoordinate":"1950325.2913640172","census_tract":"20100","subtotal_paid":"$200.00","community_area":"2","contact_1_city":"CHICAGO","contact_1_name":"GEORGE TAVOULARIS","contact_1_type":"OWNER","contact_2_city":"CHICAGO","contact_2_name":"WOZNY ZENON","contact_2_type":"ARCHITECT","contact_3_city":"DARIEN","contact_3_name":"OMEGA DESIGN, INC.","contact_3_type":"EXPEDITOR","contact_4_city":"CHICAGO","contact_4_name":"URG CONSTRUCTION, LLC","contact_4_type":"CONTRACTOR-GENERAL CONTRACTOR","other_fee_paid":"$0.00","contact_1_state":"IL","contact_2_state":"IL","contact_3_state":"IL","contact_4_state":"IL","processing_time":"0","subtotal_unpaid":"$0.00","subtotal_waived":"$0.00","zoning_fee_paid":"$75.00","other_fee_unpaid":"$0.00","other_fee_waived":"$0.00","permit_milestone":"COMPLETE","street_direction":"W","building_fee_paid":"$125.00","contact_1_zipcode":"60645","contact_2_zipcode":"60622-","contact_3_zipcode":"60561-","contact_4_zipcode":"60645","zoning_fee_unpaid":"$0.00","zoning_fee_waived":"$0.00","other_fee_subtotal":"$0","building_fee_unpaid":"$0.00","building_fee_waived":"$0.00","zoning_fee_subtotal":"$75","building_fee_subtotal":"$125"},"geometry":{"type":"Point","coordinates":[-87.689101505,42.019419393]}},{"type":"Feature","properties":{"date":"2015-08-31T00:00:00.000Z","year":2015,"description":"RENOVATION OF AN EXISTING SINGLE DWELLING UNIT. THE BUILDING IS ZONED B3-1. THE SECOND FLOOR IS CURRENTLY USED AND WILL CONTINUE TO BE USED AS CLASS A RESIDENTIAL SPACE.","metadescription":"PERMIT - RENOVATION/ALTERATION. RENOVATION OF AN EXISTING SINGLE DWELLING UNIT. THE BUILDING IS ZONED B3-1. THE SECOND FLOOR IS CURRENTLY USED AND WILL CONTINUE TO BE USED AS CLASS A RESIDENTIAL SPACE.. COMPLETE. 2705","address":"2701 West HOWARD Street, Chicago, IL, CHICAGO, 60645, US","location":"POINT (-87.697498008492 42.019263030688)","pin_list":"1025400021","review_type":"SELF CERT","street_name":"HOWARD ST","xcoordinate":"1157026.3862896217","ycoordinate":"1950251.2504071577","census_tract":"20200","subtotal_paid":"$446.75","community_area":"2","contact_1_city":"HILLSIDE","contact_1_name":"HEDLUND, NEVIN N","contact_1_type":"SELF CERT ARCHITECT","contact_2_city":"CHICAGO","contact_2_name":"D.C.L. ELECTRIC","contact_2_type":"CONTRACTOR-ELECTRICAL","contact_3_city":"PROSPECT HEIGHTS","contact_3_name":"G & L GENERAL CONTRACTOR, INC.","contact_3_type":"CONTRACTOR-GENERAL CONTRACTOR","contact_4_city":"CHICAGO","contact_4_name":"MOSHE EPSTEIN","contact_4_type":"OWNER OCCUPIED","contact_5_city":"SKOKIE","contact_5_name":"RAFI NISSIM","contact_5_type":"CONTRACTOR-PLUMBER/PLUMBING","contact_6_city":"HOMER GLEN","contact_6_name":"H S TOOL & MANUFACTURING CO.","contact_6_type":"CONTRACTOR-REFRIGERATION","contact_7_city":"HOMER GLEN","contact_7_name":"H S TOOL & MANUFACTURING CO.","contact_7_type":"CONTRACTOR-VENTILATION","other_fee_paid":"$0.00","contact_1_state":"IL","contact_2_state":"IL","contact_3_state":"IL","contact_4_state":"IL","contact_5_state":"IL","contact_6_state":"IL","contact_7_state":"IL","processing_time":"0","subtotal_unpaid":"$0.00","subtotal_waived":"$0.00","zoning_fee_paid":"$50.00","other_fee_unpaid":"$0.00","other_fee_waived":"$0.00","permit_milestone":"COMPLETE","street_direction":"W","building_fee_paid":"$396.75","contact_1_zipcode":"60162","contact_2_zipcode":"60645-","contact_3_zipcode":"60070-","contact_4_zipcode":"60645","contact_5_zipcode":"60076-","contact_6_zipcode":"60491-","contact_7_zipcode":"60491-","zoning_fee_unpaid":"$0.00","zoning_fee_waived":"$0.00","other_fee_subtotal":"$0","building_fee_unpaid":"$0.00","building_fee_waived":"$0.00","zoning_fee_subtotal":"$50","building_fee_subtotal":"$396.75"},"geometry":{"type":"Point","coordinates":[-87.697498008,42.019263031]}},{"type":"Feature","properties":{"date":"2015-08-31T00:00:00.000Z","year":2015,"description":"THE BUILDING IS ZONED B3-1. THE FIRST FLOOR IS CURRENTLY USED AND WILL CONTINUE TO BE USED AS A COMMERCIAL SPACE, CLASS E BUISINESS UNIT. PROJECT INCLUDES RENOVATION OF COMMERCIAL SPACE. CONDITIONAL PERMIT SUBJECT TO FIELD INSPECTION.","metadescription":"PERMIT - RENOVATION/ALTERATION. THE BUILDING IS ZONED B3-1. THE FIRST FLOOR IS CURRENTLY USED AND WILL CONTINUE TO BE USED AS A COMMERCIAL SPACE, CLASS E BUISINESS UNIT. PROJECT INCLUDES RENOVATION OF COMMERCIAL SPACE. CONDITIONAL PERMIT SUBJECT TO FIELD INSPECTION.. COMPLETE. 2705","address":"2701 West HOWARD Street, Chicago, IL, CHICAGO, 60645, US","location":"POINT (-87.697498008492 42.019263030688)","pin_list":"1025400021","review_type":"SELF CERT","street_name":"HOWARD ST","xcoordinate":"1157026.3862896217","ycoordinate":"1950251.2504071577","census_tract":"20200","subtotal_paid":"$659.20","community_area":"2","contact_1_city":"HILLSIDE","contact_1_name":"HEDLUND, NEVIN N","contact_1_type":"SELF CERT ARCHITECT","contact_2_city":"CHICAGO","contact_2_name":"D.C.L. ELECTRIC","contact_2_type":"CONTRACTOR-ELECTRICAL","contact_3_city":"PROSPECT HEIGHTS","contact_3_name":"G & L GENERAL CONTRACTOR, INC.","contact_3_type":"CONTRACTOR-GENERAL CONTRACTOR","contact_4_city":"CHICAGO","contact_4_name":"MOSHE EPSTEIN","contact_4_type":"OWNER OCCUPIED","contact_5_city":"SKOKIE","contact_5_name":"RAFI NISSIM","contact_5_type":"CONTRACTOR-PLUMBER/PLUMBING","contact_6_city":"HOMER GLEN","contact_6_name":"H S TOOL & MANUFACTURING CO.","contact_6_type":"CONTRACTOR-REFRIGERATION","contact_7_city":"HOMER GLEN","contact_7_name":"H S TOOL & MANUFACTURING CO.","contact_7_type":"CONTRACTOR-VENTILATION","other_fee_paid":"$0.00","contact_1_state":"IL","contact_2_state":"IL","contact_3_state":"IL","contact_4_state":"IL","contact_5_state":"IL","contact_6_state":"IL","contact_7_state":"IL","processing_time":"0","subtotal_unpaid":"$0.00","subtotal_waived":"$0.00","zoning_fee_paid":"$75.00","other_fee_unpaid":"$0.00","other_fee_waived":"$0.00","permit_milestone":"COMPLETE","street_direction":"W","building_fee_paid":"$584.20","contact_1_zipcode":"60162","contact_2_zipcode":"60645-","contact_3_zipcode":"60070-","contact_4_zipcode":"60645","contact_5_zipcode":"60076-","contact_6_zipcode":"60491-","contact_7_zipcode":"60491-","zoning_fee_unpaid":"$0.00","zoning_fee_waived":"$0.00","other_fee_subtotal":"$0","building_fee_unpaid":"$0.00","building_fee_waived":"$0.00","zoning_fee_subtotal":"$75","building_fee_subtotal":"$584.2"},"geometry":{"type":"Point","coordinates":[-87.697498008,42.019263031]}},{"type":"Feature","properties":{"date":"2014-12-22T00:00:00.000Z","year":2014,"description":"INTERIOR BUILDING-OUT OF A NEW RESTAURANT IN AN EXISTING ONE STORY MASONRY BUILDING INCLUDING ARCHITECTURAL, MECHANICAL, PLUMBING AND ELECTRICAL FOR NEW RESTAURANT PER PLANS.    **CERTIFIED PLAN CORRECTIONS PROJECT - CONDITIONAL PERMIT: SUBJECT TO FIELD INSPECTIONS **","metadescription":"PERMIT - RENOVATION/ALTERATION. INTERIOR BUILDING-OUT OF A NEW RESTAURANT IN AN EXISTING ONE STORY MASONRY BUILDING INCLUDING ARCHITECTURAL, MECHANICAL, PLUMBING AND ELECTRICAL FOR NEW RESTAURANT PER PLANS.    **CERTIFIED PLAN CORRECTIONS PROJECT - CONDITIONAL PERMIT: SUBJECT TO FIELD INSPECTIONS **. COMPLETE. 2041","address":"2039 West HOWARD Street, Chicago, IL, CHICAGO, 60645, US","location":"POINT (-87.682044806183 42.019351318479)","pin_list":"1130309007","review_type":"STANDARD PLAN REVIEW","street_name":"HOWARD ST","xcoordinate":"1161225.2798062004","ycoordinate":"1950314.996393235","census_tract":"10201","subtotal_paid":"$825.00","community_area":"1","contact_1_city":"CHICAGO","contact_1_name":"KIDANE HAILE","contact_1_type":"OWNER OCCUPIED","contact_2_city":"MATTESON","contact_2_name":"MESFIN SOLOMON","contact_2_type":"ARCHITECT","contact_3_city":"PLAINFIELD","contact_3_name":"CAMPANILE CONSTRUCTION & DESIG","contact_3_type":"CONTRACTOR-ELECTRICAL","contact_4_city":"MATTESON","contact_4_name":"OPPIDUM CONSTRUCTION CORPORATION","contact_4_type":"CONTRACTOR-GENERAL CONTRACTOR","contact_5_city":"CHICAGO","contact_5_name":"LOYAL HOWARD","contact_5_type":"CONTRACTOR-PLUMBER/PLUMBING","contact_6_city":"LONG GROVE","contact_6_name":"MECHANICAL PLUS INC","contact_6_type":"CONTRACTOR-REFRIGERATION","contact_7_city":"LONG GROVE","contact_7_name":"MECHANICAL PLUS INC","contact_7_type":"CONTRACTOR-VENTILATION","other_fee_paid":"$0.00","contact_1_state":"IL","contact_2_state":"IL","contact_3_state":"IL","contact_4_state":"IL","contact_5_state":"IL","contact_6_state":"IL","contact_7_state":"IL","processing_time":"87","subtotal_unpaid":"$0.00","subtotal_waived":"$0.00","zoning_fee_paid":"$75.00","other_fee_unpaid":"$0.00","other_fee_waived":"$0.00","permit_milestone":"COMPLETE","street_direction":"W","building_fee_paid":"$750.00","contact_1_zipcode":"60645","contact_2_zipcode":"60443-","contact_3_zipcode":"60544-","contact_4_zipcode":"60443","contact_5_zipcode":"60621","contact_6_zipcode":"60047","contact_7_zipcode":"60047","zoning_fee_unpaid":"$0.00","zoning_fee_waived":"$0.00","other_fee_subtotal":"$0","building_fee_unpaid":"$0.00","building_fee_waived":"$0.00","zoning_fee_subtotal":"$75","building_fee_subtotal":"$750"},"geometry":{"type":"Point","coordinates":[-87.682044806,42.019351318]}},{"type":"Feature","properties":{"date":"2014-04-11T00:00:00.000Z","year":2014,"description":"INTERIOR BUILDOUT FOR DAYCARE ON EXISTING SPACE. NO NEW WALLS TO BE ERECTED., AREA OF WORK 210 S.F., PLUMBING WORK & ELECTRICAL WORK, NO MECHANICAL WORK PER PLANS   **CERTIFIED PLANS CORRECTIONS: CONDITIONAL PERMIT SUBJECT TO FIELD INSPECTIONS **","metadescription":"PERMIT - RENOVATION/ALTERATION. INTERIOR BUILDOUT FOR DAYCARE ON EXISTING SPACE. NO NEW WALLS TO BE ERECTED., AREA OF WORK 210 S.F., PLUMBING WORK & ELECTRICAL WORK, NO MECHANICAL WORK PER PLANS   **CERTIFIED PLANS CORRECTIONS: CONDITIONAL PERMIT SUBJECT TO FIELD INSPECTIONS **. EXPIRED. 2053","address":"2049 West HOWARD Street, Chicago, IL, CHICAGO, 60645, US","location":"POINT (-87.682469707344 42.019354140977)","pin_list":"1130309004","review_type":"STANDARD PLAN REVIEW","street_name":"HOWARD ST","xcoordinate":"1161109.81264352","ycoordinate":"1950315.1466572725","census_tract":"10201","subtotal_paid":"$798.98","community_area":"1","contact_1_city":"CHICAGO","contact_1_name":"CHUNG-YUL SUH","contact_1_type":"OWNER OCCUPIED","contact_2_city":"ROLLING MEADOWS","contact_2_name":"KIM, JOHN YUP","contact_2_type":"ARCHITECT","contact_3_city":"LOMBARD","contact_3_name":"TOJI ENGINEERING, LTD","contact_3_type":"CONTRACTOR-ELECTRICAL","contact_4_city":"NORTHBROOK","contact_4_name":"PNK CONSTRUCTION, INC.","contact_4_type":"CONTRACTOR-GENERAL CONTRACTOR","contact_5_city":"GLENVIEW","contact_5_name":"GANA PLUMIBNG","contact_5_type":"CONTRACTOR-PLUMBER/PLUMBING","other_fee_paid":"$0.00","contact_1_state":"IL","contact_2_state":"IL","contact_3_state":"IL","contact_4_state":"IL","contact_5_state":"IL","processing_time":"44","subtotal_unpaid":"$0.00","subtotal_waived":"$0.00","zoning_fee_paid":"$75.00","other_fee_unpaid":"$0.00","other_fee_waived":"$0.00","permit_milestone":"INSPECTIONS (CERTIFICATE OF OCCUPANCY REQUIRED)","street_direction":"W","building_fee_paid":"$723.98","contact_1_zipcode":"60614","contact_2_zipcode":"60008","contact_3_zipcode":"60148","contact_4_zipcode":"60062","contact_5_zipcode":"60025","zoning_fee_unpaid":"$0.00","zoning_fee_waived":"$0.00","other_fee_subtotal":"$0","building_fee_unpaid":"$0.00","building_fee_waived":"$0.00","zoning_fee_subtotal":"$75","building_fee_subtotal":"$723.98"},"geometry":{"type":"Point","coordinates":[-87.682469707,42.019354141]}},{"type":"Feature","properties":{"date":"2014-02-27T00:00:00.000Z","year":2014,"description":"INTERIOR ALTERATIONS TO EXISTING ONE STORY MASONRY TO EXISTING CELESTIAL CHURCH OF CHRIST","metadescription":"PERMIT - RENOVATION/ALTERATION. INTERIOR ALTERATIONS TO EXISTING ONE STORY MASONRY TO EXISTING CELESTIAL CHURCH OF CHRIST. COMPLETE. 2001","address":"7540 North DAMEN Avenue, Chicago, IL, CHICAGO, 60645, US","location":"POINT (-87.680509264082 42.019338018938)","pin_list":"1130310029","review_type":"STANDARD PLAN REVIEW","street_name":"HOWARD ST","xcoordinate":"1161642.5730644169","ycoordinate":"1950313.328701583","census_tract":"10201","subtotal_paid":"$775.00","community_area":"1","contact_1_city":"CHICAGO","contact_1_name":"BASIL RIZAKOS","contact_1_type":"OWNER","contact_2_city":"FORT LAUDERDALE","contact_2_name":"CASEY KENNETH EDWIN","contact_2_type":"ARCHITECT","contact_3_city":"SKOKIE","contact_3_name":"GP ELECTRIC","contact_3_type":"CONTRACTOR-ELECTRICAL","contact_4_city":"CHICAGO","contact_4_name":"CSV CONSULTANTS, INC.","contact_4_type":"EXPEDITOR","contact_5_city":"NORRIDGE","contact_5_name":"SV CONSTRUCTION & DEVELOPMENT, INC.","contact_5_type":"CONTRACTOR-GENERAL CONTRACTOR","other_fee_paid":"$0.00","contact_1_state":"IL","contact_2_state":"FL","contact_3_state":"IL","contact_4_state":"IL","contact_5_state":"IL","processing_time":"16","subtotal_unpaid":"$0.00","subtotal_waived":"$0.00","zoning_fee_paid":"$75.00","other_fee_unpaid":"$0.00","other_fee_waived":"$0.00","permit_milestone":"COMPLETE","street_direction":"W","building_fee_paid":"$700.00","contact_1_zipcode":"60645","contact_2_zipcode":"33312","contact_3_zipcode":"60077","contact_4_zipcode":"60610-","contact_5_zipcode":"60706","zoning_fee_unpaid":"$0.00","zoning_fee_waived":"$0.00","other_fee_subtotal":"$0","building_fee_unpaid":"$0.00","building_fee_waived":"$0.00","zoning_fee_subtotal":"$75","building_fee_subtotal":"$700"},"geometry":{"type":"Point","coordinates":[-87.680509264,42.019338019]}},{"type":"Feature","properties":{"date":"2013-08-02T00:00:00.000Z","year":2013,"description":"REPAIRS TO EXISTING (3) STORY REAR WOOD PORCH PER PLANS.","metadescription":"PERMIT - RENOVATION/ALTERATION. REPAIRS TO EXISTING (3) STORY REAR WOOD PORCH PER PLANS.. COMPLETE. 2335","address":"2335 West HOWARD Street, Chicago, IL, CHICAGO, 60645, US","location":"POINT (-87.68910150503 42.019419393235)","pin_list":"1130300009","review_type":"STANDARD PLAN REVIEW","street_name":"HOWARD ST","xcoordinate":"1159307.560684087","ycoordinate":"1950325.2913640172","census_tract":"20100","subtotal_paid":"$200.00","community_area":"2","contact_1_city":"CHICAGO","contact_1_name":"UNIVERSAL REALTY GROUP","contact_1_type":"OWNER","contact_2_city":"LAGRANGE","contact_2_name":"VARI, RONALD","contact_2_type":"ARCHITECT","contact_3_city":"CHICAGO","contact_3_name":"URG CONSTRUCTION, LLC","contact_3_type":"CONTRACTOR-GENERAL CONTRACTOR","other_fee_paid":"$0.00","contact_1_state":"IL","contact_2_state":"IL","contact_3_state":"IL","processing_time":"0","subtotal_unpaid":"$0.00","subtotal_waived":"$0.00","zoning_fee_paid":"$75.00","other_fee_unpaid":"$0.00","other_fee_waived":"$0.00","permit_milestone":"COMPLETE","street_direction":"W","building_fee_paid":"$125.00","contact_1_zipcode":"60645","contact_2_zipcode":"60525","contact_3_zipcode":"60645","zoning_fee_unpaid":"$0.00","zoning_fee_waived":"$0.00","other_fee_subtotal":"$0","building_fee_unpaid":"$0.00","building_fee_waived":"$0.00","zoning_fee_subtotal":"$75","building_fee_subtotal":"$125"},"geometry":{"type":"Point","coordinates":[-87.689101505,42.019419393]}},{"type":"Feature","properties":{"date":"2013-01-30T00:00:00.000Z","year":2013,"description":"SMALL PROJECT - REPLACE (1) EXISTING OPEN WOOD PORCH SAME SIZE AND LOCATION","metadescription":"PERMIT - RENOVATION/ALTERATION. SMALL PROJECT - REPLACE (1) EXISTING OPEN WOOD PORCH SAME SIZE AND LOCATION. COMPLETE. 2705","address":"2701 West HOWARD Street, Chicago, IL, CHICAGO, 60645, US","location":"POINT (-87.697498008492 42.019263030688)","pin_list":"1025400021","review_type":"STANDARD PLAN REVIEW","street_name":"HOWARD ST","xcoordinate":"1157026.3862896217","ycoordinate":"1950251.2504071577","census_tract":"20200","subtotal_paid":"$200.00","community_area":"2","contact_1_city":"GLENVIEW","contact_1_name":"ALI MOHAMED V","contact_1_type":"STRUCTURAL ENGINEER","contact_2_city":"CHICAGO","contact_2_name":"DARA CONSULTING","contact_2_type":"EXPEDITOR","contact_3_city":"CHICAGO","contact_3_name":"WILBERT MOORE","contact_3_type":"CONTRACTOR-GENERAL CONTRACTOR","contact_4_city":"DOLTON","contact_4_name":"BATISTE MASONRY","contact_4_type":"MASONRY CONTRACTOR","contact_5_city":"CHICAGO","contact_5_name":"DINESH KUMAR","contact_5_type":"OWNER","other_fee_paid":"$0.00","contact_1_state":"IL","contact_2_state":"IL","contact_3_state":"IL","contact_4_state":"IL","contact_5_state":"IL","processing_time":"0","subtotal_unpaid":"$0.00","subtotal_waived":"$0.00","zoning_fee_paid":"$75.00","other_fee_unpaid":"$0.00","other_fee_waived":"$0.00","permit_milestone":"COMPLETE","street_direction":"W","building_fee_paid":"$125.00","contact_1_zipcode":"60025-","contact_2_zipcode":"60614-","contact_3_zipcode":"60644","contact_4_zipcode":"60419","contact_5_zipcode":"60645","zoning_fee_unpaid":"$0.00","zoning_fee_waived":"$0.00","other_fee_subtotal":"$0","building_fee_unpaid":"$0.00","building_fee_waived":"$0.00","zoning_fee_subtotal":"$75","building_fee_subtotal":"$125"},"geometry":{"type":"Point","coordinates":[-87.697498008,42.019263031]}},{"type":"Feature","properties":{"date":"2012-05-10T00:00:00.000Z","year":2012,"description":"PROPOSED INTERIOR & EXTERIOR REMODEL OF AN EXISTING DUNKIN DONUTS-BASKIN ROBBINS RESTAURANT AS PER PLAN ********NO HVAC WORK, EXISTING RTU'S******","metadescription":"PERMIT - RENOVATION/ALTERATION. PROPOSED INTERIOR & EXTERIOR REMODEL OF AN EXISTING DUNKIN DONUTS-BASKIN ROBBINS RESTAURANT AS PER PLAN ********NO HVAC WORK, EXISTING RTU'S******. COMPLETE. 7578","address":"7578 North WESTERN Avenue, Chicago, IL, CHICAGO, 60645, US","location":"POINT (-87.690322022083 42.019438998687)","pin_list":"1025402004","review_type":"STANDARD PLAN REVIEW","street_name":"WESTERN AVE","xcoordinate":"1158975.8535919827","ycoordinate":"1950329.9418025876","census_tract":"20200","subtotal_paid":"$1,325.00","community_area":"2","contact_1_city":"CHICAGO","contact_1_name":"KARKHANIS, ATUL P","contact_1_type":"ARCHITECT","contact_2_city":"SCHAMBURG","contact_2_name":"POWER SOURCE ELECTRIC, INC.","contact_2_type":"CONTRACTOR-ELECTRICAL","contact_3_city":"HARWOOD HEIGHTS","contact_3_name":"LEVEL CONSTRUCTION, INC","contact_3_type":"CONTRACTOR-GENERAL CONTRACTOR","contact_4_city":"TINLEY PARK","contact_4_name":"FATHER & SONS PLUMBING & SEWER","contact_4_type":"CONTRACTOR-PLUMBER/PLUMBING","contact_5_city":"BARTLETT","contact_5_name":"AMYN ALI","contact_5_type":"OWNER","other_fee_paid":"$0.00","contact_1_state":"IL","contact_2_state":"IL","contact_3_state":"IL","contact_4_state":"IL","contact_5_state":"IL","processing_time":"56","subtotal_unpaid":"$0.00","subtotal_waived":"$0.00","zoning_fee_paid":"$75.00","other_fee_unpaid":"$0.00","other_fee_waived":"$0.00","permit_milestone":"COMPLETE","street_direction":"N","building_fee_paid":"$1,250.00","contact_1_zipcode":"60659-","contact_2_zipcode":"60193","contact_3_zipcode":"60706","contact_4_zipcode":"60487","contact_5_zipcode":"60103","zoning_fee_unpaid":"$0.00","zoning_fee_waived":"$0.00","other_fee_subtotal":"$0","building_fee_unpaid":"$0.00","building_fee_waived":"$0.00","zoning_fee_subtotal":"$75","building_fee_subtotal":"$1,250"},"geometry":{"type":"Point","coordinates":[-87.690322022,42.019438999]}},{"type":"Feature","properties":{"date":"2011-12-14T00:00:00.000Z","year":2011,"description":"REMOVE AND REPLACE 3 OF 8 EXISTING ANTENNAS WITH NEW TECHNOLOGY AND ADD 3 NEW ANTENNAS WITH RELATED ELECTRICAL EQUIPMENT TO AN EXISTING WIRELESS COMMUNICATIONS FACILITY AS PER PLANS. CH01XC150","metadescription":"PERMIT - RENOVATION/ALTERATION. REMOVE AND REPLACE 3 OF 8 EXISTING ANTENNAS WITH NEW TECHNOLOGY AND ADD 3 NEW ANTENNAS WITH RELATED ELECTRICAL EQUIPMENT TO AN EXISTING WIRELESS COMMUNICATIONS FACILITY AS PER PLANS. CH01XC150. COMPLETE. 2101","address":"2059 West HOWARD Street, Chicago, IL, CHICAGO, 60645, US","location":"POINT (-87.683061655971 42.019359224207)","review_type":"STANDARD PLAN REVIEW","street_name":"HOWARD ST","xcoordinate":"1160948.9470566893","ycoordinate":"1950315.7764159578","census_tract":"102","subtotal_paid":"$1,150.00","community_area":"1","contact_1_city":"ELMHURST","contact_1_name":"SPRINT COMMUNICATIONS","contact_1_type":"OWNER","contact_2_city":"ROSEMONT","contact_2_name":"ROKACH, ABRAHAM J","contact_2_type":"STRUCTURAL ENGINEER","contact_3_city":"CHICAGO","contact_3_name":"K & A ELECTRIC","contact_3_type":"CONTRACTOR-ELECTRICAL","contact_4_city":"CHICAGO","contact_4_name":"PHASE 1 CONSULTING INC.","contact_4_type":"EXPEDITOR","contact_5_city":"CONYERS","contact_5_name":"OVERLAND CONTRACTING, INC.","contact_5_type":"CONTRACTOR-GENERAL CONTRACTOR","other_fee_paid":"$0.00","contact_1_state":"IL","contact_2_state":"IL","contact_3_state":"IL","contact_4_state":"IL","contact_5_state":"GA","processing_time":"70","subtotal_unpaid":"$0.00","subtotal_waived":"$0.00","zoning_fee_paid":"$150.00","other_fee_unpaid":"$0.00","other_fee_waived":"$0.00","permit_milestone":"COMPLETE","street_direction":"W","building_fee_paid":"$1,000.00","contact_1_zipcode":"60126","contact_2_zipcode":"60018","contact_3_zipcode":"60630","contact_4_zipcode":"60606-","contact_5_zipcode":"30013-","zoning_fee_unpaid":"$0.00","zoning_fee_waived":"$0.00","other_fee_subtotal":"$0","building_fee_unpaid":"$0.00","building_fee_waived":"$0.00","zoning_fee_subtotal":"$150","building_fee_subtotal":"$1,000"},"geometry":{"type":"Point","coordinates":[-87.683061656,42.019359224]}},{"type":"Feature","properties":{"date":"2010-12-07T00:00:00.000Z","year":2010,"description":"INSTALL 31 GAS FIRED UNIT HEATERS IN EXITING 5-STORY PUBLIC STORAGE FACILITY AS PER PLANS.","metadescription":"PERMIT - RENOVATION/ALTERATION. INSTALL 31 GAS FIRED UNIT HEATERS IN EXITING 5-STORY PUBLIC STORAGE FACILITY AS PER PLANS.. COMPLETE. 2101","address":"2059 West HOWARD Street, Chicago, IL, CHICAGO, 60645, US","location":"POINT (-87.683061655971 42.019359224207)","pin_list":"1130308024","review_type":"STANDARD PLAN REVIEW","street_name":"HOWARD ST","xcoordinate":"1160948.9470566893","ycoordinate":"1950315.7764159578","census_tract":"102","subtotal_paid":"$1,075.00","community_area":"1","contact_1_city":"WESTMONT","contact_1_name":"PUBLIC STORAGE","contact_1_type":"OWNER OCCUPIED","contact_2_city":"NAPERVILLE","contact_2_name":"RICHTER, BRET L","contact_2_type":"ARCHITECT","contact_3_city":"PALATINE","contact_3_name":"WATTS ELECTRIC COMPANY, INC.","contact_3_type":"CONTRACTOR-ELECTRICAL","contact_4_city":"CHICAGO","contact_4_name":"BURNHAM NATIONWIDE, INC.","contact_4_type":"EXPEDITOR","contact_5_city":"CHICAGO","contact_5_name":"WAIKATO ENTERPRISES, INC","contact_5_type":"CONTRACTOR-GENERAL CONTRACTOR","contact_6_city":"CHICAGO","contact_6_name":"PATRICK MECHANICAL","contact_6_type":"CONTRACTOR-VENTILATION","other_fee_paid":"$0.00","contact_1_state":"IL","contact_2_state":"IL","contact_3_state":"IL","contact_4_state":"IL","contact_5_state":"IL","contact_6_state":"IL","processing_time":"56","subtotal_unpaid":"$0.00","subtotal_waived":"$0.00","zoning_fee_paid":"$75.00","other_fee_unpaid":"$0.00","other_fee_waived":"$0.00","permit_milestone":"COMPLETE","street_direction":"W","building_fee_paid":"$1,000.00","contact_1_zipcode":"60559","contact_2_zipcode":"60565-","contact_3_zipcode":"60067-","contact_4_zipcode":"60602-","contact_5_zipcode":"60654","contact_6_zipcode":"60656-","zoning_fee_unpaid":"$0.00","zoning_fee_waived":"$0.00","other_fee_subtotal":"$0","building_fee_unpaid":"$0.00","building_fee_waived":"$0.00","zoning_fee_subtotal":"$75","building_fee_subtotal":"$1,000"},"geometry":{"type":"Point","coordinates":[-87.683061656,42.019359224]}},{"type":"Feature","properties":{"date":"2009-08-18T00:00:00.000Z","year":2009,"description":"INSTALL 1 NEW DISH ANTENNA ON AN EXISTING ROOFTOP WIRELESS COMMUNICATIONS FACILITY AS PER PLANS.","metadescription":"PERMIT - RENOVATION/ALTERATION. INSTALL 1 NEW DISH ANTENNA ON AN EXISTING ROOFTOP WIRELESS COMMUNICATIONS FACILITY AS PER PLANS.. COMPLETE. 2101","address":"2059 West HOWARD Street, Chicago, IL, CHICAGO, 60645, US","location":"POINT (-87.683061655971 42.019359224207)","review_type":"STANDARD PLAN REVIEW","street_name":"HOWARD ST","xcoordinate":"1160948.9470566893","ycoordinate":"1950315.7764159578","census_tract":"102","subtotal_paid":"$575.00","community_area":"1","contact_1_city":"ROSEMONT","contact_1_name":"CLEAR WIRELESS LLC","contact_1_type":"OWNER","contact_2_city":"ROSEMONT","contact_2_name":"ROKACH, ABRAHAM J","contact_2_type":"STRUCTURAL ENGINEER","contact_3_city":"BRIDGEVIEW","contact_3_name":"BME ELECTRIC, INC.","contact_3_type":"CONTRACTOR-ELECTRICAL","contact_4_city":"CHICAGO","contact_4_name":"PHASE 1 CONSULTING INC.","contact_4_type":"EXPEDITOR","contact_5_city":"OKLAHOMA CITY","contact_5_name":"MIDWEST UNDERGROUND TECH., INC.","contact_5_type":"CONTRACTOR-GENERAL CONTRACTOR","other_fee_paid":"$0.00","contact_1_state":"IL","contact_2_state":"IL","contact_3_state":"IL","contact_4_state":"IL","contact_5_state":"OK","processing_time":"40","subtotal_unpaid":"$0.00","subtotal_waived":"$0.00","zoning_fee_paid":"$75.00","other_fee_unpaid":"$0.00","other_fee_waived":"$0.00","permit_milestone":"COMPLETE","street_direction":"W","building_fee_paid":"$500.00","contact_1_zipcode":"60018","contact_2_zipcode":"60018","contact_3_zipcode":"60455-","contact_4_zipcode":"60606-","contact_5_zipcode":"73116","zoning_fee_unpaid":"$0.00","zoning_fee_waived":"$0.00","other_fee_subtotal":"$0","building_fee_unpaid":"$0.00","building_fee_waived":"$0.00","zoning_fee_subtotal":"$75","building_fee_subtotal":"$500"},"geometry":{"type":"Point","coordinates":[-87.683061656,42.019359224]}},{"type":"Feature","properties":{"date":"2009-03-25T00:00:00.000Z","year":2009,"description":"ERECT A 7'-10\" BY 22'-0\" CARPORT ATTACHED TO EXISTING BRICK GARAGE AS PER PLANSNO ELECTRICAL WORK WITH THIS PERMIT","metadescription":"PERMIT - RENOVATION/ALTERATION. ERECT A 7'-10\" BY 22'-0\" CARPORT ATTACHED TO EXISTING BRICK GARAGE AS PER PLANSNO ELECTRICAL WORK WITH THIS PERMIT. COMPLETE. 2639","address":"2635 West HOWARD Street, Chicago, IL, CHICAGO, 60645, US","location":"POINT (-87.696365622712 42.019287210113)","pin_list":"1025401050","review_type":"STANDARD PLAN REVIEW","street_name":"HOWARD ST","xcoordinate":"1157334.026766535","ycoordinate":"1950262.3494616083","census_tract":"202","subtotal_paid":"$200.00","community_area":"2","contact_1_city":"CHICAGO","contact_1_name":"RUBEN & MARILYN YADAO","contact_1_type":"OWNER AS ARCHITECT & CONTRACTR","other_fee_paid":"$0.00","contact_1_state":"IL","processing_time":"0","subtotal_unpaid":"$0.00","subtotal_waived":"$0.00","zoning_fee_paid":"$75.00","other_fee_unpaid":"$0.00","other_fee_waived":"$0.00","permit_milestone":"COMPLETE","street_direction":"W","building_fee_paid":"$125.00","contact_1_zipcode":"60645","zoning_fee_unpaid":"$0.00","zoning_fee_waived":"$0.00","other_fee_subtotal":"$0","building_fee_unpaid":"$0.00","building_fee_waived":"$0.00","zoning_fee_subtotal":"$75","building_fee_subtotal":"$125"},"geometry":{"type":"Point","coordinates":[-87.696365623,42.01928721]}},{"type":"Feature","properties":{"date":"2008-08-27T00:00:00.000Z","year":2008,"description":"REPLACE EXISTING TOILET ROOMS WITH HANDICAP ACCESSIBLE TOILET ROOMS.","metadescription":"PERMIT - RENOVATION/ALTERATION. REPLACE EXISTING TOILET ROOMS WITH HANDICAP ACCESSIBLE TOILET ROOMS.. COMPLETE. 2727","address":"2727 West HOWARD Street, Chicago, IL, CHICAGO, 60645, US","location":"POINT (-87.698331709444 42.019245840974)","pin_list":"1025400049","review_type":"STANDARD PLAN REVIEW","street_name":"HOWARD ST","xcoordinate":"1156799.88910089","ycoordinate":"1950243.3045258601","census_tract":"202","subtotal_paid":"$825.00","community_area":"2","contact_1_city":"CHICAGO","contact_1_name":"DINO KARAGEORGIS","contact_1_type":"OWNER","contact_2_city":"SKOKIE","contact_2_name":"SCHMITT, DAVID L","contact_2_type":"ARCHITECT","contact_3_city":"OLDSMAR","contact_3_name":"PETER'S ELECTRIC","contact_3_type":"CONTRACTOR-ELECTRICAL","contact_4_city":"CHICAGO","contact_4_name":"AXIS DEVELOPMENT GROUP, LLC","contact_4_type":"CONTRACTOR-GENERAL CONTRACTOR","contact_5_city":"SKOKIE","contact_5_name":"PL13941-GUZ RIZAKOS DBA","contact_5_type":"PLUMBING CONTRACTOR","contact_6_city":"DARIEN","contact_6_name":"STINGRAY MECHANICAL","contact_6_type":"CONTRACTOR-VENTILATION","other_fee_paid":"$0.00","contact_1_state":"ILL;","contact_2_state":"IL","contact_3_state":"FL","contact_4_state":"IL","contact_5_state":"IL","contact_6_state":"IL","processing_time":"85","subtotal_unpaid":"$0.00","subtotal_waived":"$0.00","zoning_fee_paid":"$75.00","other_fee_unpaid":"$0.00","other_fee_waived":"$0.00","permit_milestone":"COMPLETE","street_direction":"W","building_fee_paid":"$750.00","contact_1_zipcode":"60645","contact_2_zipcode":"60076","contact_3_zipcode":"34677","contact_4_zipcode":"60641","contact_5_zipcode":"60077-","contact_6_zipcode":"60561-","zoning_fee_unpaid":"$0.00","zoning_fee_waived":"$0.00","other_fee_subtotal":"$0","building_fee_unpaid":"$0.00","building_fee_waived":"$0.00","zoning_fee_subtotal":"$75","building_fee_subtotal":"$750"},"geometry":{"type":"Point","coordinates":[-87.698331709,42.019245841]}},{"type":"Feature","properties":{"date":"2007-11-05T00:00:00.000Z","year":2007,"description":"RELOCATE EXISTING ANTENNAS ALONG WITH ADDING NEW ANTENNAS ON EXISTING ANTENNA MOUNT WITH ELECTRICAL CABINETS ON ROOF TOP AS PER PLANS.","metadescription":"PERMIT - RENOVATION/ALTERATION. RELOCATE EXISTING ANTENNAS ALONG WITH ADDING NEW ANTENNAS ON EXISTING ANTENNA MOUNT WITH ELECTRICAL CABINETS ON ROOF TOP AS PER PLANS.. COMPLETE. 2101","address":"2059 West HOWARD Street, Chicago, IL, CHICAGO, 60645, US","location":"POINT (-87.683061655971 42.019359224207)","review_type":"STANDARD PLAN REVIEW","street_name":"HOWARD ST","xcoordinate":"1160948.9470566893","ycoordinate":"1950315.7764159578","subtotal_paid":"$620.00","contact_1_city":"CHICAGO","contact_1_name":"PUBLIC STORAGE","contact_1_type":"OWNER","contact_2_city":"ROSEMONT","contact_2_name":"ROKACH, ABRAHAM J","contact_2_type":"STRUCTURAL ENGINEER","contact_3_city":"CHICAGO","contact_3_name":"EEI, INC,","contact_3_type":"CONTRACTOR-ELECTRICAL","contact_4_city":"CHICAGO","contact_4_name":"PHASE 1 CONSULTING","contact_4_type":"EXPEDITOR","contact_5_city":"ELK GROVE","contact_5_name":"WIGDAHL ELECTRIC CO., INC","contact_5_type":"CONTRACTOR-GENERAL CONTRACTOR","other_fee_paid":"$0.00","contact_1_state":"IL","contact_2_state":"IL","contact_3_state":"IL","contact_4_state":"IL","contact_5_state":"IL","processing_time":"61","subtotal_unpaid":"$0.00","subtotal_waived":"$0.00","zoning_fee_paid":"$75.00","other_fee_unpaid":"$0.00","other_fee_waived":"$0.00","permit_milestone":"COMPLETE","street_direction":"W","building_fee_paid":"$545.00","contact_1_zipcode":"60645","contact_2_zipcode":"60018","contact_3_zipcode":"60634","contact_4_zipcode":"60606-","contact_5_zipcode":"60007-","zoning_fee_unpaid":"$0.00","zoning_fee_waived":"$0.00","other_fee_subtotal":"$0","building_fee_unpaid":"$0.00","building_fee_waived":"$0.00","zoning_fee_subtotal":"$75","building_fee_subtotal":"$545"},"geometry":{"type":"Point","coordinates":[-87.683061656,42.019359224]}},{"type":"Feature","properties":{"date":"2007-06-26T00:00:00.000Z","year":2007,"description":"INTERIOR REMODLEING OF AN EXISTING SPACE FOR A FIFTH THIRD BANK AND A NEW EXTERIOR DRIVE UP.","metadescription":"PERMIT - RENOVATION/ALTERATION. INTERIOR REMODLEING OF AN EXISTING SPACE FOR A FIFTH THIRD BANK AND A NEW EXTERIOR DRIVE UP.. COMPLETE. 7572","address":"7578 North WESTERN Avenue, Chicago, IL, CHICAGO, 60645, US","location":"POINT (-87.690323901551 42.019313691179)","review_type":"STANDARD PLAN REVIEW","street_name":"WESTERN AVE","xcoordinate":"1158975.6859260027","ycoordinate":"1950284.2749717121","subtotal_paid":"$3,467.00","contact_1_city":"DES PLAINES","contact_1_name":"THEODORE SR THEODORE JOHN","contact_1_type":"SELF CERT ARCHITECT","contact_2_city":"WILLOWBROOK","contact_2_name":"MEADE ELECTRIC COMPANY, INC.","contact_2_type":"CONTRACTOR-ELECTRICAL","contact_3_city":"CHICAGO","contact_3_name":"INTERIOR CONSTRUCTION GROUP, INC","contact_3_type":"CONTRACTOR-GENERAL CONTRACTOR","contact_4_city":"BROADVIEW","contact_4_name":"AIR COMFORT CORP","contact_4_type":"CONTRACTOR-HEATING","contact_5_city":"CHICAGO","contact_5_name":"ZIELKE MASONRY, INC","contact_5_type":"MASON - BRICK AND CONCRETE","contact_6_city":"LAKE FOREST","contact_6_name":"PL12316-PIENTKA PLUMBING","contact_6_type":"CONTRACTOR-PLUMBER/PLUMBING","contact_7_city":"BROADVIEW","contact_7_name":"AIR COMFORT CORPORATION","contact_7_type":"CONTRACTOR-REFRIGERATION","other_fee_paid":"$0.00","contact_1_state":"IL","contact_2_state":"IL","contact_3_state":"IL","contact_4_state":"IL","contact_5_state":"IL","contact_6_state":"IL","contact_7_state":"IL","subtotal_unpaid":"$0.00","subtotal_waived":"$0.00","zoning_fee_paid":"$75.00","other_fee_unpaid":"$0.00","other_fee_waived":"$0.00","permit_milestone":"COMPLETE","street_direction":"N","building_fee_paid":"$3,392.00","contact_1_zipcode":"60016","contact_2_zipcode":"60527","contact_3_zipcode":"60602","contact_4_zipcode":"60152-","contact_5_zipcode":"60612-","contact_6_zipcode":"60045-","contact_7_zipcode":"60155","zoning_fee_unpaid":"$0.00","zoning_fee_waived":"$0.00","other_fee_subtotal":"$0","building_fee_unpaid":"$0.00","building_fee_waived":"$0.00","zoning_fee_subtotal":"$75","building_fee_subtotal":"$3,392"},"geometry":{"type":"Point","coordinates":[-87.690323902,42.019313691]}},{"type":"Feature","properties":{"date":"2007-03-30T00:00:00.000Z","year":2007,"description":"ALTERATION OF EXISTING FACADE.  INSTALL NEW EXTERIOR FINISH SYSTEM OVER EXISTING CONSTRUCTION.  RAISE PARAPET ON LOWER PORTION OF STRUCTURE TO ALIGN WITH HIGHER PARAPET.  PAINT EXISTING FACADE FROM TOP OF STOREFRONT TO GRADE.","metadescription":"PERMIT - RENOVATION/ALTERATION. ALTERATION OF EXISTING FACADE.  INSTALL NEW EXTERIOR FINISH SYSTEM OVER EXISTING CONSTRUCTION.  RAISE PARAPET ON LOWER PORTION OF STRUCTURE TO ALIGN WITH HIGHER PARAPET.  PAINT EXISTING FACADE FROM TOP OF STOREFRONT TO GRADE.. COMPLETE. 2341","address":"7560 North CLAREMONT Avenue, Chicago, IL, CHICAGO, 60645, US","location":"POINT (-87.689353072529 42.019420151811)","review_type":"STANDARD PLAN REVIEW","street_name":"HOWARD ST","xcoordinate":"1159239.1996886756","ycoordinate":"1950325.0533691144","subtotal_paid":"$385.00","contact_1_city":"ELK GROVE VILLAGE","contact_1_name":"STAUB JOHN T","contact_1_type":"ARCHITECT","contact_2_city":"CHICAGO","contact_2_name":"PK CONSTRUCTION SERVICES, INC","contact_2_type":"CONTRACTOR-GENERAL CONTRACTOR","contact_3_city":"OAKBROOK","contact_3_name":"DEAN LEV","contact_3_type":"OWNER","other_fee_paid":"$0.00","contact_1_state":"IL","contact_2_state":"IL","contact_3_state":"IL","processing_time":"66","subtotal_unpaid":"$0.00","subtotal_waived":"$0.00","zoning_fee_paid":"$75.00","other_fee_unpaid":"$0.00","other_fee_waived":"$0.00","permit_milestone":"COMPLETE","street_direction":"W","building_fee_paid":"$310.00","contact_1_zipcode":"60007","contact_2_zipcode":"60622","contact_3_zipcode":"60523","zoning_fee_unpaid":"$0.00","zoning_fee_waived":"$0.00","other_fee_subtotal":"$0","building_fee_unpaid":"$0.00","building_fee_waived":"$0.00","zoning_fee_subtotal":"$75","building_fee_subtotal":"$310"},"geometry":{"type":"Point","coordinates":[-87.689353073,42.019420152]}},{"type":"Feature","properties":{"date":"2007-03-28T00:00:00.000Z","year":2007,"description":"REPLACE (4) EXISTING OPEN WOOD PORCHES WITH NEW OPEN METAL PORCH SAME SIZE AND LOCATIONS PER PLANS","metadescription":"PERMIT - RENOVATION/ALTERATION. REPLACE (4) EXISTING OPEN WOOD PORCHES WITH NEW OPEN METAL PORCH SAME SIZE AND LOCATIONS PER PLANS. COMPLETE. 2131","address":"7559 North RIDGE Boulevard, Chicago, IL, CHICAGO, 60645, US","location":"POINT (-87.684393616366 42.019372483522)","review_type":"SELF CERT","street_name":"HOWARD ST","xcoordinate":"1160586.973906129","ycoordinate":"1950317.8612514725","subtotal_paid":"$310.00","contact_1_city":"ITASCA","contact_1_name":"ANSARI, NASEER","contact_1_type":"ARCHITECT","contact_2_city":"CHICAGO","contact_2_name":"NORTHWEST EXPRESS REMODELING","contact_2_type":"CONTRACTOR-GENERAL CONTRACTOR","contact_3_city":"MT. PROSPECT","contact_3_name":"ROBERT HORAK MASONRY","contact_3_type":"MASON - BRICK AND CONCRETE","contact_4_city":"CHICAGO","contact_4_name":"GEORGE POP","contact_4_type":"OWNER","other_fee_paid":"$0.00","contact_1_state":"IL","contact_2_state":"IL","contact_3_state":"IL","contact_4_state":"IL","processing_time":"12","subtotal_unpaid":"$0.00","subtotal_waived":"$0.00","zoning_fee_paid":"$75.00","other_fee_unpaid":"$0.00","other_fee_waived":"$0.00","permit_milestone":"COMPLETE","street_direction":"W","building_fee_paid":"$235.00","contact_1_zipcode":"60143-","contact_2_zipcode":"60659","contact_3_zipcode":"60056-","contact_4_zipcode":"60659","zoning_fee_unpaid":"$0.00","zoning_fee_waived":"$0.00","other_fee_subtotal":"$0","building_fee_unpaid":"$0.00","building_fee_waived":"$0.00","zoning_fee_subtotal":"$75","building_fee_subtotal":"$235"},"geometry":{"type":"Point","coordinates":[-87.684393616,42.019372484]}},{"type":"Feature","properties":{"date":"2006-11-30T00:00:00.000Z","year":2006,"description":"RENOVATION OF AN EXISTING MERCANTILE SPACE FOR A NEW COFFEE SHOP, INCLUDING A WATER SERVICE UPGRADE, MINOR STRUCTURAL WORK AND NEW INTERIOR PARTITIONS, FINISHES AND CASEWORK.","metadescription":"PERMIT - RENOVATION/ALTERATION. RENOVATION OF AN EXISTING MERCANTILE SPACE FOR A NEW COFFEE SHOP, INCLUDING A WATER SERVICE UPGRADE, MINOR STRUCTURAL WORK AND NEW INTERIOR PARTITIONS, FINISHES AND CASEWORK.. COMPLETE. 2357","address":"7578 North WESTERN Avenue, Chicago, IL, CHICAGO, 60645, US","location":"POINT (-87.690025077606 42.019420972435)","review_type":"SELF CERT","street_name":"HOWARD ST","xcoordinate":"1159056.592225989","ycoordinate":"1950323.979225369","subtotal_paid":"$2,447.00","contact_1_city":"LINCOLNSHIRE","contact_1_name":"SOOS, ROBERT","contact_1_type":"SELF CERT ARCHITECT","contact_2_city":"CHICAGO","contact_2_name":"TOM BANKS","contact_2_type":"BUILDING OWNER","contact_3_city":"SCHAUMBURG","contact_3_name":"GTS ELECTRIC INC.","contact_3_type":"CONTRACTOR-ELECTRICAL","contact_4_city":"NAPERVILLE","contact_4_name":"COMPREHENSIVE CONSTRUCTION SERVICES, INC","contact_4_type":"CONTRACTOR-GENERAL CONTRACTOR","contact_5_city":"ST.CHARLES","contact_5_name":"IDEAL MECHANICAL CORP","contact_5_type":"CONTRACTOR-REFRIGERATION","contact_6_city":"ST.CHARLES","contact_6_name":"IDEAL MECHANICAL CORP","contact_6_type":"CONTRACTOR-VENTILATION","other_fee_paid":"$0.00","contact_1_state":"IL","contact_2_state":"IL","contact_3_state":"IL","contact_4_state":"IL","contact_5_state":"IL","contact_6_state":"IL","processing_time":"0","subtotal_unpaid":"$0.00","subtotal_waived":"$0.00","zoning_fee_paid":"$75.00","other_fee_unpaid":"$0.00","other_fee_waived":"$0.00","permit_milestone":"COMPLETE","street_direction":"W","building_fee_paid":"$2,372.00","contact_1_zipcode":"60069","contact_2_zipcode":"60661","contact_3_zipcode":"60193-","contact_4_zipcode":"60540","contact_5_zipcode":"60174","contact_6_zipcode":"60174","zoning_fee_unpaid":"$0.00","zoning_fee_waived":"$0.00","other_fee_subtotal":"$0","building_fee_unpaid":"$0.00","building_fee_waived":"$0.00","zoning_fee_subtotal":"$75","building_fee_subtotal":"$2,372"},"geometry":{"type":"Point","coordinates":[-87.690025078,42.019420972]}}]}
