{"type":"FeatureCollection","features":[{"type":"Feature","properties":{"date":"2021-09-29T00:00:00.000Z","year":2021,"description":"INSTALL NEW DOOR OPERATOR AND REPLACEMENT DOORS FOR CAR 2, 5000LBS, 6 STOPS, PURSUANT TO SCOPE OF WORK SUBMITTED AND SUBJECT TO CITY OF CHICAGO DEPT. OF BUILDINGS ELEVATOR BUREAU INSPECTION (EV002706).","metadescription":"PERMIT - ELEVATOR EQUIPMENT. INSTALL NEW DOOR OPERATOR AND REPLACEMENT DOORS FOR CAR 2, 5000LBS, 6 STOPS, PURSUANT TO SCOPE OF WORK SUBMITTED AND SUBJECT TO CITY OF CHICAGO DEPT. OF BUILDINGS ELEVATOR BUREAU INSPECTION (EV002706).. 2101","address":"2059 West HOWARD Street, Chicago, IL, CHICAGO, 60645, US","location":"POINT (-87.683061655971 42.019359224207)","pin_list":"1130308024","review_type":"CONVEYANCE DEVICE PERMIT","street_name":"HOWARD ST","xcoordinate":"1160948.9470566893","ycoordinate":"1950315.7764159578","census_tract":"10201","subtotal_paid":"$300.00","community_area":"1","contact_1_city":"LOMBARD","contact_1_name":"KONE ELEVATOR COMPANY","contact_1_type":"CONTRACTOR-ELEVATOR","contact_2_city":"CHICAGO","contact_2_name":"PUBLIC STORAGE","contact_2_type":"OWNER","other_fee_paid":"$0.00","contact_1_state":"IL","contact_2_state":"IL","processing_time":"0","subtotal_unpaid":"$105.00","subtotal_waived":"$0.00","zoning_fee_paid":"$0.00","other_fee_unpaid":"$0.00","other_fee_waived":"$0.00","street_direction":"W","building_fee_paid":"$300.00","contact_1_zipcode":"60148-","contact_2_zipcode":"60645","zoning_fee_unpaid":"$0.00","zoning_fee_waived":"$0.00","other_fee_subtotal":"$0","building_fee_unpaid":"$105.00","building_fee_waived":"$0.00","zoning_fee_subtotal":"$0","building_fee_subtotal":"$405"},"geometry":{"type":"Point","coordinates":[-87.683061656,42.019359224]}},{"type":"Feature","properties":{"date":"2018-01-03T00:00:00.000Z","year":2018,"description":"REMOVE AND REPLACE THE EXISTING HYDRAULIC CYLINDER ON ONE (1) 5000LB.CAP, 6-STOP HYDRAULIC PASSENGER ELEVATOR #2. PURSUANT TO THE SCOPE OF WORK SUBMITTED. EV002706","metadescription":"PERMIT - ELEVATOR EQUIPMENT. REMOVE AND REPLACE THE EXISTING HYDRAULIC CYLINDER ON ONE (1) 5000LB.CAP, 6-STOP HYDRAULIC PASSENGER ELEVATOR #2. PURSUANT TO THE SCOPE OF WORK SUBMITTED. EV002706. 2101","address":"2059 West HOWARD Street, Chicago, IL, CHICAGO, 60645, US","location":"POINT (-87.683061655971 42.019359224207)","pin_list":"1130308024","review_type":"CONVEYANCE DEVICE PERMIT","street_name":"HOWARD ST","xcoordinate":"1160948.9470566893","ycoordinate":"1950315.7764159578","census_tract":"10201","subtotal_paid":"$405.00","community_area":"1","contact_1_city":"CHICAGO","contact_1_name":"OTIS ELEVATOR - CHICAGO","contact_1_type":"CONTRACTOR-ELEVATOR","contact_2_city":"WESTMONT","contact_2_name":"PUBLIC STORAGE","contact_2_type":"OWNER","other_fee_paid":"$0.00","contact_1_state":"IL","contact_2_state":"IL","processing_time":"0","subtotal_unpaid":"$0.00","subtotal_waived":"$0.00","zoning_fee_paid":"$0.00","other_fee_unpaid":"$0.00","other_fee_waived":"$0.00","street_direction":"W","building_fee_paid":"$405.00","contact_1_zipcode":"60661-","contact_2_zipcode":"60559-","zoning_fee_unpaid":"$0.00","zoning_fee_waived":"$0.00","other_fee_subtotal":"$0","building_fee_unpaid":"$0.00","building_fee_waived":"$0.00","zoning_fee_subtotal":"$0","building_fee_subtotal":"$405"},"geometry":{"type":"Point","coordinates":[-87.683061656,42.019359224]}}]}
