{"type":"FeatureCollection","features":[{"type":"Feature","properties":{"date":"2018-08-06T00:00:00.000Z","year":2018,"description":"INSTALLATION OF A LOW VOLTAGE FIRE RADIO","metadescription":"PERMIT – EXPRESS PERMIT PROGRAM. Electrical Work. INSTALLATION OF A LOW VOLTAGE FIRE RADIO. COMPLETE. 2053","address":"2049 West HOWARD Street, Chicago, IL, CHICAGO, 60645, US","location":"POINT (-87.682469707344 42.019354140977)","review_type":"EXPRESS PERMIT PROGRAM","street_name":"HOWARD ST","xcoordinate":"1161109.81264352","ycoordinate":"1950315.1466572725","census_tract":"10200","subtotal_paid":"$75.00","community_area":"1","contact_1_city":"AURORA","contact_1_name":"ALARM DETECTION SYSTEMS OF ILL","contact_1_type":"ELECTRICAL CONTRACTOR","contact_2_city":"AURORA","contact_2_name":"BONIFAS DALE","contact_2_type":"APPLICANT","other_fee_paid":"$0.00","contact_1_state":"IL","contact_2_state":"IL","processing_time":"26","subtotal_unpaid":"$0.00","subtotal_waived":"$0.00","zoning_fee_paid":"$0.00","other_fee_unpaid":"$0.00","other_fee_waived":"$0.00","permit_milestone":"COMPLETE","street_direction":"W","building_fee_paid":"$75.00","contact_1_zipcode":"60505","contact_2_zipcode":"60505","zoning_fee_unpaid":"$0.00","zoning_fee_waived":"$0.00","other_fee_subtotal":"$0","building_fee_unpaid":"$0.00","building_fee_waived":"$0.00","zoning_fee_subtotal":"$0","building_fee_subtotal":"$75"},"geometry":{"type":"Point","coordinates":[-87.682469707,42.019354141]}},{"type":"Feature","properties":{"date":"2014-01-08T00:00:00.000Z","year":2014,"description":"INSTALLATION OF D/C FA SYSTEM C3, TYPR-III OCCUPANCY LOCATED ON GND FL. CK#2029768;$100.00.","metadescription":"PERMIT – EXPRESS PERMIT PROGRAM. Fire Alarm System. INSTALLATION OF D/C FA SYSTEM C3, TYPR-III OCCUPANCY LOCATED ON GND FL. CK#2029768;$100.00.. COMPLETE. 2053","address":"2049 West HOWARD Street, Chicago, IL, CHICAGO, 60645, US","location":"POINT (-87.682469707344 42.019354140977)","review_type":"EXPRESS PERMIT PROGRAM","street_name":"HOWARD ST","xcoordinate":"1161109.81264352","ycoordinate":"1950315.1466572725","census_tract":"10200","subtotal_paid":"$50.00","community_area":"1","contact_1_city":"AURORA","contact_1_name":"ALARM DETECTION SYSTEM, INC","contact_1_type":"APPLICANT","contact_2_city":"AURORA","contact_2_name":"ALARM DETECTION SYSTEMS OF ILL","contact_2_type":"ELECTRICAL CONTRACTOR","other_fee_paid":"$0.00","contact_1_state":"ILLINOIS","contact_2_state":"IL","processing_time":"0","subtotal_unpaid":"$0.00","subtotal_waived":"$0.00","zoning_fee_paid":"$0.00","other_fee_unpaid":"$0.00","other_fee_waived":"$0.00","permit_milestone":"COMPLETE","street_direction":"W","building_fee_paid":"$50.00","contact_1_zipcode":"60505","contact_2_zipcode":"60505","zoning_fee_unpaid":"$0.00","zoning_fee_waived":"$0.00","other_fee_subtotal":"$0","building_fee_unpaid":"$0.00","building_fee_waived":"$0.00","zoning_fee_subtotal":"$0","building_fee_subtotal":"$50"},"geometry":{"type":"Point","coordinates":[-87.682469707,42.019354141]}},{"type":"Feature","properties":{"date":"2010-12-07T00:00:00.000Z","year":2010,"description":"INSTALL 31 GAS FIRED UNIT HEATERS IN EXITING 5-STORY PUBLIC STORAGE FACILITY AS PER PLANS.","metadescription":"PERMIT - RENOVATION/ALTERATION. INSTALL 31 GAS FIRED UNIT HEATERS IN EXITING 5-STORY PUBLIC STORAGE FACILITY AS PER PLANS.. COMPLETE. 2101","address":"2059 West HOWARD Street, Chicago, IL, CHICAGO, 60645, US","location":"POINT (-87.683061655971 42.019359224207)","pin_list":"1130308024","review_type":"STANDARD PLAN REVIEW","street_name":"HOWARD ST","xcoordinate":"1160948.9470566893","ycoordinate":"1950315.7764159578","census_tract":"102","subtotal_paid":"$1,075.00","community_area":"1","contact_1_city":"WESTMONT","contact_1_name":"PUBLIC STORAGE","contact_1_type":"OWNER OCCUPIED","contact_2_city":"NAPERVILLE","contact_2_name":"RICHTER, BRET L","contact_2_type":"ARCHITECT","contact_3_city":"PALATINE","contact_3_name":"WATTS ELECTRIC COMPANY, INC.","contact_3_type":"CONTRACTOR-ELECTRICAL","contact_4_city":"CHICAGO","contact_4_name":"BURNHAM NATIONWIDE, INC.","contact_4_type":"EXPEDITOR","contact_5_city":"CHICAGO","contact_5_name":"WAIKATO ENTERPRISES, INC","contact_5_type":"CONTRACTOR-GENERAL CONTRACTOR","contact_6_city":"CHICAGO","contact_6_name":"PATRICK MECHANICAL","contact_6_type":"CONTRACTOR-VENTILATION","other_fee_paid":"$0.00","contact_1_state":"IL","contact_2_state":"IL","contact_3_state":"IL","contact_4_state":"IL","contact_5_state":"IL","contact_6_state":"IL","processing_time":"56","subtotal_unpaid":"$0.00","subtotal_waived":"$0.00","zoning_fee_paid":"$75.00","other_fee_unpaid":"$0.00","other_fee_waived":"$0.00","permit_milestone":"COMPLETE","street_direction":"W","building_fee_paid":"$1,000.00","contact_1_zipcode":"60559","contact_2_zipcode":"60565-","contact_3_zipcode":"60067-","contact_4_zipcode":"60602-","contact_5_zipcode":"60654","contact_6_zipcode":"60656-","zoning_fee_unpaid":"$0.00","zoning_fee_waived":"$0.00","other_fee_subtotal":"$0","building_fee_unpaid":"$0.00","building_fee_waived":"$0.00","zoning_fee_subtotal":"$75","building_fee_subtotal":"$1,000"},"geometry":{"type":"Point","coordinates":[-87.683061656,42.019359224]}},{"type":"Feature","properties":{"date":"2006-07-18T00:00:00.000Z","year":2006,"description":"REPAIR SERVICE FOR FIRE PUMP USE.","metadescription":"PERMIT – EXPRESS PERMIT PROGRAM. Electrical Work. REPAIR SERVICE FOR FIRE PUMP USE.. COMPLETE. 2101","address":"2059 West HOWARD Street, Chicago, IL, CHICAGO, 60645, US","location":"POINT (-87.683061655971 42.019359224207)","review_type":"EXPRESS PERMIT PROGRAM","street_name":"HOWARD ST","xcoordinate":"1160948.9470566893","ycoordinate":"1950315.7764159578","census_tract":"10200","subtotal_paid":"$50.00","community_area":"1","contact_1_city":"ADDISON","contact_1_name":"SCHOLL ELECTRIC, INC","contact_1_type":"ELECTRICAL CONTRACTOR","contact_2_city":"WESTMONT","contact_2_name":"PUBLIC STORAGE","contact_2_type":"APPLICANT","other_fee_paid":"$0.00","contact_1_state":"IL","contact_2_state":"IL","processing_time":"0","subtotal_unpaid":"$0.00","subtotal_waived":"$0.00","zoning_fee_paid":"$0.00","other_fee_unpaid":"$0.00","other_fee_waived":"$0.00","permit_milestone":"COMPLETE","street_direction":"W","building_fee_paid":"$50.00","contact_1_zipcode":"60101","contact_2_zipcode":"60559","zoning_fee_unpaid":"$0.00","zoning_fee_waived":"$0.00","other_fee_subtotal":"$0","building_fee_unpaid":"$0.00","building_fee_waived":"$0.00","zoning_fee_subtotal":"$0","building_fee_subtotal":"$50"},"geometry":{"type":"Point","coordinates":[-87.683061656,42.019359224]}}]}
