{"type":"FeatureCollection","features":[{"type":"Feature","properties":{"date":"2021-05-27T00:00:00.000Z","year":2021,"description":"NEW GARDEN FENCE WALL AND RETAINING WALL PER ENGINEER","metadescription":"Nonbldg-New. 1 or 2 Family Dwelling. NEW GARDEN FENCE WALL AND RETAINING WALL PER ENGINEER. Issued. 5333 N ELLENVALE AVE","address":"5333 Ellenvale Avenue, CA, Woodland Hills, 91367, US","ct":"8002.04","ev":"N","apc":"South Valley","cpa":"Canoga Park-West Hills-Winnetka-Woodland Hills","zone":"RE11-1","solar":"N","pin_nbr":"171B089   158","use_code":"23","status_date":"05/27/2021","permit_group":"Building","refresh_time":"06/10/2026","type_lat_lon":"ADDRESS","business_unit":"Regular Plan Check"},"geometry":{"type":"Point","coordinates":[-118.65392,34.1671]}},{"type":"Feature","properties":{"date":"2019-11-05T00:00:00.000Z","year":2019,"description":"6' HIGH X 16' LONG CMU FENCE WALL PER LA CITY STD DETAIL.","metadescription":"Nonbldg-New. 1 or 2 Family Dwelling. 6' HIGH X 16' LONG CMU FENCE WALL PER LA CITY STD DETAIL.. Permit Finaled. 5361 N BLANCO AVE","address":"5361 Blanco Avenue, CA, Woodland Hills, 91367, US","ct":"8002.04","ev":"N","apc":"South Valley","cpa":"Canoga Park-West Hills-Winnetka-Woodland Hill","zone":"RE11-1","solar":"N","height":"6","pin_nbr":"171B089    91","use_code":"23","geolocation":"POINT (-118.65282 34.16787)","status_date":"04/17/2020","permit_group":"Building","refresh_time":"06/10/2026","type_lat_lon":"ADDRESS","business_unit":"Plan Check at Counter"},"geometry":{"type":"Point","coordinates":[-118.65282,34.16787]}},{"type":"Feature","properties":{"date":"2008-06-19T00:00:00.000Z","year":2008,"description":"NEW BLOCK WALL FENCE  (6' HIGH  X  70 LF) PER LA CITY STD","metadescription":"Nonbldg-New. 1 or 2 Family Dwelling. NEW BLOCK WALL FENCE  (6' HIGH  X  70 LF) PER LA CITY STD. Permit Expired. 5719 N FAIRHAVEN AVE","address":"5719 Fairhaven Avenue, CA, Woodland Hills, 91367, US","ct":"1373.02","ev":"N","apc":"South Valley","cpa":"Canoga Park-West Hills-Winnetka-Woodland Hills","zone":"RE11-1","solar":"N","pin_nbr":"174B085    80","use_code":"23","geolocation":"POINT (-118.65806 34.17361)","status_date":"05/17/2012","permit_group":"Building","refresh_time":"06/10/2026","type_lat_lon":"ADDRESS","business_unit":"Plan Check at Counter"},"geometry":{"type":"Point","coordinates":[-118.65806,34.17361]}},{"type":"Feature","properties":{"date":"2005-04-12T00:00:00.000Z","year":2005,"description":"120' LONG, MAX. 6' HIGH FREE STANDING CMU FENCE WALL PER LA CITY STD; 120' LONG, MAX. 4' HIGH RETAINING WALL PER ENGINEERING DETAILS.","metadescription":"Nonbldg-New. 1 or 2 Family Dwelling. 120' LONG, MAX. 6' HIGH FREE STANDING CMU FENCE WALL PER LA CITY STD; 120' LONG, MAX. 4' HIGH RETAINING WALL PER ENGINEERING DETAILS.. Permit Finaled. 5605 N FAIRHAVEN AVE","address":"5607 Fairhaven Avenue, CA, Woodland Hills, 91367, US","ct":"1373.02","ev":"N","apc":"South Valley","cpa":"Canoga Park-West Hills-Winnetka-Woodland Hill","zone":"RE11-1","solar":"N","pin_nbr":"174B085    99","use_code":"23","geolocation":"POINT (-118.65832 34.1721)","status_date":"08/18/2005","permit_group":"Building","refresh_time":"06/10/2026","type_lat_lon":"ADDRESS","business_unit":"Plan Check at Counter"},"geometry":{"type":"Point","coordinates":[-118.65832,34.1721]}},{"type":"Feature","properties":{"date":"2003-08-01T00:00:00.000Z","year":2003,"description":"SUPPLEMENTAL TO # 03VN27005 TO REDUCE LENGTH OF FENCE WALL TO 100 LIN FT","metadescription":"Nonbldg-New. 1 or 2 Family Dwelling. SUPPLEMENTAL TO # 03VN27005 TO REDUCE LENGTH OF FENCE WALL TO 100 LIN FT. Permit Finaled. 24054 W MARIANO ST","address":"24054 Mariano Street, CA, Woodland Hills, 91367, US","ct":"1370.00","ev":"N","apc":"South Valley","cpa":"Canoga Park-West Hills-Winnetka-Woodland Hill","zone":"RE11-1","solar":"N","pin_nbr":"171B089   216","use_code":"23","geolocation":"POINT (-118.65102 34.16622)","status_date":"06/23/2004","permit_group":"Building","refresh_time":"06/10/2026","type_lat_lon":"ADDRESS","business_unit":"Plan Check at Counter"},"geometry":{"type":"Point","coordinates":[-118.65102,34.16622]}}]}
