{"type":"FeatureCollection","features":[{"type":"Feature","properties":{"date":"2017-06-08T00:00:00.000Z","year":2017,"description":"RE-PLASTER EXISTING SWIMMING POOL (A SEPARATE EXPRESS MECHANICAL PERMIT FOR NEW SKIMMER(S) AND A SEPARATE EXPRESS ELECTRICAL PERMIT FOR NEW POOL LUMINAIRE IS REQUIRED, WHEN APPLICABLE, EXCEPT FOR ONE AND TWO-FAMILY DWELLINGS).","metadescription":"Nonbldg-Alter/Repair. 1 or 2 Family Dwelling. RE-PLASTER EXISTING SWIMMING POOL (A SEPARATE EXPRESS MECHANICAL PERMIT FOR NEW SKIMMER(S) AND A SEPARATE EXPRESS ELECTRICAL PERMIT FOR NEW POOL LUMINAIRE IS REQUIRED, WHEN APPLICABLE, EXCEPT FOR ONE AND TWO-FAMILY DWELLINGS).. Permit Finaled. 24120 W MARIANO ST","address":"24120 Mariano Street, CA, Woodland Hills, 91367, US","ct":"8002.04","ev":"N","apc":"South Valley","cpa":"Canoga Park-West Hills-Winnetka-Woodland Hills","zone":"RE11-1","solar":"N","pin_nbr":"171B089   236","use_code":"20","geolocation":"POINT (-118.6514 34.16608)","status_date":"11/13/2017","permit_group":"Building","refresh_time":"06/10/2026","type_lat_lon":"ADDRESS","business_unit":"Express Permit"},"geometry":{"type":"Point","coordinates":[-118.6514,34.16608]}},{"type":"Feature","properties":{"date":"2013-07-26T00:00:00.000Z","year":2013,"description":"Re-plaster existing swimming pool (a separate mechanical express permit for new skimmer(s) and a separate express electrical permit for new pool luminaire is required, when applicable, except for one and two family dwelling).","metadescription":"Nonbldg-Alter/Repair. 1 or 2 Family Dwelling. Re-plaster existing swimming pool (a separate mechanical express permit for new skimmer(s) and a separate express electrical permit for new pool luminaire is required, when applicable, except for one and two family dwelling).. Permit Finaled. 24214 W ALBERS ST","address":"24214 Albers Street, CA, Woodland Hills, 91367, US","ct":"8002.04","ev":"N","apc":"South Valley","cpa":"Canoga Park-West Hills-Winnetka-Woodland Hills","zone":"RE11-1","solar":"N","pin_nbr":"171B089   169","use_code":"20","geolocation":"POINT (-118.65275 34.16692)","status_date":"10/17/2013","permit_group":"Building","refresh_time":"06/10/2026","type_lat_lon":"ADDRESS","business_unit":"Express Permit"},"geometry":{"type":"Point","coordinates":[-118.65275,34.16692]}},{"type":"Feature","properties":{"date":"2007-07-06T00:00:00.000Z","year":2007,"description":"PROPOSED NEW 21'-10\" X 16' RECREATION ROOM WITH 1/2 BATH AND  10 SQFT BAR AREA.  RELATED ELEC/HVAC/PLUMB.","metadescription":"Bldg-New. 1 or 2 Family Dwelling. PROPOSED NEW 21'-10\" X 16' RECREATION ROOM WITH 1/2 BATH AND  10 SQFT BAR AREA.  RELATED ELEC/HVAC/PLUMB.. CofO Issued. 24131 W MARIANO ST","address":"24131 Mariano Street, CA, Woodland Hills, 91367, US","ct":"1370.00","ev":"N","apc":"South Valley","cpa":"Canoga Park-West Hills-Winnetka-Woodland Hills","zone":"RE11-1","solar":"N","height":"11.83","pin_nbr":"171B089   204","use_code":"23","geolocation":"POINT (-118.65167 34.16637)","status_date":"02/21/2012","construction":"Type V-N Construction","permit_group":"Building","refresh_time":"06/10/2026","type_lat_lon":"ADDRESS","business_unit":"Plan Check at Counter","square_footage":"349.33"},"geometry":{"type":"Point","coordinates":[-118.65167,34.16637]}},{"type":"Feature","properties":{"date":"1997-07-18T00:00:00.000Z","year":1997,"description":"REPLACE EQ DAMAGED FIREPLACE W/ PREFAB UNIT, REMOVE/REPLACE ALL WINDOWS (SAME SIZE/TYPE), REMOVE REAR FINISHES ADD PLYWOOD SHEARWALLS/HD'S PER ENGINEERS DRAWINGS RELATED HVAC","metadescription":"Bldg-Alter/Repair. 1 or 2 Family Dwelling. REPLACE EQ DAMAGED FIREPLACE W/ PREFAB UNIT, REMOVE/REPLACE ALL WINDOWS (SAME SIZE/TYPE), REMOVE REAR FINISHES ADD PLYWOOD SHEARWALLS/HD'S PER ENGINEERS DRAWINGS RELATED HVAC. Permit Finaled. 24138 W KILLION ST","address":"24138 Killion Street, CA, Woodland Hills, 91367, US","ct":"1370.00","ev":"N","apc":"South Valley","zone":"RE11-1","solar":"N","pin_nbr":"171B089    72","use_code":"1","geolocation":"POINT (-118.65202 34.16809)","status_date":"12/16/1999","permit_group":"Building","refresh_time":"06/10/2026","type_lat_lon":"ADDRESS","business_unit":"Plan Check at Counter"},"geometry":{"type":"Point","coordinates":[-118.65202,34.16809]}},{"type":"Feature","properties":{"date":"1997-04-18T00:00:00.000Z","year":1997,"description":"Expand master bedroom & bath & living rm.(15'x45'-2\"). Add 3 bay windows to dining rm & 2 bedrooms.(approx. 16sf ea.). Expand laundry rm & add powder rm. (4'-8\"x 12' total). & int. remodel. RELATED ELECTRICAL, HVAC AND PLUMBING","metadescription":"Bldg-Addition. 1 or 2 Family Dwelling. Expand master bedroom & bath & living rm.(15'x45'-2\"). Add 3 bay windows to dining rm & 2 bedrooms.(approx. 16sf ea.). Expand laundry rm & add powder rm. (4'-8\"x 12' total). & int. remodel. RELATED ELECTRICAL, HVAC AND PLUMBING. Permit Closed. 24124 W KILLION ST","address":"24124 Killion Street, CA, Woodland Hills, 91367, US","ct":"1370.00","ev":"N","apc":"South Valley","zone":"RE11-1","solar":"N","pin_nbr":"171B089    75","use_code":"1","geolocation":"POINT (-118.65144 34.16809)","status_date":"10/14/1999","permit_group":"Building","refresh_time":"06/10/2026","type_lat_lon":"ADDRESS","business_unit":"Plan Check at Counter"},"geometry":{"type":"Point","coordinates":[-118.65144,34.16809]}}]}
