{"type":"FeatureCollection","features":[{"type":"Feature","properties":{"date":"2023-10-26T00:00:00.000Z","year":2023,"description":"ePlan 1. New Swimming Pool and Spa. Per standard plans#268POOL COVER REQUIRED","metadescription":"Swimming-Pool/Spa. 1 or 2 Family Dwelling. ePlan 1. New Swimming Pool and Spa. Per standard plans#268POOL COVER REQUIRED. CofO Issued. 24125 W ALBERS ST","address":"24125 Albers Street, CA, Woodland Hills, 91367, US","ct":"1370.00","ev":"N","apc":"South Valley","cpa":"Canoga Park-West Hills-Winnetka-Woodland Hills","zone":"RE11-1","solar":"N","pin_nbr":"171B089   108","use_code":"20","status_date":"06/17/2024","permit_group":"Building","refresh_time":"06/10/2026","type_lat_lon":"ADDRESS","business_unit":"Expanded Counter Plan Check"},"geometry":{"type":"Point","coordinates":[-118.65146,34.16763]}},{"type":"Feature","properties":{"date":"2023-05-26T00:00:00.000Z","year":2023,"description":"EPLAN GRADING FOR (N) POOL AND SPA.","metadescription":"Grading. 1 or 2 Family Dwelling. EPLAN GRADING FOR (N) POOL AND SPA.. PC Info Complete. 24125 W ALBERS ST","address":"24125 Albers Street, CA, Woodland Hills, 91367, US","ct":"1370.00","ev":"N","apc":"South Valley","cpa":"Canoga Park-West Hills-Winnetka-Woodland Hills","zone":"RE11-1","solar":"N","pin_nbr":"171B089   108","use_code":"70","status_date":"11/21/2023","permit_group":"Building","refresh_time":"06/10/2026","type_lat_lon":"ADDRESS","business_unit":"Plan Check at Counter"},"geometry":{"type":"Point","coordinates":[-118.65146,34.16763]}},{"type":"Feature","properties":{"date":"2022-08-23T00:00:00.000Z","year":2022,"description":"E-PLAN. GRADING FOR (N) POOL AND SPA","metadescription":"Grading. 1 or 2 Family Dwelling. E-PLAN. GRADING FOR (N) POOL AND SPA. Permit Finaled. 5323 N BLANCO AVE","address":"5323 Blanco Avenue, CA, Woodland Hills, 91367, US","ct":"1370.00","ev":"N","apc":"South Valley","cpa":"Canoga Park-West Hills-Winnetka-Woodland Hills","zone":"RE11-1","solar":"N","pin_nbr":"171B089   170","use_code":"70","status_date":"01/24/2023","permit_group":"Building","refresh_time":"06/10/2026","type_lat_lon":"ADDRESS","business_unit":"Plan Check at Counter"},"geometry":{"type":"Point","coordinates":[-118.65171,34.16686]}},{"type":"Feature","properties":{"date":"2022-08-19T00:00:00.000Z","year":2022,"description":"ePlan NEW POOL AND SPA","metadescription":"Swimming-Pool/Spa. 1 or 2 Family Dwelling. ePlan NEW POOL AND SPA. CofO Issued. 5323 N BLANCO AVE","address":"5323 Blanco Avenue, CA, Woodland Hills, 91367, US","ct":"8002.04","ev":"N","apc":"South Valley","cpa":"Canoga Park-West Hills-Winnetka-Woodland Hills","zone":"RE11-1","solar":"N","pin_nbr":"171B089   170","use_code":"20","status_date":"04/13/2023","permit_group":"Building","refresh_time":"06/10/2026","type_lat_lon":"ADDRESS","business_unit":"Plan Check at Counter"},"geometry":{"type":"Point","coordinates":[-118.65171,34.16686]}},{"type":"Feature","properties":{"date":"2021-06-24T00:00:00.000Z","year":2021,"description":"GRADING FOR NEW POOL/SPA","metadescription":"Grading. 1 or 2 Family Dwelling. GRADING FOR NEW POOL/SPA. Issued. 5333 N ELLENVALE AVE","address":"5333 Ellenvale Avenue, CA, Woodland Hills, 91367, US","ct":"8002.04","ev":"N","apc":"South Valley","cpa":"Canoga Park-West Hills-Winnetka-Woodland Hill","zone":"RE11-1","solar":"N","pin_nbr":"171B089   158","use_code":"70","status_date":"06/24/2021","permit_group":"Building","refresh_time":"06/10/2026","type_lat_lon":"ADDRESS","business_unit":"Regular Plan Check"},"geometry":{"type":"Point","coordinates":[-118.65392,34.1671]}},{"type":"Feature","properties":{"date":"2021-06-24T00:00:00.000Z","year":2021,"description":"NEW POOL (38'-0\"x 18'-6\") & SPA (6'-0\"x 7'-0\") PER STANDARD PLAN #268   -  1 OF 2","metadescription":"Swimming-Pool/Spa. 1 or 2 Family Dwelling. NEW POOL (38'-0\"x 18'-6\") & SPA (6'-0\"x 7'-0\") PER STANDARD PLAN #268   -  1 OF 2. Issued. 5333 N ELLENVALE AVE","address":"5333 Ellenvale Avenue, CA, Woodland Hills, 91367, US","ct":"8002.04","ev":"N","apc":"South Valley","cpa":"Canoga Park-West Hills-Winnetka-Woodland Hill","zone":"RE11-1","solar":"N","pin_nbr":"171B089   158","use_code":"20","status_date":"06/24/2021","permit_group":"Building","refresh_time":"06/10/2026","type_lat_lon":"ADDRESS","business_unit":"Regular Plan Check"},"geometry":{"type":"Point","coordinates":[-118.65392,34.1671]}},{"type":"Feature","properties":{"date":"2019-12-06T00:00:00.000Z","year":2019,"description":"REMODEL AND RE-PLASTER EXISTING POOL , INSTALL NEW SKIMMERS , SPLIT THE MAIN DRAIN , ADD A NEW 7' X 7' IRREGULAR SHAPED ATTACHED SPA INSIDE (E) POOL AS PER STANDARD PLAN # 268 - SEE COMMENTS","metadescription":"Swimming-Pool/Spa. 1 or 2 Family Dwelling. REMODEL AND RE-PLASTER EXISTING POOL , INSTALL NEW SKIMMERS , SPLIT THE MAIN DRAIN , ADD A NEW 7' X 7' IRREGULAR SHAPED ATTACHED SPA INSIDE (E) POOL AS PER STANDARD PLAN # 268 - SEE COMMENTS. CofO Issued. 5623 N FAIRHAVEN AVE","address":"5623 Fairhaven Avenue, CA, Woodland Hills, 91367, US","ct":"1373.02","ev":"N","apc":"South Valley","cpa":"Canoga Park-West Hills-Winnetka-Woodland Hills","zone":"RE11-1","solar":"N","pin_nbr":"174B085    93","use_code":"20","geolocation":"POINT (-118.6582 34.17276)","status_date":"03/18/2020","permit_group":"Building","refresh_time":"06/10/2026","type_lat_lon":"ADDRESS","business_unit":"Plan Check at Counter"},"geometry":{"type":"Point","coordinates":[-118.6582,34.17276]}},{"type":"Feature","properties":{"date":"2019-11-05T00:00:00.000Z","year":2019,"description":"GRADING EXCAVATION FOR NEW SPA.","metadescription":"Grading. 1 or 2 Family Dwelling. GRADING EXCAVATION FOR NEW SPA.. Permit Finaled. 5361 N BLANCO AVE","address":"5361 N BLANCO AVE","ct":"8002.04","ev":"N","apc":"South Valley","cpa":"Canoga Park-West Hills-Winnetka-Woodland Hill","zone":"RE11-1","solar":"N","pin_nbr":"171B089    91","use_code":"70","geolocation":"POINT (-118.65282 34.16787)","status_date":"05/14/2020","permit_group":"Building","refresh_time":"06/10/2026","type_lat_lon":"ADDRESS","business_unit":"Plan Check at Counter"},"geometry":{"type":"Point","coordinates":[-118.65282,34.16787]}},{"type":"Feature","properties":{"date":"2019-11-05T00:00:00.000Z","year":2019,"description":"REMODEL THE (E) POOL,  MOVE THE SPA AND ADD A BAJA PER STD PLAN & ENGINEERING DETAILS.","metadescription":"Swimming-Pool/Spa. 1 or 2 Family Dwelling. REMODEL THE (E) POOL,  MOVE THE SPA AND ADD A BAJA PER STD PLAN & ENGINEERING DETAILS.. CofO Issued. 5361 N BLANCO AVE","address":"5361 Blanco Avenue, CA, Woodland Hills, 91367, US","ct":"8002.04","ev":"N","apc":"South Valley","cpa":"Canoga Park-West Hills-Winnetka-Woodland Hills","zone":"RE11-1","solar":"N","pin_nbr":"171B089    91","use_code":"20","geolocation":"POINT (-118.65282 34.16787)","status_date":"10/04/2025","permit_group":"Building","refresh_time":"06/10/2026","type_lat_lon":"ADDRESS","business_unit":"Plan Check at Counter"},"geometry":{"type":"Point","coordinates":[-118.65282,34.16787]}},{"type":"Feature","properties":{"date":"2019-08-27T00:00:00.000Z","year":2019,"description":"POOL REMODEL , BACKFILL PORTION OF THE (E) POOL WITH SLURRY, ADD 12'-0\" X 12'-0\" BAJA & ADD 7'-6\" X 7'-6\" SPA WITHIN (E) SHELL PER STD PLAN # 268 & ENGINEERING DETAILS.","metadescription":"Swimming-Pool/Spa. 1 or 2 Family Dwelling. POOL REMODEL , BACKFILL PORTION OF THE (E) POOL WITH SLURRY, ADD 12'-0\" X 12'-0\" BAJA & ADD 7'-6\" X 7'-6\" SPA WITHIN (E) SHELL PER STD PLAN # 268 & ENGINEERING DETAILS.. CofO Issued. 24388 W CRESTLAWN ST","address":"24388 Crestlawn Street, CA, Woodland Hills, 91367, US","ct":"8002.04","ev":"N","apc":"South Valley","cpa":"Canoga Park-West Hills-Winnetka-Woodland Hills","zone":"RE11-1","solar":"N","pin_nbr":"174B085   125","use_code":"20","geolocation":"POINT (-118.6579 34.16976)","status_date":"04/23/2026","permit_group":"Building","refresh_time":"06/10/2026","type_lat_lon":"ADDRESS","business_unit":"Plan Check at Counter"},"geometry":{"type":"Point","coordinates":[-118.6579,34.16976]}},{"type":"Feature","properties":{"date":"2019-08-27T00:00:00.000Z","year":2019,"description":"BACK FILL AND EXCAVATIE TO ENLARGE THE (E) POOL.","metadescription":"Grading. 1 or 2 Family Dwelling. BACK FILL AND EXCAVATIE TO ENLARGE THE (E) POOL.. Permit Finaled. 24388 W CRESTLAWN ST","address":"24388 Crestlawn Street, CA, Woodland Hills, 91367, US","ct":"8002.04","ev":"N","apc":"South Valley","cpa":"Canoga Park-West Hills-Winnetka-Woodland Hill","zone":"RE11-1","solar":"N","pin_nbr":"174B085   125","use_code":"70","geolocation":"POINT (-118.6579 34.16976)","status_date":"12/24/2019","permit_group":"Building","refresh_time":"06/10/2026","type_lat_lon":"ADDRESS","business_unit":"Plan Check at Counter"},"geometry":{"type":"Point","coordinates":[-118.6579,34.16976]}},{"type":"Feature","properties":{"date":"2018-03-30T00:00:00.000Z","year":2018,"description":"EXISTING 18' X 38' POOL TO BE REMODELED TO CONTAIN A BAJA AND A 7' X 7' SPA  ALL WITHIN EXISTING POOL SHELL.","metadescription":"Swimming-Pool/Spa. 1 or 2 Family Dwelling. EXISTING 18' X 38' POOL TO BE REMODELED TO CONTAIN A BAJA AND A 7' X 7' SPA  ALL WITHIN EXISTING POOL SHELL.. CofO Issued. 5338 N BLANCO AVE","address":"5338 Blanco Avenue, CA, Woodland Hills, 91367, US","ct":"8002.04","ev":"N","apc":"South Valley","cpa":"Canoga Park-West Hills-Winnetka-Woodland Hills","zone":"RE11-1","solar":"N","pin_nbr":"171B089   117","use_code":"20","geolocation":"POINT (-118.65211 34.16747)","status_date":"12/03/2018","permit_group":"Building","refresh_time":"06/10/2026","type_lat_lon":"ADDRESS","business_unit":"Plan Check at Counter"},"geometry":{"type":"Point","coordinates":[-118.65211,34.16747]}},{"type":"Feature","properties":{"date":"2017-06-08T00:00:00.000Z","year":2017,"description":"RE-PLASTER EXISTING SWIMMING POOL (A SEPARATE EXPRESS MECHANICAL PERMIT FOR NEW SKIMMER(S) AND A SEPARATE EXPRESS ELECTRICAL PERMIT FOR NEW POOL LUMINAIRE IS REQUIRED, WHEN APPLICABLE, EXCEPT FOR ONE AND TWO-FAMILY DWELLINGS).","metadescription":"Nonbldg-Alter/Repair. 1 or 2 Family Dwelling. RE-PLASTER EXISTING SWIMMING POOL (A SEPARATE EXPRESS MECHANICAL PERMIT FOR NEW SKIMMER(S) AND A SEPARATE EXPRESS ELECTRICAL PERMIT FOR NEW POOL LUMINAIRE IS REQUIRED, WHEN APPLICABLE, EXCEPT FOR ONE AND TWO-FAMILY DWELLINGS).. Permit Finaled. 24120 W MARIANO ST","address":"24120 Mariano Street, CA, Woodland Hills, 91367, US","ct":"8002.04","ev":"N","apc":"South Valley","cpa":"Canoga Park-West Hills-Winnetka-Woodland Hills","zone":"RE11-1","solar":"N","pin_nbr":"171B089   236","use_code":"20","geolocation":"POINT (-118.6514 34.16608)","status_date":"11/13/2017","permit_group":"Building","refresh_time":"06/10/2026","type_lat_lon":"ADDRESS","business_unit":"Express Permit"},"geometry":{"type":"Point","coordinates":[-118.6514,34.16608]}},{"type":"Feature","properties":{"date":"2016-05-19T00:00:00.000Z","year":2016,"description":"New pool and spa per city standard plan #268","metadescription":"Swimming-Pool/Spa. 1 or 2 Family Dwelling. New pool and spa per city standard plan #268. CofO Issued. 24364 W CRESTLAWN ST","address":"24364 Crestlawn Street, CA, Woodland Hills, 91367, US","ct":"8002.04","ev":"N","apc":"South Valley","cpa":"Canoga Park-West Hills-Winnetka-Woodland Hills","zone":"RE11-1","solar":"N","pin_nbr":"174B085   118","use_code":"20","geolocation":"POINT (-118.65755 34.17024)","status_date":"03/17/2018","permit_group":"Building","refresh_time":"06/10/2026","type_lat_lon":"ADDRESS","business_unit":"Plan Check at Counter"},"geometry":{"type":"Point","coordinates":[-118.65755,34.17024]}},{"type":"Feature","properties":{"date":"2016-05-19T00:00:00.000Z","year":2016,"description":"excavation for proposed new swimming pool under 16047-30000-00852","metadescription":"Grading. 1 or 2 Family Dwelling. excavation for proposed new swimming pool under 16047-30000-00852. Permit Finaled. 24364 W CRESTLAWN ST","address":"24364 Crestlawn Street, CA, Woodland Hills, 91367, US","ct":"8002.04","ev":"N","apc":"South Valley","cpa":"Canoga Park-West Hills-Winnetka-Woodland Hills","zone":"RE11-1","solar":"N","pin_nbr":"174B085   118","use_code":"70","geolocation":"POINT (-118.65755 34.17024)","status_date":"08/22/2016","permit_group":"Building","refresh_time":"06/10/2026","type_lat_lon":"ADDRESS","business_unit":"Plan Check at Counter"},"geometry":{"type":"Point","coordinates":[-118.65755,34.17024]}},{"type":"Feature","properties":{"date":"2016-03-04T00:00:00.000Z","year":2016,"description":"remodel (e) pool - add 6' x 9' irr. spa and baja inside (e) pool and and replaster the whole pool per engr's details","metadescription":"Swimming-Pool/Spa. 1 or 2 Family Dwelling. remodel (e) pool - add 6' x 9' irr. spa and baja inside (e) pool and and replaster the whole pool per engr's details. CofO Issued. 5322 N ELLENVALE AVE","address":"5322 Ellenvale Avenue, CA, Woodland Hills, 91367, US","ct":"8002.04","ev":"N","apc":"South Valley","cpa":"Canoga Park-West Hills-Winnetka-Woodland Hills","zone":"RE11-1","solar":"N","pin_nbr":"171B089   176","use_code":"20","geolocation":"POINT (-118.65348 34.16683)","status_date":"07/25/2016","permit_group":"Building","refresh_time":"06/10/2026","type_lat_lon":"ADDRESS","business_unit":"Plan Check at Counter"},"geometry":{"type":"Point","coordinates":[-118.65348,34.16683]}},{"type":"Feature","properties":{"date":"2015-10-30T00:00:00.000Z","year":2015,"description":"GRADING EXCAVATION FOR NEW IRREGULAR POOL AND SPA.","metadescription":"Grading. 1 or 2 Family Dwelling. GRADING EXCAVATION FOR NEW IRREGULAR POOL AND SPA.. Permit Finaled. 24101 W MARIANO ST","address":"24101 Mariano Street, CA, Woodland Hills, 91367, US","ct":"8002.04","ev":"N","apc":"South Valley","cpa":"Canoga Park-West Hills-Winnetka-Woodland Hill","zone":"RE11-1","solar":"N","pin_nbr":"171B089   202","use_code":"70","geolocation":"POINT (-118.65136 34.16635)","status_date":"01/15/2016","permit_group":"Building","refresh_time":"06/10/2026","type_lat_lon":"ADDRESS","business_unit":"Plan Check at Counter"},"geometry":{"type":"Point","coordinates":[-118.65136,34.16635]}},{"type":"Feature","properties":{"date":"2015-10-30T00:00:00.000Z","year":2015,"description":"NEW 14' X 28' POOL AND 7' DIA. SPA  PER STD. PLAN 265","metadescription":"Swimming-Pool/Spa. 1 or 2 Family Dwelling. NEW 14' X 28' POOL AND 7' DIA. SPA  PER STD. PLAN 265. CofO Issued. 24101 W MARIANO ST","address":"24101 Mariano Street, CA, Woodland Hills, 91367, US","ct":"8002.04","ev":"N","apc":"South Valley","cpa":"Canoga Park-West Hills-Winnetka-Woodland Hills","zone":"RE11-1","solar":"N","pin_nbr":"171B089   202","use_code":"20","geolocation":"POINT (-118.65136 34.16635)","status_date":"02/03/2016","permit_group":"Building","refresh_time":"06/10/2026","type_lat_lon":"ADDRESS","business_unit":"Plan Check at Counter"},"geometry":{"type":"Point","coordinates":[-118.65136,34.16635]}},{"type":"Feature","properties":{"date":"2013-07-26T00:00:00.000Z","year":2013,"description":"Re-plaster existing swimming pool (a separate mechanical express permit for new skimmer(s) and a separate express electrical permit for new pool luminaire is required, when applicable, except for one and two family dwelling).","metadescription":"Nonbldg-Alter/Repair. 1 or 2 Family Dwelling. Re-plaster existing swimming pool (a separate mechanical express permit for new skimmer(s) and a separate express electrical permit for new pool luminaire is required, when applicable, except for one and two family dwelling).. Permit Finaled. 24214 W ALBERS ST","address":"24214 Albers Street, CA, Woodland Hills, 91367, US","ct":"8002.04","ev":"N","apc":"South Valley","cpa":"Canoga Park-West Hills-Winnetka-Woodland Hills","zone":"RE11-1","solar":"N","pin_nbr":"171B089   169","use_code":"20","geolocation":"POINT (-118.65275 34.16692)","status_date":"10/17/2013","permit_group":"Building","refresh_time":"06/10/2026","type_lat_lon":"ADDRESS","business_unit":"Express Permit"},"geometry":{"type":"Point","coordinates":[-118.65275,34.16692]}},{"type":"Feature","properties":{"date":"2008-11-04T00:00:00.000Z","year":2008,"description":"NEW 18' X 39' X 9'DEEP POOL AND 6' DIAMETER SPA PER STANDARD PLAN# 268.","metadescription":"Swimming-Pool/Spa. 1 or 2 Family Dwelling. NEW 18' X 39' X 9'DEEP POOL AND 6' DIAMETER SPA PER STANDARD PLAN# 268.. Issued. 5719 N FAIRHAVEN AVE","address":"5719 Fairhaven Avenue, CA, Woodland Hills, 91367, US","ct":"1373.02","ev":"N","apc":"South Valley","cpa":"Canoga Park-West Hills-Winnetka-Woodland Hills","zone":"RE11-1","solar":"N","pin_nbr":"174B085    80","use_code":"20","geolocation":"POINT (-118.65806 34.17361)","status_date":"11/04/2008","permit_group":"Building","refresh_time":"06/10/2026","type_lat_lon":"ADDRESS","business_unit":"Plan Check at Counter"},"geometry":{"type":"Point","coordinates":[-118.65806,34.17361]}},{"type":"Feature","properties":{"date":"2008-11-04T00:00:00.000Z","year":2008,"description":"EXCAVATION FOR POOL","metadescription":"Grading. 1 or 2 Family Dwelling. EXCAVATION FOR POOL. Permit Finaled. 5719 N FAIRHAVEN AVE","address":"5719 Fairhaven Avenue, CA, Woodland Hills, 91367, US","ct":"1373.02","ev":"N","apc":"South Valley","cpa":"Canoga Park-West Hills-Winnetka-Woodland Hills","zone":"RE11-1","solar":"N","pin_nbr":"174B085    80","use_code":"70","geolocation":"POINT (-118.65806 34.17361)","status_date":"07/02/2013","permit_group":"Building","refresh_time":"06/10/2026","type_lat_lon":"ADDRESS","business_unit":"Plan Check at Counter"},"geometry":{"type":"Point","coordinates":[-118.65806,34.17361]}},{"type":"Feature","properties":{"date":"2005-12-16T00:00:00.000Z","year":2005,"description":"EXCAVATION FOR NEW (20'X38') POOL/ (8'DIA) SPA PER STD. PLAN #268 PER PERMIT 05047-20000-01967","metadescription":"Grading. 1 or 2 Family Dwelling. EXCAVATION FOR NEW (20'X38') POOL/ (8'DIA) SPA PER STD. PLAN #268 PER PERMIT 05047-20000-01967. Permit Finaled. 24220 W MARIANO ST","address":"24220 Mariano Street, CA, Woodland Hills, 91367, US","ct":"1370.00","ev":"N","apc":"South Valley","cpa":"Canoga Park-West Hills-Winnetka-Woodland Hill","zone":"RE11-1","solar":"N","pin_nbr":"171B089   242","use_code":"70","geolocation":"POINT (-118.65296 34.16598)","status_date":"06/28/2006","permit_group":"Building","refresh_time":"06/10/2026","type_lat_lon":"ADDRESS","business_unit":"Plan Check at Counter"},"geometry":{"type":"Point","coordinates":[-118.65296,34.16598]}},{"type":"Feature","properties":{"date":"2005-12-16T00:00:00.000Z","year":2005,"description":"NEW (20'X38') POOL/ (8'DIA) SPA PER STD. PLAN #268","metadescription":"Swimming-Pool/Spa. 1 or 2 Family Dwelling. NEW (20'X38') POOL/ (8'DIA) SPA PER STD. PLAN #268. CofO Issued. 24220 W MARIANO ST","address":"24220 Mariano Street, CA, Woodland Hills, 91367, US","ct":"1370.00","ev":"N","apc":"South Valley","cpa":"Canoga Park-West Hills-Winnetka-Woodland Hills","zone":"RE11-1","solar":"N","pin_nbr":"171B089   242","use_code":"20","geolocation":"POINT (-118.65296 34.16598)","status_date":"07/05/2006","permit_group":"Building","refresh_time":"06/10/2026","type_lat_lon":"ADDRESS","business_unit":"Plan Check at Counter"},"geometry":{"type":"Point","coordinates":[-118.65296,34.16598]}},{"type":"Feature","properties":{"date":"2005-07-25T00:00:00.000Z","year":2005,"description":"Supplemental permi to the original PCIS 05030-30000-01835 to revise work to include grading and excavation of new pool and delete backfill.","metadescription":"Grading. 1 or 2 Family Dwelling. Supplemental permi to the original PCIS 05030-30000-01835 to revise work to include grading and excavation of new pool and delete backfill.. Permit Finaled. 24200 W MARIANO ST","address":"24200 Mariano Street, CA, Woodland Hills, 91367, US","ct":"1370.00","ev":"N","apc":"South Valley","cpa":"Canoga Park-West Hills-Winnetka-Woodland Hill","zone":"RE11-1","solar":"N","pin_nbr":"171B089   221","use_code":"70","geolocation":"POINT (-118.65249 34.16608)","status_date":"01/31/2006","permit_group":"Building","refresh_time":"06/10/2026","type_lat_lon":"ADDRESS","business_unit":"Plan Check at Counter"},"geometry":{"type":"Point","coordinates":[-118.65249,34.16608]}},{"type":"Feature","properties":{"date":"2005-06-09T00:00:00.000Z","year":2005,"description":"New swimming pool and spa per standard plan #268.  2' high retaining wall adjacent to pool.  26' in length.","metadescription":"Swimming-Pool/Spa. 1 or 2 Family Dwelling. New swimming pool and spa per standard plan #268.  2' high retaining wall adjacent to pool.  26' in length.. CofO Issued. 24200 W MARIANO ST","address":"24200 Mariano Street, CA, Woodland Hills, 91367, US","ct":"1370.00","ev":"N","apc":"South Valley","cpa":"Canoga Park-West Hills-Winnetka-Woodland Hill","zone":"RE11-1","solar":"N","pin_nbr":"171B089   221","use_code":"20","geolocation":"POINT (-118.65249 34.16608)","status_date":"02/21/2006","permit_group":"Building","refresh_time":"06/10/2026","type_lat_lon":"ADDRESS","business_unit":"Plan Check at Counter"},"geometry":{"type":"Point","coordinates":[-118.65249,34.16608]}},{"type":"Feature","properties":{"date":"2005-06-08T00:00:00.000Z","year":2005,"description":"DEMO EXISTING POOL AND BACKFILL","metadescription":"Grading. 1 or 2 Family Dwelling. DEMO EXISTING POOL AND BACKFILL. Permit Finaled. 24200 W MARIANO ST","address":"24200 Mariano Street, CA, Woodland Hills, 91367, US","ct":"1370.00","ev":"N","apc":"South Valley","cpa":"Canoga Park-West Hills-Winnetka-Woodland Hills","zone":"RE11-1","solar":"N","pin_nbr":"171B089   221","use_code":"70","geolocation":"POINT (-118.65249 34.16608)","status_date":"01/27/2006","permit_group":"Building","refresh_time":"06/10/2026","type_lat_lon":"ADDRESS","business_unit":"Plan Check at Counter"},"geometry":{"type":"Point","coordinates":[-118.65249,34.16608]}},{"type":"Feature","properties":{"date":"2005-04-26T00:00:00.000Z","year":2005,"description":"NEW POOL / SPA PER CITY STANDARD PLAN # 155BE.","metadescription":"Swimming-Pool/Spa. 1 or 2 Family Dwelling. NEW POOL / SPA PER CITY STANDARD PLAN # 155BE.. CofO Issued. 24130 W KILLION ST","address":"24130 Killion Street, CA, Woodland Hills, 91367, US","ct":"1370.00","ev":"N","apc":"South Valley","cpa":"Canoga Park-West Hills-Winnetka-Woodland Hills","zone":"RE11-1","solar":"N","pin_nbr":"171B089    73","use_code":"20","geolocation":"POINT (-118.65174 34.16809)","status_date":"08/25/2005","permit_group":"Building","refresh_time":"06/10/2026","type_lat_lon":"ADDRESS","business_unit":"Plan Check at Counter"},"geometry":{"type":"Point","coordinates":[-118.65174,34.16809]}},{"type":"Feature","properties":{"date":"2005-04-26T00:00:00.000Z","year":2005,"description":"POOL AND SPA EXCAVATION AND BACKFILL.","metadescription":"Grading. 1 or 2 Family Dwelling. POOL AND SPA EXCAVATION AND BACKFILL.. Permit Finaled. 24130 W KILLION ST","address":"24130 Killion Street, CA, Woodland Hills, 91367, US","ct":"1370.00","ev":"N","apc":"South Valley","cpa":"Canoga Park-West Hills-Winnetka-Woodland Hill","zone":"RE11-1","solar":"N","pin_nbr":"171B089    73","use_code":"70","geolocation":"POINT (-118.65174 34.16809)","status_date":"06/07/2005","permit_group":"Building","refresh_time":"06/10/2026","type_lat_lon":"ADDRESS","business_unit":"Plan Check at Counter"},"geometry":{"type":"Point","coordinates":[-118.65174,34.16809]}},{"type":"Feature","properties":{"date":"2004-08-12T00:00:00.000Z","year":2004,"description":"pool excavation.","metadescription":"Grading. 1 or 2 Family Dwelling. pool excavation.. Permit Finaled. 5605 N FAIRHAVEN AVE","address":"5607 Fairhaven Avenue, CA, Woodland Hills, 91367, US","ct":"1373.02","ev":"N","apc":"South Valley","cpa":"Canoga Park-West Hills-Winnetka-Woodland Hill","zone":"RE11-1","solar":"N","pin_nbr":"174B085    99","use_code":"70","geolocation":"POINT (-118.65832 34.1721)","status_date":"08/18/2005","permit_group":"Building","refresh_time":"06/10/2026","type_lat_lon":"ADDRESS","business_unit":"Express Permit"},"geometry":{"type":"Point","coordinates":[-118.65832,34.1721]}},{"type":"Feature","properties":{"date":"2004-08-03T00:00:00.000Z","year":2004,"description":"(N) 17' X  35' POOL AND 7' X 7' SPA PER STD PLAN#242.","metadescription":"Swimming-Pool/Spa. 1 or 2 Family Dwelling. (N) 17' X  35' POOL AND 7' X 7' SPA PER STD PLAN#242.. Permit Expired. 5605 N FAIRHAVEN AVE","address":"5607 Fairhaven Avenue, CA, Woodland Hills, 91367, US","ct":"1373.02","ev":"N","apc":"South Valley","cpa":"Canoga Park-West Hills-Winnetka-Woodland Hills","zone":"RE11-1","solar":"N","pin_nbr":"174B085    99","use_code":"20","geolocation":"POINT (-118.65832 34.1721)","status_date":"12/14/2009","permit_group":"Building","refresh_time":"06/10/2026","type_lat_lon":"ADDRESS","business_unit":"Plan Check at Counter"},"geometry":{"type":"Point","coordinates":[-118.65832,34.1721]}},{"type":"Feature","properties":{"date":"2004-06-08T00:00:00.000Z","year":2004,"description":"NEW 17' X 31' IRR-SHAPED POOL WITH 7' X 9' SPA PER STD PLAN #267.","metadescription":"Swimming-Pool/Spa. 1 or 2 Family Dwelling. NEW 17' X 31' IRR-SHAPED POOL WITH 7' X 9' SPA PER STD PLAN #267.. Permit Finaled. 5358 N ELLENVALE AVE","address":"5358 Ellenvale Avenue, CA, Woodland Hills, 91367, US","ct":"1370.00","ev":"N","apc":"South Valley","cpa":"Canoga Park-West Hills-Winnetka-Woodland Hills","zone":"RE11-1","solar":"N","pin_nbr":"171B089   114","use_code":"20","geolocation":"POINT (-118.65346 34.16766)","status_date":"09/23/2004","permit_group":"Building","refresh_time":"06/10/2026","type_lat_lon":"ADDRESS","business_unit":"Plan Check at Counter"},"geometry":{"type":"Point","coordinates":[-118.65346,34.16766]}},{"type":"Feature","properties":{"date":"2004-06-08T00:00:00.000Z","year":2004,"description":"POOL/SPA EXCAVATION","metadescription":"Grading. 1 or 2 Family Dwelling. POOL/SPA EXCAVATION. Permit Finaled. 5358 N ELLENVALE AVE","address":"5358 Ellenvale Avenue, CA, Woodland Hills, 91367, US","ct":"1370.00","ev":"N","apc":"South Valley","cpa":"Canoga Park-West Hills-Winnetka-Woodland Hill","zone":"RE11-1","solar":"N","pin_nbr":"171B089   114","use_code":"70","geolocation":"POINT (-118.65346 34.16766)","status_date":"08/12/2004","permit_group":"Building","refresh_time":"06/10/2026","type_lat_lon":"ADDRESS","business_unit":"Plan Check at Counter"},"geometry":{"type":"Point","coordinates":[-118.65346,34.16766]}},{"type":"Feature","properties":{"date":"2003-05-05T00:00:00.000Z","year":2003,"description":"NEW 17' X 36' POOL/ 7' DIA SPA PER CITY STD PLAN#267.","metadescription":"Swimming-Pool/Spa. 1 or 2 Family Dwelling. NEW 17' X 36' POOL/ 7' DIA SPA PER CITY STD PLAN#267.. Permit Expired. 5701 N FAIRHAVEN AVE","address":"5711 Fairhaven Avenue, CA, Woodland Hills, 91367, US","ct":"1373.02","ev":"N","apc":"South Valley","cpa":"Canoga Park-West Hills-Winnetka-Woodland Hills","zone":"RE11-1","solar":"N","pin_nbr":"174B085    86","use_code":"20","geolocation":"POINT (-118.65815 34.17336)","status_date":"08/10/2010","permit_group":"Building","refresh_time":"06/10/2026","type_lat_lon":"ADDRESS","business_unit":"Plan Check at Counter"},"geometry":{"type":"Point","coordinates":[-118.65815,34.17336]}},{"type":"Feature","properties":{"date":"2003-05-05T00:00:00.000Z","year":2003,"description":"POOL/SPA EXCAVATION","metadescription":"Grading. 1 or 2 Family Dwelling. POOL/SPA EXCAVATION. Permit Finaled. 5701 N FAIRHAVEN AVE","address":"5711 Fairhaven Avenue, CA, Woodland Hills, 91367, US","ct":"1373.02","ev":"N","apc":"South Valley","cpa":"Canoga Park-West Hills-Winnetka-Woodland Hill","zone":"RE11-1","solar":"N","pin_nbr":"174B085    86","use_code":"70","geolocation":"POINT (-118.65815 34.17336)","status_date":"08/06/2003","permit_group":"Building","refresh_time":"06/10/2026","type_lat_lon":"ADDRESS","business_unit":"Plan Check at Counter"},"geometry":{"type":"Point","coordinates":[-118.65815,34.17336]}},{"type":"Feature","properties":{"date":"2003-03-28T00:00:00.000Z","year":2003,"description":"REMOVE 130 CU YDS FOR PROPOSED SWIMMING POOL AND SPA.","metadescription":"Grading. 1 or 2 Family Dwelling. REMOVE 130 CU YDS FOR PROPOSED SWIMMING POOL AND SPA.. Permit Finaled. 24054 W MARIANO ST","address":"24054 Mariano Street, CA, Woodland Hills, 91367, US","ct":"1370.00","ev":"N","apc":"South Valley","cpa":"Canoga Park-West Hills-Winnetka-Woodland Hill","zone":"RE11-1","solar":"N","pin_nbr":"171B089   216","use_code":"70","geolocation":"POINT (-118.65102 34.16622)","status_date":"06/30/2003","permit_group":"Building","refresh_time":"06/10/2026","type_lat_lon":"ADDRESS","business_unit":"Plan Check at Counter"},"geometry":{"type":"Point","coordinates":[-118.65102,34.16622]}},{"type":"Feature","properties":{"date":"2003-03-28T00:00:00.000Z","year":2003,"description":"NEW SWIMMING POOL 40'X23' AND 8' DIAMETER SPA PER LA CITY STANDARD PLAN #242.","metadescription":"Swimming-Pool/Spa. 1 or 2 Family Dwelling. NEW SWIMMING POOL 40'X23' AND 8' DIAMETER SPA PER LA CITY STANDARD PLAN #242.. Permit Finaled. 24054 W MARIANO ST","address":"24054 Mariano Street, CA, Woodland Hills, 91367, US","ct":"1370.00","ev":"N","apc":"South Valley","cpa":"Canoga Park-West Hills-Winnetka-Woodland Hills","zone":"RE11-1","solar":"N","pin_nbr":"171B089   216","use_code":"20","geolocation":"POINT (-118.65102 34.16622)","status_date":"06/23/2004","permit_group":"Building","refresh_time":"06/10/2026","type_lat_lon":"ADDRESS","business_unit":"Plan Check at Counter"},"geometry":{"type":"Point","coordinates":[-118.65102,34.16622]}}]}
