{"type":"FeatureCollection","features":[{"type":"Feature","properties":{"date":"2025-02-07T00:00:00.000Z","year":2025,"description":"SUPPL. PERMIT TO 24014-20000-04288 TO REVISE THE SCOPE OF WORK TOPROPOSED 21'-11\" X 19'-2\" STUDY ROOM & 9'-2\" X 7'-3\" FRONT PORCH ADDITION PER ENGR DESIGN","metadescription":"Bldg-Alter/Repair. 1 or 2 Family Dwelling. SUPPL. PERMIT TO 24014-20000-04288 TO REVISE THE SCOPE OF WORK TOPROPOSED 21'-11\" X 19'-2\" STUDY ROOM & 9'-2\" X 7'-3\" FRONT PORCH ADDITION PER ENGR DESIGN. Permit Finaled. 5323 N BLANCO AVE","address":"5323 Blanco Avenue, CA, Woodland Hills, 91367, US","ct":"1370.00","ev":"N","apc":"South Valley","cpa":"Canoga Park-West Hills-Winnetka-Woodland Hill","zone":"RE11-1","solar":"N","pin_nbr":"171B089   183","use_code":"1","status_date":"04/18/2025","permit_group":"Building","refresh_time":"06/10/2026","type_lat_lon":"BUILDING","business_unit":"Plan Check at Counter","square_footage":"35"},"geometry":{"type":"Point","coordinates":[-118.65177388,34.16682978]}},{"type":"Feature","properties":{"date":"2024-10-07T00:00:00.000Z","year":2024,"description":"PROPOSED 13'-9\" X 14'-11\" STUDY RM & 9'-2\" X 14'-11\" FRONT PORCH ADDITION PER ENGR DESIGN","metadescription":"Bldg-Addition. 1 or 2 Family Dwelling. PROPOSED 13'-9\" X 14'-11\" STUDY RM & 9'-2\" X 14'-11\" FRONT PORCH ADDITION PER ENGR DESIGN. CofO Issued. 5323 N BLANCO AVE","address":"5323 Blanco Avenue, CA, Woodland Hills, 91367, US","ct":"1370.00","ev":"N","apc":"South Valley","cpa":"Canoga Park-West Hills-Winnetka-Woodland Hills","zone":"RE11-1","solar":"N","pin_nbr":"171B089   183","use_code":"1","status_date":"11/07/2025","construction":"Type V-B Construction","permit_group":"Building","refresh_time":"06/10/2026","type_lat_lon":"BUILDING","business_unit":"Expanded Counter Plan Check","square_footage":"330"},"geometry":{"type":"Point","coordinates":[-118.65177388,34.16682978]}},{"type":"Feature","properties":{"date":"2022-06-23T00:00:00.000Z","year":2022,"description":"INTERIOR REMODEL TO THE (E) KITCHEN AND DINING ROM AND REPLACE THE (E) WINDOW IN THE DINING ROOM. ALL WORK PER DESIGN.","metadescription":"Bldg-Alter/Repair. 1 or 2 Family Dwelling. INTERIOR REMODEL TO THE (E) KITCHEN AND DINING ROM AND REPLACE THE (E) WINDOW IN THE DINING ROOM. ALL WORK PER DESIGN.. Permit Finaled. 5338 N BLANCO AVE","address":"5338 Blanco Avenue, CA, Woodland Hills, 91367, US","ct":"8002.04","ev":"N","apc":"South Valley","cpa":"Canoga Park-West Hills-Winnetka-Woodland Hills","zone":"RE11-1","solar":"N","pin_nbr":"171B089   117","use_code":"1","status_date":"11/17/2022","permit_group":"Building","refresh_time":"06/10/2026","type_lat_lon":"ADDRESS","business_unit":"Plan Check at Counter"},"geometry":{"type":"Point","coordinates":[-118.65211,34.16747]}},{"type":"Feature","properties":{"date":"2012-11-15T00:00:00.000Z","year":2012,"description":"SUPPLEMENTAL PERMIT TO PERMIT #12016-2000-21532 TO REMOVE CONTRACTOR ON FILE AND ASSIGN AS OWNER-BUILDER.","metadescription":"Bldg-Alter/Repair. 1 or 2 Family Dwelling. SUPPLEMENTAL PERMIT TO PERMIT #12016-2000-21532 TO REMOVE CONTRACTOR ON FILE AND ASSIGN AS OWNER-BUILDER.. Permit Finaled. 24116 W ALBERS ST","address":"24116 Albers Street, CA, Woodland Hills, 91367, US","ct":"1370.00","ev":"N","apc":"South Valley","cpa":"Canoga Park-West Hills-Winnetka-Woodland Hill","zone":"RE11-1","solar":"N","pin_nbr":"171B089   145","use_code":"1","geolocation":"POINT (-118.65106 34.16725)","status_date":"11/20/2012","permit_group":"Building","refresh_time":"06/10/2026","type_lat_lon":"ADDRESS","business_unit":"Express Permit"},"geometry":{"type":"Point","coordinates":[-118.65106,34.16725]}},{"type":"Feature","properties":{"date":"2009-03-26T00:00:00.000Z","year":2009,"description":"CONVERT (E) GARAGE TO GAME ROOM & ADD 2-CAR CARPORT PER ENGR'S DESIGN & DETAILS. \"COMPLY WITH DEPARTMENT ORDER effective date 12/10/2008. PERMIT WILL EXPIRE 30 DAYS FROM ISSUANCE DATE\".","metadescription":"Bldg-Addition. 1 or 2 Family Dwelling. CONVERT (E) GARAGE TO GAME ROOM & ADD 2-CAR CARPORT PER ENGR'S DESIGN & DETAILS. \"COMPLY WITH DEPARTMENT ORDER effective date 12/10/2008. PERMIT WILL EXPIRE 30 DAYS FROM ISSUANCE DATE\".. CofO Issued. 24250 W MARIANO ST","address":"24250 Mariano Street, CA, Woodland Hills, 91367, US","ct":"1370.00","ev":"N","apc":"South Valley","cpa":"Canoga Park-West Hills-Winnetka-Woodland Hills","zone":"RE11-1","solar":"N","pin_nbr":"171B089   229","use_code":"1","geolocation":"POINT (-118.6537 34.16604)","status_date":"02/23/2011","construction":"Type V-B Construction","permit_group":"Building","refresh_time":"06/10/2026","type_lat_lon":"ADDRESS","business_unit":"Plan Check at Counter","square_footage":"430"},"geometry":{"type":"Point","coordinates":[-118.6537,34.16604]}},{"type":"Feature","properties":{"date":"2006-05-30T00:00:00.000Z","year":2006,"description":"SUPPLEMENTAL TO PCIS# 05014-20000-11018 TO REVISE THE PLANS AND DETAILS FOR THE PATI COVER PER ENGINEERED DESIGN AND DETAILS. NO CHANGE IN PLOT PLAN","metadescription":"Bldg-Alter/Repair. 1 or 2 Family Dwelling. SUPPLEMENTAL TO PCIS# 05014-20000-11018 TO REVISE THE PLANS AND DETAILS FOR THE PATI COVER PER ENGINEERED DESIGN AND DETAILS. NO CHANGE IN PLOT PLAN. Permit Finaled. 24200 W MARIANO ST","address":"24200 Mariano Street, CA, Woodland Hills, 91367, US","ct":"1370.00","ev":"N","apc":"South Valley","cpa":"Canoga Park-West Hills-Winnetka-Woodland Hill","zone":"RE11-1","solar":"N","pin_nbr":"171B089   221","use_code":"1","geolocation":"POINT (-118.65249 34.16608)","status_date":"06/14/2006","permit_group":"Building","refresh_time":"06/10/2026","type_lat_lon":"ADDRESS","business_unit":"Plan Check at Counter"},"geometry":{"type":"Point","coordinates":[-118.65249,34.16608]}}]}
