{"type":"FeatureCollection","features":[{"type":"Feature","properties":{"date":"2025-08-20T00:00:00.000Z","year":2025,"description":null,"metadescription":"Outdoor Uses (No Buildings Proposed). 4125 W 8TH AVENUE, Vancouver, BC V6R 4P9","address":"4125 8th AVE W, BC, VANCOUVER, V6R4P9, CA","issuedate":"2025-09-05","issueyear":"2025","propertyuse":"Cultural/Recreational Uses","geo_point_2d":"49.267039, -123.201578","geolocalarea":"West Point Grey","applicantaddress":"7325 Carnarvon Street\r\nvancouver, BC  V6N1K6","permitelapseddays":"16","buildingcontractor":"Heatherbrae Builders Co Ltd","projectdescription":"Field Review - Outdoor Uses (No Buildings Proposed) - Exterior alterations to the south eastern portion of the existing parcel to upgrade the existing track and grass field to provide a fenced in sports field. \r\n\r\nOkay for DTI as per S. Erichsen.   \r\n\r\nIf archaeological materials are found, at any stage of ground disturbance, all work on the property must stop immediately and the Provincial Archaeological Branch, City of Vancouver and local First Nations, must be notified.","specificusecategory":"Park or Playground"},"geometry":{"type":"Point","coordinates":[-123.201578,49.267039]}},{"type":"Feature","properties":{"date":"2024-12-17T00:00:00.000Z","year":2024,"description":null,"metadescription":"Outdoor Uses (No Buildings Proposed). 1002 STATION STREET, Vancouver, BC V6A 0J7","address":"200, 1150 Station ST, BC, VANCOUVER, V6A4C7, CA","issuedate":"2024-12-18","issueyear":"2024","propertyuse":"Institutional Uses","geo_point_2d":"49.2751078, -123.0964949","geolocalarea":"Strathcona","applicantaddress":"400 - 780 Beatty Street\r\nVancouver, BC  V6B 2M1","permitelapseddays":"1","projectdescription":"Certified Professional Program - Outdoor Uses (No Buildings Proposed) - Building Permit for BP-2024-02166 \r\n\r\nSoil remediation of the existing contaminated site as part of the construction of the new St. Paul's hospital complex. Site preparation including removal of approx. 9,500m3 of soils from the project site to designated facilities, temporary drainage installations, temporary guide wall and lock-block installations in preparation of shoring wall installations.","specificusecategory":"Hospital"},"geometry":{"type":"Point","coordinates":[-123.0964949,49.2751078]}},{"type":"Feature","properties":{"date":"2024-04-11T00:00:00.000Z","year":2024,"description":null,"metadescription":"Outdoor Uses (No Buildings Proposed). 1098 WOLFE AVENUE, Vancouver, BC V6H 1V8","address":"1098 Wolfe AVE, BC, VANCOUVER, V6H1V8, CA","issuedate":"2024-07-09","issueyear":"2024","propertyuse":"Dwelling Uses","geo_point_2d":"49.2553494, -123.1303117","geolocalarea":"Shaughnessy","applicantaddress":"MEASURED ARCHITECTURE INC\r\n410-1639 West 2nd Avenue\r\nVancouver, BC  V6J 1H3","permitelapseddays":"89","buildingcontractor":"Gemlevy Projects Ltd","projectdescription":"Field Review - Outdoor Uses (No Buildings Proposed) - Construct a new pool (35'-10\" x 13'-10\") and hot tub (10'-5\" x 7'-4\") on this lot with existing single-family dwelling.\r\n\r\nOK for field review as per O. Luo, Apr 9th, 2024\r\n\r\nStructural Sch B - Nick de Ridder, P.Eng - 604-731-7412\r\nGeotech Sch B - Matt Kokan, P.Eng - 604-439-0922 \r\n\r\nNote: Pool to be fully fenced/enclosed (minimum 4’-0”) and all gates and doors are to be equipped with locks and self-closing devices.\r\nAll mechanical equipment shall be secured to structure to resist overturning and displacement as per VBBL 9.33.4.7.\r\nAny mechanical equipment shall conform to the Noise Control by-law # 6555","specificusecategory":"Single Detached House"},"geometry":{"type":"Point","coordinates":[-123.1303117,49.2553494]}},{"type":"Feature","properties":{"date":"2024-03-26T00:00:00.000Z","year":2024,"description":null,"metadescription":"Outdoor Uses (No Buildings Proposed). 6260 KILLARNEY STREET, Vancouver, BC V5S 2X7","address":"6260 Killarney ST, BC, VANCOUVER, V5S2X7, CA","issuedate":"2024-04-05","issueyear":"2024","propertyuse":"Cultural/Recreational Uses","geo_point_2d":"49.2270589, -123.0443707","geolocalarea":"Killarney","applicantaddress":"City Hall - 10th Floor - 453 West 12th Avenue\r\nVancouver, BC  V5Y 1V4","permitelapseddays":"10","projectdescription":"Direct to Inspections - Outdoor Uses (No Buildings Proposed) - Sport field lighting replacement and upgrades to existing infrastructure within dedicated park boundary limits. Removal of 4 existing floodlights, and installation of 4 replacement energy efficient LED floodlights.\r\n\r\nOK for DTI as per O. Luo Mar 26th, 2024","specificusecategory":"Community Ctr./Neighbourhood House"},"geometry":{"type":"Point","coordinates":[-123.0443707,49.2270589]}},{"type":"Feature","properties":{"date":"2023-12-06T00:00:00.000Z","year":2023,"description":null,"metadescription":"Outdoor Uses (No Buildings Proposed). 2920 HIGHBURY STREET, Vancouver, BC V6R 3T8","address":"2920 Highbury ST, BC, VANCOUVER, V6R3T8, CA","issuedate":"2024-06-03","issueyear":"2024","propertyuse":"Dwelling Uses","geo_point_2d":"49.2605142, -123.1875759","geolocalarea":"West Point Grey","applicantaddress":"MEASURED ARCHITECTURE INC\r\n410-1639 West 2nd Avenue\r\nVancouver, BC  V6J 1H3","permitelapseddays":"180","buildingcontractor":"Eyco Building Group Ltd","projectdescription":"Field Review - Outdoor Uses (No Buildings Proposed) - To install a swimming pool on the rear of this existing Single Detached House.\n\nSchedule A/B - Piers Cunnington AIBC - 604-737-0235 \nSchedule B Structural - Todd Wernham - 604-762-7844\nSchedule B Geotechnical (temp & permanent) - Daniel Kokan, P.Eng - 604-439-0922, dkokan@geopacific.ca","specificusecategory":"Single Detached House","buildingcontractoraddress":"1529 W 75TH AV  \r\nVancouver, BC  V6P 6Z7"},"geometry":{"type":"Point","coordinates":[-123.1875759,49.2605142]}},{"type":"Feature","properties":{"date":"2023-12-05T00:00:00.000Z","year":2023,"description":null,"metadescription":"Outdoor Uses (No Buildings Proposed). 2901 E HASTINGS STREET, Vancouver, BC V5K 5J1","address":"2901 E HASTINGS STREET, Vancouver, BC V5K 5J1","issuedate":"2024-03-20","issueyear":"2024","propertyuse":"Cultural/Recreational Uses,Institutional Uses","geo_point_2d":"49.2847997, -123.0387934","geolocalarea":"Hastings-Sunrise","applicantaddress":"350 - 13775 Commerce Pkwy\r\nRichmond, BC  V6V 2V4","permitelapseddays":"106","projectdescription":"High Density Housing / Commercial - Outdoor Uses (No Buildings Proposed) - Soil remediation: Removal and disposal of contaminated soil.","specificusecategory":"Not Applicable,Park or Playground"},"geometry":{"type":"Point","coordinates":[-123.0387934,49.2847997]}},{"type":"Feature","properties":{"date":"2023-08-30T00:00:00.000Z","year":2023,"description":null,"metadescription":"Outdoor Uses (No Buildings Proposed). 833 W PENDER STREET, Vancouver, BC V6C 1K7","address":"889 Pender ST W, BC, VANCOUVER, V6C3B2, CA","issuedate":"2023-10-25","issueyear":"2023","propertyuse":"Service Uses","geo_point_2d":"49.2859234, -123.116242","geolocalarea":"Downtown","applicantaddress":"388 W 8th Ave\r\n#240\r\nVancouver, BC  V5Y3X2","permitelapseddays":"56","projectdescription":"High Density Housing / Commercial - Outdoor Uses (No Buildings Proposed) - Building Permit for DP-2023-00162 \r\nExterior alterations to provide outdoor seating at the ground floor level for the existing Restaurant Class-1 (Group A2) on this site. \r\n\r\nRefer to BP-2022-01721 for Ground Level Restaurant\r\n54 seats proposed = 42 Interior Seats + 12 Exterior Seats\r\n\r\nDevelopment Review Branch Notes:\r\nThe approval is for a limited period of time expiring on April 21, 2024, unless extended in writing by the Director of Planning.","specificusecategory":"Restaurant - Class 1"},"geometry":{"type":"Point","coordinates":[-123.116242,49.2859234]}},{"type":"Feature","properties":{"date":"2023-08-30T00:00:00.000Z","year":2023,"description":null,"metadescription":"Outdoor Uses (No Buildings Proposed). 833 W PENDER STREET, Vancouver, BC V6C 1K7","address":"889 Pender ST W, BC, VANCOUVER, V6C3B2, CA","issuedate":"2023-08-31","issueyear":"2023","propertyuse":"Service Uses","geo_point_2d":"49.2859234, -123.116242","geolocalarea":"Downtown","applicantaddress":"388 W 8th Ave\r\n#240\r\nVancouver, BC  V5Y3X2","permitelapseddays":"1","projectdescription":"High Density Housing / Commercial - Outdoor Uses (No Buildings Proposed) - Building Permit for DP-2022-00750 \r\nExterior alterations to provide outdoor seating at the roof deck level for the existing Restaurant Class-1 (Group A2) on this site. \r\n\r\nRefer to BP-2022-01722 for Roof Deck Level Restaurant\r\n99 total seats =  26 interior seats + 73 exterior seats\r\n\r\nSeparate permit required for proposed awning. \r\n\r\nDevelopment Review Branch Notes:\r\nThe approval is for a limited period of time expiring on December 22, 2023, unless extended in writing by the Director of Planning.\r\nRooftop Restaurant DP-2022-00677.","specificusecategory":"Restaurant - Class 1"},"geometry":{"type":"Point","coordinates":[-123.116242,49.2859234]}},{"type":"Feature","properties":{"date":"2023-05-19T00:00:00.000Z","year":2023,"description":null,"metadescription":"Outdoor Uses (No Buildings Proposed). 1042 DAVIE STREET, Vancouver, BC V6E 1M3","address":"1042 Davie ST, BC, VANCOUVER, V6E1M3, CA","issuedate":"2023-09-14","issueyear":"2023","propertyuse":"Cultural/Recreational Uses","geo_point_2d":"49.2795855, -123.1305572","geolocalarea":"West End","applicantaddress":"Suite 410 - 119 Pender St W\r\nVancouver, BC  V6B 1S5","permitelapseddays":"118","projectdescription":"High Density Housing / Commercial - Outdoor Uses (No Buildings Proposed) - To install a man door in the existing approved swing gate at the rear yard of this existing building to provide a required exiting pathway to the lane. \r\n\r\nBRB Notes:\r\nThis permit has been reviewed under VBBL 2019","specificusecategory":"Hall"},"geometry":{"type":"Point","coordinates":[-123.1305572,49.2795855]}},{"type":"Feature","properties":{"date":"2023-03-28T00:00:00.000Z","year":2023,"description":null,"metadescription":"Outdoor Uses (No Buildings Proposed). 8591 RIVER DISTRICT CROSSING, Vancouver, BC","address":"310, 3488 Sawmill CRES, BC, VANCOUVER, V5S0C7, CA","issuedate":"2023-04-28","issueyear":"2023","propertyuse":"Service Uses","geo_point_2d":"49.2059808, -123.0310585","geolocalarea":"Killarney","applicantaddress":"204 - 2940 Main Street\r\nVancouver, BC  V5T 3G3","permitelapseddays":"31","projectdescription":"High Density Housing / Commercial - Outdoor Uses (No Buildings Proposed) - To install an outdoor seating area to be used in conjunction with the Restaurant Class-1 use, in this existing mixed-use building on the site.\r\n\r\nProposed 22 seats at patio. Total and maximum occupant load is 100 (71 interior seats, 7 staff, 22 patio).\r\n\r\n*** Reviewed under the VBBL 2019 ***","specificusecategory":"Restaurant - Class 1"},"geometry":{"type":"Point","coordinates":[-123.0310585,49.2059808]}},{"type":"Feature","properties":{"date":"2023-01-17T00:00:00.000Z","year":2023,"description":null,"metadescription":"Outdoor Uses (No Buildings Proposed). 3948 W 19TH AVENUE, Vancouver, BC V6S 1E1","address":"3948 19th AVE W, BC, VANCOUVER, V6S1E1, CA","issuedate":"2023-04-26","issueyear":"2023","propertyuse":"Dwelling Uses","geo_point_2d":"49.2553454, -123.1921196","geolocalarea":"Dunbar-Southlands","applicantaddress":"#608-1009 Expo Blvd\r\nVancouver, BC  V6Z 2V9","permitelapseddays":"99","projectdescription":"Field Review - Outdoor Uses (No Buildings Proposed) - 3948 W 19TH AVENUE\r\n\r\nTo install an outdoor 90 sf hot tub in the rear yard of this single detached house on this site.\r\n\r\nOk for field review per W.Wong\r\n\r\nNote to DBI:\r\nPlease arrange for electrical inspector to attend field review\r\n\r\nNote: Pool/hot tub to be fully fenced/enclosed (minimum 4’-0”) and all gates and doors are to be equipped with locks and self-closing devices.","specificusecategory":"Single Detached House"},"geometry":{"type":"Point","coordinates":[-123.1921196,49.2553454]}},{"type":"Feature","properties":{"date":"2022-11-28T00:00:00.000Z","year":2022,"description":null,"metadescription":"Outdoor Uses (No Buildings Proposed). 3585 SAWMILL CRESCENT, Vancouver, BC","address":"904, 3581 E Kent AVE N, BC, VANCOUVER, V5S0H6, CA","issuedate":"2023-05-08","issueyear":"2023","propertyuse":"Utility and Communication Uses","geo_point_2d":"49.2062246, -123.027401","geolocalarea":"Killarney","applicantaddress":"Suite 910, Four Bentall Centre\r\n1055 Dunsmuir Street\r\nVancouver, BC  V7X 1L3","permitelapseddays":"161","buildingcontractor":"Wesgroup Contracting Ltd","projectdescription":"Enquiry Centre - Outdoor Uses (No Buildings Proposed) - To install a permanent secant pile wall along the future property line (see subdivision proposal SD-2022-00053) on this vacant site in preparation of future work for the two future development parcels (parcels \"19.1\" (future Lot 58)\" and \"19.2\" (future Lot 59). \r\n\r\nGeotechnical Schedule B, rcvd, Patrick Martz, P.Eng #52736, 604-439-0922, GeoPacific Consultants Ltd.\r\n\r\nOK for SIPS per N. Bahr, May 8, 2023\r\n\r\nNotes:\r\n1) Secant Pile Easement Agreement and 219 Covenant required to be fully registered prior to the earlier of: (i) issuance of a Stage 1 building permit for the development to be located on parcel 19.1; or (ii) issuance of an occupancy permit for the development to be located on Parcel 19.2 (the River District Energy Centre), as per commitment letter provided by Wesgroup, dated April 11, 2023;\r\n\r\n2) Refer to DP-2021-00453 and BP-2022-04510 for the River District Energy Centre, (future \"parcel 19.2\"/Lot 59). Scope of this permit is limited to secant piles installation only.","specificusecategory":"Public Utility"},"geometry":{"type":"Point","coordinates":[-123.027401,49.2062246]}},{"type":"Feature","properties":{"date":"2022-10-19T00:00:00.000Z","year":2022,"description":null,"metadescription":"Outdoor Uses (No Buildings Proposed). 1159 MAIN STREET, Vancouver, BC V6A 4B6","address":"1199 Main ST, BC, VANCOUVER, V6A4B6, CA","issuedate":"2024-01-12","issueyear":"2024","propertyuse":"Dwelling Uses","geo_point_2d":"49.2743216, -123.1004191","geolocalarea":"Downtown","applicantaddress":"2268 West 37th Avenue\r\nVancouver, BC  V6M1P1","permitelapseddays":"450","projectdescription":"High Density Housing / Commercial - Outdoor Uses (No Buildings Proposed) - Building Permit for DP-2021-00643 \r\nExterior alterations to install a new metal fence in front of this existing mixed use building along Main Street.\r\n\r\nRefer to BP-2022-04563 or all reviews, drawings, and documents related to this project scope. \r\n\r\nThis is a temporary building permit only and expires May 13th, 2024 unless extended by the Director of Planning and Chief Building Official.","specificusecategory":"Multiple Dwelling"},"geometry":{"type":"Point","coordinates":[-123.1004191,49.2743216]}},{"type":"Feature","properties":{"date":"2022-10-19T00:00:00.000Z","year":2022,"description":null,"metadescription":"Outdoor Uses (No Buildings Proposed). 1182 QUEBEC STREET, Vancouver, BC V6A 4B2","address":"1268 Quebec ST, BC, VANCOUVER, V6A4G7, CA","issuedate":"2024-01-12","issueyear":"2024","propertyuse":"Dwelling Uses","geo_point_2d":"49.2741091, -123.1012294","geolocalarea":"Downtown","applicantaddress":"2268 West 37th Avenue\r\nVancouver, BC  V6M1P1","permitelapseddays":"450","projectdescription":"High Density Housing / Commercial - Outdoor Uses (No Buildings Proposed) - Building Permit for DP-2021-00645 \r\nExterior alterations to install a new metal fence in front of this existing mixed use building along Quebec Street.\r\n\r\nRefer to BP-2022-04563 or all reviews, drawings, and documents related to this project scope. \r\n\r\nThis is a temporary building permit only and expires May 13th, 2024 unless extended by the Director of Planning and Chief Building Official.","specificusecategory":"Multiple Dwelling"},"geometry":{"type":"Point","coordinates":[-123.1012294,49.2741091]}},{"type":"Feature","properties":{"date":"2022-10-19T00:00:00.000Z","year":2022,"description":null,"metadescription":"Outdoor Uses (No Buildings Proposed). 1218 QUEBEC STREET, Vancouver, BC V6A 4G7","address":"185 Terminal AVE, BC, VANCOUVER, V6A4G3, CA","issuedate":"2024-01-12","issueyear":"2024","propertyuse":"Dwelling Uses","geo_point_2d":"49.273378, -123.1008354","geolocalarea":"Downtown","applicantaddress":"2268 West 37th Avenue\r\nVancouver, BC  V6M1P1","permitelapseddays":"450","projectdescription":"High Density Housing / Commercial - Outdoor Uses (No Buildings Proposed) - Building Permit for DP-2021-00644\r\nExterior alterations to install a new metal fence in front of this existing mixed use building along Quebec Street.\r\n\r\nRefer to BP-2022-04563 or all reviews, drawings, and documents related to this project scope. \r\n\r\nThis is a temporary building permit only and expires May 13th, 2024 unless extended by the Director of Planning and Chief Building Official.","specificusecategory":"Multiple Dwelling"},"geometry":{"type":"Point","coordinates":[-123.1008354,49.273378]}},{"type":"Feature","properties":{"date":"2022-10-14T00:00:00.000Z","year":2022,"description":null,"metadescription":"Outdoor Uses (No Buildings Proposed). 5415 CYPRESS STREET, Vancouver, BC V6M 3R3","address":"5415 Cypress ST, BC, VANCOUVER, V6M3R3, CA","issuedate":"2023-01-30","issueyear":"2023","propertyuse":"Dwelling Uses","geo_point_2d":"49.2369695, -123.1495026","geolocalarea":"Shaughnessy","applicantaddress":"4545 Langara Avenue\r\nVancouver, BC  V6R 1C9","permitelapseddays":"108","buildingcontractor":"GRN Pool and Landscape Ltd","projectdescription":"Field Review - Outdoor Uses (No Buildings Proposed) - Exterior alterations only to install an inground pool (12' x 29'6\") at the rear of this existing one family dwelling building at this site. \r\n\r\nRelated to DB-2021-02687\r\n\r\nNote: Pool to be fully fenced/enclosed (minimum 4 ft. high) and all gates and doors are to be quipped with locks and self-closing devices.\r\n\r\nStructural Schedule B submitted by Cynthia R. Prescott, P. Eng. - 604.291.9899\r\nGeotechnical Schedule B submitted by Stewart Hrysio - 604.513.4190\r\n\r\nNote:\r\n\r\nAs per Section 68 of the Canadian Electrical Code:\r\n\r\n-  Conductors must meet min height clearances over and around the pool area as per 68-054 of the CEC\r\n\r\n- All electrical equipment ( ie: hydro meters, receptacles, etc ) must meet min distance requirements from pool edge as per code.","specificusecategory":"Single Detached House","buildingcontractoraddress":"14778 Thrift Avenue  \r\nWhite Rock, BC  V4B 2J5"},"geometry":{"type":"Point","coordinates":[-123.1495026,49.2369695]}},{"type":"Feature","properties":{"date":"2022-09-28T00:00:00.000Z","year":2022,"description":null,"metadescription":"Outdoor Uses (No Buildings Proposed). 1255 MAIN STREET, Vancouver, BC V6A 4G5","address":"1251 Main ST, BC, VANCOUVER, V6A4B6, CA","issuedate":"2024-01-12","issueyear":"2024","propertyuse":"Dwelling Uses","geo_point_2d":"49.2735299, -123.1004549","geolocalarea":"Downtown","applicantaddress":"1255 Main St\r\n906\r\nVancouver, BC  V6A 4G5","permitelapseddays":"471","projectdescription":"High Density Housing / Commercial - Outdoor Uses (No Buildings Proposed) - Building Permit for DP-2021-00642 \r\nExterior alterations to install a new metal fence in front of the existing courtyard along Main Street and Quebec Street.\r\n\r\nRefer to this permit for all reviews, drawings, and documents related to this project scope. \r\nRelated to permits, BP-2022-04806, BP-2022-04807 and, BP-2022-04808\r\n\r\nRevision #1- 2024-10-10- S.Le\r\n1. Change the Applicant\r\n2. Revise the footings proposed for the new fence.\r\n3. Relocate gate entrance at Main Street due to conflict with existing tree grate location. (Refer to page A.2 & A.4)\r\n4. Remove time limitation on building permit per DP revision. \r\n5. Replace damaged trees in existing tree grates.","specificusecategory":"Multiple Dwelling"},"geometry":{"type":"Point","coordinates":[-123.1004549,49.2735299]}},{"type":"Feature","properties":{"date":"2022-08-08T00:00:00.000Z","year":2022,"description":null,"metadescription":"Outdoor Uses (No Buildings Proposed). 810 EVANS AVENUE, Vancouver, BC V6A 2L2","address":"755 Evans AVE, BC, VANCOUVER, V6A0B8, CA","issuedate":"2022-08-08","issueyear":"2022","propertyuse":"Parking Uses","geo_point_2d":"49.2716908, -123.0869346","geolocalarea":"Strathcona","applicantaddress":"#1340-1075 West Georgia Street\r\nVancouver, BC  V6E 3C9","permitelapseddays":"0","buildingcontractor":"Bird Construction Group","projectdescription":"High Density Housing / Commercial - Outdoor Uses (No Buildings Proposed) - Exterior alterations to permit, installation of temporary power, the erosion sediment control system including wheel wash and silt fence, removal of the existing fence, demolition of the existing concrete on site and to de-grub/remove vegetation on this existing site. \r\n\r\nThis permit allows on site mobilization, and to perform some site clearing and installation of the Erosion and Sediment Control (ESC) system. \r\nAny additional work beyond the above must be approved by the Chief Building Official. \r\n\r\nRefer to BP-2021-05846 for Environmental Protection clearance of the proposed ESC system on June, 29, 2022 and related fees.","specificusecategory":"Parking Area"},"geometry":{"type":"Point","coordinates":[-123.0869346,49.2716908]}},{"type":"Feature","properties":{"date":"2022-07-15T00:00:00.000Z","year":2022,"description":null,"metadescription":"Outdoor Uses (No Buildings Proposed). 1216 FRANKLIN STREET, Vancouver, BC V1V 1V1","address":"1222 Franklin ST, BC, VANCOUVER, V6A1K1, CA","issuedate":"2022-08-11","issueyear":"2022","propertyuse":"Manufacturing Uses","geo_point_2d":"49.2820311, -123.0786759","geolocalarea":"Strathcona","applicantaddress":"1216 Franklin Street\r\nVancouver, BC  V6A1K1","permitelapseddays":"27","projectdescription":"High Density Housing / Commercial - Outdoor Uses (No Buildings Proposed) - To install a raised platform and fencing for a permanent patio to be used in conjunction with the existing Manufacturing - Brewery (Group F2) with ancillary lounge (Group A2) on the site.\r\n\r\nBuilding Review Notes:\r\n- Proposed 30 seats at patio, total occupant load is 125 persons (interior 70,   patio 30, staff 25).\r\n\r\n*** Reviewed under the VBBL 2019 ***","specificusecategory":"Brewing or Distilling"},"geometry":{"type":"Point","coordinates":[-123.0786759,49.2820311]}},{"type":"Feature","properties":{"date":"2022-06-24T00:00:00.000Z","year":2022,"description":null,"metadescription":"Outdoor Uses (No Buildings Proposed). 253 E 32ND AVENUE, Vancouver, BC V5V 2Y2","address":"253 32nd AVE E, BC, VANCOUVER, V5V2Y2, CA","issuedate":"2022-10-19","issueyear":"2022","propertyuse":"Dwelling Uses","geo_point_2d":"49.2424985, -123.0997708","geolocalarea":"Riley Park","applicantaddress":"3489 50th E Ave\r\nVancouver, BC  V5S1P4","permitelapseddays":"117","projectdescription":"Field Review - Outdoor Uses (No Buildings Proposed) - 253 E 32ND AVENUE\r\n\r\nTo install an outdoor swimming pool and hot tub on the rear of this existing One Family Dwelling.\r\n\r\nScope of Work: Construction of a brick patio, a 6' x 8' hot tub, and a 10' x 17' in-ground swimming pool located 1m away from the rear side of the house. Pool to be 6' deep at its deepest. No diving board is proposed. Mechanical room to be within existing garden shed. \r\n\r\nNote to DBI:\r\nPlease arrange for electrical inspector to attend the field review.\r\n\r\nRevision #1: Change of swimming pool size and depth from 10'x17', being 6' at deepest to 15'x16', being 7' at deepest.\r\n\r\nSch B (Geo.): Geoff Wensel, P.Eng, #37394, 778-855-2549, Kontrol Engineering Ltd\r\nSch B (Struct.): Mark Nikkel, P.Eng, #22615, 604-853-8831, Krahn Engineering Ltd","specificusecategory":"Single Detached House"},"geometry":{"type":"Point","coordinates":[-123.0997708,49.2424985]}},{"type":"Feature","properties":{"date":"2022-06-23T00:00:00.000Z","year":2022,"description":null,"metadescription":"Outdoor Uses (No Buildings Proposed). 3590 MAIN STREET, Vancouver, BC","address":"3580 Main ST, BC, VANCOUVER, V5V3N3, CA","issuedate":"2022-07-14","issueyear":"2022","propertyuse":"Service Uses","geo_point_2d":"49.2532642, -123.1008159","geolocalarea":"Riley Park","applicantaddress":"3590 Main Street\r\nVancouver, BC  V5V3N4","permitelapseddays":"21","projectdescription":"High Density Housing / Commercial - Outdoor Uses (No Buildings Proposed) - To install an outdoor seating area to be used in conjunction with the existing Restaurant Class-1 (Group A2) use on this site.  Permanent patio application. \r\n\r\nBuilding Review Notes:\r\n- Propose 14 seat outdoor patio with tables and chairs only, no railing or fence\r\n- Total occupant load is 57 persons (37 interior + 14 patio + 6 staff). Maximum can not exceed 60 persons plus staff due to washroom capacity.","specificusecategory":"Restaurant - Class 1"},"geometry":{"type":"Point","coordinates":[-123.1008159,49.2532642]}},{"type":"Feature","properties":{"date":"2022-06-15T00:00:00.000Z","year":2022,"description":null,"metadescription":"Outdoor Uses (No Buildings Proposed). 1121 ALBERNI STREET, Vancouver, BC V6E 4T9","address":"1121 Alberni ST, BC, VANCOUVER, V6E4T9, CA","issuedate":"2022-08-18","issueyear":"2022","propertyuse":"Service Uses","geo_point_2d":"49.2859454, -123.1241574","geolocalarea":"West End","applicantaddress":"#420 - 22 East 5th Avenue\r\nVancouver, BC  V5T 1G8","permitelapseddays":"64","projectdescription":"High Density Housing / Commercial - Outdoor Uses (No Buildings Proposed) - Suite #310 & #320\r\nTo install a 36-seat outdoor seating area (approximately 773.0 square feet) in the existing covered courtyard, to be used in conjunction with the Restaurant Class-1, Keg Steakhouse & Bar, on the third floor of this existing commercial building.\r\n\r\nProposed occupant load is 427 persons (South Pavilion 154, North Pavilion 105, Staff 27, Patio 1 - 25, Patio 2 – 32, Patio 3 – 48, New Patio 4 – 36).  Maximum occupant load cannot exceed 400 persons plus 50 staff due to washroom capacity.\r\n\r\n*** Reviewed under the VBBL 2019 ***","specificusecategory":"Restaurant - Class 1"},"geometry":{"type":"Point","coordinates":[-123.1241574,49.2859454]}},{"type":"Feature","properties":{"date":"2022-05-26T00:00:00.000Z","year":2022,"description":null,"metadescription":"Outdoor Uses (No Buildings Proposed). 2275 MAIN STREET, Vancouver, BC V5T 3C8","address":"3, 2303 Main ST, BC, VANCOUVER, V5T3C9, CA","issuedate":"2022-07-21","issueyear":"2022","propertyuse":"Service Uses","geo_point_2d":"49.2646933, -123.1010327","geolocalarea":"Mount Pleasant","applicantaddress":"#420 - 22 East 5th Avenue\r\nVancouver, BC  V5T 1G8","permitelapseddays":"56","buildingcontractor":"Pacific Solutions Contracting Ltd","projectdescription":"High Density Housing / Commercial - Outdoor Uses (No Buildings Proposed) - Outdoor Patio - \r\nTo install an outdoor seating to be used in conjunction with the existing Restaurant Class-1 (Group A2) use on the site. New 85-seat exterior patio on private property will be installed on the ground level of this 11-storey mixed-use building. \r\n\r\n*** Reviewed under the VBBL 2019 ***\r\n\r\nBuilding Review Notes:\r\n- Proposed occupant load is 200 persons (interior 104 seats, patio 85, staff 11) for the restaurant. Maximum occupant load cannot exceed 200 seats plus 25 staff.\r\n- Patio is approved under DP-2021-00899 and DP-2022-00573 (M/A) for a limited period of time expiring on December 20, 2022.\r\n- Restaurant TI permit DB-2021-06481","specificusecategory":"Restaurant - Class 1","buildingcontractoraddress":"1376 WILLIAM ST  \r\nVancouver, BC  V5L 2P5"},"geometry":{"type":"Point","coordinates":[-123.1010327,49.2646933]}},{"type":"Feature","properties":{"date":"2021-12-10T00:00:00.000Z","year":2021,"description":null,"metadescription":"Outdoor Uses (No Buildings Proposed). 1255 MAIN STREET, Vancouver, BC V6A 4G5","address":"1251 Main ST, BC, VANCOUVER, V6A4B6, CA","issuedate":"2021-12-13","issueyear":"2021","propertyuse":"Dwelling Uses","geo_point_2d":"49.2735299, -123.1004549","geolocalarea":"Downtown","applicantaddress":"1301-1255 Main Street\r\nVancouver, BC  V6A4G5","permitelapseddays":"3","buildingcontractor":"Cypress Railings and Gates Ltd","projectdescription":"High Density Housing / Commercial - Outdoor Uses (No Buildings Proposed) - Building Permit for DP-2020-00550 \r\nTo perform exterior alterations to install a new metal fence complete with doors/gates, along the Northwest and Southeast corners of this existing mixed-use building.","specificusecategory":"Multiple Dwelling","buildingcontractoraddress":"1707 Welch St  \r\nNorth Vancouver, BC  V7P 3G9"},"geometry":{"type":"Point","coordinates":[-123.1004549,49.2735299]}},{"type":"Feature","properties":{"date":"2021-11-10T00:00:00.000Z","year":2021,"description":null,"metadescription":"Outdoor Uses (No Buildings Proposed). 6225 RALEIGH STREET, Vancouver, BC V5S 2W6","address":"6225 Raleigh ST, BC, VANCOUVER, V5S2W6, CA","issuedate":"2021-12-21","issueyear":"2021","propertyuse":"Dwelling Uses","geo_point_2d":"49.22727, -123.0478029","geolocalarea":"Killarney","applicantaddress":"6225 raleigh street\r\nVancouver, BC  V5S 2W6","permitelapseddays":"41","projectdescription":"Enquiry Centre - Outdoor Uses (No Buildings Proposed) - 6225 Raleigh\r\n\r\nExterior alterations to fill in the existing swimming pool in the rear yard of this existing one family dwelling on this site. Pool is being replaced with natural grass/lawn.\r\n\r\nThe concrete liner will have holes knocked through it to provide for adequate drainage and prevent saturation of the backfill material. Only clean, non-toxic sand or gravel will be used to backfill the pool.  \r\n\r\nOk to issue the permit without drawings per Shawn Dyste.\r\n\r\nNote:\r\n1. DBI to determine if a plumbing permit is required","specificusecategory":"Single Detached House"},"geometry":{"type":"Point","coordinates":[-123.0478029,49.22727]}},{"type":"Feature","properties":{"date":"2021-10-14T00:00:00.000Z","year":2021,"description":null,"metadescription":"Outdoor Uses (No Buildings Proposed). 3140 W 55TH AVENUE, Vancouver, BC V6N 3W9","address":"3140 55th AVE W, BC, VANCOUVER, V6N3W9, CA","issuedate":"2021-11-05","issueyear":"2021","propertyuse":"Dwelling Uses","geo_point_2d":"49.2208667, -123.1739056","geolocalarea":"Kerrisdale","applicantaddress":"8065 111B Street\r\nDelta, BC  V4C 4S7","permitelapseddays":"22","buildingcontractor":"Keystone Projects Ltd","projectdescription":"Enquiry Centre - Outdoor Uses (No Buildings Proposed) - To preload this site for a period of 6 months from date of issuance.\r\n\r\nOK for SIPS per S.Dugaro, October 14, 2021\r\n\r\nSchedule B Geotechnical (permanent & temporary) submitted per Matt Kokan, 604-439-0922","specificusecategory":"Single Detached House","buildingcontractoraddress":"4907 Chisholm St  \r\nUnit 220\r\nDelta, BC  V4K 2K6"},"geometry":{"type":"Point","coordinates":[-123.1739056,49.2208667]}},{"type":"Feature","properties":{"date":"2021-06-03T00:00:00.000Z","year":2021,"description":null,"metadescription":"Outdoor Uses (No Buildings Proposed). 4788 MARGUERITE STREET, Vancouver, BC V6J 4G9","address":"4788 Marguerite ST, BC, VANCOUVER, V6J4G9, CA","issuedate":"2021-08-03","issueyear":"2021","propertyuse":"Dwelling Uses","geo_point_2d":"49.242791, -123.143474","geolocalarea":"Shaughnessy","applicantaddress":"59 West 22nd Avenue\r\nricci.fds@gmail.com\r\nVancouver, BC  V5Y2E9","permitelapseddays":"61","buildingcontractor":"Vici Custom Builders Ltd","projectdescription":"Field Review - Outdoor Uses (No Buildings Proposed) - To remove the existing outdoor in-ground swimming pool and hot tub in the rear yard of this existing one family dwelling on this site.\r\n\r\nOK for field review as per Jamie Zhang, Jun 3/21","specificusecategory":"Not Applicable","buildingcontractoraddress":"8449 MAIN ST  \r\nUnit 202\r\nVancouver, BC  V5X 3M3"},"geometry":{"type":"Point","coordinates":[-123.143474,49.242791]}},{"type":"Feature","properties":{"date":"2021-03-04T00:00:00.000Z","year":2021,"description":null,"metadescription":"Outdoor Uses (No Buildings Proposed). 568 W 27TH AVENUE, Vancouver, BC V5Z 2G2","address":"568 27th AVE W, BC, VANCOUVER, V5Z2G2, CA","issuedate":"2021-05-03","issueyear":"2021","propertyuse":"Dwelling Uses","geo_point_2d":"49.2467998, -123.117753","geolocalarea":"South Cambie","applicantaddress":"403 - 5450 Empire Drive,\r\nBurnaby, BC  V5B 1N4","permitelapseddays":"60","projectdescription":"Field Review - Outdoor Uses (No Buildings Proposed) - 568 w 27th\r\n\r\nExterior alterations to add a new inground swimming pool at the rear of this existing one family dwelling on this inside with lane site.\r\n\r\n\r\nStructural/Geotechnical Schedule B submitted by Xian Min Lily Qiu - 778.321.5377\r\n\r\nMechanical equipment located in hatch below deck","specificusecategory":"Single Detached House"},"geometry":{"type":"Point","coordinates":[-123.117753,49.2467998]}},{"type":"Feature","properties":{"date":"2021-01-29T00:00:00.000Z","year":2021,"description":null,"metadescription":"Outdoor Uses (No Buildings Proposed). 3430 W 42ND AVENUE, Vancouver, BC V6N 3H4","address":"3430 42nd AVE W, BC, VANCOUVER, V6N3H4, CA","issuedate":"2021-03-09","issueyear":"2021","propertyuse":"Dwelling Uses","geo_point_2d":"49.2335172, -123.1809333","geolocalarea":"Dunbar-Southlands","applicantaddress":"4013 Graveley Street\r\nBurnaby, BC  V5C 3T5","permitelapseddays":"39","buildingcontractor":"Alka Pool Construction Ltd","projectdescription":"Field Review - Outdoor Uses (No Buildings Proposed) - To install a 30' by 14' outdoor in ground swimming pool in the rear yard of this existing one family dwelling on this site.\r\n\r\nOk for field review per W. Wong, January 29, 2021.\r\n\r\nDistrict Building Inspector to arrange for District Electrical Inspector to attend field review inspection as discussed with Greg Maxwell.\r\n\r\nNotes:\r\n~ Pool to be fully fenced/enclosed (minimum 4’-0”) and all gates and doors are to be equipped with locks and self-closing devices.       \r\n~ Schedule B Structural and Geotechnical - permanent submitted by Cynthia R. Prescott, P. Eng. of O & S Engineering International Inc., Tel: 604 291-9899.","specificusecategory":"Single Detached House","buildingcontractoraddress":"4050 Grant St  \r\nBurnaby, BC  V5C 3N5"},"geometry":{"type":"Point","coordinates":[-123.1809333,49.2335172]}},{"type":"Feature","properties":{"date":"2021-01-28T00:00:00.000Z","year":2021,"description":null,"metadescription":"Outdoor Uses (No Buildings Proposed). 3549 W 37TH AVENUE, Vancouver, BC V6N 2V7","address":"3549 37th AVE W, BC, VANCOUVER, V6N2V7, CA","issuedate":"2021-04-06","issueyear":"2021","propertyuse":"Dwelling Uses","geo_point_2d":"49.2388483, -123.1836438","geolocalarea":"Dunbar-Southlands","applicantaddress":"1662 W. 75th Avenue\r\nVancouver, BC  V6P 6G2","permitelapseddays":"68","buildingcontractor":"Eyco Building Group Ltd","projectdescription":"Field Review - Outdoor Uses (No Buildings Proposed) - To install an outdoor swimming pool (21'8\" x 10'2\") on the rear of this existing one family dwelling building on this site.\r\n\r\nOK for field review as per Jamie Zhang, Jan. 28/21\r\n\r\nPool location cleared by Hamid Shayan\r\n\r\nStructural/Geotechnical Schedule B submitted by B. Klarich - 604.619.8875\r\n\r\nNote to DBI: Inspection required by District Electrical Inspector prior to issuance of permit       \r\n\r\nNote:\r\n\r\nAs per 9.8.8.1.(1) of the VBBL a non-climbable fence no less than 1.22 m (4 ft) is required and as per 9.8.8.1.(11) shall be continuous, except for points of access which shall be equipped with a self-closing gate, secured by a spring lock located no less than 1070 mm (3'6\") above grade, and openable from the pool side of the fence","specificusecategory":"Single Detached House","buildingcontractoraddress":"1529 W 75TH AV  \r\nVancouver, BC  V6P 6Z7"},"geometry":{"type":"Point","coordinates":[-123.1836438,49.2388483]}},{"type":"Feature","properties":{"date":"2020-10-29T00:00:00.000Z","year":2020,"description":null,"metadescription":"Outdoor Uses (No Buildings Proposed). 4738 W 4TH AVENUE, Vancouver, BC V6T 1C2","address":"4738 4th AVE W, BC, VANCOUVER, V6T1C2, CA","issuedate":"2021-01-20","issueyear":"2021","propertyuse":"Dwelling Uses","geo_point_2d":"49.268593, -123.2170913","geolocalarea":"West Point Grey","applicantaddress":"401-8685  SHAUGHNESSY STREET\r\nVANCOUVER, BC  V6P 3Y3","permitelapseddays":"83","buildingcontractor":"Ran Yaar Construction Inc","projectdescription":"Field Review - Outdoor Uses (No Buildings Proposed) - To install prefabricated outdoor swimming pool in this exiting single family dwelling on this existing site.\r\n\r\nOk for Field Review as per Thyda King.\r\n\r\nSchedule B (Structural) - Cameron Robinson, P. Eng 604-492-3304\r\nSchedule B (Structural for prefabricate Modpool), Ryan Stewart, 778-867-0384\r\n\r\nNotes: Energy upgrade exempt per M. Greg Mcall","specificusecategory":"Single Detached House","buildingcontractoraddress":"120 MILROSS AV  \r\nUnit 1602\r\nVancouver, BC  V6A 4K7"},"geometry":{"type":"Point","coordinates":[-123.2170913,49.268593]}},{"type":"Feature","properties":{"date":"2020-10-28T00:00:00.000Z","year":2020,"description":null,"metadescription":"Outdoor Uses (No Buildings Proposed). 4620 W 13TH AVENUE, Vancouver, BC V6R 2V7","address":"4620 13th AVE W, BC, VANCOUVER, V6R2V7, CA","issuedate":"2021-03-23","issueyear":"2021","propertyuse":"Dwelling Uses","geo_point_2d":"49.2609006, -123.2128824","geolocalarea":"West Point Grey","applicantaddress":"9125 Shaughnessy St\r\nVancouver, BC  V6P 6R9","permitelapseddays":"146","projectdescription":"Field Review - Outdoor Uses (No Buildings Proposed) - To install a 13' by 40' outdoor swimming pool in the rear yard of this existing single family dwelling building on this site.\r\n\r\nOK for Field Review per W.Wong, October 28, 2020\r\n\r\nScheduled B Structural submitted per B. Klarich, 604-619-8875\r\n\r\nNote: Pool to be fully fenced/enclosed (minimum 4’-0”) and all gates and doors are to be equipped with locks and self-closing devices.       \r\n\r\nNote to DBI:\r\nPlease arrange for electrical inspector to attend field review \r\n\r\nSchedule A and Schedule B Structural submitted per Boris Klarich, 604-619-8875\r\nSchedule B Geotechnical (temp & permanent) submitted per Jairo Prada, 604-850-0364","specificusecategory":"Single Detached House"},"geometry":{"type":"Point","coordinates":[-123.2128824,49.2609006]}},{"type":"Feature","properties":{"date":"2020-09-03T00:00:00.000Z","year":2020,"description":null,"metadescription":"Outdoor Uses (No Buildings Proposed). 4545 W 10TH AVENUE, Vancouver, BC V6R 4N2","address":"204, 4545 10th AVE W, BC, VANCOUVER, V6R4N2, CA","issuedate":"2020-10-05","issueyear":"2020","propertyuse":"Retail Uses","geo_point_2d":"49.2643182, -123.2109461","geolocalarea":"West Point Grey","applicantaddress":"200 - 13775 Commerce Parkway\r\nRichmond, BC  V6V 2V4","permitelapseddays":"32","projectdescription":"High Density Housing / Commercial - Outdoor Uses (No Buildings Proposed) - Excavation of two (2) test pit on this site to facilitate collection of soil samples.  The proposed test pits will be back filled within one week of excavation.\r\n\r\nNote:                                                                             \r\n\"This permit has been reviewed under the 2019 Vancouver Building By-law (#12511).\"   \r\n\r\n“Reviewed during the 2020 pandemic crisis.”","specificusecategory":"Retail Store"},"geometry":{"type":"Point","coordinates":[-123.2109461,49.2643182]}},{"type":"Feature","properties":{"date":"2020-06-15T00:00:00.000Z","year":2020,"description":null,"metadescription":"Outdoor Uses (No Buildings Proposed). 1568 W 75TH AVENUE, Vancouver, BC V6P 6G2","address":"1612 75th AVE W, BC, VANCOUVER, V6P6G2, CA","issuedate":"2020-07-15","issueyear":"2020","propertyuse":"Parking Uses","geo_point_2d":"49.2048795, -123.1439076","geolocalarea":"Marpole","applicantaddress":"1940 Pandora\r\nUnit 401\r\nVancouver, BC  V5L 0C7","permitelapseddays":"30","buildingcontractor":"Conwest Contracting Ltd","projectdescription":"High Density Housing / Commercial - Outdoor Uses (No Buildings Proposed) - To  prepare this site for the future development ( two mixed-use buildings)  by proving initial grading  fills on this  site to achieve 4.8 m. FCL and to construct the shoreline protection.\r\n\r\n09-Sep-2021 - Rev#1 tn\r\nTree Permit (TP-2020-00587) revision issued on 07-Sep-2021.\r\nIncluding the updated arborist report by ACL, the additional removal of six trees due to foreshore/flood management site preparation. Out of the six trees to be removed, only two are permit and fee applicable (30 cm or greater)\r\n\r\n13-Apr-2022 Rev#2 tn\r\nSoil Densification to allow subsequent foundation work and construction of the 2 new buildings \r\nScope of work also includes: site fill &  MSE retaining walls.\r\n\r\nThis permit was issued under the following conditions:\r\n1.An Archaeological Chance Find Procedure (CFP) has been prepared, dated training April 11,2022.  These procedures must be followed for any work involving ground disturbance, including an on-site presentation of the CFP guidelines by a professional archaeologist in collaboration with affected/local First Nations.\r\n2.The owner is fully responsible to maintain  the site in such condition  that any of the adjoining properties, including  City’s properties shall not be detrimentally affected under any circumstances.","specificusecategory":"Parking Area","buildingcontractoraddress":"1311 KOOTENAY ST  \r\nUnit 250\r\nVancouver, BC  V5K 4Y3"},"geometry":{"type":"Point","coordinates":[-123.1439076,49.2048795]}},{"type":"Feature","properties":{"date":"2020-06-06T00:00:00.000Z","year":2020,"description":null,"metadescription":"Outdoor Uses (No Buildings Proposed). 301 W 1ST AVENUE, Vancouver, BC V5Y 1A6","address":"1808 Crowe ST, BC, VANCOUVER, V5Y3V2, CA","issuedate":"2020-06-16","issueyear":"2020","propertyuse":"Transportation and Storage Uses","geo_point_2d":"49.2698497, -123.1133667","geolocalarea":"Mount Pleasant","applicantaddress":"250 W70th Avenue\r\nVancouver, BC  V5X 2X1","permitelapseddays":"10","projectdescription":"High Density Housing / Commercial - Outdoor Uses (No Buildings Proposed) - To provide use of the existing vacant lot as a temporary transfer drop-off station (Works Yard) for yard trimmings and is limited to: PLANT AND SOIL ASSOCIATED WITH PLANT MATERIAL ONLY.\r\n\r\nThe proposed use is for a time limited period expiring, December 31st, 2021.\r\n\r\nBuilding Review Branch Notes:\r\nThe following will be on site:\r\n1 crew trailer\r\n1 generator- power for kiosk and crew trailer only\r\n1 roll off bin – no power or other infrastructure needed\r\n1 portable toilet\r\nFencing","specificusecategory":"Works Yard"},"geometry":{"type":"Point","coordinates":[-123.1133667,49.2698497]}},{"type":"Feature","properties":{"date":"2019-10-11T00:00:00.000Z","year":2019,"description":null,"metadescription":"Outdoor Uses (No Buildings Proposed). 1601 BAYSHORE DRIVE, Vancouver, BC V6G 2V4","address":"555 Cardero ST, BC, VANCOUVER, V6G3L2, CA","issuedate":"2020-03-16","issueyear":"2020","propertyuse":"Service Uses","geo_point_2d":"49.2924212, -123.1292267","geolocalarea":"Downtown","applicantaddress":"1620-1130 West Pender Street\r\nVancouver, BC  V6E 4A4","permitelapseddays":"157","projectdescription":"High Density Housing / Commercial - Outdoor Uses (No Buildings Proposed) - Building Permit for DP-2019-00517 \r\nTo increase the occupant load at the existing outdoor seating area from 50 seats to 110 seats to be used in conjunction with the existing Neighbourhood Public House/ Lounge (Group A2) ancillary to the existing Hotel (Group C), and to be operated by The Westin Bayshore Vancouver.\r\n\r\nDevelopment Permit Notes:\r\nThe approval is for a limited period of time expiring on September 19, 2020, unless extended in writing by the Director of Planning.\r\n\r\nBuilding Review Branch Notes:\r\nDCL fees collected under this building permit per related BP-2018-04031 and DP-2016-00099.\r\n\r\n“This permit has been reviewed under the 2014 Vancouver Building By-law (#10908).”","specificusecategory":"Restaurant - Class 1"},"geometry":{"type":"Point","coordinates":[-123.1292267,49.2924212]}},{"type":"Feature","properties":{"date":"2019-09-05T00:00:00.000Z","year":2019,"description":null,"metadescription":"Outdoor Uses (No Buildings Proposed). 750 HORNBY STREET, Vancouver, BC V6Z 2H7","address":"763 Hornby ST, BC, VANCOUVER, V6Z1S2, CA","issuedate":"2019-12-19","issueyear":"2019","propertyuse":"Service Uses","geo_point_2d":"49.2831669, -123.1209088","geolocalarea":"Downtown","applicantaddress":"602 12th Ave SW\r\nSuite 910\r\nCalgary, AB  T2R 1J3","permitelapseddays":"105","projectdescription":"High Density Housing / Commercial - Outdoor Uses (No Buildings Proposed) - To change of the use of the existing exterior sculpture court to an occupied roof deck with 120 exterior seats to be used in conjunction with the Restaurant- Class 1 (Group A2) at 750 Hornby Street in this existing building on this site.\r\n\r\n95 interior seats + 120 exterior seats = 215 seats total\r\n\r\nReviewed under the 2014 VBBL\r\n\r\n1) alteration to the second level patio, including addition of rails, new guards at the south, upgrading existing guards to the east, and a new grate at the skylight at the north of the patio.\r\n\r\nThe alterations under item no. 1 above, authorized by the Development Building Permit Number DB-2019-04000, including conditions and plans forming part thereof, are approved under the Heritage By-Law and this Development Building Permit also constitutes a Heritage Alteration Permit.","specificusecategory":"Restaurant - Class 1"},"geometry":{"type":"Point","coordinates":[-123.1209088,49.2831669]}},{"type":"Feature","properties":{"date":"2019-07-11T00:00:00.000Z","year":2019,"description":null,"metadescription":"Outdoor Uses (No Buildings Proposed). 7060 PRESCOTT STREET, Vancouver, BC V6N 4K5","address":"7049 Prescott ST, BC, VANCOUVER, V6N1N2, CA","issuedate":"2019-10-08","issueyear":"2019","propertyuse":"Dwelling Uses","geo_point_2d":"49.2219885, -123.1771863","geolocalarea":"Kerrisdale","applicantaddress":"4013 Graveley Street\r\nBurnaby, BC  V5C 3T5","permitelapseddays":"89","buildingcontractor":"Alka Pool Construction Ltd","projectdescription":"Field Review - Outdoor Uses (No Buildings Proposed) - Install an in-ground 20' x 50' swimming pool and 10' x 10' hot tub on the south portion of this existing one family dwelling site with mechanical equipment to be located on a concrete slab on the east side of the existing dwelling unit.\r\n\r\nRelated to DP-2017-00806.\r\n\r\nLetter of assurance submitted:\r\nSch B (Struct, Geotech): C.R. Prescott, P.Eng. 604.291.9899\r\n\r\nNote: Pool to be fully fenced/enclosed (minimum 4’-0”) and all gates and doors are to be equipped with locks and self-closing devices.       \r\n\r\nNote to DBI:\r\nPlease arrange for Electrical Inspector to attend field review.","specificusecategory":"Single Detached House","buildingcontractoraddress":"4050 Grant St  \r\nBurnaby, BC  V5C 3N5"},"geometry":{"type":"Point","coordinates":[-123.1771863,49.2219885]}},{"type":"Feature","properties":{"date":"2019-04-04T00:00:00.000Z","year":2019,"description":null,"metadescription":"Outdoor Uses (No Buildings Proposed). 650 W 41ST AVENUE, Vancouver, BC V5Z 2M9","address":"519, 650 41st AVE W, BC, VANCOUVER, V5Z2M9, CA","issuedate":"2019-06-10","issueyear":"2019","propertyuse":"Retail Uses","geo_point_2d":"49.2319662, -123.1191819","geolocalarea":"Oakridge","applicantaddress":"400 - 780 Beatty Street\r\nVancouver, BC  V6B 2M1","permitelapseddays":"67","projectdescription":"Certified Professional Program - Outdoor Uses (No Buildings Proposed) - Building Permit for BP-2018-04741 \r\n\r\nCivil works on Oakridge property to reroute services including temporary storm line installation, sanitary services, water meter relocation, etc. \r\n\r\nRevision I (to incorporate comments form Engineering group) issued June 14, 2019.","specificusecategory":"Not Applicable"},"geometry":{"type":"Point","coordinates":[-123.1191819,49.2319662]}},{"type":"Feature","properties":{"date":"2019-03-28T00:00:00.000Z","year":2019,"description":null,"metadescription":"Outdoor Uses (No Buildings Proposed). 3811 POINT GREY ROAD, Vancouver, BC V6R 1B3","address":"3821 Point Grey RD, BC, VANCOUVER, V6R1B3, CA","issuedate":"2019-05-07","issueyear":"2019","propertyuse":"Transportation and Storage Uses","geo_point_2d":"49.2726402, -123.1880223","geolocalarea":"West Point Grey","applicantaddress":"500-1130 West Pender St\r\nVancouver, BC  V6E 4A4","permitelapseddays":"40","buildingcontractor":"Blue Water Systems Ltd","projectdescription":"High Density Housing / Commercial - Outdoor Uses (No Buildings Proposed) - Exterior alterations to connect a new marina walkway at 3811 Point Grey Road to serve as a new boat launch ramp.\r\nProposed work includes new fire hose cabinet. \r\n\r\nBuilding Review Branch Notes:\r\n1. No in-water construction proposed.","specificusecategory":"Marine Terminal or Berth","buildingcontractoraddress":"9925 River Road  \r\nDelta, BC  V4G 1B4"},"geometry":{"type":"Point","coordinates":[-123.1880223,49.2726402]}},{"type":"Feature","properties":{"date":"2018-10-10T00:00:00.000Z","year":2018,"description":null,"metadescription":"Outdoor Uses (No Buildings Proposed). 3932 OSLER STREET, Vancouver, BC V6H 2W9","address":"3932 Osler ST, BC, VANCOUVER, V6H2W9, CA","issuedate":"2018-11-05","issueyear":"2018","propertyuse":"Dwelling Uses","geo_point_2d":"49.250458, -123.129282","geolocalarea":"Shaughnessy","applicantaddress":"916 Sperling Ave\r\nBurnaby, BC  V5B4H8","permitelapseddays":"26","projectdescription":"Field Review - Outdoor Uses (No Buildings Proposed) - In accordance with Section 4.4 of the Zoning and Development By-law, your request is granted, thereby permitting:\r\n- alterations to landscaping features (gates and posts);\r\n- additions of a water feature; and\r\n- a deck and hot tub at the rear of the property to the existing one-family dwelling with an attached three-car garage having vehicular access from Laurier Avenue;","specificusecategory":"Single Detached House"},"geometry":{"type":"Point","coordinates":[-123.129282,49.250458]}},{"type":"Feature","properties":{"date":"2018-09-27T00:00:00.000Z","year":2018,"description":null,"metadescription":"Outdoor Uses (No Buildings Proposed). 700 W PENDER STREET, Vancouver, BC V6C 1G8","address":"533 Granville ST, BC, VANCOUVER, V6C1X6, CA","issuedate":"2018-11-23","issueyear":"2018","propertyuse":"Service Uses","geo_point_2d":"49.284808, -123.1156241","geolocalarea":"Downtown","applicantaddress":"#280 - 1040 West Georgia Street\r\nVancouver, BC  V6E 4H1","permitelapseddays":"57","projectdescription":"High Density Housing / Commercial - Outdoor Uses (No Buildings Proposed) - (#100 - Ground Floor) Exterior alterations to provide outdoor patio seating for the Restaurant Class 1 tenant (Starbucks) at this existing commercial building. \r\n\r\nBuilding Review Branch Notes:\r\n1. Maximum occupant load is 150 = (92 interior seats + 48 exterior seats + 10 staff)\r\n2. Proposed patio is at grade.","specificusecategory":"Restaurant - Class 1"},"geometry":{"type":"Point","coordinates":[-123.1156241,49.284808]}},{"type":"Feature","properties":{"date":"2018-06-12T00:00:00.000Z","year":2018,"description":null,"metadescription":"Outdoor Uses (No Buildings Proposed). 301 W 1ST AVENUE, Vancouver, BC V5Y 1A6","address":"1808 Crowe ST, BC, VANCOUVER, V5Y3V2, CA","issuedate":"2018-06-15","issueyear":"2018","propertyuse":"Transportation and Storage Uses","geo_point_2d":"49.2698497, -123.1133667","geolocalarea":"Mount Pleasant","applicantaddress":"250 West 70th Avenue\r\nVancouver, BC  V5X 2X1","permitelapseddays":"3","projectdescription":"High Density Housing / Commercial - Outdoor Uses (No Buildings Proposed) - To provide use of the existing vacant lot as a temporary transfer drop-off station (Works Yard) for yard trimmings and is limited to: PLANT AND SOIL ASSOCIATED WITH PLANT MATERIAL ONLY.\r\n\r\nThe proposed use is for a time limited period expiring, December 31st, 2018.\r\n\r\nBuilding Review Branch Notes:\r\nPhase 1- June 15th, 2018 the following will be on site:\r\n2 crew trailers  (COV work trailers) – no power requirements are needed\r\n1 roll off bin – no power or other infrastructure needed\r\n1 portable toilet\r\nFencing – amount to be determined\r\n\r\nPhase 2- to be determined and addressed at the time of permit amendment.","specificusecategory":"Works Yard"},"geometry":{"type":"Point","coordinates":[-123.1133667,49.2698497]}},{"type":"Feature","properties":{"date":"2018-05-29T00:00:00.000Z","year":2018,"description":null,"metadescription":"Outdoor Uses (No Buildings Proposed). 1750 FRANKLIN STREET, Vancouver, BC V5L 1P7","address":"1750 Franklin ST, BC, VANCOUVER, CA","issuedate":"2018-07-10","issueyear":"2018","propertyuse":"Manufacturing Uses","geo_point_2d":"49.2819165, -123.0691313","geolocalarea":"Grandview-Woodland","applicantaddress":"611 Alexander Street\r\nSuite 414\r\nVancouver, BC  V6A 1E1","permitelapseddays":"42","projectdescription":"High Density Housing / Commercial - Outdoor Uses (No Buildings Proposed) - Building Permit for DP-2018-00385\r\nExterior alterations to install two security fences within the laneway between East Hastings and Franklin Street, for the existing Manufacturing- Animal Products Processing (Group F2) tenant on this site.\r\nRefer to License Agreements on file for related conditions of approval. \r\n\r\nBuilding Review Branch Notes:\r\n1. Door release hardware required at pedestrian access doors. \r\n2. Exit signage to be provided to clearly direct occupants to pedestrian access doors.\r\n3. Exiting shall be provided to adjacent building occupants within the laneway fencing.","specificusecategory":"Animal Products Processing"},"geometry":{"type":"Point","coordinates":[-123.0691313,49.2819165]}},{"type":"Feature","properties":{"date":"2018-03-14T00:00:00.000Z","year":2018,"description":null,"metadescription":"Outdoor Uses (No Buildings Proposed). 650 W 57TH AVENUE, Vancouver, BC V5X 1S9","address":"901, 621 57th AVE W, BC, VANCOUVER, V6P6P5, CA","issuedate":"2018-04-20","issueyear":"2018","propertyuse":"Utility and Communication Uses","geo_point_2d":"49.2188354, -123.1192829","geolocalarea":"Marpole","applicantaddress":"#200 - 1010 Seymour St\r\nVancouver, BC  V6B 3M6","permitelapseddays":"37","buildingcontractor":"Onni Contracting Ltd","projectdescription":"Field Review - Outdoor Uses (No Buildings Proposed) - To install 2 emergency generators with an approx. 8' x 20' seacan (for switches and electrical breakers) on a new 20' x 40' concrete pad at the south east quadrant on this site for a limited period of time expiring <3 years from date of issuance>.\r\n\r\nNote:\r\nEmergency generators are being relocated from existing location within the existing unaddressed industrial building in the South-East quadrant of this site.\r\n\r\nOK for Planning per PoD B. Clarke, Mar 13/2018\r\nOK for Landscaping per A. Maness, Mar 13/2018\r\nOK for Field Review per P. Martin, Mar 13/2018","specificusecategory":"Not Applicable","buildingcontractoraddress":"1010 SEYMOUR ST  \r\nUnit 200\r\nVancouver, BC  V6B 4Y4"},"geometry":{"type":"Point","coordinates":[-123.1192829,49.2188354]}},{"type":"Feature","properties":{"date":"2018-03-06T00:00:00.000Z","year":2018,"description":null,"metadescription":"Outdoor Uses (No Buildings Proposed). 1951 W 17TH AVENUE, Vancouver, BC V6J 2N2","address":"1951 17th AVE W, BC, VANCOUVER, V6J2N2, CA","issuedate":"2018-05-14","issueyear":"2018","propertyuse":"Dwelling Uses","geo_point_2d":"49.2565447, -123.1495774","geolocalarea":"Shaughnessy","applicantaddress":"1951 W 17th Av\r\nVancouver, BC  V6J 2N2","permitelapseddays":"69","projectdescription":"Field Review - Outdoor Uses (No Buildings Proposed) - Exterior alterations to construct a 4 feet high stone and wrought iron wall adjacent the front property line at this existing single family dwelling building on this FSD site.\r\n\r\nOK for field review per B.Cowan, March 6, 2018.\r\n\r\nStructural Schedule B submitted by Shi, Li Qing, P.Eng., 778.772.7508","specificusecategory":"Single Detached House"},"geometry":{"type":"Point","coordinates":[-123.1495774,49.2565447]}},{"type":"Feature","properties":{"date":"2018-02-19T00:00:00.000Z","year":2018,"description":null,"metadescription":"Outdoor Uses (No Buildings Proposed). 860 RICHARDS STREET, Vancouver, BC V6B 3A7","address":"865 Richards ST, BC, VANCOUVER, V6B3B4, CA","issuedate":"2018-03-09","issueyear":"2018","propertyuse":"Cultural/Recreational Uses","geo_point_2d":"49.2791971, -123.1186804","geolocalarea":"Downtown","applicantaddress":"Suite 1500, 1185 West Georgia St.\r\nVancouver, BC  V6E 4E6","permitelapseddays":"18","projectdescription":"High Density Housing / Commercial - Outdoor Uses (No Buildings Proposed) - To remediate the soil for soil contamination sourced from historical underground storage tank.  The tank was removed around in the early 2000 and soil is being removed now. Excavated soil will be sent to an appropriate landfill for disposal. Following remediation the excavation will be immediately back filled with clean material to existing grade.","specificusecategory":"Park or Playground"},"geometry":{"type":"Point","coordinates":[-123.1186804,49.2791971]}},{"type":"Feature","properties":{"date":"2018-01-24T00:00:00.000Z","year":2018,"description":null,"metadescription":"Outdoor Uses (No Buildings Proposed). 579 DUNSMUIR STREET, Vancouver, BC","address":"568 Dunsmuir ST, BC, VANCOUVER, V6B1Y1, CA","issuedate":"2018-11-15","issueyear":"2018","propertyuse":"Service Uses","geo_point_2d":"49.2829154, -123.1152237","geolocalarea":"Downtown","applicantaddress":"#420 - 22 East 5th Avenue\r\nVancouver, BC  V5T 1G8","permitelapseddays":"295","projectdescription":"High Density Housing / Commercial - Outdoor Uses (No Buildings Proposed) - Building Permit for DP-2017-00804 \r\nTo legalize a 30 seat roof top patio in this Neighbourhood Public House-\r\nThe Railway Club (Group A2) and to add an exterior door leading to the roof top patio in this existing Heritage C building.\r\n\r\nMaximum occupant load = 156 persons.\r\n\r\nBuilding Review Branch Notes:\r\n1. Structural upgrading of the roof required.\r\n2. New fire separations proposed at the ceiling. \r\n3. Maximum 30 persons on the roof top patio per structural calculation of 50psf. \r\n4. Separate permit required for the work without permit tenant improvement work- see BP-2018-00904.","specificusecategory":"Restaurant - Class 1"},"geometry":{"type":"Point","coordinates":[-123.1152237,49.2829154]}},{"type":"Feature","properties":{"date":"2017-12-11T00:00:00.000Z","year":2017,"description":null,"metadescription":"Outdoor Uses (No Buildings Proposed). 601 W BROADWAY, Vancouver, BC V5Z 4C2","address":"301, 601 Broadway W, BC, VANCOUVER, V5Z4C2, CA","issuedate":"2018-01-31","issueyear":"2018","propertyuse":"Service Uses","geo_point_2d":"49.2635754, -123.1185654","geolocalarea":"Fairview","applicantaddress":"3706 W 30th Ave\r\nVancouver, BC  V6S 1W8","permitelapseddays":"51","projectdescription":"High Density Housing / Commercial - Outdoor Uses (No Buildings Proposed) - Exterior alterations to provide outdoor patio seating for the Restaurant Class-1 tenant located at #U-20 in this existing high commercial (health care office; office, retail, restaurant, School- self improvement; School-vocational, financial institution) building. \r\n\r\nBuilding Review Branch Notes:\r\nRefer to Restaurant Tenant Improvement Permit DB-2017-02601 for Occupant load.\r\nMaximum 150 persons \r\nProposed 96 persons= 44 Interior seating + 44 Exterior Patio + 8 Staff.","specificusecategory":"Restaurant - Class 1"},"geometry":{"type":"Point","coordinates":[-123.1185654,49.2635754]}},{"type":"Feature","properties":{"date":"2017-09-19T00:00:00.000Z","year":2017,"description":null,"metadescription":"Outdoor Uses (No Buildings Proposed). 885 E KENT AVENUE NORTH, Vancouver, BC","address":"107, 1089 E Kent AVE N, BC, VANCOUVER, V5X4V9, CA","issuedate":"2017-12-01","issueyear":"2017","propertyuse":"Transportation and Storage Uses","geo_point_2d":"49.2086318, -123.0863169","geolocalarea":"Sunset","applicantaddress":"1011 Esplanade Avenue\r\nWest Vancouver, BC  V7T 1G2","permitelapseddays":"73","projectdescription":"High Density Housing / Commercial - Outdoor Uses (No Buildings Proposed) - Exterior Alteration:\r\nTo alter existing parking and provide an open outdoor storage yard for this Wholesale Class-A tenant on this site.\r\n\r\nCRP: Leith Anderson Phone: (604) 925-4383\r\nTenant: Pacific West System Supply Ltd. \r\n\r\nRelated to: DP-2017-00440\r\n\r\nNote:                                                                             \r\n\"This permit has been reviewed under the 2014 Vancouver Building By-law (#10908).\"","specificusecategory":"Storage Yard"},"geometry":{"type":"Point","coordinates":[-123.0863169,49.2086318]}},{"type":"Feature","properties":{"date":"2017-06-27T00:00:00.000Z","year":2017,"description":null,"metadescription":"Outdoor Uses (No Buildings Proposed). 443 SEYMOUR STREET, Vancouver, BC V6B 3H5","address":"208, 620 Pender ST W, BC, VANCOUVER, V6B1V8, CA","issuedate":"2017-07-26","issueyear":"2017","propertyuse":"Cultural/Recreational Uses","geo_point_2d":"49.2844111, -123.1139171","geolocalarea":"Downtown","applicantaddress":"325-1130 West Pender\r\nVancouver, BC  V6Z 2S8","permitelapseddays":"29","buildingcontractor":"Ledcor Construction Limited","projectdescription":"High Density Housing / Commercial - Outdoor Uses (No Buildings Proposed) - Building Permit for DP-2016-00418 \r\nTo attach two (2) basketball hoops at 602 W Hastings Street (Municipally Designated Heritage \"A\" building) and suspend an orb between 443 Seymour Street (Heritage \"A\" building) and 602 W Hastings St.\r\n\r\nThis approval is for a limited period of time expiring September 28, 2017 unless extended in writing by the Director of Planning.","specificusecategory":"Not Applicable","buildingcontractoraddress":"1055 W HASTINGS ST  \r\nUnit 500\r\nVancouver, BC  V6E 2E9"},"geometry":{"type":"Point","coordinates":[-123.1139171,49.2844111]}},{"type":"Feature","properties":{"date":"2017-06-14T00:00:00.000Z","year":2017,"description":null,"metadescription":"Outdoor Uses (No Buildings Proposed). 3121 GRANVILLE STREET, Vancouver, BC V6H 3K1","address":"3121 Granville ST, BC, VANCOUVER, V6H3K1, CA","issuedate":"2017-07-05","issueyear":"2017","propertyuse":"Service Uses","geo_point_2d":"49.2577199, -123.1391896","geolocalarea":"Fairview","applicantaddress":"202-988 West 54th Ave\r\nVancouvjer, BC  V6P1M9","permitelapseddays":"21","projectdescription":"High Density Housing / Commercial - Outdoor Uses (No Buildings Proposed) - To provide outdoor patio seating for the existing Restaurant-Class 1 (Group A2) tenant at 3121 Granville St in this existing mixed use commercial building. \r\n\r\nMaximum number of seats for the outdoor seating area is 16.\r\nOccupant Load = 80 persons = (64 interior + 16 exterior)\r\n\r\nDevelopment Review Notes and Conditions:\r\nThe outdoor patio of 16 seats is for the exclusive use of The Rise Eatery, unless otherwise permitted by the Director of Planning. If the tenant ceases to exist, Planning may wish to seek additional information regarding the new tenant space and potentially a new application if they wish to utilize this outdoor patio.\r\n\r\nThe outdoor seating area is to be closed and cleared of customers by 11:00 p.m. nightly.\r\nThere is to be no amplified music or live entertainment on the outdoor seating area at any time.\r\n\r\nThe outdoor seating area must comply with the applicable provisions of the Health By-law, smoking in and around the outdoor seating area is not permitted.","specificusecategory":"Restaurant - Class 1"},"geometry":{"type":"Point","coordinates":[-123.1391896,49.2577199]}},{"type":"Feature","properties":{"date":"2017-05-30T00:00:00.000Z","year":2017,"description":null,"metadescription":"Outdoor Uses (No Buildings Proposed). 8242 OAK STREET, Vancouver, BC V6P 4A7","address":"8226 Oak ST, BC, VANCOUVER, V6P4A7, CA","issuedate":"2017-06-15","issueyear":"2017","propertyuse":"Deposition or Extraction Uses","geo_point_2d":"49.2111702, -123.1297755","geolocalarea":"Marpole","applicantaddress":"4400 Dominion Street \r\n# 320\r\nBurnaby, BC  V5G 4G3","permitelapseddays":"16","projectdescription":"High Density Housing / Commercial - Outdoor Uses (No Buildings Proposed) - To provide a Notification /Invitation of Independent remediation and a completion of Independent remediation per the requirements of the Ministry of Environment for this site. The environmental consultant is Ben Lin P.Eng. from Keystone Environmental Ltd. at 604-430-0671. \r\nLocalized remediation of soils to a depth of 2 m at an area measuring approximately 100 sq. m. (10 m x 10 m) near the center of this existing larger vacant site shall meet the contaminated site regulation remediation standards to commercial land use for the development lands (onsite), and to Residential land use for City property(Off-site). followed by immediate back filling to match existing grade elevation. \r\n\r\nEnvironmental Protection condition: \r\nEffluent to be treated prior to discharge to the sanitary sewer.\r\nFinal Remediation /closure report and the Ministry of Environment's \"Instruments of Approval\" shall be submitted to environmental Planning - Contaminated Sites Team by December 14, 2017.\r\n\r\nApplicant: Ben Lin of Keystone Environmental (604-430-0671)\r\nemail: blin@keystoneenvironmental.ca","specificusecategory":"Deposition or Extraction"},"geometry":{"type":"Point","coordinates":[-123.1297755,49.2111702]}},{"type":"Feature","properties":{"date":"2017-04-10T00:00:00.000Z","year":2017,"description":null,"metadescription":"Outdoor Uses (No Buildings Proposed). 949 W 41ST AVENUE, Vancouver, BC V5Z 2N5","address":"5502 Oak ST, BC, VANCOUVER, V6M2V6, CA","issuedate":"2017-07-14","issueyear":"2017","propertyuse":"Transportation and Storage Uses","geo_point_2d":"49.2352898, -123.1259228","geolocalarea":"South Cambie","applicantaddress":"suite 200 - 2920 Virtual Way\r\nRichmond, BC  V5M 0C4","permitelapseddays":"95","projectdescription":"High Density Housing / Commercial - Outdoor Uses (No Buildings Proposed) - Soil Remediation at the North End of this existing site.\r\nTo provide a Notification / Invitation of Independent Remediation and a Completion of Independent Remediation per the requirements of Ministry of Environment for this site. The environmental consultant is Mr. Marc Schwerzmann, P.Eng. from Golder Associates at 1-226-376-6386.\r\nSoil Remediation to the designated depths of approximately 4 M, the site shall meet the Contaminated Site Regulation remediation standards to Residential land use for the development lands (onsite).\r\nThis site shall be back filled immediately to the previous elevation upon completion of the remediation work. \r\nEnvironmental Protection Condition :\r\nEffluent to be treated prior to discharge to the sanitary sewer.\r\nWaste Discharge Permit for dewatering activities on and off-site is required.\r\nFinal Remediation / Closure report and the Ministry of Environment's \"Instruments of Approval\" shall be submitted to Environmental Planning - Contaminated Sites Team by April 01, 2018.\r\nThis permit is related to demolition permit BP-2017-01870.","specificusecategory":"Transit/Bus Station"},"geometry":{"type":"Point","coordinates":[-123.1259228,49.2352898]}},{"type":"Feature","properties":{"date":"2017-03-30T00:00:00.000Z","year":2017,"description":null,"metadescription":"Outdoor Uses (No Buildings Proposed). 1655 WHYTE AVENUE, Vancouver, BC V6J 1A9","address":"1655 Whyte AVE, BC, VANCOUVER, V6J1A9, CA","issuedate":"2017-06-12","issueyear":"2017","propertyuse":"Cultural/Recreational Uses","geo_point_2d":"49.2749264, -123.1386092","geolocalarea":"Fairview","applicantaddress":"Suite #300 - 507 WEST BROADWAY \r\nCROSSROADS - 4TH FLOOR\r\nVANCOUVER , BC  V5Z0B4","permitelapseddays":"74","projectdescription":"High Density Housing / Commercial - Outdoor Uses (No Buildings Proposed) - Exterior alteration\r\nOnshore work to install a new replacement BC Hydro Substation & supply lines & transformer to building & marina new water supply for fire suppression and potable water to marina.\r\nNew fire hydrant location is proposed.\r\nTwo new water entry kiosks at SouthEast corner of the existing dry dock area. \r\nOK for BP permit as per David Autiero on April 25, 2017.   \r\nThis permit is related to Offshore work under DB-2017-02170.\r\n\r\nPermit Amendment #1- 2020-11-18- S.Le\r\nThe water entry shed location was moved east do to existing utility conflicts - site conditions in the ground.\r\nRefer to terms for Vancouver Fire & Rescue Services requirements for the amendment.","specificusecategory":"Marina"},"geometry":{"type":"Point","coordinates":[-123.1386092,49.2749264]}},{"type":"Feature","properties":{"date":"2017-03-06T00:00:00.000Z","year":2017,"description":null,"metadescription":"Outdoor Uses (No Buildings Proposed). 3311 E HASTINGS STREET, Vancouver, BC","address":"316, 3423 Hastings ST E, BC, VANCOUVER, V5K2A5, CA","issuedate":"2019-11-07","issueyear":"2019","propertyuse":"Cultural/Recreational Uses","geo_point_2d":"49.2812338, -123.0318148","geolocalarea":"Hastings-Sunrise","applicantaddress":"#125-1085 East Kent Avenue North\r\nVancouver, BC  V5X 4V9","permitelapseddays":"976","buildingcontractor":"Tsang Chu Construction Ltd","projectdescription":"High Density Housing / Commercial - Outdoor Uses (No Buildings Proposed) - To construct and install a public artwork structure which will provide public seating capacity of 49 persons for Empire Fields at Hastings Park on this existing site. \r\nNO DP required as per David Autiero for Public Art.","specificusecategory":"Stadium or Arena","buildingcontractoraddress":"1540 Taylor Way  \r\nWest Vancouver, BC  V7S 1N4"},"geometry":{"type":"Point","coordinates":[-123.0318148,49.2812338]}},{"type":"Feature","properties":{"date":"2017-02-16T00:00:00.000Z","year":2017,"description":null,"metadescription":"Outdoor Uses (No Buildings Proposed). 4712 VICTORIA DRIVE, Vancouver, BC V5N 4P1","address":"4720 Victoria DR, BC, VANCOUVER, V5N4P1, CA","issuedate":"2017-05-11","issueyear":"2017","propertyuse":"Dwelling Uses","geo_point_2d":"49.2426173, -123.0648707","geolocalarea":"Kensington-Cedar Cottage","applicantaddress":"#150-12791 Clarke Place\r\nRichmond, BC  V6V 2H9","permitelapseddays":"84","projectdescription":"Field Review - Outdoor Uses (No Buildings Proposed) - To replace the existing retaining wall (approximately 5'3\" height) at the front (west) property line of this existing one-family dwelling on this site.  \r\n\r\nOk for field review per N. Bahr, Feb 16, 2017\r\n\r\nNote:\r\n1) Projections beyond the property line are not permitted","specificusecategory":"Single Detached House"},"geometry":{"type":"Point","coordinates":[-123.0648707,49.2426173]}},{"type":"Feature","properties":{"date":"2017-02-16T00:00:00.000Z","year":2017,"description":null,"metadescription":"Outdoor Uses (No Buildings Proposed). 4706 VICTORIA DRIVE, Vancouver, BC V5N 4P1","address":"BSMT, 4712 Victoria DR, BC, VANCOUVER, V5N4P1, CA","issuedate":"2017-05-10","issueyear":"2017","propertyuse":"Dwelling Uses","geo_point_2d":"49.2427072, -123.064865","geolocalarea":"Kensington-Cedar Cottage","applicantaddress":"#150-12791 Clarke Place\r\nRichmond, BC  V6V 2H9","permitelapseddays":"83","projectdescription":"Field Review - Outdoor Uses (No Buildings Proposed) - To replace the existing retaining wall (approximately 5'3\" height) at the front (west) property line of this existing one-family dwelling on this site.  \r\n\r\nOk for field review per N. Bahr, Feb 16, 2017\r\n\r\nNote:\r\n1) Projections beyond the property line are not permitted","specificusecategory":"Single Detached House"},"geometry":{"type":"Point","coordinates":[-123.064865,49.2427072]}},{"type":"Feature","properties":{"date":"2017-01-23T00:00:00.000Z","year":2017,"description":null,"metadescription":"Outdoor Uses (No Buildings Proposed). 3580 GRAVELEY STREET, Vancouver, BC A0A 0A0","address":"3681 1st AVE E, BC, VANCOUVER, V5M1C2, CA","issuedate":"2017-04-18","issueyear":"2017","propertyuse":"Transportation and Storage Uses,Wholesale Uses","geo_point_2d":"49.2702672, -123.0247013","geolocalarea":"Hastings-Sunrise","applicantaddress":"6211 Fraserwood Place\r\nRichmond, BC  V6W1J2","permitelapseddays":"85","buildingcontractor":"Wales McLelland Construction Company (1988) Ltd","projectdescription":"High Density Housing / Commercial - Outdoor Uses (No Buildings Proposed) - Pre-loading ONLY.\r\nExterior alteration to excavate approx. 4.3 M to remove peat, and to pre-load approx. 4M above the existing grade in preparation for the new development on this site.\r\nOKay for BP as per Howie Chow and Kyle Pringle on January 23, 2017. \r\n*****Tree barriers shall be inspected and accepted by the City prior to any construction or excavation commencing.*****    \r\nProper site drainage is required.","specificusecategory":"Storage Warehouse,Wholesaling - Class A","buildingcontractoraddress":"6211 Fraserwood PL\r\nRichmond, BC  V6W 1J2"},"geometry":{"type":"Point","coordinates":[-123.0247013,49.2702672]}},{"type":"Feature","properties":{"date":"2016-11-30T00:00:00.000Z","year":2016,"description":null,"metadescription":"Outdoor Uses (No Buildings Proposed). 1778 W 37TH AVENUE, Vancouver, BC V6M 1N1","address":"1778 37th AVE W, BC, VANCOUVER, V6M1N1, CA","issuedate":"2017-01-31","issueyear":"2017","propertyuse":"Dwelling Uses","geo_point_2d":"49.2378318, -123.1460034","geolocalarea":"Shaughnessy","applicantaddress":"ALOHA POOLS LTD\r\n161-5489 BYRNE RD\r\nBURNABY, BC  V5J 3J1","permitelapseddays":"62","buildingcontractor":"Aloha Pools Ltd","projectdescription":"Field Review - Outdoor Uses (No Buildings Proposed) - To add an outdoor swimming pool (approx. 40' x 15') and hot tub in the rear yard of this existing one-family dwelling on this site including landscape M/A to DE419074\r\n\r\nOk for field review per N. Bahr, Nov 30, 2016\r\nSchedule B (Struct/Geotech) submitted by B Klarich, P.Eng, 604-619-8875\r\n\r\nRelated to BU467319 (SU-2016-00710)\r\n\r\nNote:\r\n1) Tree barriers to be maintained as per DE419074 / BU467319;\r\n2) Arborist supervision required for excavation associated with construction of pool.\r\n3) house renovation/addition under DE419074 and BU467319 (SU-2016-00710)\r\n4) Pool to be fully fenced/enclosed (minimum 4'-0\") and all gates and doors are to be equipped with locks and self-closing devices.\r\n\r\nNotes to DBI: \r\n1. Confirm location of overhead wires, coordination with electrical inspector may be required.\r\n2. Confirm tree barriers maintained as per drawings.","specificusecategory":"Single Detached House","buildingcontractoraddress":"5489 Byrne Road  \r\nUnit 161\r\nVancouver, BC  V5J 3J1"},"geometry":{"type":"Point","coordinates":[-123.1460034,49.2378318]}},{"type":"Feature","properties":{"date":"2016-09-19T00:00:00.000Z","year":2016,"description":null,"metadescription":"Outdoor Uses (No Buildings Proposed). 6956 VICTORIA DRIVE, Vancouver, BC V5P 3Y8","address":"6956 Victoria DR, BC, VANCOUVER, V5P3Y8, CA","issuedate":"2017-06-14","issueyear":"2017","propertyuse":"Service Uses","geo_point_2d":"49.2207342, -123.0654441","geolocalarea":"Victoria-Fraserview","applicantaddress":"39-7331 Heather \r\nRichmond, BC  V6Y4M3","permitelapseddays":"268","projectdescription":"High Density Housing / Commercial - Outdoor Uses (No Buildings Proposed) - Outdoor patio for the new restaurant at 6956 Victoria Drive.\r\nSeating limited to 20 seats.","specificusecategory":"Restaurant - Class 1"},"geometry":{"type":"Point","coordinates":[-123.0654441,49.2207342]}},{"type":"Feature","properties":{"date":"2016-09-07T00:00:00.000Z","year":2016,"description":null,"metadescription":"Outdoor Uses (No Buildings Proposed). 777 RICHARDS STREET, Vancouver, BC","address":"590 Robson ST, BC, VANCOUVER, V6B3J5, CA","issuedate":"2019-09-05","issueyear":"2019","propertyuse":"Dwelling Uses,Retail Uses","geo_point_2d":"49.28045, -123.1180391","geolocalarea":"Downtown","applicantaddress":"598 W Georgia Street\r\nVancouver, BC  V6B2A3","permitelapseddays":"1093","projectdescription":"High Density Housing / Commercial - Outdoor Uses (No Buildings Proposed) - PUBLIC ART\r\nExterior alteration for Installation of Public Art.\r\nExterior alteration for the installation of public art of 19 hanging lanterns above the rear lane between Telus Residential and the existing William Farrell Building. All lanterns, wires, and connections to be made of non-combustible materials. \r\nStructural connections are proposed to be installed to the rear facade of 4 buildings at 777 Richards Street, 555 Robson Street, 768 Seymour Street and 510 W Georgia Street above the rear lane area.","specificusecategory":"Multiple Dwelling,Retail Store"},"geometry":{"type":"Point","coordinates":[-123.1180391,49.28045]}}]}
