{"type":"FeatureCollection","features":[{"type":"Feature","properties":{"date":"2008-07-10T04:00:00.000Z","year":2008,"description":"New 2 story resid w/att carport-porch elec srv eud","metadescription":"EP. New. New 2 story resid w/att carport-porch elec srv eud. Final. 3302 GENTRY DR","address":"3302 GENTRY DR","link":"https://abc.austintexas.gov/web/permit/public-search-other?t_detail=1&t_selected_folderrsn=10169820","tcad_id":"0109110423","location":"    (30.27613764, -97.79201651)","day_issued":"THURSDAY","project_id":"10169820","condominium":"No","status_date":"10/09/2008","jurisdiction":"ROLLINGWOOD FULL PURPOSE","housing_units":"1","contractor_zip":"78619-9108","contractor_city":"Driftwood","issuance_method":"Permit Center","contractor_phone":"5125010765","contractor_trade":"Electrical Contractor","number_of_floors":"2","permit_type_desc":"Electrical Permit","fiscal_year_issued":"2008","total_new_add_sqft":"3,000","permit_class_mapped":"Residential","contractor_address_1":"170 BROWNSON","contractor_address_2":"DRIFTWOOD TX","contractor_full_name":"Charles A Syphrett","issued_in_last_30_days":"No","certificate_of_occupancy":"No","property_legal_description":"LOT 1 BLK A MARSHALL JANE SUBD"},"geometry":{"type":"Point","coordinates":[-97.79201651,30.27613764]}},{"type":"Feature","properties":{"date":"2007-11-16T05:00:00.000Z","year":2007,"description":"New 2 stry resid w/attached carport-porch eud (See 2008-053845)","metadescription":"EP. New. New 2 stry resid w/attached carport-porch eud (See 2008-053845). VOID. 3302 GENTRY DR","address":"3302 GENTRY DR","link":"https://abc.austintexas.gov/web/permit/public-search-other?t_detail=1&t_selected_folderrsn=10091158","tcad_id":"0109110423","location":"    (30.27613764, -97.79201651)","day_issued":"FRIDAY","project_id":"10091158","condominium":"No","status_date":"07/10/2008","jurisdiction":"ROLLINGWOOD FULL PURPOSE","housing_units":"1","contractor_zip":"78619-9108","contractor_city":"Driftwood","issuance_method":"Permit Center","contractor_phone":"5125010765","contractor_trade":"Electrical Contractor","number_of_floors":"2","permit_type_desc":"Electrical Permit","fiscal_year_issued":"2008","total_new_add_sqft":"3,602","permit_class_mapped":"Residential","contractor_address_1":"170 BROWNSON","contractor_address_2":"DRIFTWOOD TX","contractor_full_name":"Charles A Syphrett","issued_in_last_30_days":"No","certificate_of_occupancy":"No","property_legal_description":"LOT 1 BLK A MARSHALL JANE SUBD"},"geometry":{"type":"Point","coordinates":[-97.79201651,30.27613764]}}]}
