{"type":"FeatureCollection","features":[{"type":"Feature","properties":{"date":"2025-07-17T04:00:00.000Z","year":2025,"description":"To tunnel under the foundation to replace the cast-iron drain lines at the kitchen the laundry and the bathroom and install PVC.","metadescription":"PP. Repair. To tunnel under the foundation to replace the cast-iron drain lines at the kitchen the laundry and the bathroom and install PVC.. Final. 415 RIDGEWOOD RD","address":"415 Ridgewood Road, Austin, TX, 78746, US","link":"https://abc.austintexas.gov/web/permit/public-search-other?t_detail=1&t_selected_folderrsn=13545279","tcad_id":"0111110405","location":"    (30.27921391, -97.78945431)","day_issued":"THURSDAY","project_id":"13545279","condominium":"No","status_date":"09/23/2025","jurisdiction":"WEST LAKE HILLS FULL PURPOSE","housing_units":"1","contractor_zip":"78602","contractor_city":"BASTROP","issuance_method":"Permit Center","contractor_phone":"5129247989","contractor_trade":"Plumbing Contractor","number_of_floors":"1","permit_type_desc":"Plumbing Permit","fiscal_year_issued":"2025","permit_class_mapped":"Residential","remodel_repair_sqft":"70","contractor_address_2":"294  Shiloh","contractor_full_name":"Raul Eric Meza","issued_in_last_30_days":"No","certificate_of_occupancy":"No","property_legal_description":"LOT 1A *RESUB 1 & PT 2 & 26 RIDGEWOOD VILLAGE SEC 1 & 2"},"geometry":{"type":"Point","coordinates":[-97.78945431,30.27921391]}}]}
