{"type":"FeatureCollection","features":[{"type":"Feature","properties":{"date":"2021-03-23T04:00:00.000Z","year":2021,"description":"Winter Event 2021 Repairs - Replace Irrigation RPZ backflow device due to freeze","metadescription":"PP. Irrigation. Winter Event 2021 Repairs - Replace Irrigation RPZ backflow device due to freeze. Withdrawn. 405 INWOOD RD","address":"405 INWOOD RD","link":"https://abc.austintexas.gov/web/permit/public-search-other?t_detail=1&t_selected_folderrsn=12659903","tcad_id":"0107090212","location":"    (30.27274823, -97.78324303)","day_issued":"TUESDAY","project_id":"12659903","status_date":"01/18/2023","jurisdiction":"ROLLINGWOOD FULL PURPOSE","issuance_method":"Permit Center","permit_type_desc":"Plumbing Permit","fiscal_year_issued":"2021","permit_class_mapped":"Residential","issued_in_last_30_days":"No","property_legal_description":"LOT 1A-2A DGE ADDN & ALAM ADDN"},"geometry":{"type":"Point","coordinates":[-97.78324303,30.27274823]}},{"type":"Feature","properties":{"date":"2018-08-22T04:00:00.000Z","year":2018,"description":"Irrigation system installation.","metadescription":"PP. Irrigation. Irrigation system installation.. Expired. 4804 TIMBERLINE DR","address":"4804 TIMBERLINE DR","link":"https://abc.austintexas.gov/web/permit/public-search-other?t_detail=1&t_selected_folderrsn=12019192","tcad_id":"0109091407","location":"    (30.27311342, -97.78570177)","day_issued":"WEDNESDAY","project_id":"12019192","condominium":"No","status_date":"06/25/2025","jurisdiction":"ROLLINGWOOD FULL PURPOSE","issuance_method":"Permit Center","permit_type_desc":"Plumbing Permit","fiscal_year_issued":"2018","permit_class_mapped":"Residential","issued_in_last_30_days":"No","certificate_of_occupancy":"No","plumbing_valuation_remodel":"$5,200.00","property_legal_description":"LOT 11 * & NW11.46 FT TRI OF LOT 12 BLK B TIMBERLINE TERRACE SEC 3"},"geometry":{"type":"Point","coordinates":[-97.78570177,30.27311342]}},{"type":"Feature","properties":{"date":"2014-06-26T04:00:00.000Z","year":2014,"description":"Install 200 amp overhead pole mounted service for irrigation well. EUD","metadescription":"EP. Remodel. Install 200 amp overhead pole mounted service for irrigation well. EUD. Final. 108 KRISTY DR","address":"108 KRISTY DR","link":"https://abc.austintexas.gov/web/permit/public-search-other?t_detail=1&t_selected_folderrsn=11172698","tcad_id":"0111090239","location":"    (30.27945178, -97.78412435)","day_issued":"THURSDAY","project_id":"11172698","condominium":"No","status_date":"08/08/2014","jurisdiction":"ROLLINGWOOD FULL PURPOSE","housing_units":"1","contractor_zip":"78676","contractor_city":"Wimberley","issuance_method":"Permit Center","contractor_phone":"5127223255","contractor_trade":"Electrical Contractor","number_of_floors":"1","permit_type_desc":"Electrical Permit","fiscal_year_issued":"2014","permit_class_mapped":"Residential","contractor_address_2":"142  Belle D","contractor_full_name":"Aaron J. Downing","issued_in_last_30_days":"No","certificate_of_occupancy":"No","property_legal_description":"LOT 1A BLK A SHAW ACRES RESUB LOT 1","electrical_valuation_remodel":"$2,250.00"},"geometry":{"type":"Point","coordinates":[-97.78412435,30.27945178]}},{"type":"Feature","properties":{"date":"2008-08-12T04:00:00.000Z","year":2008,"description":"Install irrigation system to exst res-EUD","metadescription":"PP. Irrigation. Install irrigation system to exst res-EUD. VOID. 8 S PEAK RD","address":"8 S PEAK RD","link":"https://abc.austintexas.gov/web/permit/public-search-other?t_detail=1&t_selected_folderrsn=10181686","tcad_id":"0107131006","location":"    (30.27245065, -97.79637855)","day_issued":"TUESDAY","project_id":"10181686","condominium":"No","status_date":"03/11/2009","jurisdiction":"ROLLINGWOOD FULL PURPOSE","issuance_method":"Permit Center","permit_type_desc":"Plumbing Permit","fiscal_year_issued":"2008","permit_class_mapped":"Residential","issued_in_last_30_days":"No","certificate_of_occupancy":"No","plumbing_valuation_remodel":"$4,000.00","property_legal_description":"GARWOOD OAKS ADDN II LTS 4A & 5-AA RPL LT 5-A & LT 4 BLK A TIMBERLINE TERRACE SEC 1 LOT 4A"},"geometry":{"type":"Point","coordinates":[-97.79637855,30.27245065]}},{"type":"Feature","properties":{"date":"2006-05-24T04:00:00.000Z","year":2006,"description":"Install Backflow Preventer For Irrigation System To Exsting Resid Only","metadescription":"PP. Remodel. Install Backflow Preventer For Irrigation System To Exsting Resid Only. Expired. 301 WALLIS DR","address":"301 WALLIS DR","link":"https://abc.austintexas.gov/web/permit/public-search-other?t_detail=1&t_selected_folderrsn=3776928","tcad_id":"0109090402","location":"    (30.27659488, -97.78374349)","day_issued":"WEDNESDAY","project_id":"3776928","condominium":"No","status_date":"05/07/2007","jurisdiction":"ROLLINGWOOD FULL PURPOSE","contractor_zip":"78717","contractor_city":"Austin","issuance_method":"Permit Center","contractor_phone":"5128489098","contractor_trade":"Plumbing Contractor","permit_type_desc":"Plumbing Permit","fiscal_year_issued":"2006","permit_class_mapped":"Residential","contractor_address_1":"10817 CASITA","contractor_address_2":"AUSTIN TX  7","contractor_full_name":"Gary Covelli","issued_in_last_30_days":"No","certificate_of_occupancy":"No","property_legal_description":"LOT 8 BLK G ROLLINGWOOD SEC 1"},"geometry":{"type":"Point","coordinates":[-97.78374349,30.27659488]}},{"type":"Feature","properties":{"date":"1992-04-21T04:00:00.000Z","year":1992,"description":"Residential Irrigation System","metadescription":"PP. Remodel. Residential Irrigation System. Final. 2604 ROLLINGWOOD DR","address":"2604 ROLLINGWOOD DR","link":"https://abc.austintexas.gov/web/permit/public-search-other?t_detail=1&t_selected_folderrsn=3802858","tcad_id":"0107090805","location":"    (30.27116346, -97.78376652)","day_issued":"TUESDAY","project_id":"3802858","condominium":"No","status_date":"05/22/2007","jurisdiction":"ROLLINGWOOD FULL PURPOSE","housing_units":"1","issuance_method":"Permit Center","permit_type_desc":"Plumbing Permit","fiscal_year_issued":"1992","permit_class_mapped":"Residential","issued_in_last_30_days":"No","certificate_of_occupancy":"No","property_legal_description":"LOT 5 TIMBERLINE TERRACE SEC 4"},"geometry":{"type":"Point","coordinates":[-97.78376652,30.27116346]}},{"type":"Feature","properties":{"date":"1991-03-07T05:00:00.000Z","year":1991,"description":"Residential Irrigation System","metadescription":"PP. Remodel. Residential Irrigation System. Final. 403 VALE ST","address":"403 VALE ST","link":"https://abc.austintexas.gov/web/permit/public-search-other?t_detail=1&t_selected_folderrsn=3657454","tcad_id":"0107070204","location":"    (30.27119115, -97.77949452)","day_issued":"THURSDAY","project_id":"3657454","condominium":"No","status_date":"05/22/2007","jurisdiction":"ROLLINGWOOD FULL PURPOSE","housing_units":"1","issuance_method":"Permit Center","permit_type_desc":"Plumbing Permit","fiscal_year_issued":"1991","permit_class_mapped":"Residential","issued_in_last_30_days":"No","certificate_of_occupancy":"No","property_legal_description":"LOT 1 FAJKOWSKIWOOD PHS II"},"geometry":{"type":"Point","coordinates":[-97.77949452,30.27119115]}},{"type":"Feature","properties":{"date":"1990-12-20T05:00:00.000Z","year":1990,"description":"Residential Irrigation System","metadescription":"PP. Remodel. Residential Irrigation System. Final. 2908 MONTEBELLO CT","address":"2908 MONTEBELLO CT","link":"https://abc.austintexas.gov/web/permit/public-search-other?t_detail=1&t_selected_folderrsn=3656322","tcad_id":"0107110609","location":"    (30.26925372, -97.79229912)","day_issued":"THURSDAY","project_id":"3656322","condominium":"No","status_date":"05/22/2007","jurisdiction":"AUSTIN FULL PURPOSE","housing_units":"1","issuance_method":"Permit Center","permit_type_desc":"Plumbing Permit","fiscal_year_issued":"1991","permit_class_mapped":"Residential","issued_in_last_30_days":"No","certificate_of_occupancy":"No","property_legal_description":"LOT 9 BLK A TREEMONT PHS B SEC 2"},"geometry":{"type":"Point","coordinates":[-97.79229912,30.26925372]}},{"type":"Feature","properties":{"date":"1990-07-30T04:00:00.000Z","year":1990,"description":"Residential Irrigation System","metadescription":"PP. Remodel. Residential Irrigation System. Final. 2910 MONTEBELLO CT","address":"2910 MONTEBELLO CT","link":"https://abc.austintexas.gov/web/permit/public-search-other?t_detail=1&t_selected_folderrsn=3653730","tcad_id":"0107110610","location":"    (30.26924271, -97.79271448)","day_issued":"MONDAY","project_id":"3653730","condominium":"No","status_date":"05/22/2007","jurisdiction":"AUSTIN FULL PURPOSE","housing_units":"1","issuance_method":"Permit Center","permit_type_desc":"Plumbing Permit","fiscal_year_issued":"1990","permit_class_mapped":"Residential","issued_in_last_30_days":"No","certificate_of_occupancy":"No","property_legal_description":"LOT 8 BLK A TREEMONT PHS B SEC 2"},"geometry":{"type":"Point","coordinates":[-97.79271448,30.26924271]}},{"type":"Feature","properties":{"date":"1990-04-27T04:00:00.000Z","year":1990,"description":"Residential Irrigation","metadescription":"PP. Remodel. Residential Irrigation. Final. 3224 PARK HILLS DR","address":"3224 PARK HILLS DR","link":"https://abc.austintexas.gov/web/permit/public-search-other?t_detail=1&t_selected_folderrsn=3651932","tcad_id":"0111110604","location":"    (30.27956484, -97.78815216)","day_issued":"FRIDAY","project_id":"3651932","condominium":"No","status_date":"05/22/2007","jurisdiction":"ROLLINGWOOD FULL PURPOSE","housing_units":"1","issuance_method":"Permit Center","permit_type_desc":"Plumbing Permit","fiscal_year_issued":"1990","permit_class_mapped":"Residential","issued_in_last_30_days":"No","certificate_of_occupancy":"No","property_legal_description":"LOT 23 BLK B HATLEY PARK ESTATES"},"geometry":{"type":"Point","coordinates":[-97.78815216,30.27956484]}},{"type":"Feature","properties":{"date":"1988-10-25T04:00:00.000Z","year":1988,"description":"Irrigation System Residence","metadescription":"PP. Remodel. Irrigation System Residence. Final. 7 INWOOD CIR","address":"7 INWOOD CIR","link":"https://abc.austintexas.gov/web/permit/public-search-other?t_detail=1&t_selected_folderrsn=3641801","tcad_id":"0109090504","location":"    (30.27551408, -97.78043218)","day_issued":"TUESDAY","project_id":"3641801","condominium":"No","status_date":"05/22/2007","jurisdiction":"ROLLINGWOOD FULL PURPOSE","housing_units":"1","issuance_method":"Permit Center","permit_type_desc":"Plumbing Permit","fiscal_year_issued":"1989","permit_class_mapped":"Residential","issued_in_last_30_days":"No","certificate_of_occupancy":"No","property_legal_description":"LOT 7 *& E 33 FT OF LOT 6 BLK F ROLLINGWOOD SEC 1"},"geometry":{"type":"Point","coordinates":[-97.78043218,30.27551408]}},{"type":"Feature","properties":{"date":"1988-10-25T04:00:00.000Z","year":1988,"description":"Irrigation System Residence","metadescription":"PP. Remodel. Irrigation System Residence. VOID. 306 INWOOD RD","address":"306 INWOOD RD","link":"https://abc.austintexas.gov/web/permit/public-search-other?t_detail=1&t_selected_folderrsn=3641800","tcad_id":"0109090907","location":"    (30.27381319, -97.78230549)","day_issued":"TUESDAY","project_id":"3641800","condominium":"No","status_date":"06/09/2010","jurisdiction":"ROLLINGWOOD FULL PURPOSE","housing_units":"1","issuance_method":"Permit Center","permit_type_desc":"Plumbing Permit","fiscal_year_issued":"1989","permit_class_mapped":"Residential","issued_in_last_30_days":"No","certificate_of_occupancy":"No","property_legal_description":"LOT 1 BLK A LAMAR INWOOD ADDN"},"geometry":{"type":"Point","coordinates":[-97.78230549,30.27381319]}},{"type":"Feature","properties":{"date":"1988-05-31T04:00:00.000Z","year":1988,"description":"Irrigation System To Residence","metadescription":"PP. Remodel. Irrigation System To Residence. VOID. 3214 PICKWICK LN","address":"3214 PICKWICK LN","link":"https://abc.austintexas.gov/web/permit/public-search-other?t_detail=1&t_selected_folderrsn=3638717","tcad_id":"0109110503","location":"    (30.27651705, -97.79034609)","day_issued":"TUESDAY","project_id":"3638717","condominium":"No","status_date":"07/05/2013","jurisdiction":"ROLLINGWOOD FULL PURPOSE","housing_units":"1","issuance_method":"Permit Center","permit_type_desc":"Plumbing Permit","fiscal_year_issued":"1988","permit_class_mapped":"Residential","issued_in_last_30_days":"No","certificate_of_occupancy":"No","property_legal_description":"LOT 1 FAIRLEE SUBD"},"geometry":{"type":"Point","coordinates":[-97.79034609,30.27651705]}},{"type":"Feature","properties":{"date":"1987-02-04T05:00:00.000Z","year":1987,"description":"Irrigation System Residential","metadescription":"PP. Remodel. Irrigation System Residential. VOID. 303 WALLIS DR","address":"303 WALLIS DR","link":"https://abc.austintexas.gov/web/permit/public-search-other?t_detail=1&t_selected_folderrsn=3628474","tcad_id":"0109090401","location":"    (30.2763061, -97.78402046)","day_issued":"WEDNESDAY","project_id":"3628474","condominium":"No","status_date":"04/13/2011","jurisdiction":"ROLLINGWOOD FULL PURPOSE","housing_units":"1","issuance_method":"Permit Center","permit_type_desc":"Plumbing Permit","fiscal_year_issued":"1987","permit_class_mapped":"Residential","issued_in_last_30_days":"No","certificate_of_occupancy":"No","property_legal_description":"LOT 9 BLK G ROLLINGWOOD SEC 1"},"geometry":{"type":"Point","coordinates":[-97.78402046,30.2763061]}},{"type":"Feature","properties":{"date":"1986-03-04T05:00:00.000Z","year":1986,"description":"Irrigation System-Residential","metadescription":"PP. Remodel. Irrigation System-Residential. Expired. 406 INWOOD RD","address":"406 INWOOD RD","link":"https://abc.austintexas.gov/web/permit/public-search-other?t_detail=1&t_selected_folderrsn=3619844","tcad_id":"0109091107","location":"    (30.27304902, -97.78384664)","day_issued":"TUESDAY","project_id":"3619844","condominium":"No","status_date":"06/06/2007","jurisdiction":"ROLLINGWOOD FULL PURPOSE","housing_units":"1","issuance_method":"Permit Center","permit_type_desc":"Plumbing Permit","fiscal_year_issued":"1986","permit_class_mapped":"Residential","issued_in_last_30_days":"No","certificate_of_occupancy":"No","property_legal_description":"LOT 1 WOODWORTH SUBD"},"geometry":{"type":"Point","coordinates":[-97.78384664,30.27304902]}},{"type":"Feature","properties":{"date":"1984-05-10T04:00:00.000Z","year":1984,"description":"Irrigation System","metadescription":"PP. Remodel. Irrigation System. Final. 3223 PARK HILLS DR","address":"3223 PARK HILLS DR","link":"https://abc.austintexas.gov/web/permit/public-search-other?t_detail=1&t_selected_folderrsn=3800845","tcad_id":"0111110415","location":"    (30.27916586, -97.78897391)","day_issued":"THURSDAY","project_id":"3800845","condominium":"No","status_date":"05/22/2007","jurisdiction":"ROLLINGWOOD FULL PURPOSE","housing_units":"1","issuance_method":"Permit Center","permit_type_desc":"Plumbing Permit","fiscal_year_issued":"1984","permit_class_mapped":"Residential","issued_in_last_30_days":"No","certificate_of_occupancy":"No","property_legal_description":"LOT 4 BLK A HATLEY PARK ESTATES"},"geometry":{"type":"Point","coordinates":[-97.78897391,30.27916586]}}]}
