{"type":"FeatureCollection","features":[{"type":"Feature","properties":{"date":"2016-08-12T04:00:00.000Z","year":2016,"description":"Addition of plumbing to remodel\n   This is Rollingwood Jurisdiction not served by A/W.","metadescription":"PP. Repair. Addition of plumbing to remodel\n   This is Rollingwood Jurisdiction not served by A/W.. VOID. 4829 TIMBERLINE DR","address":"4829 Timberline Drive, Austin, TX, 78746, US","link":"https://abc.austintexas.gov/web/permit/public-search-other?t_detail=1&t_selected_folderrsn=11580860","tcad_id":"0109110903","location":"    (30.27376667, -97.78840326)","day_issued":"FRIDAY","project_id":"11580860","condominium":"No","status_date":"12/19/2016","jurisdiction":"ROLLINGWOOD FULL PURPOSE","housing_units":"1","contractor_zip":"78669","contractor_city":"SPICEWOOD","issuance_method":"Online","contractor_phone":"5127896213","contractor_trade":"Plumbing Contractor","number_of_floors":"0","permit_type_desc":"Plumbing Permit","fiscal_year_issued":"2016","permit_class_mapped":"Residential","remodel_repair_sqft":"4,000","contractor_address_2":"121  County","contractor_full_name":"Christopher Pennington","issued_in_last_30_days":"No","certificate_of_occupancy":"No","plumbing_valuation_remodel":"$41,000.00","property_legal_description":"LOT 29 BLK A TIMBERLINE TERRACE SEC 3"},"geometry":{"type":"Point","coordinates":[-97.78840326,30.27376667]}},{"type":"Feature","properties":{"date":"1981-02-25T05:00:00.000Z","year":1981,"description":"New Residence Etj Mechanical And Plumbing","metadescription":"PP. New. New Residence Etj Mechanical And Plumbing. Final. 2 JEFFERY CV","address":"2 Jeffery Cove, Austin, TX, 78746, US","link":"https://abc.austintexas.gov/web/permit/public-search-other?t_detail=1&t_selected_folderrsn=3800171","tcad_id":"0109110634","location":"    (30.27535365, -97.79145411)","day_issued":"WEDNESDAY","project_id":"3800171","condominium":"No","status_date":"05/22/2007","jurisdiction":"ROLLINGWOOD FULL PURPOSE","housing_units":"1","issuance_method":"Permit Center","permit_type_desc":"Plumbing Permit","master_permit_num":"3444733","fiscal_year_issued":"1981","issued_in_last_30_days":"No","certificate_of_occupancy":"No","property_legal_description":"LOT 13 ROLLINGWOOD PARK"},"geometry":{"type":"Point","coordinates":[-97.79145411,30.27535365]}},{"type":"Feature","properties":{"date":"1981-02-25T05:00:00.000Z","year":1981,"description":"New Residence Etj Mechanical And Plumbing","metadescription":"EP. New. New Residence Etj Mechanical And Plumbing. Final. 2 JEFFERY CV","address":"2 Jeffery Cove, Austin, TX, 78746, US","link":"https://abc.austintexas.gov/web/permit/public-search-other?t_detail=1&t_selected_folderrsn=4411085","tcad_id":"0109110634","location":"    (30.27535365, -97.79145411)","day_issued":"WEDNESDAY","project_id":"4411085","condominium":"No","status_date":"05/22/2007","jurisdiction":"ROLLINGWOOD FULL PURPOSE","housing_units":"1","issuance_method":"Permit Center","permit_type_desc":"Electrical Permit","fiscal_year_issued":"1981","issued_in_last_30_days":"No","certificate_of_occupancy":"No","property_legal_description":"LOT 13 ROLLINGWOOD PARK"},"geometry":{"type":"Point","coordinates":[-97.79145411,30.27535365]}},{"type":"Feature","properties":{"date":"1981-02-25T05:00:00.000Z","year":1981,"description":"New Residence Etj Mechanical And Plumbing","metadescription":"MP. New. New Residence Etj Mechanical And Plumbing. Final. 2 JEFFERY CV","address":"2 Jeffery Cove, Austin, TX, 78746, US","link":"https://abc.austintexas.gov/web/permit/public-search-other?t_detail=1&t_selected_folderrsn=3444733","tcad_id":"0109110634","location":"    (30.27535365, -97.79145411)","day_issued":"WEDNESDAY","project_id":"3444733","condominium":"No","status_date":"05/22/2007","jurisdiction":"ROLLINGWOOD FULL PURPOSE","housing_units":"1","issuance_method":"Permit Center","permit_type_desc":"Mechanical Permit","master_permit_num":"4411085","fiscal_year_issued":"1981","issued_in_last_30_days":"No","certificate_of_occupancy":"No","property_legal_description":"LOT 13 ROLLINGWOOD PARK"},"geometry":{"type":"Point","coordinates":[-97.79145411,30.27535365]}}]}
