{"type":"FeatureCollection","features":[{"type":"Feature","properties":{"date":"2013-07-16T04:00:00.000Z","year":2013,"description":"new 2stry residence w/att garage covd porch covd terrace EUD (city of Rollingwood)","metadescription":"EP. New. new 2stry residence w/att garage covd porch covd terrace EUD (city of Rollingwood). Final. 4831 ROLLINGWOOD DR","address":"4831 ROLLINGWOOD DR","link":"https://abc.austintexas.gov/web/permit/public-search-other?t_detail=1&t_selected_folderrsn=10984586","tcad_id":"0109110602","location":"    (30.27456758, -97.78926305)","day_issued":"TUESDAY","project_id":"10984586","condominium":"No","status_date":"05/29/2014","jurisdiction":"ROLLINGWOOD FULL PURPOSE","housing_units":"0","contractor_zip":"78737","contractor_city":"AUSTIN","issuance_method":"Permit Center","contractor_phone":"5126528463","contractor_trade":"Electrical Contractor","number_of_floors":"2","permit_type_desc":"Electrical Permit","fiscal_year_issued":"2013","total_new_add_sqft":"6,203","permit_class_mapped":"Residential","contractor_address_2":"10107  SIGNA","contractor_full_name":"Richard J Rinehart","issued_in_last_30_days":"No","certificate_of_occupancy":"No","property_legal_description":"LOT 1 COHEN ADDN"},"geometry":{"type":"Point","coordinates":[-97.78926305,30.27456758]}},{"type":"Feature","properties":{"date":"2012-03-23T04:00:00.000Z","year":2012,"description":"New 2stry residence w/att garage porch and cvd.patio EUD rollingwood","metadescription":"EP. New. New 2stry residence w/att garage porch and cvd.patio EUD rollingwood. Final. 304 INWOOD RD","address":"304 INWOOD RD","link":"https://abc.austintexas.gov/web/permit/public-search-other?t_detail=1&t_selected_folderrsn=10739265","tcad_id":"0109090906","location":"    (30.27401886, -97.78199903)","day_issued":"FRIDAY","project_id":"10739265","condominium":"No","status_date":"04/09/2012","jurisdiction":"ROLLINGWOOD FULL PURPOSE","housing_units":"1","contractor_zip":"78691-____","contractor_city":"PFLUGERVILLE","issuance_method":"Permit Center","contractor_phone":"5128328900","contractor_trade":"Electrical Contractor","number_of_floors":"2","permit_type_desc":"Electrical Permit","fiscal_year_issued":"2012","total_new_add_sqft":"7,987","permit_class_mapped":"Residential","contractor_address_1":"PO BOX 3289","contractor_full_name":"Bryan Neal","issued_in_last_30_days":"No","certificate_of_occupancy":"No","property_legal_description":"LOT 1 BLK A MINOR INWOOD ADDN"},"geometry":{"type":"Point","coordinates":[-97.78199903,30.27401886]}},{"type":"Feature","properties":{"date":"2011-02-17T05:00:00.000Z","year":2011,"description":"New 2 Sty Residence w/attached garage & porch. Electrical service only. EUD.","metadescription":"EP. New. New 2 Sty Residence w/attached garage & porch. Electrical service only. EUD.. Final. 3204 PICKWICK LN","address":"3204 PICKWICK LN","link":"https://abc.austintexas.gov/web/permit/public-search-other?t_detail=1&t_selected_folderrsn=10549040","tcad_id":"0109110515","location":"    (30.27600801, -97.78936451)","day_issued":"THURSDAY","project_id":"10549040","condominium":"No","status_date":"03/11/2011","jurisdiction":"ROLLINGWOOD FULL PURPOSE","housing_units":"1","contractor_zip":"78646","contractor_city":"Leander","issuance_method":"Permit Center","contractor_phone":"5122501194","contractor_trade":"Electrical Contractor","number_of_floors":"2","permit_type_desc":"Electrical Permit","fiscal_year_issued":"2011","total_new_add_sqft":"2,693","permit_class_mapped":"Residential","contractor_address_1":"P.O.BOX 1649","contractor_address_2":"LEANDER TX","contractor_full_name":"Terry Maxwell","issued_in_last_30_days":"No","certificate_of_occupancy":"No","property_legal_description":"LOT 1 BLK A WESTBROOK ADDN"},"geometry":{"type":"Point","coordinates":[-97.78936451,30.27600801]}},{"type":"Feature","properties":{"date":"2010-11-22T05:00:00.000Z","year":2010,"description":"New 2stry residence w/att garage porch and cvd.patio EUD rollingwood","metadescription":"EP. New. New 2stry residence w/att garage porch and cvd.patio EUD rollingwood. VOID. 304 INWOOD RD","address":"304 INWOOD RD","link":"https://abc.austintexas.gov/web/permit/public-search-other?t_detail=1&t_selected_folderrsn=10518010","tcad_id":"0109090906","location":"    (30.27401886, -97.78199903)","day_issued":"MONDAY","project_id":"10518010","condominium":"No","status_date":"03/23/2012","jurisdiction":"ROLLINGWOOD FULL PURPOSE","housing_units":"1","contractor_zip":"78691-____","contractor_city":"PFLUGERVILLE","issuance_method":"Permit Center","contractor_phone":"5128328900","contractor_trade":"Electrical Contractor","number_of_floors":"2","permit_type_desc":"Electrical Permit","fiscal_year_issued":"2011","total_new_add_sqft":"7,987","permit_class_mapped":"Residential","contractor_address_1":"PO BOX 3289","contractor_full_name":"Bryan Neal","issued_in_last_30_days":"No","certificate_of_occupancy":"No","property_legal_description":"LOT 1 BLK A MINOR INWOOD ADDN"},"geometry":{"type":"Point","coordinates":[-97.78199903,30.27401886]}},{"type":"Feature","properties":{"date":"2010-07-29T04:00:00.000Z","year":2010,"description":"New 2 Sty Residence w/attached garage & porch. Electrical service only. EUD.","metadescription":"EP. New. New 2 Sty Residence w/attached garage & porch. Electrical service only. EUD.. VOID. 3204 PICKWICK LN","address":"3204 PICKWICK LN","link":"https://abc.austintexas.gov/web/permit/public-search-other?t_detail=1&t_selected_folderrsn=10470695","tcad_id":"0109110515","location":"    (30.27600801, -97.78936451)","day_issued":"THURSDAY","project_id":"10470695","condominium":"No","status_date":"02/17/2011","jurisdiction":"ROLLINGWOOD FULL PURPOSE","housing_units":"1","contractor_zip":"78646","contractor_city":"Leander","issuance_method":"Permit Center","contractor_phone":"5122501194","contractor_trade":"Electrical Contractor","number_of_floors":"2","permit_type_desc":"Electrical Permit","fiscal_year_issued":"2010","total_new_add_sqft":"2,693","permit_class_mapped":"Residential","contractor_address_1":"P.O.BOX 1649","contractor_address_2":"LEANDER TX","contractor_full_name":"Terry Maxwell","issued_in_last_30_days":"No","certificate_of_occupancy":"No","property_legal_description":"LOT 1 BLK A WESTBROOK ADDN"},"geometry":{"type":"Point","coordinates":[-97.78936451,30.27600801]}},{"type":"Feature","properties":{"date":"2010-06-22T04:00:00.000Z","year":2010,"description":"New 2 story sf residence with attach garage and porch only EUD","metadescription":"EP. New. New 2 story sf residence with attach garage and porch only EUD. Final. 3 INWOOD CV","address":"3 INWOOD CV","link":"https://abc.austintexas.gov/web/permit/public-search-other?t_detail=1&t_selected_folderrsn=10456309","location":"    (30.27250867, -97.78613282)","day_issued":"TUESDAY","project_id":"10456309","condominium":"No","status_date":"09/24/2010","jurisdiction":"ROLLINGWOOD FULL PURPOSE","housing_units":"1","contractor_zip":"78646","contractor_city":"Leander","issuance_method":"Permit Center","contractor_phone":"5122501194","contractor_trade":"Electrical Contractor","number_of_floors":"3","permit_type_desc":"Electrical Permit","fiscal_year_issued":"2010","total_new_add_sqft":"7,457","permit_class_mapped":"Residential","contractor_address_1":"P.O.BOX 1649","contractor_address_2":"LEANDER TX","contractor_full_name":"Terry Maxwell","issued_in_last_30_days":"No","certificate_of_occupancy":"No"},"geometry":{"type":"Point","coordinates":[-97.78613282,30.27250867]}},{"type":"Feature","properties":{"date":"2009-10-20T04:00:00.000Z","year":2009,"description":"New 2 story sf residence with attacged garage and porch only EUD","metadescription":"EP. New. New 2 story sf residence with attacged garage and porch only EUD. Final. 2401 HATLEY DR","address":"2401 HATLEY DR","link":"https://abc.austintexas.gov/web/permit/public-search-other?t_detail=1&t_selected_folderrsn=10356127","tcad_id":"0109070310","location":"    (30.27323386, -97.77848988)","day_issued":"TUESDAY","project_id":"10356127","condominium":"No","status_date":"06/01/2010","jurisdiction":"ROLLINGWOOD FULL PURPOSE","housing_units":"1","contractor_zip":"78610-849","contractor_city":"Kyle","issuance_method":"Permit Center","contractor_phone":"5122926744","contractor_trade":"Electrical Contractor","number_of_floors":"2","permit_type_desc":"Electrical Permit","fiscal_year_issued":"2010","total_new_add_sqft":"10,883","permit_class_mapped":"Residential","contractor_address_1":"P.O. BOX 849","contractor_address_2":"BUDA TX  786","contractor_full_name":"Sidney Mueller","issued_in_last_30_days":"No","certificate_of_occupancy":"No","property_legal_description":"LOT 2 WOODWORTH MASON SUBD NO 1"},"geometry":{"type":"Point","coordinates":[-97.77848988,30.27323386]}},{"type":"Feature","properties":{"date":"2008-07-10T04:00:00.000Z","year":2008,"description":"New 2 story resid w/att carport-porch elec srv eud","metadescription":"EP. New. New 2 story resid w/att carport-porch elec srv eud. Final. 3302 GENTRY DR","address":"3302 GENTRY DR","link":"https://abc.austintexas.gov/web/permit/public-search-other?t_detail=1&t_selected_folderrsn=10169820","tcad_id":"0109110423","location":"    (30.27613764, -97.79201651)","day_issued":"THURSDAY","project_id":"10169820","condominium":"No","status_date":"10/09/2008","jurisdiction":"ROLLINGWOOD FULL PURPOSE","housing_units":"1","contractor_zip":"78619-9108","contractor_city":"Driftwood","issuance_method":"Permit Center","contractor_phone":"5125010765","contractor_trade":"Electrical Contractor","number_of_floors":"2","permit_type_desc":"Electrical Permit","fiscal_year_issued":"2008","total_new_add_sqft":"3,000","permit_class_mapped":"Residential","contractor_address_1":"170 BROWNSON","contractor_address_2":"DRIFTWOOD TX","contractor_full_name":"Charles A Syphrett","issued_in_last_30_days":"No","certificate_of_occupancy":"No","property_legal_description":"LOT 1 BLK A MARSHALL JANE SUBD"},"geometry":{"type":"Point","coordinates":[-97.79201651,30.27613764]}},{"type":"Feature","properties":{"date":"2008-04-10T04:00:00.000Z","year":2008,"description":"Install electric for new 2 story SF residence with attached garage front porch and covered patio- service only-EUD","metadescription":"EP. New. Install electric for new 2 story SF residence with attached garage front porch and covered patio- service only-EUD. Final. 4826 TIMBERLINE DR","address":"4826 TIMBERLINE DR","link":"https://abc.austintexas.gov/web/permit/public-search-other?t_detail=1&t_selected_folderrsn=10135188","tcad_id":"0109111003","location":"    (30.27323847, -97.78811933)","day_issued":"THURSDAY","project_id":"10135188","condominium":"No","status_date":"03/03/2009","jurisdiction":"ROLLINGWOOD FULL PURPOSE","housing_units":"1","contractor_zip":"78646","contractor_city":"Leander","issuance_method":"Permit Center","contractor_phone":"5122501194","contractor_trade":"Electrical Contractor","number_of_floors":"2","permit_type_desc":"Electrical Permit","fiscal_year_issued":"2008","total_new_add_sqft":"5,151","permit_class_mapped":"Residential","contractor_address_1":"P.O.BOX 1649","contractor_address_2":"LEANDER TX","contractor_full_name":"Terry Maxwell","issued_in_last_30_days":"No","certificate_of_occupancy":"No","property_legal_description":"LOT 3 BLK B TIMBERLINE TERRACE SEC 3"},"geometry":{"type":"Point","coordinates":[-97.78811933,30.27323847]}},{"type":"Feature","properties":{"date":"2008-04-10T04:00:00.000Z","year":2008,"description":"New 2 Stroy SF Res. with Porch/ attached Garage Only Electrical Service Only EUD","metadescription":"EP. New. New 2 Stroy SF Res. with Porch/ attached Garage Only Electrical Service Only EUD. Final. 503 WALLIS DR","address":"503 WALLIS DR","link":"https://abc.austintexas.gov/web/permit/public-search-other?t_detail=1&t_selected_folderrsn=10134922","tcad_id":"0109090811","location":"    (30.27489599, -97.78516675)","day_issued":"THURSDAY","project_id":"10134922","condominium":"No","status_date":"10/09/2008","jurisdiction":"ROLLINGWOOD FULL PURPOSE","housing_units":"1","contractor_zip":"78641","contractor_city":"LEANDER","issuance_method":"Permit Center","contractor_phone":"5124618955","contractor_trade":"Electrical Contractor","number_of_floors":"2","permit_type_desc":"Electrical Permit","fiscal_year_issued":"2008","total_new_add_sqft":"5,513","permit_class_mapped":"Residential","contractor_address_2":"16314  KICKI","contractor_full_name":"James G. Teel","issued_in_last_30_days":"No","certificate_of_occupancy":"No","property_legal_description":"LOT 1 CORBETT SUBD"},"geometry":{"type":"Point","coordinates":[-97.78516675,30.27489599]}},{"type":"Feature","properties":{"date":"2007-11-26T05:00:00.000Z","year":2007,"description":"new 2stry residence w/att garage porch electric service eud","metadescription":"EP. New. new 2stry residence w/att garage porch electric service eud. Final. 4823 TIMBERLINE DR","address":"4823 TIMBERLINE DR","link":"https://abc.austintexas.gov/web/permit/public-search-other?t_detail=1&t_selected_folderrsn=10092523","tcad_id":"0109110902","location":"    (30.27377931, -97.78807022)","day_issued":"MONDAY","project_id":"10092523","condominium":"No","status_date":"10/09/2008","jurisdiction":"ROLLINGWOOD FULL PURPOSE","housing_units":"1","contractor_zip":"78642","contractor_city":"Liberty Hill","issuance_method":"Permit Center","contractor_phone":"5126309992","contractor_trade":"Electrical Contractor","number_of_floors":"2","permit_type_desc":"Electrical Permit","fiscal_year_issued":"2008","total_new_add_sqft":"4,140","permit_class_mapped":"Residential","contractor_address_1":"100 SKYVIEW","contractor_address_2":"LIBERTY HILL","contractor_full_name":"Darren Tuttle","issued_in_last_30_days":"No","certificate_of_occupancy":"No","property_legal_description":"LOT 28 BLK A TIMBERLINE TERRACE SEC 3"},"geometry":{"type":"Point","coordinates":[-97.78807022,30.27377931]}},{"type":"Feature","properties":{"date":"2007-11-16T05:00:00.000Z","year":2007,"description":"New 2 stry resid w/attached carport-porch eud (See 2008-053845)","metadescription":"EP. New. New 2 stry resid w/attached carport-porch eud (See 2008-053845). VOID. 3302 GENTRY DR","address":"3302 GENTRY DR","link":"https://abc.austintexas.gov/web/permit/public-search-other?t_detail=1&t_selected_folderrsn=10091158","tcad_id":"0109110423","location":"    (30.27613764, -97.79201651)","day_issued":"FRIDAY","project_id":"10091158","condominium":"No","status_date":"07/10/2008","jurisdiction":"ROLLINGWOOD FULL PURPOSE","housing_units":"1","contractor_zip":"78619-9108","contractor_city":"Driftwood","issuance_method":"Permit Center","contractor_phone":"5125010765","contractor_trade":"Electrical Contractor","number_of_floors":"2","permit_type_desc":"Electrical Permit","fiscal_year_issued":"2008","total_new_add_sqft":"3,602","permit_class_mapped":"Residential","contractor_address_1":"170 BROWNSON","contractor_address_2":"DRIFTWOOD TX","contractor_full_name":"Charles A Syphrett","issued_in_last_30_days":"No","certificate_of_occupancy":"No","property_legal_description":"LOT 1 BLK A MARSHALL JANE SUBD"},"geometry":{"type":"Point","coordinates":[-97.79201651,30.27613764]}},{"type":"Feature","properties":{"date":"2007-06-18T04:00:00.000Z","year":2007,"description":"NEW 2STRY RES WITH ATT GARAGE & PORCH ELEC SERV ONLY EUD","metadescription":"EP. New. NEW 2STRY RES WITH ATT GARAGE & PORCH ELEC SERV ONLY EUD. Final. 4914 ROLLINGWOOD DR","address":"4914 ROLLINGWOOD DR","link":"https://abc.austintexas.gov/web/permit/public-search-other?t_detail=1&t_selected_folderrsn=10044111","tcad_id":"0109110803","location":"    (30.27341378, -97.7916858)","day_issued":"MONDAY","project_id":"10044111","condominium":"No","status_date":"10/09/2008","jurisdiction":"ROLLINGWOOD FULL PURPOSE","housing_units":"1","contractor_zip":"78634","contractor_city":"Hutto","issuance_method":"Permit Center","contractor_phone":"5128483975","contractor_trade":"Electrical Contractor","number_of_floors":"2","permit_type_desc":"Electrical Permit","fiscal_year_issued":"2007","total_new_add_sqft":"5,058","permit_class_mapped":"Residential","contractor_address_1":"181 CR 135","contractor_address_2":"HUTTO TX  78","contractor_full_name":"David E. Allison","issued_in_last_30_days":"No","certificate_of_occupancy":"No","property_legal_description":"LOT 3 BLK C TIMBERLINE TERRACE SEC 1"},"geometry":{"type":"Point","coordinates":[-97.7916858,30.27341378]}},{"type":"Feature","properties":{"date":"2007-04-03T04:00:00.000Z","year":2007,"description":"New 2 Stry SF res w/att Gar. Covrd Porch  - Elect Serv Only (EUD)","metadescription":"EP. New. New 2 Stry SF res w/att Gar. Covrd Porch  - Elect Serv Only (EUD). Final. 406 INWOOD RD","address":"406 INWOOD RD","link":"https://abc.austintexas.gov/web/permit/public-search-other?t_detail=1&t_selected_folderrsn=10018600","tcad_id":"0109091107","location":"    (30.27304902, -97.78384664)","day_issued":"TUESDAY","project_id":"10018600","condominium":"No","status_date":"10/09/2008","jurisdiction":"ROLLINGWOOD FULL PURPOSE","housing_units":"1","contractor_zip":"78610-849","contractor_city":"Kyle","issuance_method":"Permit Center","contractor_phone":"5122926744","contractor_trade":"Electrical Contractor","number_of_floors":"2","permit_type_desc":"Electrical Permit","fiscal_year_issued":"2007","total_new_add_sqft":"5,765","permit_class_mapped":"Residential","contractor_address_1":"P.O. BOX 849","contractor_address_2":"BUDA TX  786","contractor_full_name":"Sidney Mueller","issued_in_last_30_days":"No","certificate_of_occupancy":"No","property_legal_description":"LOT 1 WOODWORTH SUBD"},"geometry":{"type":"Point","coordinates":[-97.78384664,30.27304902]}},{"type":"Feature","properties":{"date":"2007-02-22T05:00:00.000Z","year":2007,"description":"New 2stry Sf Res W/Att Gar. CovrD Entry Porch  & Balcony -Elect Serv Only (Eud)","metadescription":"EP. Remodel. New 2stry Sf Res W/Att Gar. CovrD Entry Porch  & Balcony -Elect Serv Only (Eud). Final. 2 INWOOD CV","address":"2 INWOOD CV","link":"https://abc.austintexas.gov/web/permit/public-search-other?t_detail=1&t_selected_folderrsn=4393245","tcad_id":"0107090163","location":"    (30.27257529, -97.78588708)","day_issued":"THURSDAY","project_id":"4393245","condominium":"No","status_date":"02/05/2008","jurisdiction":"ROLLINGWOOD FULL PURPOSE","housing_units":"0","contractor_zip":"78620","contractor_city":"Dripping Spr","issuance_method":"Permit Center","contractor_phone":"5124502050","contractor_trade":"Electrical Contractor","number_of_floors":"0","permit_type_desc":"Electrical Permit","fiscal_year_issued":"2007","permit_class_mapped":"Residential","remodel_repair_sqft":"4,105","contractor_address_1":"PO Box 143","contractor_full_name":"Corey Costello","issued_in_last_30_days":"No","certificate_of_occupancy":"No","property_legal_description":"LOT 11 LESS 2700 GROVES OF ROLLINGWOOD THE","electrical_valuation_remodel":"$0.00"},"geometry":{"type":"Point","coordinates":[-97.78588708,30.27257529]}},{"type":"Feature","properties":{"date":"2006-10-11T04:00:00.000Z","year":2006,"description":"New 2-Stry Sf Res W/Att Gar & CovrD Porch Elec Serv Only - Eud","metadescription":"EP. Remodel. New 2-Stry Sf Res W/Att Gar & CovrD Porch Elec Serv Only - Eud. Final. 3212 GENTRY DR","address":"3212 GENTRY DR","link":"https://abc.austintexas.gov/web/permit/public-search-other?t_detail=1&t_selected_folderrsn=4387104","tcad_id":"0109110612","location":"    (30.27582369, -97.7913023)","day_issued":"WEDNESDAY","project_id":"4387104","condominium":"No","status_date":"06/07/2007","jurisdiction":"ROLLINGWOOD FULL PURPOSE","housing_units":"0","contractor_zip":"78654-____","contractor_city":"SPICEWOOD","issuance_method":"Permit Center","contractor_phone":"5122631214","contractor_trade":"Electrical Contractor","number_of_floors":"0","permit_type_desc":"Electrical Permit","fiscal_year_issued":"2007","permit_class_mapped":"Residential","remodel_repair_sqft":"4,672","contractor_address_1":"PO BOX 449","contractor_full_name":"Jackie D Oliver","issued_in_last_30_days":"No","certificate_of_occupancy":"No","property_legal_description":"LOT 1 VAN WYHE SUBD","electrical_valuation_remodel":"$0.00"},"geometry":{"type":"Point","coordinates":[-97.7913023,30.27582369]}},{"type":"Feature","properties":{"date":"2006-06-07T04:00:00.000Z","year":2006,"description":"New 2stry Sf Res. W/Att Garage-Porch Only-Eud","metadescription":"EP. Remodel. New 2stry Sf Res. W/Att Garage-Porch Only-Eud. Final. 4916 ROLLINGWOOD DR","address":"4916 ROLLINGWOOD DR","link":"https://abc.austintexas.gov/web/permit/public-search-other?t_detail=1&t_selected_folderrsn=4380307","tcad_id":"0109110802","location":"    (30.27345623, -97.79202373)","day_issued":"WEDNESDAY","project_id":"4380307","condominium":"No","status_date":"03/14/2007","jurisdiction":"ROLLINGWOOD FULL PURPOSE","housing_units":"0","contractor_zip":"78634","contractor_city":"Hutto","issuance_method":"Permit Center","contractor_phone":"5128483975","contractor_trade":"Electrical Contractor","number_of_floors":"0","permit_type_desc":"Electrical Permit","fiscal_year_issued":"2006","permit_class_mapped":"Residential","remodel_repair_sqft":"4,937","contractor_address_1":"181 CR 135","contractor_address_2":"HUTTO TX  78","contractor_full_name":"David E. Allison","issued_in_last_30_days":"No","certificate_of_occupancy":"No","property_legal_description":"LOT 2 BLK C TIMBERLINE TERRACE SEC 1","electrical_valuation_remodel":"$0.00"},"geometry":{"type":"Point","coordinates":[-97.79202373,30.27345623]}},{"type":"Feature","properties":{"date":"2006-04-04T04:00:00.000Z","year":2006,"description":"New 2stry Sf Res. W/Att Garage-Porch Elec. Srv Only","metadescription":"EP. Remodel. New 2stry Sf Res. W/Att Garage-Porch Elec. Srv Only. Expired. 4823 TIMBERLINE DR","address":"4823 TIMBERLINE DR","link":"https://abc.austintexas.gov/web/permit/public-search-other?t_detail=1&t_selected_folderrsn=4377164","tcad_id":"0109110902","location":"    (30.27377931, -97.78807022)","day_issued":"TUESDAY","project_id":"4377164","condominium":"No","status_date":"05/07/2007","jurisdiction":"ROLLINGWOOD FULL PURPOSE","contractor_zip":"78654-____","contractor_city":"SPICEWOOD","issuance_method":"Permit Center","contractor_phone":"5122631214","contractor_trade":"Electrical Contractor","permit_type_desc":"Electrical Permit","fiscal_year_issued":"2006","permit_class_mapped":"Residential","remodel_repair_sqft":"4,140","contractor_address_1":"PO BOX 449","contractor_full_name":"Jackie D Oliver","issued_in_last_30_days":"No","certificate_of_occupancy":"No","property_legal_description":"LOT 28 BLK A TIMBERLINE TERRACE SEC 3"},"geometry":{"type":"Point","coordinates":[-97.78807022,30.27377931]}},{"type":"Feature","properties":{"date":"2005-07-14T04:00:00.000Z","year":2005,"description":"New 2stry Res W/Att Garage & Porch Elec Srv Eud Only","metadescription":"EP. Remodel. New 2stry Res W/Att Garage & Porch Elec Srv Eud Only. Final. 5011 TIMBERLINE DR","address":"5011 TIMBERLINE DR","link":"https://abc.austintexas.gov/web/permit/public-search-other?t_detail=1&t_selected_folderrsn=4365255","tcad_id":"0107110106","location":"    (30.27296794, -97.7947236)","day_issued":"THURSDAY","project_id":"4365255","status_date":"03/05/2007","jurisdiction":"ROLLINGWOOD FULL PURPOSE","contractor_zip":"78620-2391","contractor_city":"Dripping Spr","issuance_method":"Permit Center","contractor_phone":"5127915619","contractor_trade":"Electrical Contractor","permit_type_desc":"Electrical Permit","fiscal_year_issued":"2005","permit_class_mapped":"Residential","contractor_address_1":"P.O. Box 175","contractor_full_name":"Keith Coons","issued_in_last_30_days":"No","property_legal_description":"LOT 14 BLK B TIMBERLINE TERRACE SEC 1"},"geometry":{"type":"Point","coordinates":[-97.7947236,30.27296794]}},{"type":"Feature","properties":{"date":"2004-07-27T04:00:00.000Z","year":2004,"description":"New 2stry Sf Res. W/Att Garage-Porch Elec Srv Only-Eud","metadescription":"EP. Remodel. New 2stry Sf Res. W/Att Garage-Porch Elec Srv Only-Eud. Final. 103 VALE ST","address":"103 VALE ST","link":"https://abc.austintexas.gov/web/permit/public-search-other?t_detail=1&t_selected_folderrsn=4350013","tcad_id":"0109070218","location":"    (30.27322749, -97.77761866)","day_issued":"TUESDAY","project_id":"4350013","status_date":"03/05/2007","jurisdiction":"ROLLINGWOOD FULL PURPOSE","contractor_zip":"78654-____","contractor_city":"SPICEWOOD","issuance_method":"Permit Center","contractor_phone":"5122631214","contractor_trade":"Electrical Contractor","permit_type_desc":"Electrical Permit","fiscal_year_issued":"2004","permit_class_mapped":"Residential","contractor_address_1":"PO BOX 449","contractor_full_name":"Jackie D Oliver","issued_in_last_30_days":"No","property_legal_description":"LOT 2 NINA COOPER SUBD"},"geometry":{"type":"Point","coordinates":[-97.77761866,30.27322749]}},{"type":"Feature","properties":{"date":"2004-07-27T04:00:00.000Z","year":2004,"description":"New 2 Story S/F Resid With Att Gar Porch & Patio Elec Srv Only Eud","metadescription":"EP. Remodel. New 2 Story S/F Resid With Att Gar Porch & Patio Elec Srv Only Eud. Final. 307 INWOOD RD","address":"307 INWOOD RD","link":"https://abc.austintexas.gov/web/permit/public-search-other?t_detail=1&t_selected_folderrsn=4348994","tcad_id":"0109091201","location":"    (30.27353663, -97.78167589)","day_issued":"TUESDAY","project_id":"4348994","status_date":"03/05/2007","jurisdiction":"ROLLINGWOOD FULL PURPOSE","contractor_zip":"78654-____","contractor_city":"SPICEWOOD","issuance_method":"Permit Center","contractor_phone":"5122631214","contractor_trade":"Electrical Contractor","permit_type_desc":"Electrical Permit","fiscal_year_issued":"2004","permit_class_mapped":"Residential","contractor_address_1":"PO BOX 449","contractor_full_name":"Jackie D Oliver","issued_in_last_30_days":"No","property_legal_description":"LOT 8 BLK K ROLLINGWOOD SEC 1"},"geometry":{"type":"Point","coordinates":[-97.78167589,30.27353663]}}]}
