{"type":"FeatureCollection","features":[{"type":"Feature","properties":{"date":"2026-03-03T05:00:00.000Z","year":2026,"description":"Install new 33.58 kW DC rooftop solar system to new residential","metadescription":"EP. Auxiliary Power. Install new 33.58 kW DC rooftop solar system to new residential. Active. 500 VALE ST","address":"500 Vale Street, Austin, TX, 78746, US","link":"https://abc.austintexas.gov/web/permit/public-search-other?t_detail=1&t_selected_folderrsn=13662184","tcad_id":"0107090506","location":"    (30.270385, -97.78085932)","day_issued":"TUESDAY","project_id":"13662184","condominium":"No","status_date":"03/16/2026","jurisdiction":"ROLLINGWOOD FULL PURPOSE","housing_units":"1","contractor_zip":"78704","contractor_city":"Austin","issuance_method":"Permit Center","contractor_phone":"5124765555","contractor_trade":"Electrical Contractor","number_of_floors":"1","permit_type_desc":"Electrical Permit","fiscal_year_issued":"2026","permit_class_mapped":"Residential","contractor_address_2":"2000 S 7th S","contractor_full_name":"Mark Pride","issued_in_last_30_days":"No","certificate_of_occupancy":"No","property_legal_description":"ABS 14 SUR 21 HILL H P ACR 0.9332","electrical_valuation_remodel":"$90,713.00"},"geometry":{"type":"Point","coordinates":[-97.78085932,30.270385]}},{"type":"Feature","properties":{"date":"2026-02-13T05:00:00.000Z","year":2026,"description":"Install new  20.352 kw rooftop solar system and 27kw energy storage system for existing residential only.","metadescription":"EP. Auxiliary Power. Install new  20.352 kw rooftop solar system and 27kw energy storage system for existing residential only.. Final. 2810 ROLLINGWOOD DR","address":"2810 Rollingwood Drive, Austin, TX, 78746, US","link":"https://abc.austintexas.gov/web/permit/public-search-other?t_detail=1&t_selected_folderrsn=13585958","tcad_id":"0109091005","location":"    (30.27424497, -97.78576063)","day_issued":"FRIDAY","project_id":"13585958","condominium":"No","status_date":"03/23/2026","jurisdiction":"ROLLINGWOOD FULL PURPOSE","housing_units":"1","issuance_method":"Permit Center","contractor_phone":"8005042337","contractor_trade":"Electrical Contractor","number_of_floors":"1","permit_type_desc":"Electrical Permit","fiscal_year_issued":"2026","permit_class_mapped":"Residential","contractor_full_name":"Adrian Buck","issued_in_last_30_days":"No","certificate_of_occupancy":"No","property_legal_description":"LOT 10 BLK A TIMBERLINE TERRACE SEC 3","electrical_valuation_remodel":"$134,720.00"},"geometry":{"type":"Point","coordinates":[-97.78576063,30.27424497]}},{"type":"Feature","properties":{"date":"2026-02-03T05:00:00.000Z","year":2026,"description":"Install new 8.700 kw rooftop solar system for existing residential only.","metadescription":"EP. Auxiliary Power. Install new 8.700 kw rooftop solar system for existing residential only.. Active. 3225 PARK HILLS DR","address":"3225 Park Hills Drive, Austin, TX, 78746, US","link":"https://abc.austintexas.gov/web/permit/public-search-other?t_detail=1&t_selected_folderrsn=13641709","tcad_id":"0111110414","location":"    (30.27950282, -97.78876856)","day_issued":"TUESDAY","project_id":"13641709","condominium":"No","status_date":"05/26/2026","jurisdiction":"ROLLINGWOOD FULL PURPOSE","housing_units":"1","contractor_zip":"78744-____","contractor_city":"Austin","issuance_method":"Permit Center","contractor_phone":"5125967031","contractor_trade":"Electrical Contractor","number_of_floors":"1","permit_type_desc":"Electrical Permit","fiscal_year_issued":"2026","permit_class_mapped":"Residential","contractor_address_2":"4801  FREIDR","contractor_full_name":"Chadwyck Preece","issued_in_last_30_days":"No","certificate_of_occupancy":"No","property_legal_description":"LOT 3 BLK A HATLEY PARK ESTATES","electrical_valuation_remodel":"$24,261.00"},"geometry":{"type":"Point","coordinates":[-97.78876856,30.27950282]}},{"type":"Feature","properties":{"date":"2025-10-17T04:00:00.000Z","year":2025,"description":"Install new 8.500 kw rooftop solar system and 13.5kw energy storage system for existing residential only.","metadescription":"EP. Auxiliary Power. Install new 8.500 kw rooftop solar system and 13.5kw energy storage system for existing residential only.. Final. 2516 TIMBERLINE DR","address":"2516 Timberline Drive, Austin, TX, 78746, US","link":"https://abc.austintexas.gov/web/permit/public-search-other?t_detail=1&t_selected_folderrsn=13597617","tcad_id":"0107090116","location":"    (30.26991134, -97.78372988)","day_issued":"FRIDAY","project_id":"13597617","condominium":"No","status_date":"12/29/2025","jurisdiction":"ROLLINGWOOD FULL PURPOSE","housing_units":"1","issuance_method":"Permit Center","contractor_phone":"8005042337","contractor_trade":"Electrical Contractor","number_of_floors":"1","permit_type_desc":"Electrical Permit","fiscal_year_issued":"2026","permit_class_mapped":"Residential","contractor_full_name":"Adrian Buck","issued_in_last_30_days":"No","certificate_of_occupancy":"No","property_legal_description":"LOT 8A *RESUB LOTS 7-A & 8-A TIMBERLINE RIDGE","electrical_valuation_remodel":"$44,155.00"},"geometry":{"type":"Point","coordinates":[-97.78372988,30.26991134]}},{"type":"Feature","properties":{"date":"2025-09-16T04:00:00.000Z","year":2025,"description":"Install new 12.325 kw rooftop solar system for existing residential only.","metadescription":"EP. Auxiliary Power. Install new 12.325 kw rooftop solar system for existing residential only.. Final. 209 ASHWORTH DR","address":"209 Ashworth Drive, Austin, TX, 78746, US","link":"https://abc.austintexas.gov/web/permit/public-search-other?t_detail=1&t_selected_folderrsn=13582147","tcad_id":"0111090238","location":"    (30.27935289, -97.78454525)","day_issued":"TUESDAY","project_id":"13582147","condominium":"No","status_date":"12/16/2025","jurisdiction":"ROLLINGWOOD FULL PURPOSE","housing_units":"1","issuance_method":"Permit Center","contractor_phone":"8005042337","contractor_trade":"Electrical Contractor","number_of_floors":"1","permit_type_desc":"Electrical Permit","fiscal_year_issued":"2025","permit_class_mapped":"Residential","contractor_full_name":"Adrian Buck","issued_in_last_30_days":"No","certificate_of_occupancy":"No","property_legal_description":"LOT 1B BLK A SHAW ACRES RESUB LOT 1","electrical_valuation_remodel":"$35,544.00"},"geometry":{"type":"Point","coordinates":[-97.78454525,30.27935289]}},{"type":"Feature","properties":{"date":"2025-05-07T04:00:00.000Z","year":2025,"description":"install roof mounted solar PV system 37 modules/15.17kW. with (01) ANKER SOLIX BACKUP CONTROLLER 200-H\n2 ANKER SOLIX X1-P6K-B15-US BATTERIES. BATTERY CAPACITY: 30.0 KWH","metadescription":"EP. Auxiliary Power. install roof mounted solar PV system 37 modules/15.17kW. with (01) ANKER SOLIX BACKUP CONTROLLER 200-H\n2 ANKER SOLIX X1-P6K-B15-US BATTERIES. BATTERY CAPACITY: 30.0 KWH. Final. 405 VALE ST","address":"405 Vale Street, Austin, TX, 78746, US","link":"https://abc.austintexas.gov/web/permit/public-search-other?t_detail=1&t_selected_folderrsn=13508068","tcad_id":"0107070203","location":"    (30.27089888, -97.77973356)","day_issued":"WEDNESDAY","project_id":"13508068","condominium":"No","status_date":"08/28/2025","jurisdiction":"ROLLINGWOOD FULL PURPOSE","housing_units":"1","contractor_zip":"33492-____","contractor_city":"Richardson","issuance_method":"Permit Center","contractor_phone":"2083160748","contractor_trade":"Electrical Contractor","number_of_floors":"1","permit_type_desc":"Electrical Permit","fiscal_year_issued":"2025","permit_class_mapped":"Residential","contractor_address_2":"681 N Plano","contractor_full_name":"Onesimo Guerra","issued_in_last_30_days":"No","certificate_of_occupancy":"No","property_legal_description":"LOT 1 PFLUGER & KELLER SUBD","electrical_valuation_remodel":"$0.00"},"geometry":{"type":"Point","coordinates":[-97.77973356,30.27089888]}},{"type":"Feature","properties":{"date":"2025-03-18T04:00:00.000Z","year":2025,"description":"Install new 34kW rooftop solar system and 67.5kW battery storage system for existing residential only.","metadescription":"EP. Auxiliary Power. Install new 34kW rooftop solar system and 67.5kW battery storage system for existing residential only.. Final. 3225 PARK HILLS DR","address":"3225 Park Hills Drive, Austin, TX, 78746, US","link":"https://abc.austintexas.gov/web/permit/public-search-other?t_detail=1&t_selected_folderrsn=13485000","tcad_id":"0111110414","location":"    (30.27950282, -97.78876856)","day_issued":"TUESDAY","project_id":"13485000","condominium":"No","status_date":"08/11/2025","jurisdiction":"ROLLINGWOOD FULL PURPOSE","housing_units":"1","issuance_method":"Permit Center","contractor_phone":"8005042337","contractor_trade":"Electrical Contractor","number_of_floors":"1","permit_type_desc":"Electrical Permit","fiscal_year_issued":"2025","permit_class_mapped":"Residential","contractor_full_name":"Adrian Buck","issued_in_last_30_days":"No","certificate_of_occupancy":"No","property_legal_description":"LOT 3 BLK A HATLEY PARK ESTATES","electrical_valuation_remodel":"$159,025.00"},"geometry":{"type":"Point","coordinates":[-97.78876856,30.27950282]}},{"type":"Feature","properties":{"date":"2025-03-17T04:00:00.000Z","year":2025,"description":"Install new 15.725kW rooftop solar system for existing residential only.","metadescription":"EP. Auxiliary Power. Install new 15.725kW rooftop solar system for existing residential only.. Final. 4914 ROLLINGWOOD DR","address":"4914 Rollingwood Drive, Austin, TX, 78746, US","link":"https://abc.austintexas.gov/web/permit/public-search-other?t_detail=1&t_selected_folderrsn=13485053","tcad_id":"0109110803","location":"    (30.27341378, -97.7916858)","day_issued":"MONDAY","project_id":"13485053","condominium":"No","status_date":"06/12/2025","jurisdiction":"ROLLINGWOOD FULL PURPOSE","housing_units":"1","issuance_method":"Permit Center","contractor_phone":"8005042337","contractor_trade":"Electrical Contractor","number_of_floors":"1","permit_type_desc":"Electrical Permit","fiscal_year_issued":"2025","permit_class_mapped":"Residential","contractor_full_name":"Adrian Buck","issued_in_last_30_days":"No","certificate_of_occupancy":"No","property_legal_description":"LOT 3 BLK C TIMBERLINE TERRACE SEC 1","electrical_valuation_remodel":"$41,938.00"},"geometry":{"type":"Point","coordinates":[-97.7916858,30.27341378]}},{"type":"Feature","properties":{"date":"2023-06-02T04:00:00.000Z","year":2023,"description":"Install new 12.5kW rooftop solar system to new residential only.","metadescription":"EP. Auxiliary Power. Install new 12.5kW rooftop solar system to new residential only.. Final. 603 RILEY RD","address":"603 Riley Road, Austin, TX, 78746, US","link":"https://abc.austintexas.gov/web/permit/public-search-other?t_detail=1&t_selected_folderrsn=13144311","tcad_id":"0107091007","location":"    (30.27021695, -97.78291699)","day_issued":"FRIDAY","project_id":"13144311","condominium":"No","status_date":"06/20/2024","jurisdiction":"ROLLINGWOOD FULL PURPOSE","housing_units":"1","issuance_method":"Permit Center","contractor_phone":"8005042337","contractor_trade":"Electrical Contractor","number_of_floors":"1","permit_type_desc":"Electrical Permit","fiscal_year_issued":"2023","permit_class_mapped":"Residential","contractor_full_name":"Adrian Buck","issued_in_last_30_days":"No","certificate_of_occupancy":"No","property_legal_description":"LOT 7A ROLLINGWOOD PARK ESTATES RPLT LT B & LT 7 TIMBERLINE TER SEC 4","electrical_valuation_remodel":"$50,429.00"},"geometry":{"type":"Point","coordinates":[-97.78291699,30.27021695]}},{"type":"Feature","properties":{"date":"2022-09-06T04:00:00.000Z","year":2022,"description":"PV roof mounted solar system installation","metadescription":"EP. Auxiliary Power. PV roof mounted solar system installation. Final. 4702 TIMBERLINE DR","address":"4702 Timberline Drive, Austin, TX, 78746, US","link":"https://abc.austintexas.gov/web/permit/public-search-other?t_detail=1&t_selected_folderrsn=13010482","tcad_id":"0107090115","location":"    (30.27004814, -97.78397025)","day_issued":"TUESDAY","project_id":"13010482","condominium":"No","status_date":"09/16/2022","jurisdiction":"ROLLINGWOOD FULL PURPOSE","housing_units":"1","issuance_method":"Permit Center","contractor_phone":"8005042337","contractor_trade":"Electrical Contractor","number_of_floors":"1","permit_type_desc":"Electrical Permit","fiscal_year_issued":"2022","permit_class_mapped":"Residential","contractor_full_name":"Adrian Buck","issued_in_last_30_days":"No","certificate_of_occupancy":"No","property_legal_description":"LOT 7A *RESUB LOTS 7-A & 8-A TIMBERLINE RIDGE","electrical_valuation_remodel":"$55,256.00"},"geometry":{"type":"Point","coordinates":[-97.78397025,30.27004814]}},{"type":"Feature","properties":{"date":"2022-02-21T05:00:00.000Z","year":2022,"description":"Solar panel installation on existing roof surface. Panels will be flush with the roof will not extend over any peak. All city and fire regulations will be observed. Black solar panels and dark railing will be used conduit will be panted to match the existing shingles. Interconnected via Tesla Gateway","metadescription":"EP. Auxiliary Power. Solar panel installation on existing roof surface. Panels will be flush with the roof will not extend over any peak. All city and fire regulations will be observed. Black solar panels and dark railing will be used conduit will be panted to match the existing shingles. Interconnected via Tesla Gateway. Final. 432 BRADY LN","address":"432 Brady Lane, Austin, TX, 78746, US","link":"https://abc.austintexas.gov/web/permit/public-search-other?t_detail=1&t_selected_folderrsn=12870198","tcad_id":"0109111103","location":"    (30.27798308, -97.79201546)","day_issued":"MONDAY","project_id":"12870198","condominium":"No","status_date":"12/21/2023","jurisdiction":"WEST LAKE HILLS FULL PURPOSE","housing_units":"1","contractor_zip":"78716","contractor_city":"AUSTIN","issuance_method":"Permit Center","contractor_phone":"5125163711","contractor_trade":"Electrical Contractor","number_of_floors":"1","permit_type_desc":"Electrical Permit","fiscal_year_issued":"2022","permit_class_mapped":"Residential","contractor_address_1":"PO BOX 16304","contractor_full_name":"Jason A Thomas","issued_in_last_30_days":"No","certificate_of_occupancy":"No","property_legal_description":"ABS 14 SUR 21 HILL H P ACR .240","electrical_valuation_remodel":"$31,000.00"},"geometry":{"type":"Point","coordinates":[-97.79201546,30.27798308]}},{"type":"Feature","properties":{"date":"2021-11-04T04:00:00.000Z","year":2021,"description":"Installation of a 10.5kW roof mounted PV solar system.","metadescription":"EP. Auxiliary Power. Installation of a 10.5kW roof mounted PV solar system.. Final. 310 NIXON DR","address":"310 Nixon Drive, Austin, TX, 78746, US","link":"https://abc.austintexas.gov/web/permit/public-search-other?t_detail=1&t_selected_folderrsn=12813383","tcad_id":"0109091804","location":"    (30.27757116, -97.78733648)","day_issued":"THURSDAY","project_id":"12813383","condominium":"No","status_date":"12/08/2021","jurisdiction":"ROLLINGWOOD FULL PURPOSE","housing_units":"1","issuance_method":"Permit Center","contractor_phone":"8005042337","contractor_trade":"Electrical Contractor","number_of_floors":"1","permit_type_desc":"Electrical Permit","fiscal_year_issued":"2022","permit_class_mapped":"Residential","contractor_full_name":"Adrian Buck","issued_in_last_30_days":"No","certificate_of_occupancy":"No","property_legal_description":"LOT 8 BLK C HATLEY PARK ESTATES","electrical_valuation_remodel":"$32,179.00"},"geometry":{"type":"Point","coordinates":[-97.78733648,30.27757116]}},{"type":"Feature","properties":{"date":"2021-11-04T04:00:00.000Z","year":2021,"description":"Install new 8.32kW rooftop solar system and 27kW energy storage system for existing residential only.","metadescription":"EP. Auxiliary Power. Install new 8.32kW rooftop solar system and 27kW energy storage system for existing residential only.. Final. 312 NIXON DR","address":"312 Nixon Drive, Austin, TX, 78746, US","link":"https://abc.austintexas.gov/web/permit/public-search-other?t_detail=1&t_selected_folderrsn=12813744","tcad_id":"0109111201","location":"    (30.27739891, -97.78766424)","day_issued":"THURSDAY","project_id":"12813744","condominium":"No","status_date":"04/29/2024","jurisdiction":"ROLLINGWOOD FULL PURPOSE","housing_units":"1","issuance_method":"Permit Center","contractor_phone":"8005042337","contractor_trade":"Electrical Contractor","number_of_floors":"1","permit_type_desc":"Electrical Permit","fiscal_year_issued":"2022","permit_class_mapped":"Residential","contractor_full_name":"Adrian Buck","issued_in_last_30_days":"No","certificate_of_occupancy":"No","property_legal_description":"LOT 7 BLK C HATLEY PARK ESTATES","electrical_valuation_remodel":"$34,709.00"},"geometry":{"type":"Point","coordinates":[-97.78766424,30.27739891]}},{"type":"Feature","properties":{"date":"2021-11-04T04:00:00.000Z","year":2021,"description":"Utility controlled outage required to install Powerwall battery Tesla energy gateway and complete service rebuild. This permit is in addition to Aux permit required for the installation of a 4.92kW roof mounted PV solar system.","metadescription":"EP. Repair. Utility controlled outage required to install Powerwall battery Tesla energy gateway and complete service rebuild. This permit is in addition to Aux permit required for the installation of a 4.92kW roof mounted PV solar system.. Final. 312 NIXON DR","address":"312 Nixon Drive, Austin, TX, 78746, US","link":"https://abc.austintexas.gov/web/permit/public-search-other?t_detail=1&t_selected_folderrsn=12813768","tcad_id":"0109111201","location":"    (30.27739891, -97.78766424)","day_issued":"THURSDAY","project_id":"12813768","condominium":"No","status_date":"02/18/2022","jurisdiction":"ROLLINGWOOD FULL PURPOSE","housing_units":"1","issuance_method":"Permit Center","contractor_phone":"8005042337","contractor_trade":"Electrical Contractor","number_of_floors":"1","permit_type_desc":"Electrical Permit","fiscal_year_issued":"2022","permit_class_mapped":"Residential","remodel_repair_sqft":"0","contractor_full_name":"Adrian Buck","issued_in_last_30_days":"No","certificate_of_occupancy":"No","property_legal_description":"LOT 7 BLK C HATLEY PARK ESTATES","electrical_valuation_remodel":"$34,709.00"},"geometry":{"type":"Point","coordinates":[-97.78766424,30.27739891]}},{"type":"Feature","properties":{"date":"2021-09-16T04:00:00.000Z","year":2021,"description":"Installation of a 4.92kW roof mounted PV solar system. Utility controlled shutdown required for battery install and complete service rebuild.","metadescription":"EP. Auxiliary Power. Installation of a 4.92kW roof mounted PV solar system. Utility controlled shutdown required for battery install and complete service rebuild.. Withdrawn. 312 NIXON DR","address":"312 Nixon Drive, Austin, TX, 78746, US","link":"https://abc.austintexas.gov/web/permit/public-search-other?t_detail=1&t_selected_folderrsn=12778907","tcad_id":"0109111201","location":"    (30.27739891, -97.78766424)","day_issued":"THURSDAY","project_id":"12778907","condominium":"No","status_date":"11/04/2021","jurisdiction":"ROLLINGWOOD FULL PURPOSE","housing_units":"1","issuance_method":"Permit Center","contractor_phone":"8005042337","contractor_trade":"Electrical Contractor","number_of_floors":"1","permit_type_desc":"Electrical Permit","fiscal_year_issued":"2021","permit_class_mapped":"Residential","contractor_full_name":"Adrian Buck","issued_in_last_30_days":"No","certificate_of_occupancy":"No","property_legal_description":"LOT 7 BLK C HATLEY PARK ESTATES","electrical_valuation_remodel":"$34,709.00"},"geometry":{"type":"Point","coordinates":[-97.78766424,30.27739891]}},{"type":"Feature","properties":{"date":"2021-08-24T04:00:00.000Z","year":2021,"description":"Install roof-mounted solar and energy storage system to existing residence EUD.","metadescription":"EP. Auxiliary Power. Install roof-mounted solar and energy storage system to existing residence EUD.. Final. 4830 ROLLINGWOOD DR","address":"4830 Rollingwood Drive, Austin, TX, 78746, US","link":"https://abc.austintexas.gov/web/permit/public-search-other?t_detail=1&t_selected_folderrsn=12763431","tcad_id":"0109110905","location":"    (30.27417538, -97.78890265)","day_issued":"TUESDAY","project_id":"12763431","condominium":"No","status_date":"06/27/2022","jurisdiction":"ROLLINGWOOD FULL PURPOSE","housing_units":"1","contractor_zip":"78728-____","contractor_city":"AUSTIN","issuance_method":"Permit Center","contractor_phone":"2147246768","contractor_trade":"Electrical Contractor","number_of_floors":"1","permit_type_desc":"Electrical Permit","fiscal_year_issued":"2021","permit_class_mapped":"Residential","contractor_address_2":"2301  SCARBR","contractor_full_name":"Wesley Davis","issued_in_last_30_days":"No","certificate_of_occupancy":"No","property_legal_description":"LOT 1 BLK A TIMBERLINE TERRACE SEC 3","electrical_valuation_remodel":"$82,437.00"},"geometry":{"type":"Point","coordinates":[-97.78890265,30.27417538]}},{"type":"Feature","properties":{"date":"2021-07-14T04:00:00.000Z","year":2021,"description":"EMERGENCY- Occupied- Replacing hub on top of meter can and repairing cable on roof","metadescription":"EP. Repair. EMERGENCY- Occupied- Replacing hub on top of meter can and repairing cable on roof. Final. 426 BRADY LN","address":"426 Brady Lane, Austin, TX, 78746, US","link":"https://abc.austintexas.gov/web/permit/public-search-other?t_detail=1&t_selected_folderrsn=12738608","tcad_id":"0111110932","location":"    (30.27853194, -97.79167779)","day_issued":"WEDNESDAY","project_id":"12738608","condominium":"No","status_date":"07/16/2021","jurisdiction":"WEST LAKE HILLS FULL PURPOSE","housing_units":"1","contractor_zip":"78644","contractor_city":"Lockhart","issuance_method":"Permit Center","contractor_phone":"5122298513","contractor_trade":"Electrical Contractor","number_of_floors":"1","permit_type_desc":"Electrical Permit","fiscal_year_issued":"2021","permit_class_mapped":"Residential","remodel_repair_sqft":"0","contractor_address_2":"1750  Old Lo","contractor_full_name":"Terry Vann","issued_in_last_30_days":"No","certificate_of_occupancy":"No","property_legal_description":"LOT 33 RIDGEWOOD VILLAGE SEC 2","electrical_valuation_remodel":"$0.00"},"geometry":{"type":"Point","coordinates":[-97.79167779,30.27853194]}},{"type":"Feature","properties":{"date":"2021-05-04T04:00:00.000Z","year":2021,"description":"New solar install. Installation of a 8.829 kw mounted roof PV solar system.","metadescription":"EP. Auxiliary Power. New solar install. Installation of a 8.829 kw mounted roof PV solar system.. Final. 1 GROVE CT","address":"1 Grove Court, Austin, TX, 78746, US","link":"https://abc.austintexas.gov/web/permit/public-search-other?t_detail=1&t_selected_folderrsn=12689358","tcad_id":"0107110805","location":"    (30.27269085, -97.78879602)","day_issued":"TUESDAY","project_id":"12689358","condominium":"No","status_date":"06/30/2021","jurisdiction":"ROLLINGWOOD FULL PURPOSE","housing_units":"1","issuance_method":"Permit Center","contractor_phone":"8005042337","contractor_trade":"Electrical Contractor","number_of_floors":"1","permit_type_desc":"Electrical Permit","fiscal_year_issued":"2021","permit_class_mapped":"Residential","contractor_full_name":"Adrian Buck","issued_in_last_30_days":"No","certificate_of_occupancy":"No","property_legal_description":"LOT 2 ROLLINGWOOD PROFESSIONAL PARK","electrical_valuation_remodel":"$27,479.00"},"geometry":{"type":"Point","coordinates":[-97.78879602,30.27269085]}},{"type":"Feature","properties":{"date":"2020-02-03T05:00:00.000Z","year":2020,"description":"9.1kW DC Roof Mounted New Solar Panel Installation","metadescription":"EP. Auxiliary Power. 9.1kW DC Roof Mounted New Solar Panel Installation. Final. 3012 HATLEY DR","address":"3012 Hatley Drive, Austin, TX, 78746, US","link":"https://abc.austintexas.gov/web/permit/public-search-other?t_detail=1&t_selected_folderrsn=12404755","tcad_id":"0111090804","location":"    (30.27860252, -97.7862287)","day_issued":"MONDAY","project_id":"12404755","condominium":"No","status_date":"05/11/2020","jurisdiction":"ROLLINGWOOD FULL PURPOSE","housing_units":"1","contractor_zip":"78704","contractor_city":"Austin","issuance_method":"Permit Center","contractor_phone":"5124765555","contractor_trade":"Electrical Contractor","number_of_floors":"1","permit_type_desc":"Electrical Permit","fiscal_year_issued":"2020","permit_class_mapped":"Residential","contractor_address_2":"2000 S 7th S","contractor_full_name":"Mark Pride","issued_in_last_30_days":"No","certificate_of_occupancy":"No","property_legal_description":"LOT 6 BLK B HATLEY PARK ESTATES","electrical_valuation_remodel":"$20,668.00"},"geometry":{"type":"Point","coordinates":[-97.7862287,30.27860252]}},{"type":"Feature","properties":{"date":"2020-01-15T05:00:00.000Z","year":2020,"description":"install additional panels to roof mounted PV solar system. 7.00 kW roof mounted","metadescription":"EP. Auxiliary Power. install additional panels to roof mounted PV solar system. 7.00 kW roof mounted. Final. 427 BRADY LN","address":"427 Brady Lane, Austin, TX, 78746, US","link":"https://abc.austintexas.gov/web/permit/public-search-other?t_detail=1&t_selected_folderrsn=12394129","tcad_id":"0111110301","location":"    (30.27836202, -97.79115307)","day_issued":"WEDNESDAY","project_id":"12394129","condominium":"No","status_date":"03/13/2020","jurisdiction":"WEST LAKE HILLS FULL PURPOSE","housing_units":"1","issuance_method":"Permit Center","contractor_phone":"8005042337","contractor_trade":"Electrical Contractor","number_of_floors":"1","permit_type_desc":"Electrical Permit","fiscal_year_issued":"2020","permit_class_mapped":"Residential","contractor_full_name":"Adrian Buck","issued_in_last_30_days":"No","certificate_of_occupancy":"No","property_legal_description":"LOT 28 *& S 50 FT OF LOT 27 RIDGEWOOD VILLAGE SEC 2","electrical_valuation_remodel":"$24,220.00"},"geometry":{"type":"Point","coordinates":[-97.79115307,30.27836202]}},{"type":"Feature","properties":{"date":"2020-01-14T05:00:00.000Z","year":2020,"description":"Installation of 27 solar panels onto roof of home.","metadescription":"EP. Auxiliary Power. Installation of 27 solar panels onto roof of home.. Final. 4824 ROLLINGWOOD DR","address":"4824 Rollingwood Drive, Austin, TX, 78746, US","link":"https://abc.austintexas.gov/web/permit/public-search-other?t_detail=1&t_selected_folderrsn=12392620","tcad_id":"0109110908","location":"    (30.27431519, -97.78791033)","day_issued":"TUESDAY","project_id":"12392620","condominium":"No","status_date":"01/14/2020","jurisdiction":"ROLLINGWOOD FULL PURPOSE","housing_units":"1","contractor_zip":"78660-____","contractor_city":"PFLUGERVILLE","issuance_method":"Permit Center","contractor_phone":"5122520040","contractor_trade":"Electrical Contractor","number_of_floors":"1","permit_type_desc":"Electrical Permit","fiscal_year_issued":"2020","permit_class_mapped":"Residential","contractor_address_2":"821  GRAND A","contractor_full_name":"William B. Crist Jr.","issued_in_last_30_days":"No","certificate_of_occupancy":"No","property_legal_description":"LOT 4 BLK A TIMBERLINE TERRACE SEC 3","electrical_valuation_remodel":"$500.00"},"geometry":{"type":"Point","coordinates":[-97.78791033,30.27431519]}},{"type":"Feature","properties":{"date":"2019-07-03T04:00:00.000Z","year":2019,"description":"Install soar panels on existing rooftop WEST LAKE HILLS FULL PURPOSE","metadescription":"EP. Auxiliary Power. Install soar panels on existing rooftop WEST LAKE HILLS FULL PURPOSE. Final. 438 BRADY LN","address":"438 Brady Lane, Austin, TX, 78746, US","link":"https://abc.austintexas.gov/web/permit/public-search-other?t_detail=1&t_selected_folderrsn=12261126","tcad_id":"0109111114","location":"    (30.27733912, -97.79227324)","day_issued":"WEDNESDAY","project_id":"12261126","condominium":"No","status_date":"07/16/2019","jurisdiction":"WEST LAKE HILLS FULL PURPOSE","housing_units":"1","contractor_zip":"78716","contractor_city":"AUSTIN","issuance_method":"Permit Center","contractor_phone":"5125163711","contractor_trade":"Electrical Contractor","number_of_floors":"1","permit_type_desc":"Electrical Permit","fiscal_year_issued":"2019","permit_class_mapped":"Residential","contractor_address_1":"PO BOX 16304","contractor_full_name":"Jason A Thomas","issued_in_last_30_days":"No","certificate_of_occupancy":"No","property_legal_description":"LOT 1 BLK A BROWN TOM & AMY SUBD","electrical_valuation_remodel":"$15,500.00"},"geometry":{"type":"Point","coordinates":[-97.79227324,30.27733912]}},{"type":"Feature","properties":{"date":"2019-06-11T04:00:00.000Z","year":2019,"description":"Install 9.10kW roof mounted solar PV system","metadescription":"EP. Auxiliary Power. Install 9.10kW roof mounted solar PV system. Final. 405 INWOOD RD","address":"405 Inwood Road, Austin, TX, 78746, US","link":"https://abc.austintexas.gov/web/permit/public-search-other?t_detail=1&t_selected_folderrsn=12195162","tcad_id":"0107090212","location":"    (30.27274823, -97.78324303)","day_issued":"TUESDAY","project_id":"12195162","condominium":"No","status_date":"03/13/2020","jurisdiction":"ROLLINGWOOD FULL PURPOSE","housing_units":"1","issuance_method":"Permit Center","contractor_phone":"8005042337","contractor_trade":"Electrical Contractor","number_of_floors":"1","permit_type_desc":"Electrical Permit","fiscal_year_issued":"2019","permit_class_mapped":"Residential","contractor_full_name":"Adrian Buck","issued_in_last_30_days":"No","certificate_of_occupancy":"No","property_legal_description":"LOT 1A-2A DGE ADDN & ALAM ADDN","electrical_valuation_remodel":"$22,000.00"},"geometry":{"type":"Point","coordinates":[-97.78324303,30.27274823]}},{"type":"Feature","properties":{"date":"2019-05-07T04:00:00.000Z","year":2019,"description":"Install 11.9kW roof mounted install. Shut down required for service upgrade: install new 200 amp meter socket","metadescription":"EP. Auxiliary Power. Install 11.9kW roof mounted install. Shut down required for service upgrade: install new 200 amp meter socket. Final. 427 BRADY LN","address":"427 Brady Lane, Austin, TX, 78746, US","link":"https://abc.austintexas.gov/web/permit/public-search-other?t_detail=1&t_selected_folderrsn=12189087","tcad_id":"0111110301","location":"    (30.27836202, -97.79115307)","day_issued":"TUESDAY","project_id":"12189087","condominium":"No","status_date":"06/11/2019","jurisdiction":"WEST LAKE HILLS FULL PURPOSE","housing_units":"1","issuance_method":"Permit Center","contractor_phone":"8005042337","contractor_trade":"Electrical Contractor","number_of_floors":"1","permit_type_desc":"Electrical Permit","fiscal_year_issued":"2019","permit_class_mapped":"Residential","contractor_full_name":"Adrian Buck","issued_in_last_30_days":"No","certificate_of_occupancy":"No","property_legal_description":"LOT 28 *& S 50 FT OF LOT 27 RIDGEWOOD VILLAGE SEC 2","electrical_valuation_remodel":"$35,000.00"},"geometry":{"type":"Point","coordinates":[-97.79115307,30.27836202]}},{"type":"Feature","properties":{"date":"2018-07-09T04:00:00.000Z","year":2018,"description":"Install a 13 kW roof mounted solar PV system.","metadescription":"EP. Auxiliary Power. Install a 13 kW roof mounted solar PV system.. Final. 4903 SOUTH CREST DR","address":"4903 South Crest Drive, Austin, TX, 78746, US","link":"https://abc.austintexas.gov/web/permit/public-search-other?t_detail=1&t_selected_folderrsn=11977075","tcad_id":"0107110323","location":"    (30.27239397, -97.78977344)","day_issued":"MONDAY","project_id":"11977075","condominium":"No","status_date":"09/06/2018","jurisdiction":"ROLLINGWOOD FULL PURPOSE","housing_units":"1","issuance_method":"Permit Center","contractor_phone":"8005042337","contractor_trade":"Electrical Contractor","number_of_floors":"1","permit_type_desc":"Electrical Permit","fiscal_year_issued":"2018","permit_class_mapped":"Residential","contractor_full_name":"Adrian Buck","issued_in_last_30_days":"No","certificate_of_occupancy":"No","property_legal_description":"LOT 1 CARLTON SUBD","electrical_valuation_remodel":"$44,548.00"},"geometry":{"type":"Point","coordinates":[-97.78977344,30.27239397]}},{"type":"Feature","properties":{"date":"2018-02-21T05:00:00.000Z","year":2018,"description":"Install roof mounted solar panels to SF res home.","metadescription":"EP. Auxiliary Power. Install roof mounted solar panels to SF res home.. Final. 400 NIXON DR","address":"400 Nixon Drive, Austin, TX, 78746, US","link":"https://abc.austintexas.gov/web/permit/public-search-other?t_detail=1&t_selected_folderrsn=11871069","tcad_id":"0109110509","location":"    (30.27566374, -97.78961758)","day_issued":"WEDNESDAY","project_id":"11871069","condominium":"No","status_date":"03/15/2018","jurisdiction":"ROLLINGWOOD FULL PURPOSE","housing_units":"1","contractor_zip":"78704","contractor_city":"Austin","issuance_method":"Permit Center","contractor_phone":"5124765555","contractor_trade":"Electrical Contractor","number_of_floors":"1","permit_type_desc":"Electrical Permit","fiscal_year_issued":"2018","permit_class_mapped":"Residential","contractor_address_2":"2000 S 7th S","contractor_full_name":"Mark Pride","issued_in_last_30_days":"No","certificate_of_occupancy":"No","property_legal_description":"LOT 1 STROM SUBD THE","electrical_valuation_remodel":"$33,241.00"},"geometry":{"type":"Point","coordinates":[-97.78961758,30.27566374]}},{"type":"Feature","properties":{"date":"2012-04-23T04:00:00.000Z","year":2012,"description":"Rooftop installation of photovoltaic (solar array) to exsitng resid EUD","metadescription":"EP. Remodel. Rooftop installation of photovoltaic (solar array) to exsitng resid EUD. Final. 304 INWOOD RD","address":"304 Inwood Road, Austin, TX, 78746, US","link":"https://abc.austintexas.gov/web/permit/public-search-other?t_detail=1&t_selected_folderrsn=10754537","tcad_id":"0109090906","location":"    (30.27401886, -97.78199903)","day_issued":"MONDAY","project_id":"10754537","condominium":"No","status_date":"04/25/2012","jurisdiction":"ROLLINGWOOD FULL PURPOSE","housing_units":"0","contractor_zip":"78704","contractor_city":"Austin","issuance_method":"Permit Center","contractor_phone":"5124765555","contractor_trade":"Electrical Contractor","number_of_floors":"0","permit_type_desc":"Electrical Permit","fiscal_year_issued":"2012","permit_class_mapped":"Residential","contractor_address_2":"2000 S 7th S","contractor_full_name":"Mark Pride","issued_in_last_30_days":"No","certificate_of_occupancy":"No","property_legal_description":"LOT 1 BLK A MINOR INWOOD ADDN","electrical_valuation_remodel":"$26,717.00"},"geometry":{"type":"Point","coordinates":[-97.78199903,30.27401886]}},{"type":"Feature","properties":{"date":"2011-07-25T04:00:00.000Z","year":2011,"description":"Rooftop installation of photovoltaic (solar array) to exsitng resid EUD","metadescription":"EP. Remodel. Rooftop installation of photovoltaic (solar array) to exsitng resid EUD. VOID. 304 INWOOD RD","address":"304 Inwood Road, Austin, TX, 78746, US","link":"https://abc.austintexas.gov/web/permit/public-search-other?t_detail=1&t_selected_folderrsn=10626144","tcad_id":"0109090906","location":"    (30.27401886, -97.78199903)","day_issued":"MONDAY","project_id":"10626144","condominium":"No","status_date":"04/23/2012","jurisdiction":"ROLLINGWOOD FULL PURPOSE","housing_units":"0","contractor_zip":"78704","contractor_city":"Austin","issuance_method":"Permit Center","contractor_phone":"5124765555","contractor_trade":"Electrical Contractor","number_of_floors":"0","permit_type_desc":"Electrical Permit","fiscal_year_issued":"2011","permit_class_mapped":"Residential","contractor_address_2":"2000 S 7th S","contractor_full_name":"Mark Pride","issued_in_last_30_days":"No","certificate_of_occupancy":"No","property_legal_description":"LOT 1 BLK A MINOR INWOOD ADDN","electrical_valuation_remodel":"$26,717.00"},"geometry":{"type":"Point","coordinates":[-97.78199903,30.27401886]}},{"type":"Feature","properties":{"date":"2010-06-30T04:00:00.000Z","year":2010,"description":"Installing roof mounted solar electrica system to new residence only EUD","metadescription":"EP. Remodel. Installing roof mounted solar electrica system to new residence only EUD. Final. 3 INWOOD CV","address":"3 Inwood Cove, Austin, TX, 78746, US","link":"https://abc.austintexas.gov/web/permit/public-search-other?t_detail=1&t_selected_folderrsn=10459434","location":"    (30.27250867, -97.78613282)","day_issued":"WEDNESDAY","project_id":"10459434","condominium":"No","status_date":"10/14/2010","jurisdiction":"ROLLINGWOOD FULL PURPOSE","housing_units":"0","contractor_zip":"78744","contractor_city":"AUSTIN","issuance_method":"Permit Center","contractor_phone":"5125525581","contractor_trade":"Electrical Contractor","number_of_floors":"0","permit_type_desc":"Electrical Permit","fiscal_year_issued":"2010","permit_class_mapped":"Residential","contractor_address_2":"4109  Todd","contractor_full_name":"Eric Kay","issued_in_last_30_days":"No","certificate_of_occupancy":"No","electrical_valuation_remodel":"$15,000.00"},"geometry":{"type":"Point","coordinates":[-97.78613282,30.27250867]}},{"type":"Feature","properties":{"date":"1986-01-21T05:00:00.000Z","year":1986,"description":"Re-Roof Exist Res","metadescription":"BP. Remodel. Re-Roof Exist Res. Final. 438 BRADY LN","address":"438 Brady Lane, Austin, TX, 78746, US","link":"https://abc.austintexas.gov/web/permit/public-search-other?t_detail=1&t_selected_folderrsn=561200","tcad_id":"0109111114","location":"    (30.27733912, -97.79227324)","day_issued":"TUESDAY","project_id":"561200","condominium":"No","status_date":"05/22/2007","jurisdiction":"WEST LAKE HILLS FULL PURPOSE","housing_units":"1","issuance_method":"Permit Center","permit_type_desc":"Building Permit","fiscal_year_issued":"1986","permit_class_mapped":"Residential","issued_in_last_30_days":"No","certificate_of_occupancy":"No","property_legal_description":"LOT 1 BLK A BROWN TOM & AMY SUBD"},"geometry":{"type":"Point","coordinates":[-97.79227324,30.27733912]}}]}
