{"type":"FeatureCollection","features":[{"type":"Feature","properties":{"date":null,"year":0,"description":"INTERIOR REMODEL, EXISTING TENANT, NO CHANGE IN USE OF SPACE AT SUITE 1225 (MAA)     certificate of occupancy required:  NO special inspections required:  NO  const type:     I A    occupancy:  B       2020 MSBC occupant load:  16     sprinklered:YES Tena","metadescription":"Commercial. Remodel. INTERIOR REMODEL, EXISTING TENANT, NO CHANGE IN USE OF SPACE AT SUITE 1225 (MAA)     certificate of occupancy required:  NO special inspections required:  NO  const type:     I A    occupancy:  B       2020 MSBC occupant load:  16     sprinklered:YES Tena. Closed","address":null,"x":"-93.2721","y":"44.9732500000001","value":"31269","display":"920 2ND AVE S","fullname":"FORUM OFFICE REALTY LLC ETAL","issuedate":"2021/04/26 14:41:36+00","milestone":"Closed","completedate":"2021/05/28 12:35:41+00","applicantcity":"Minneapolis","applicantaddress1":"730 2nd Ave S"},"geometry":{"type":"Point","coordinates":[-93.2721,44.97325]}},{"type":"Feature","properties":{"date":null,"year":0,"description":"NEW RESTAURANT  CHANGE OF USE     const type: IIIB        occupancy: B             2020 MSBC  occupant load: 25  sprinklered: NO     sac: _2.01_ charges  _0.20_ credits = _1.81_ net  met council letter dated _7/16/25_     architect:  23018 - Mackey, James","metadescription":"Commercial. Remodel. NEW RESTAURANT  CHANGE OF USE     const type: IIIB        occupancy: B             2020 MSBC  occupant load: 25  sprinklered: NO     sac: _2.01_ charges  _0.20_ credits = _1.81_ net  met council letter dated _7/16/25_     architect:  23018 - Mackey, James. Issued","address":null,"x":"-93.26037","y":"44.95968","value":"5500","display":"912 24TH ST E","fullname":"24TH MALL LLC","issuedate":"2026/01/26 08:11:20+00","milestone":"Inspection","applicantcity":"Minneapolis","applicantaddress1":"912 E 24th St #B138"},"geometry":{"type":"Point","coordinates":[-93.26037,44.95968]}},{"type":"Feature","properties":{"date":null,"year":0,"description":"35TH FLOOR.  INTERIOR RENOVATION OF BANK OF AMERICA OFFICE SPACE.  NO CHANGE IN USE OR STRUCTURAL CHANGES.  (JJL)     certificate of occupancy required:    no     special inspections required:    no      const type: IA        occupancy:    B          2020","metadescription":"Commercial. Remodel. 35TH FLOOR.  INTERIOR RENOVATION OF BANK OF AMERICA OFFICE SPACE.  NO CHANGE IN USE OR STRUCTURAL CHANGES.  (JJL)     certificate of occupancy required:    no     special inspections required:    no      const type: IA        occupancy:    B          2020. Closed","address":null,"x":"-93.27207","y":"44.9760900000001","value":"140000","display":"80 8TH ST S","fullname":"BRI 1855 IDS CENTER LLC","issuedate":"2024/09/30 15:46:29+00","milestone":"Closed","completedate":"2025/06/12 07:55:46+00","applicantcity":"Minneapolis","applicantaddress1":"730 2nd Ave S, Ste 1233"},"geometry":{"type":"Point","coordinates":[-93.27207,44.97609]}},{"type":"Feature","properties":{"date":null,"year":0,"description":"(DMH - ProjectDox)  SELECT DEMO OF PARTITION WALLS AND REMODEL TO EXISTING 4,100 SQ.FT. OFFICE, SUITE 220.  NO CHANGE IN USE, OCCUPANT LOAD OR EXITING.    APPROVED PLANS AND PERMIT MUST BE ON SITE BEFORE INSPECTIONS WILL BE PROVIDED.  APPLICANT IS REQUIRE","metadescription":"Commercial. Remodel. (DMH - ProjectDox)  SELECT DEMO OF PARTITION WALLS AND REMODEL TO EXISTING 4,100 SQ.FT. OFFICE, SUITE 220.  NO CHANGE IN USE, OCCUPANT LOAD OR EXITING.    APPROVED PLANS AND PERMIT MUST BE ON SITE BEFORE INSPECTIONS WILL BE PROVIDED.  APPLICANT IS REQUIRE. Closed","address":null,"x":"-93.2736199999999","y":"44.97448","value":"72513","display":"81 9TH ST S","fullname":"Y-Q ASSOCIATES LTD PARTNERSHIP","issuedate":"2020/12/10 16:14:22+00","milestone":"Closed","completedate":"2021/03/17 12:50:05+00","applicantcity":"MINNEAPOLIS","applicantaddress1":"50 6TH ST S STE 1413"},"geometry":{"type":"Point","coordinates":[-93.27362,44.97448]}},{"type":"Feature","properties":{"date":null,"year":0,"description":"1st level kitchen and dishwasher replacement\r\rKITCHEN AND DISHWASHER ROOM UPDATES.  MAINLY MECHANICAL WITH MINOR DEMO AND REPAIRS TO WALLS AND TILING.   (DMH#1)\rNO CHANGE IN USE OR EXITING.  NO DISRUPTION TO RATED WALLS.\r\rconst type: IA\toccupancy: I-2","metadescription":"Commercial. Remodel. 1st level kitchen and dishwasher replacement\r\rKITCHEN AND DISHWASHER ROOM UPDATES.  MAINLY MECHANICAL WITH MINOR DEMO AND REPAIRS TO WALLS AND TILING.   (DMH#1)\rNO CHANGE IN USE OR EXITING.  NO DISRUPTION TO RATED WALLS.\r\rconst type: IA\toccupancy: I-2. Closed","address":null,"x":"-93.26133","y":"44.9545800000001","value":"2000000","display":"800 28TH ST E","issuedate":"2017/02/02 09:47:45+00","milestone":"Closed","completedate":"2017/10/24 13:54:24+00","applicantcity":"MINNEAPOLIS","applicantaddress1":"800 WASHINGTON AVE N STE 600"},"geometry":{"type":"Point","coordinates":[-93.26133,44.95458]}},{"type":"Feature","properties":{"date":null,"year":0,"description":"(DMH - ProjectDox)  DEMO ONLY WITH PATCH & REPAIRS TO EXISTING 18,300 SQFT.  28TH FLOOR OFFICE AREA FOR WHITE SHELL SPACE.  EXISTING COORIDOR WALLS AND DOORS REMAIN IN PLACE.  NO CHANGE IN USE OR EXITING.   ADDITIONAL PLANS, PERMITS AND APPROVALS REQUIRED","metadescription":"Commercial. Remodel. (DMH - ProjectDox)  DEMO ONLY WITH PATCH & REPAIRS TO EXISTING 18,300 SQFT.  28TH FLOOR OFFICE AREA FOR WHITE SHELL SPACE.  EXISTING COORIDOR WALLS AND DOORS REMAIN IN PLACE.  NO CHANGE IN USE OR EXITING.   ADDITIONAL PLANS, PERMITS AND APPROVALS REQUIRED. Closed","address":null,"x":"-93.27385","y":"44.9756400000001","value":"90000","display":"800 NICOLLET MALL","fullname":"PIEDMONT-800 NIC AVE OWN LLC","issuedate":"2022/06/17 16:11:05+00","milestone":"Closed","completedate":"2022/09/21 13:47:54+00","applicantcity":"St Paul","applicantaddress1":"6675 Warner Ave S"},"geometry":{"type":"Point","coordinates":[-93.27385,44.97564]}},{"type":"Feature","properties":{"date":null,"year":0,"description":"(DMH - ProjectDox)  INTERIOR REMODEL TO EXISTING SANDWICH SHOP.   MINOR PARTITION WALLS, FINISHES AND MECHANICAL WORK.  EXISTING MENS & WOMENS RESTROOMS.   NO CHANGE IN USE, OCCUPANT LOAD OR EXITING.     Const type:  V-B       Occupancy:  B         2020 M","metadescription":"Commercial. Remodel. (DMH - ProjectDox)  INTERIOR REMODEL TO EXISTING SANDWICH SHOP.   MINOR PARTITION WALLS, FINISHES AND MECHANICAL WORK.  EXISTING MENS & WOMENS RESTROOMS.   NO CHANGE IN USE, OCCUPANT LOAD OR EXITING.     Const type:  V-B       Occupancy:  B         2020 M. Closed","address":null,"x":"-93.28842","y":"44.9485300000001","value":"215000","display":"700 LAKE ST W","fullname":"REHMAN LLC","issuedate":"2022/01/18 14:52:48+00","milestone":"Closed","completedate":"2022/06/21 16:18:30+00","applicantcity":"Chanhassen","applicantaddress1":"8633 Alisa Court"},"geometry":{"type":"Point","coordinates":[-93.28842,44.94853]}},{"type":"Feature","properties":{"date":null,"year":0,"description":"INTERIOR REMODEL TO EXISTING 7,660 S.F MAIN LEVEL OFFICE SPACE.  (DMH#1)  REPLACE FRONT WINDOWS IN EXISTING OPENING.  EXISTING RESTROOMS AND ADA SINGLE USER.  NO CHANGE IN USE OR EXITING.     Const type: VB  Occupancy: B           2015 MSBC occupant load:","metadescription":"Commercial. Remodel. INTERIOR REMODEL TO EXISTING 7,660 S.F MAIN LEVEL OFFICE SPACE.  (DMH#1)  REPLACE FRONT WINDOWS IN EXISTING OPENING.  EXISTING RESTROOMS AND ADA SINGLE USER.  NO CHANGE IN USE OR EXITING.     Const type: VB  Occupancy: B           2015 MSBC occupant load:. Closed","address":null,"x":"-93.28844","y":"45.0000700000001","value":"190000","display":"710 WEST BROADWAY","fullname":"THE SANCTUARY COVENANT CHURCH INC","issuedate":"2017/07/28 08:23:59+00","milestone":"Closed","completedate":"2017/12/07 13:25:17+00","applicantcity":"MINNEAPOLIS MN","applicantaddress1":"6465 WAYZATA BLVD STE 110"},"geometry":{"type":"Point","coordinates":[-93.28844,45.00007]}},{"type":"Feature","properties":{"date":null,"year":0,"description":"REMODEL COFFEE ROASTERY      change of use  mechanical plans submitted     const type: IIB        occupancy:   F1           2020 MSBC  occupant load: 11       sprinklered: YES  Tenant:  WOMPLE         Floor(s):  1   sac: __0.72 charges  __0.31 credits = _","metadescription":"Commercial. Remodel. REMODEL COFFEE ROASTERY      change of use  mechanical plans submitted     const type: IIB        occupancy:   F1           2020 MSBC  occupant load: 11       sprinklered: YES  Tenant:  WOMPLE         Floor(s):  1   sac: __0.72 charges  __0.31 credits = _. Closed","address":null,"x":"-93.24281","y":"44.9892800000001","value":"30000","display":"610 9TH ST SE","fullname":"NORTH CO LLC","issuedate":"2024/06/17 13:00:23+00","milestone":"Closed","completedate":"2024/07/10 12:51:04+00","applicantcity":"Maple Grove","applicantaddress1":"15350 67th Pl N"},"geometry":{"type":"Point","coordinates":[-93.24281,44.98928]}},{"type":"Feature","properties":{"date":null,"year":0,"description":"SELECT DEMO AND REMODEL TO APPROX. 1,056 S.F FOR OPEN OFFICE SPACE.  (DMH#1)  NO CHANGE IN USE, CORRIDOR OR EXITS.   EXISTING ELEVATOR LOBBY.     Const type:  1-A    Occupancy: B       2015 MSBC occupant load:  No Change  (Archit calc.)   sprinklered:  YE","metadescription":"Commercial. Remodel. SELECT DEMO AND REMODEL TO APPROX. 1,056 S.F FOR OPEN OFFICE SPACE.  (DMH#1)  NO CHANGE IN USE, CORRIDOR OR EXITS.   EXISTING ELEVATOR LOBBY.     Const type:  1-A    Occupancy: B       2015 MSBC occupant load:  No Change  (Archit calc.)   sprinklered:  YE. Closed","address":null,"x":"-93.26989","y":"44.9781300000001","value":"15000","display":"60 6TH ST S","issuedate":"2017/08/04 13:00:09+00","milestone":"Closed","completedate":"2017/08/29 06:04:43+00","applicantcity":"MINNEAPOLIS","applicantaddress1":"1201 MARQUETTE AVE STE 200"},"geometry":{"type":"Point","coordinates":[-93.26989,44.97813]}},{"type":"Feature","properties":{"date":null,"year":0,"description":"SELECT DEMO AND REMODEL TO APPROX. 1,056 S.F FOR OPEN OFFICE SPACE.  (DMH#1)  NO CHANGE IN USE, CORRIDOR OR EXITS.   EXISTING ELEVATOR LOBBY.     Const type:  1-A    Occupancy: B       2015 MSBC occupant load:  No Change  (Archit calc.)   sprinklered:  YE","metadescription":"Commercial. Remodel. SELECT DEMO AND REMODEL TO APPROX. 1,056 S.F FOR OPEN OFFICE SPACE.  (DMH#1)  NO CHANGE IN USE, CORRIDOR OR EXITS.   EXISTING ELEVATOR LOBBY.     Const type:  1-A    Occupancy: B       2015 MSBC occupant load:  No Change  (Archit calc.)   sprinklered:  YE. Closed","address":null,"x":"-93.2702199999999","y":"44.97774","value":"15000","display":"60 6TH ST S","issuedate":"2017/08/04 13:00:09+00","milestone":"Closed","completedate":"2017/08/29 06:04:43+00","applicantcity":"MINNEAPOLIS","applicantaddress1":"1201 MARQUETTE AVE STE 200"},"geometry":{"type":"Point","coordinates":[-93.27022,44.97774]}},{"type":"Feature","properties":{"date":null,"year":0,"description":"INT NON STRUC DEMO TO REMOVE 3 SMALL OFFICE AREAS ON E 24TH ST SIDE. NO RECONSTRUCTION THIS PERMIT. NO CHANGE IN USE OF SPACE THIS PERMIT.     ARCHITECT: DJR, SCOTT NELSON # 17444","metadescription":"Commercial. Remodel. INT NON STRUC DEMO TO REMOVE 3 SMALL OFFICE AREAS ON E 24TH ST SIDE. NO RECONSTRUCTION THIS PERMIT. NO CHANGE IN USE OF SPACE THIS PERMIT.     ARCHITECT: DJR, SCOTT NELSON # 17444. Closed","address":null,"x":"-93.26037","y":"44.95968","value":"500","display":"912 24TH ST E","fullname":"24TH MALL LLC","issuedate":"2017/02/09 11:15:56+00","milestone":"Closed","completedate":"2020/04/24 16:04:04+00","applicantcity":"Minneapolis","applicantaddress1":"912 24TH St E #B229"},"geometry":{"type":"Point","coordinates":[-93.26037,44.95968]}},{"type":"Feature","properties":{"date":null,"year":0,"description":"FINISH INTERIOR OF EXSITING DETACHED GARAGE AT SFD (JAG)***   NO CHANGE IN USE. ADD FULL DEPTH INSULATION, CHANGE WINDOW. CONTRACTOR VERIFIED TRUSS BOTTOM CHORD LIVE AND DEAD LOADS AND  ICE AND WATER FOR ROOFING.***   GENERAL COMMENTS:   APPLICANT MUST LO","metadescription":"Res. Remodel. FINISH INTERIOR OF EXSITING DETACHED GARAGE AT SFD (JAG)***   NO CHANGE IN USE. ADD FULL DEPTH INSULATION, CHANGE WINDOW. CONTRACTOR VERIFIED TRUSS BOTTOM CHORD LIVE AND DEAD LOADS AND  ICE AND WATER FOR ROOFING.***   GENERAL COMMENTS:   APPLICANT MUST LO. Closed","address":null,"x":"-93.31719","y":"44.8963200000001","value":"1500","display":"5857 WASHBURN AVE S","fullname":"ALEXANDER OPITZ","issuedate":"2018/12/06 11:23:02+00","milestone":"Closed","completedate":"2022/10/27 06:18:36+00","applicantcity":"BROOKLYN PARK","applicantaddress1":"7901 ASTER DR"},"geometry":{"type":"Point","coordinates":[-93.31719,44.89632]}},{"type":"Feature","properties":{"date":null,"year":0,"description":"(DMH - ProjectDox)   SELECT DEMO AND REMODEL TO EXISTING OFFICE SPACE, SUITE 250.   INSTALL NEW PARITION WALLS FOR SMALL MEETING ROOM, 2 HUDDLE ROOMS AND EMPLOYEE BREAKROOM AREA.   NO CHANGE IN USE, OCCUPANT LOAD OR EXITING.    APPROVED PLANS AND PERMIT M","metadescription":"Commercial. Remodel. (DMH - ProjectDox)   SELECT DEMO AND REMODEL TO EXISTING OFFICE SPACE, SUITE 250.   INSTALL NEW PARITION WALLS FOR SMALL MEETING ROOM, 2 HUDDLE ROOMS AND EMPLOYEE BREAKROOM AREA.   NO CHANGE IN USE, OCCUPANT LOAD OR EXITING.    APPROVED PLANS AND PERMIT M. Closed","address":null,"x":"-93.27883","y":"44.9895900000001","value":"26780","display":"800 WASHINGTON AVE N","issuedate":"2021/08/17 09:01:14+00","milestone":"Closed","completedate":"2021/10/01 10:44:59+00","applicantcity":"Eden Prairie","applicantaddress1":"7148 Shady Oak Rd"},"geometry":{"type":"Point","coordinates":[-93.27883,44.98959]}},{"type":"Feature","properties":{"date":null,"year":0,"description":"(DMH#1)   REMODEL AT 9TH FLOOR FOR OFFICE/ MAIL ROOM AND 10TH FLOOR FOR OFFICES AND OPEN OFFICE SPACE.  SINGLE TENANT USER ON 9TH & 10TH.  NO WORK IN BLDG CORE. EXISTING ELEVATOR LOBBY'S.  NO CHANGE IN USE OR EXITS.     Const type: 1A      Occupancy: B","metadescription":"Commercial. Remodel. (DMH#1)   REMODEL AT 9TH FLOOR FOR OFFICE/ MAIL ROOM AND 10TH FLOOR FOR OFFICES AND OPEN OFFICE SPACE.  SINGLE TENANT USER ON 9TH & 10TH.  NO WORK IN BLDG CORE. EXISTING ELEVATOR LOBBY'S.  NO CHANGE IN USE OR EXITS.     Const type: 1A      Occupancy: B. Closed","address":null,"x":"-93.27385","y":"44.9756400000001","value":"785000","display":"800 NICOLLET MALL","fullname":"PIEDMONT-800 NIC AVE OWN LLC","issuedate":"2019/05/17 09:23:00+00","milestone":"Closed","completedate":"2020/08/03 12:35:05+00","applicantcity":"SAINT PAUL","applicantaddress1":"6675 WARNER RD"},"geometry":{"type":"Point","coordinates":[-93.27385,44.97564]}},{"type":"Feature","properties":{"date":null,"year":0,"description":"(DMH#1)    SELECT DEMO AND REMODEL TO EXISTING 18TH FLOOR TENANT SPACE, 7,778 S.F.   INSTALL NEW PARTITION WALLS FOR OFFICES.   REMODEL EMPLOYEE BREAKROOM.   NO CHANGE IN USE OR EXITS.  Const type: 1-A    Occupancy: B          2015 MSBC occupant load: 78","metadescription":"Commercial. Remodel. (DMH#1)    SELECT DEMO AND REMODEL TO EXISTING 18TH FLOOR TENANT SPACE, 7,778 S.F.   INSTALL NEW PARTITION WALLS FOR OFFICES.   REMODEL EMPLOYEE BREAKROOM.   NO CHANGE IN USE OR EXITS.  Const type: 1-A    Occupancy: B          2015 MSBC occupant load: 78. Closed","address":null,"x":"-93.27207","y":"44.9760900000001","value":"45410","display":"80 8TH ST S","fullname":"BRI 1855 IDS CENTER LLC","issuedate":"2018/12/31 10:19:32+00","milestone":"Closed","completedate":"2019/02/20 11:59:06+00","applicantcity":"MINNEAPOLIS","applicantaddress1":"50 6TH ST S STE 1413"},"geometry":{"type":"Point","coordinates":[-93.27207,44.97609]}},{"type":"Feature","properties":{"date":null,"year":0,"description":"Change of use to coffee shop/record store   certificate of occupancy required: no    special inspections required:  no    occupancy:   M/B  2020 MSBC occupant load:   23    sprinklered:  no   sac: 0.65 charges  0.77 credits = -0.12 net met council letter","metadescription":"Commercial. Remodel. Change of use to coffee shop/record store   certificate of occupancy required: no    special inspections required:  no    occupancy:   M/B  2020 MSBC occupant load:   23    sprinklered:  no   sac: 0.65 charges  0.77 credits = -0.12 net met council letter. Closed","address":null,"x":"-93.2889699999999","y":"44.95514","value":"20000","display":"721 26TH ST W","fullname":"ART SPOT LLC","issuedate":"2021/12/10 08:22:14+00","milestone":"Closed","completedate":"2022/07/11 09:46:28+00","applicantcity":"Minneapolis","applicantaddress1":"4749 Aldrich Ave S"},"geometry":{"type":"Point","coordinates":[-93.28897,44.95514]}},{"type":"Feature","properties":{"date":null,"year":0,"description":"(DMH#1)   16,337 S.F.  10TH FLOOR OFFICE REMODEL AND FINISH.  NEW PARTITION WALL FOR SMALL OFFICES, EMPLOYEE KITCHEN AND CONFERENCE ROOMS..   NO CHANGE IN USE OR EXITS.   EXISTING ELEVATOR LOBBY.    Const type:  1-A        Occupancy: B           2015 MSBC","metadescription":"Commercial. Remodel. (DMH#1)   16,337 S.F.  10TH FLOOR OFFICE REMODEL AND FINISH.  NEW PARTITION WALL FOR SMALL OFFICES, EMPLOYEE KITCHEN AND CONFERENCE ROOMS..   NO CHANGE IN USE OR EXITS.   EXISTING ELEVATOR LOBBY.    Const type:  1-A        Occupancy: B           2015 MSBC. Closed","address":null,"x":"-93.27064","y":"44.9759300000001","value":"1091737","display":"705 MARQUETTE AVE","fullname":"ST PAUL FIRE & MARINE INS CO","issuedate":"2019/01/09 09:34:35+00","milestone":"Closed","completedate":"2019/03/29 08:23:57+00","applicantcity":"Minneapolis","applicantaddress1":"121 8th St S"},"geometry":{"type":"Point","coordinates":[-93.27064,44.97593]}},{"type":"Feature","properties":{"date":null,"year":0,"description":"SELECT DEMO AND REMODEL TO APPROX. 1,056 S.F FOR OPEN OFFICE SPACE.  (DMH#1)  NO CHANGE IN USE, CORRIDOR OR EXITS.   EXISTING ELEVATOR LOBBY.     Const type:  1-A    Occupancy: B       2015 MSBC occupant load:  No Change  (Archit calc.)   sprinklered:  YE","metadescription":"Commercial. Remodel. SELECT DEMO AND REMODEL TO APPROX. 1,056 S.F FOR OPEN OFFICE SPACE.  (DMH#1)  NO CHANGE IN USE, CORRIDOR OR EXITS.   EXISTING ELEVATOR LOBBY.     Const type:  1-A    Occupancy: B       2015 MSBC occupant load:  No Change  (Archit calc.)   sprinklered:  YE. Closed","address":null,"x":"-93.2705999999999","y":"44.97817","value":"15000","display":"60 6TH ST S","issuedate":"2017/08/04 13:00:09+00","milestone":"Closed","completedate":"2017/08/29 06:04:43+00","applicantcity":"MINNEAPOLIS","applicantaddress1":"1201 MARQUETTE AVE STE 200"},"geometry":{"type":"Point","coordinates":[-93.2706,44.97817]}},{"type":"Feature","properties":{"date":null,"year":0,"description":"(DMH - ProjectDox)   REMODEL EXISTING 4,315 SQFT. OFFICE SPACE AT 2ND FLOOR, SUITE 200.  SELECT MINOR DEMO AND INSTALL NEW PARTITION FOR SMALL OFFICE SPACES.    NO CHANGE IN USE OR EXITING.       Const type:  III-B       Occupancy: B           2020 MSBC O","metadescription":"Commercial. Remodel. (DMH - ProjectDox)   REMODEL EXISTING 4,315 SQFT. OFFICE SPACE AT 2ND FLOOR, SUITE 200.  SELECT MINOR DEMO AND INSTALL NEW PARTITION FOR SMALL OFFICE SPACES.    NO CHANGE IN USE OR EXITING.       Const type:  III-B       Occupancy: B           2020 MSBC O. Closed","address":null,"x":"-93.24225","y":"44.99035","value":"39000","display":"575 9TH ST SE #200","fullname":"HILLCREST DEVELOPMENT LLLP","issuedate":"2021/11/30 13:37:34+00","milestone":"Closed","completedate":"2021/12/20 10:24:12+00","applicantcity":"Columbus","applicantaddress1":"15246 Lake Dr"},"geometry":{"type":"Point","coordinates":[-93.24225,44.99035]}},{"type":"Feature","properties":{"date":null,"year":0,"description":"GUT REMODEL 1/2 STORY LEVEL FOR NEW HOT ROOF SPRAY FOAM INSULATION AND FINISHES. NO CHANGE IN USE. SFD.  FULL DEPTH INSULATION. SPRAY FOAM, HOT ROOF HANDOUTS PROVIDED. IGNITION OR THERMAL BARRIERS PER IRC 316 AT STORAGE AND ATTIC KNEEWALL SPACES.      SEP","metadescription":"Res. Remodel. GUT REMODEL 1/2 STORY LEVEL FOR NEW HOT ROOF SPRAY FOAM INSULATION AND FINISHES. NO CHANGE IN USE. SFD.  FULL DEPTH INSULATION. SPRAY FOAM, HOT ROOF HANDOUTS PROVIDED. IGNITION OR THERMAL BARRIERS PER IRC 316 AT STORAGE AND ATTIC KNEEWALL SPACES.      SEP. Closed","address":null,"x":"-93.30321","y":"44.8984800000001","value":"15000","display":"5741 LOGAN AVE S","fullname":"ALEXANDER LAPP","issuedate":"2017/03/31 09:09:35+00","milestone":"Closed","completedate":"2022/08/18 14:50:28+00","applicantcity":"MINNEAPOLIS","applicantaddress1":"5649 HUMBOLDT AVE S"},"geometry":{"type":"Point","coordinates":[-93.30321,44.89848]}},{"type":"Feature","properties":{"date":null,"year":0,"description":"(DMH#1)   MINOR 300SQ.FT. OFFICE REMODEL AT MAIN FLOOR LEVEL.     RELOCATE PARTITION WALL AND INSTALL NEW CARD READER DOOR ENTRY AND NEW FINISHES.  NO CHANGE IN USE OR EXIT.  Const type: II-B     Occupancy: B           2015 MSBC occupant load:  3 (Archit","metadescription":"Commercial. Remodel. (DMH#1)   MINOR 300SQ.FT. OFFICE REMODEL AT MAIN FLOOR LEVEL.     RELOCATE PARTITION WALL AND INSTALL NEW CARD READER DOOR ENTRY AND NEW FINISHES.  NO CHANGE IN USE OR EXIT.  Const type: II-B     Occupancy: B           2015 MSBC occupant load:  3 (Archit. Closed","address":null,"x":"-93.26087","y":"44.974","value":"12000","display":"531 PARK AVE","fullname":"HENNEPIN COUNTY","issuedate":"2019/11/20 11:02:44+00","milestone":"Closed","completedate":"2022/04/05 12:21:21+00","applicantcity":"Stillwater","applicantaddress1":"9535 Joliet Ave S"},"geometry":{"type":"Point","coordinates":[-93.26087,44.974]}},{"type":"Feature","properties":{"date":null,"year":0,"description":"Replace loading dock doors. Bollards. Infill overhead doors, add service door to storage and stairs.     certificate of occupancy required:   no change in use. special inspections required:  yes    const type:         occupancy:    S          2015 MSBC oc","metadescription":"Commercial. Remodel. Replace loading dock doors. Bollards. Infill overhead doors, add service door to storage and stairs.     certificate of occupancy required:   no change in use. special inspections required:  yes    const type:         occupancy:    S          2015 MSBC oc. Closed","address":null,"x":"-93.28363","y":"44.9865100000001","value":"29225","display":"554 8TH AVE N","fullname":"METROPOLITAN COUNCIL","issuedate":"2017/02/09 11:46:50+00","milestone":"Closed","completedate":"2019/12/11 08:01:58+00","applicantcity":"MINNEAPOLIS","applicantaddress1":"714 - 18Â½ AVENUE NE"},"geometry":{"type":"Point","coordinates":[-93.28363,44.98651]}},{"type":"Feature","properties":{"date":null,"year":0,"description":"temporary change of occupancy of rooftop patio from A-3 to A-2 to support it's use as an outdoor dining space to be operated by first floor restaurant.  As part of the change in use the fourth level bathrooms will be utilized for the roof deck occupants u","metadescription":"Commercial. Remodel. temporary change of occupancy of rooftop patio from A-3 to A-2 to support it's use as an outdoor dining space to be operated by first floor restaurant.  As part of the change in use the fourth level bathrooms will be utilized for the roof deck occupants u. Closed","address":null,"x":"-93.27554","y":"44.98618","value":"1","display":"515 WASHINGTON AVE N","fullname":"THE MAYTAG BUILDING LLC","issuedate":"2022/08/18 12:00:48+00","milestone":"Closed","completedate":"2022/08/19 09:18:37+00","applicantcity":"Minneapolis","applicantaddress1":"12 East 25th ST"},"geometry":{"type":"Point","coordinates":[-93.27554,44.98618]}},{"type":"Feature","properties":{"date":null,"year":0,"description":"REFINISH EXISTING NON-BEDROOM BASEMENT ADDING NEW DRAINTILE SYSTEM AND REPLACE ROOFING AT SFD (JAG)***   NO CHANGE IN USE. DRAINTILE DISCHARGE TO APPROVED LOCATION AWAY FROM NEIGHBORS. BASEMENT FINISH HANDOUT PROVIDED. ENERGY WALL AT PERIMETER PER CONTRAC","metadescription":"Res. Remodel. REFINISH EXISTING NON-BEDROOM BASEMENT ADDING NEW DRAINTILE SYSTEM AND REPLACE ROOFING AT SFD (JAG)***   NO CHANGE IN USE. DRAINTILE DISCHARGE TO APPROVED LOCATION AWAY FROM NEIGHBORS. BASEMENT FINISH HANDOUT PROVIDED. ENERGY WALL AT PERIMETER PER CONTRAC. Closed","address":null,"x":"-93.3019399999999","y":"44.9100100000001","value":"21850","display":"5111 KNOX AVE S","fullname":"FRANCIS J CONNOLLY","issuedate":"2019/04/26 11:39:32+00","milestone":"Closed","completedate":"2019/06/20 12:44:16+00","applicantcity":"MAPLE GROVE","applicantaddress1":"9721 COTTONWOOD LN N"},"geometry":{"type":"Point","coordinates":[-93.30194,44.91001]}},{"type":"Feature","properties":{"date":null,"year":0,"description":"WINDOWS AND ROOF TRUSS  Structural repair for future change of use   certificate of occupancy required:  no  special inspections required:  no   const type:         occupancy:  B            2015 MSBC     engineer:   Wayne Larson","metadescription":"Commercial. Remodel. WINDOWS AND ROOF TRUSS  Structural repair for future change of use   certificate of occupancy required:  no  special inspections required:  no   const type:         occupancy:  B            2015 MSBC     engineer:   Wayne Larson. Closed","address":null,"x":"-93.3185999999999","y":"44.9127","value":"25000","display":"4953 XERXES AVE S","fullname":"YUTZ AND HEIMERS LTD LLC","issuedate":"2018/05/21 13:43:06+00","milestone":"Closed","completedate":"2019/03/18 13:59:33+00","applicantcity":"MINNEAPOLIS","applicantaddress1":"315 46th St W"},"geometry":{"type":"Point","coordinates":[-93.3186,44.9127]}},{"type":"Feature","properties":{"date":null,"year":0,"description":"Interagency Request for Building Inspection.  New substance use disorder treatment services.  B occupancy Existing space - no change in use or layout.","metadescription":"Commercial. Remodel. Interagency Request for Building Inspection.  New substance use disorder treatment services.  B occupancy Existing space - no change in use or layout.. Closed","address":null,"x":"-93.29187","y":"45.0494600000001","value":"1000","display":"5201 BRYANT AVE N","fullname":"FAVOUR LLC","issuedate":"2021/01/26 09:24:14+00","milestone":"Closed","completedate":"2021/02/09 06:40:48+00","applicantcity":"BROOKLYN CENTER","applicantaddress1":"3300 COUNTY RD 10"},"geometry":{"type":"Point","coordinates":[-93.29187,45.04946]}},{"type":"Feature","properties":{"date":null,"year":0,"description":"NEW INTERIOR FINISHES, CARPET AND CEILING SYSTEM  OCCUPANCY OF WORK AREA IS A3  TYPE 1-B. NOT SPRINKLER-PROTECTED  ALTERATIONS LEVEL 1.  NO CHANGE IN USE OR EXITING.  ARCHITECT PAUL K. HUMSTON 20899","metadescription":"Commercial. Remodel. NEW INTERIOR FINISHES, CARPET AND CEILING SYSTEM  OCCUPANCY OF WORK AREA IS A3  TYPE 1-B. NOT SPRINKLER-PROTECTED  ALTERATIONS LEVEL 1.  NO CHANGE IN USE OR EXITING.  ARCHITECT PAUL K. HUMSTON 20899. Closed","address":null,"x":"-93.3022999999999","y":"44.91177","value":"65000","display":"5025 KNOX AVE S","fullname":"EVANGELICAL MOUNT OLIVET LUTHERAN CHURCH","issuedate":"2022/05/26 01:53:31+00","milestone":"Closed","completedate":"2022/09/13 11:44:00+00","applicantcity":"Minneapolis","applicantaddress1":"501 8th St S"},"geometry":{"type":"Point","coordinates":[-93.3023,44.91177]}},{"type":"Feature","properties":{"date":null,"year":0,"description":"Interior remodel of existing approx. 2,500 sf bar/restaurant (JAG)   ***inspector see log 6-26-17)  NEW STRUCTURAL OPENINGS AND ADDITIONAL STAIR TO EXISTING BASEMENT AREA (NO CHANGE IN USE). MAINTAIN REQUIRED FIRE SEPARATION. (2HR IN UNSPRINKLED)   NEW SH","metadescription":"Commercial. Remodel. Interior remodel of existing approx. 2,500 sf bar/restaurant (JAG)   ***inspector see log 6-26-17)  NEW STRUCTURAL OPENINGS AND ADDITIONAL STAIR TO EXISTING BASEMENT AREA (NO CHANGE IN USE). MAINTAIN REQUIRED FIRE SEPARATION. (2HR IN UNSPRINKLED)   NEW SH. Closed","address":null,"x":"-93.22256","y":"44.9198900000001","value":"138000","display":"4563 34TH AVE S","fullname":"YOUNGEST CHILD LLC","issuedate":"2017/06/26 08:38:01+00","milestone":"Closed","completedate":"2021/12/14 14:40:01+00","applicantcity":"SAINT PAUL","applicantaddress1":"1466 COMO BLVD E"},"geometry":{"type":"Point","coordinates":[-93.22256,44.91989]}},{"type":"Feature","properties":{"date":null,"year":0,"description":"INSTALL NEW PARTITION WALL AND GLASS PARTITION WALL IN EXISTING OFFICE SUITE #2344 FOR SMALL CONFERENCE ROOM AND STORAGE ROOM.  (DMH#2)  EXISTING 1,659 SQ.FT OFFICE SPACE.   NO CHANGE IN USE, LOAD OR EXITING.     Const type:  Occupancy: B           2015 M","metadescription":"Commercial. Remodel. INSTALL NEW PARTITION WALL AND GLASS PARTITION WALL IN EXISTING OFFICE SUITE #2344 FOR SMALL CONFERENCE ROOM AND STORAGE ROOM.  (DMH#2)  EXISTING 1,659 SQ.FT OFFICE SPACE.   NO CHANGE IN USE, LOAD OR EXITING.     Const type:  Occupancy: B           2015 M. Closed","address":null,"x":"-93.27394","y":"44.9766500000001","value":"22135","display":"45 7TH ST S","issuedate":"2018/10/17 12:13:15+00","milestone":"Closed","completedate":"2019/01/16 11:42:16+00","applicantcity":"MINNEAPOLIS","applicantaddress1":"730 2ND AVE S #1233"},"geometry":{"type":"Point","coordinates":[-93.27394,44.97665]}},{"type":"Feature","properties":{"date":null,"year":0,"description":"Remove existing wall and ceiling material in attic.  Re-insulate walls and ceiling with closed cell foam insulation. Re-sheetrock walls and ceilings and trim out space. (JAG)  REFINISH EXISTING SPACE, NO CHANGE IN USE. SPRAY FOAM HANDOUT.  SEPARATE PERMIT","metadescription":"Res. Remodel. Remove existing wall and ceiling material in attic.  Re-insulate walls and ceiling with closed cell foam insulation. Re-sheetrock walls and ceilings and trim out space. (JAG)  REFINISH EXISTING SPACE, NO CHANGE IN USE. SPRAY FOAM HANDOUT.  SEPARATE PERMIT. Closed","address":null,"x":"-93.27964","y":"44.91666","value":"30000","display":"4732 BLAISDELL AVE","fullname":"JENNIFER C MANION","issuedate":"2018/04/24 09:51:52+00","milestone":"Closed","completedate":"2018/09/18 16:15:01+00","applicantcity":"Minneapolis","applicantaddress1":"5006 Colfax Ave S"},"geometry":{"type":"Point","coordinates":[-93.27964,44.91666]}},{"type":"Feature","properties":{"date":null,"year":0,"description":"INSTALL NEW PARTITION WALL AND GLASS PARTITION WALL IN EXISTING OFFICE SUITE #2344 FOR SMALL CONFERENCE ROOM AND STORAGE ROOM.  (DMH#2)  EXISTING 1,659 SQ.FT OFFICE SPACE.   NO CHANGE IN USE, LOAD OR EXITING.     Const type:  Occupancy: B           2015 M","metadescription":"Commercial. Remodel. INSTALL NEW PARTITION WALL AND GLASS PARTITION WALL IN EXISTING OFFICE SUITE #2344 FOR SMALL CONFERENCE ROOM AND STORAGE ROOM.  (DMH#2)  EXISTING 1,659 SQ.FT OFFICE SPACE.   NO CHANGE IN USE, LOAD OR EXITING.     Const type:  Occupancy: B           2015 M. Closed","address":null,"x":"-93.2744","y":"44.9771400000001","value":"22135","display":"45 7TH ST S","issuedate":"2018/10/17 12:13:15+00","milestone":"Closed","completedate":"2019/01/16 11:42:16+00","applicantcity":"MINNEAPOLIS","applicantaddress1":"730 2ND AVE S #1233"},"geometry":{"type":"Point","coordinates":[-93.2744,44.97714]}},{"type":"Feature","properties":{"date":null,"year":0,"description":"(DMH-ProjectDox)  REMOVE 2 EXISTING WATER CLOSETS AND RELOCATE SMALL MOP CLOSET IN EXISTING FOOD & DRINK ESTABLISHMENT.   2 EXISTING SINGLE USER ADA RESTROOMS REMAIN.   NO CHANGE IN USE, OCCUPANT LOAD OR EXITING.     Const type:    Occupancy: A-2","metadescription":"Commercial. Remodel. (DMH-ProjectDox)  REMOVE 2 EXISTING WATER CLOSETS AND RELOCATE SMALL MOP CLOSET IN EXISTING FOOD & DRINK ESTABLISHMENT.   2 EXISTING SINGLE USER ADA RESTROOMS REMAIN.   NO CHANGE IN USE, OCCUPANT LOAD OR EXITING.     Const type:    Occupancy: A-2. Closed","address":null,"x":"-93.27754","y":"44.92274","value":"1500","display":"4415 NICOLLET AVE","fullname":"4415 LAND COMPANY LLC","issuedate":"2020/06/11 12:52:52+00","milestone":"Closed","completedate":"2023/06/15 09:58:00+00","applicantcity":"MINNEAPOLIS","applicantaddress1":"4415 NICOLLET AVE"},"geometry":{"type":"Point","coordinates":[-93.27754,44.92274]}},{"type":"Feature","properties":{"date":null,"year":0,"description":"INSTALL NEW PARTITION WALL AND GLASS PARTITION WALL IN EXISTING OFFICE SUITE #2344 FOR SMALL CONFERENCE ROOM AND STORAGE ROOM.  (DMH#2)  EXISTING 1,659 SQ.FT OFFICE SPACE.   NO CHANGE IN USE, LOAD OR EXITING.     Const type:  Occupancy: B           2015 M","metadescription":"Commercial. Remodel. INSTALL NEW PARTITION WALL AND GLASS PARTITION WALL IN EXISTING OFFICE SUITE #2344 FOR SMALL CONFERENCE ROOM AND STORAGE ROOM.  (DMH#2)  EXISTING 1,659 SQ.FT OFFICE SPACE.   NO CHANGE IN USE, LOAD OR EXITING.     Const type:  Occupancy: B           2015 M. Closed","address":null,"x":"-93.27352","y":"44.97702","value":"22135","display":"45 7TH ST S","issuedate":"2018/10/17 12:13:15+00","milestone":"Closed","completedate":"2019/01/16 11:42:16+00","applicantcity":"MINNEAPOLIS","applicantaddress1":"730 2ND AVE S #1233"},"geometry":{"type":"Point","coordinates":[-93.27352,44.97702]}},{"type":"Feature","properties":{"date":null,"year":0,"description":"INSTALL NEW PARTITION WALL AND GLASS PARTITION WALL IN EXISTING OFFICE SUITE #2344 FOR SMALL CONFERENCE ROOM AND STORAGE ROOM.  (DMH#2)  EXISTING 1,659 SQ.FT OFFICE SPACE.   NO CHANGE IN USE, LOAD OR EXITING.     Const type:  Occupancy: B           2015 M","metadescription":"Commercial. Remodel. INSTALL NEW PARTITION WALL AND GLASS PARTITION WALL IN EXISTING OFFICE SUITE #2344 FOR SMALL CONFERENCE ROOM AND STORAGE ROOM.  (DMH#2)  EXISTING 1,659 SQ.FT OFFICE SPACE.   NO CHANGE IN USE, LOAD OR EXITING.     Const type:  Occupancy: B           2015 M. Closed","address":null,"x":"-93.2729199999999","y":"44.97671","value":"22135","display":"45 7TH ST S","issuedate":"2018/10/17 12:13:15+00","milestone":"Closed","completedate":"2019/01/16 11:42:16+00","applicantcity":"MINNEAPOLIS","applicantaddress1":"730 2ND AVE S #1233"},"geometry":{"type":"Point","coordinates":[-93.27292,44.97671]}},{"type":"Feature","properties":{"date":null,"year":0,"description":"REMOVE EXISTING SUSPENDED CEILING AND PATCH WALL AREA AT BUSINESS (JAG)  NO CHANGE IN USE OR OCCUPANCY.","metadescription":"Commercial. Remodel. REMOVE EXISTING SUSPENDED CEILING AND PATCH WALL AREA AT BUSINESS (JAG)  NO CHANGE IN USE OR OCCUPANCY.. Closed","address":null,"x":"-93.31396","y":"45.03108","value":"2700","display":"4153 THOMAS AVE N","fullname":"2100 GRAND AVE S LLC","issuedate":"2018/04/02 09:51:42+00","milestone":"Closed","completedate":"2018/04/26 08:25:46+00","applicantcity":"minneapolis","applicantaddress1":"4151 thomas ave n"},"geometry":{"type":"Point","coordinates":[-93.31396,45.03108]}},{"type":"Feature","properties":{"date":null,"year":0,"description":"REMODEL TO 2,600 S.F OFFICE.  MINOR DEMO EXPANSION INTO ADJACENT SPACE.  UPDATE OFFICE FINISHES.  (DMH#1)  NO CHANGE IN USE, COORRIDOR OR EXITING.     Const type:  1B   Occupancy: B          2015 MSBC  occupant load: 26 (Archit calc.)    sprinklered:  Spr","metadescription":"Commercial. Remodel. REMODEL TO 2,600 S.F OFFICE.  MINOR DEMO EXPANSION INTO ADJACENT SPACE.  UPDATE OFFICE FINISHES.  (DMH#1)  NO CHANGE IN USE, COORRIDOR OR EXITING.     Const type:  1B   Occupancy: B          2015 MSBC  occupant load: 26 (Archit calc.)    sprinklered:  Spr. Closed","address":null,"x":"-93.26366","y":"44.9775700000001","value":"79612","display":"400 4TH ST S","fullname":"MGEX REAL ESTATE HLDGS LLC","issuedate":"2017/11/13 11:47:11+00","milestone":"Closed","completedate":"2019/03/19 10:09:35+00","applicantcity":"PLYMOUTH","applicantaddress1":"725 HIGHWAY 169 N"},"geometry":{"type":"Point","coordinates":[-93.26366,44.97757]}},{"type":"Feature","properties":{"date":null,"year":0,"description":"Tenant Improvement - Change of Use from Storage to Office  Note:  This permit also reclassifies this building from a Type IIB Construction to a Type VB Construction   certificate of occupancy required:  yes  special inspections required:  no  const type:","metadescription":"Commercial. Remodel. Tenant Improvement - Change of Use from Storage to Office  Note:  This permit also reclassifies this building from a Type IIB Construction to a Type VB Construction   certificate of occupancy required:  yes  special inspections required:  no  const type:. Closed","address":null,"x":"-93.2211","y":"44.9931","value":"795000","display":"401 HARDING ST NE","fullname":"SRRT HARDING LLC","issuedate":"2018/03/27 09:10:00+00","milestone":"Closed","completedate":"2018/09/18 11:57:37+00","applicantcity":"EDINA","applicantaddress1":"4600 77TH ST W # 275"},"geometry":{"type":"Point","coordinates":[-93.2211,44.9931]}},{"type":"Feature","properties":{"date":null,"year":0,"description":"three story addition, remodel and change of use of existing building to new high school.     sck#1     certificate of occupancy required  yes   special inspections required  yes  const type:   2b      occupancy:     E         2015 MSBC  sprinklered: yes","metadescription":"Commercial. Addition. three story addition, remodel and change of use of existing building to new high school.     sck#1     certificate of occupancy required  yes   special inspections required  yes  const type:   2b      occupancy:     E         2015 MSBC  sprinklered: yes. Closed","address":null,"x":"-93.2216999999999","y":"44.9525300000001","value":"16463244","display":"3500 28TH ST E","fullname":"HIAWATHA COLLEGIATE HIGH SCHOOL","issuedate":"2017/10/10 12:39:10+00","milestone":"Closed","completedate":"2019/11/26 15:30:02+00","applicantcity":"ST PAUL","applicantaddress1":"1286 HUDSON RD"},"geometry":{"type":"Point","coordinates":[-93.2217,44.95253]}},{"type":"Feature","properties":{"date":null,"year":0,"description":"NON-STRUCTURAL INSTALLATION OF BASEMENT EGRESS WINDOW & WELL AT NORTH SIDE AT SFD (JAG)   EXISTING FINISHED BASEMENT. NO CHANGE IN USE.  CONNECT WINDOW WELL TO DRAIN TILE OR PER SECTION R310.2.2   MSBC 2015, IRC 2012   IN EXISTING WIDTH WINDOW OPENING.  T","metadescription":"Res. Remodel. NON-STRUCTURAL INSTALLATION OF BASEMENT EGRESS WINDOW & WELL AT NORTH SIDE AT SFD (JAG)   EXISTING FINISHED BASEMENT. NO CHANGE IN USE.  CONNECT WINDOW WELL TO DRAIN TILE OR PER SECTION R310.2.2   MSBC 2015, IRC 2012   IN EXISTING WIDTH WINDOW OPENING.  T. Closed","address":null,"x":"-93.27311","y":"44.9448100000001","value":"1500","display":"3200 3RD AVE S","fullname":"ISAIAS SALAZAR ARENAS","issuedate":"2017/09/14 09:50:54+00","milestone":"Closed","completedate":"2019/04/05 10:29:48+00","applicantcity":"Minneapolis","applicantaddress1":"3200 3RD Ave S"},"geometry":{"type":"Point","coordinates":[-93.27311,44.94481]}},{"type":"Feature","properties":{"date":null,"year":0,"description":"(DMH - ProjectDox)  INSTALL NEW PARTITION FRAMING AND FINISHES FOR NEW 14.5' X 17.5' EMPLOYEE BREAKROOM AND MECHANICAL ROOM AT LOWER LEVEL, EAST SIDE OF OFFICE BUILDING.  NO CHANGE IN USE OR EXITING.    APPROVED PLANS AND PERMIT MUST BE ON SITE BEFORE INS","metadescription":"Commercial. Remodel. (DMH - ProjectDox)  INSTALL NEW PARTITION FRAMING AND FINISHES FOR NEW 14.5' X 17.5' EMPLOYEE BREAKROOM AND MECHANICAL ROOM AT LOWER LEVEL, EAST SIDE OF OFFICE BUILDING.  NO CHANGE IN USE OR EXITING.    APPROVED PLANS AND PERMIT MUST BE ON SITE BEFORE INS. Closed","address":null,"x":"-93.22247","y":"44.9486600000001","value":"35000","display":"3408 LAKE ST E","fullname":"LAKE LTD","issuedate":"2020/12/24 14:07:34+00","milestone":"Closed","completedate":"2022/12/29 12:02:23+00","applicantcity":"SAINT PAUL","applicantaddress1":"1864 MUNSTER AVE"},"geometry":{"type":"Point","coordinates":[-93.22247,44.94866]}},{"type":"Feature","properties":{"date":null,"year":0,"description":"(DMH - ProjectDox)  SELECT DEMO OF OFFICE PARTITON WALLS AND REMODEL THE 9,810 SQFT MAIN LEVEL OFFICE SPACE WITH NEW SMALL AND MEDIUM SIZE OFFICES, 2 NEW SINGLE USER ADA RESTROOMS, AND 2 EMPLOYEE BREAKROOMS.  NO CHANGE IN USE OR EXITING.     Const type:","metadescription":"Commercial. Remodel. (DMH - ProjectDox)  SELECT DEMO OF OFFICE PARTITON WALLS AND REMODEL THE 9,810 SQFT MAIN LEVEL OFFICE SPACE WITH NEW SMALL AND MEDIUM SIZE OFFICES, 2 NEW SINGLE USER ADA RESTROOMS, AND 2 EMPLOYEE BREAKROOMS.  NO CHANGE IN USE OR EXITING.     Const type:. Closed","address":null,"x":"-93.31844","y":"44.94748","value":"210415","display":"3033 EXCELSIOR BLVD","fullname":"ACKY CALHOUN LLC","issuedate":"2021/07/21 09:38:55+00","milestone":"Closed","completedate":"2021/11/24 09:24:59+00","applicantcity":"Edina","applicantaddress1":"5280 W 74th St"},"geometry":{"type":"Point","coordinates":[-93.31844,44.94748]}},{"type":"Feature","properties":{"date":null,"year":0,"description":"(DMH - ProjectDox)  DEMO & SELECT STRUCTRAL DEMO WORK ONLY TO VACANT 5-STORY BUILDING (NEWELL BLDG) FOR FUTURE REMODEL/ CHANGE OF USE.   COMPLETE REMOVAL OF EXISTING LOADING DOCK STRUCTURE.    ADDITIONAL PLANS, APPROVALS AND PERMITS REQUIRED FOR REMODELIN","metadescription":"Commercial. Remodel. (DMH - ProjectDox)  DEMO & SELECT STRUCTRAL DEMO WORK ONLY TO VACANT 5-STORY BUILDING (NEWELL BLDG) FOR FUTURE REMODEL/ CHANGE OF USE.   COMPLETE REMOVAL OF EXISTING LOADING DOCK STRUCTURE.    ADDITIONAL PLANS, APPROVALS AND PERMITS REQUIRED FOR REMODELIN. Closed","address":null,"x":"-93.27761","y":"44.9860400000001","value":"542035","display":"300 6TH AVE N","fullname":"CEDAR DUFFEY 2.0 PROPERTY LLC","issuedate":"2022/03/11 15:16:21+00","milestone":"Closed","completedate":"2025/05/16 09:48:13+00","applicantcity":"Golden Valley","applicantaddress1":"830 Boone Ave N"},"geometry":{"type":"Point","coordinates":[-93.27761,44.98604]}},{"type":"Feature","properties":{"date":null,"year":0,"description":"TENANT IMPROVEMENT FOR NEW OFFICE SPACE IN A COMMERCIAL BUILDING. AAJ#1   certificate of occupancy required: NO. ***NO CHANGE IN USE*** mechanical plans required for certificate of occupancy mechanical plans/letter of means of compliance submitted\\ specia","metadescription":"Commercial. Remodel. TENANT IMPROVEMENT FOR NEW OFFICE SPACE IN A COMMERCIAL BUILDING. AAJ#1   certificate of occupancy required: NO. ***NO CHANGE IN USE*** mechanical plans required for certificate of occupancy mechanical plans/letter of means of compliance submitted\\ specia. Closed","address":null,"x":"-93.21928","y":"44.99974","value":"117814","display":"3001 BROADWAY ST NE","fullname":"BROADWAY RIDGE PARTNERS, LLC","issuedate":"2018/02/09 10:09:50+00","milestone":"Closed","completedate":"2021/07/28 08:16:25+00","applicantcity":"EDINA","applicantaddress1":"4600 77TH ST W STE 275"},"geometry":{"type":"Point","coordinates":[-93.21928,44.99974]}},{"type":"Feature","properties":{"date":null,"year":0,"description":"remodel and change of use to R3 dwelling unit supervised living facility.  certificate of occupancy required  yes    const type:    5b     occupancy:     R3 dwelling unit         2020 MSBC  sprinklered:   no    sac: _0_charges  __  met council letter date","metadescription":"Commercial. Remodel. remodel and change of use to R3 dwelling unit supervised living facility.  certificate of occupancy required  yes    const type:    5b     occupancy:     R3 dwelling unit         2020 MSBC  sprinklered:   no    sac: _0_charges  __  met council letter date. Expired","address":null,"x":"-93.3060599999999","y":"45.0098800000001","value":"10000","display":"2905 NEWTON AVE N","fullname":"RESIDENTIAL ASSET MANAGEMENT COMPANY LLC","issuedate":"2024/04/23 15:52:55+00","milestone":"Expired","applicantcity":"Tulsa","applicantaddress1":"616 S Main ST #112"},"geometry":{"type":"Point","coordinates":[-93.30606,45.00988]}},{"type":"Feature","properties":{"date":null,"year":0,"description":"CONVERT EMPTY WAREHOUSE SPACE TO 6 STORAGE UNITS (S-I) WITH SMALL OFFICE IN EACH UNIT.. REBUILD 2 ACCESSIBLE RESTROOMS (MAA #02)  AS PER PHONE CONVERSATION WITH THE ARCHITECT IF THE CHANGE OF USE OCCURED AT LATER STAGE SEPARATE BUILDING PERMIT AND SAC DET","metadescription":"Commercial. Remodel. CONVERT EMPTY WAREHOUSE SPACE TO 6 STORAGE UNITS (S-I) WITH SMALL OFFICE IN EACH UNIT.. REBUILD 2 ACCESSIBLE RESTROOMS (MAA #02)  AS PER PHONE CONVERSATION WITH THE ARCHITECT IF THE CHANGE OF USE OCCURED AT LATER STAGE SEPARATE BUILDING PERMIT AND SAC DET. Closed","address":null,"x":"-93.2696799999999","y":"45.02432","value":"120000","display":"3100 CALIFORNIA ST NE","fullname":"ELLIS PROPERTIES LLP","issuedate":"2017/07/12 09:24:06+00","milestone":"Closed","completedate":"2020/11/05 11:19:45+00","applicantcity":"PLYMOUTH","applicantaddress1":"11815 53RD AVE N"},"geometry":{"type":"Point","coordinates":[-93.26968,45.02432]}},{"type":"Feature","properties":{"date":null,"year":0,"description":"REMOVE UNFINISHED PARTITIONS IN BASEMENT FOR NO CHANGE IN USE OPEN SPACE.  certificate of occupancy required: no  windows with sill heights less than 24 inches above the floor shall be equipped with fall prevention devices that limit the window opening to","metadescription":"Commercial. Remodel. REMOVE UNFINISHED PARTITIONS IN BASEMENT FOR NO CHANGE IN USE OPEN SPACE.  certificate of occupancy required: no  windows with sill heights less than 24 inches above the floor shall be equipped with fall prevention devices that limit the window opening to. Closed","address":null,"x":"-93.31526","y":"44.9985600000001","value":"2500","display":"2711 GOLDEN VALLEY RD","fullname":"GMA PROPERTIES LLC","issuedate":"2017/02/21 11:03:04+00","milestone":"Closed","completedate":"2017/02/23 14:02:48+00","applicantcity":"ANNADALE","applicantaddress1":"11602 KLEVER AVE NW"},"geometry":{"type":"Point","coordinates":[-93.31526,44.99856]}},{"type":"Feature","properties":{"date":null,"year":0,"description":"CHANGE OF USE FROM MERCANTILE TO BARBER SHOP     certificate of occupancy required:  yes  mechanical plans required for certificate of occupancy mechanical plans/letter of means of compliance submitted\\ special inspections required:  no  const type:  VB","metadescription":"Commercial. Remodel. CHANGE OF USE FROM MERCANTILE TO BARBER SHOP     certificate of occupancy required:  yes  mechanical plans required for certificate of occupancy mechanical plans/letter of means of compliance submitted\\ special inspections required:  no  const type:  VB. Closed","address":null,"x":"-93.29722","y":"44.9538900000001","value":"6500","display":"2655 HENNEPIN AVE","fullname":"THUY TRANG NHO NGUYEN","issuedate":"2017/12/27 15:08:51+00","milestone":"Closed","completedate":"2018/02/06 15:00:30+00","applicantcity":"MINNEAPOLIS","applicantaddress1":"2655 HENNEPIN AVE S"},"geometry":{"type":"Point","coordinates":[-93.29722,44.95389]}},{"type":"Feature","properties":{"date":null,"year":0,"description":"Change of use -Provide ventilation for 'Sota Hot and Cold - heating and vent equip - add economizer to existing RTU add elect heat & fan to provide additional O.A. and distribution per engineered plans.","metadescription":"Mechanical. Comm-MFD. Change of use -Provide ventilation for 'Sota Hot and Cold - heating and vent equip - add economizer to existing RTU add elect heat & fan to provide additional O.A. and distribution per engineered plans.. Closed","address":null,"x":"-93.29787","y":"44.95095","value":"8755","display":"2829 HENNEPIN AVE","fullname":"ROBERT WILLIAM SORENSON","issuedate":"2018/05/01 11:32:23+00","milestone":"Closed","completedate":"2018/06/12 14:20:56+00","applicantcity":"St Paul","applicantaddress1":"55 Ivy Ave W"},"geometry":{"type":"Point","coordinates":[-93.29787,44.95095]}},{"type":"Feature","properties":{"date":null,"year":0,"description":"(DMH#1)  DEMO AND REMODEL TO EXISTING 4,122 SQ.FT. OFFICE SPACE, SKYWAY LEVEL OF H.C. GOVMT BLDG TOWER 'A'.   NO CHANGE IN USE OR EXITING.    M/E/P PLANS INCLUDEDED.   Const type:   1-A    Occupancy: B        2015 MSBC  occupant load: 49 (Archit calc.)","metadescription":"Commercial. Remodel. (DMH#1)  DEMO AND REMODEL TO EXISTING 4,122 SQ.FT. OFFICE SPACE, SKYWAY LEVEL OF H.C. GOVMT BLDG TOWER 'A'.   NO CHANGE IN USE OR EXITING.    M/E/P PLANS INCLUDEDED.   Const type:   1-A    Occupancy: B        2015 MSBC  occupant load: 49 (Archit calc.). Closed","address":null,"x":"-93.26625","y":"44.97632","value":"526884","display":"300 6TH ST S","fullname":"HENNEPIN COUNTY","issuedate":"2018/12/26 14:54:47+00","milestone":"Closed","completedate":"2019/05/24 10:28:18+00","applicantcity":"Minnetonka","applicantaddress1":"17551 Barrington Ct"},"geometry":{"type":"Point","coordinates":[-93.26625,44.97632]}},{"type":"Feature","properties":{"date":null,"year":0,"description":"(DMH - ProjectDox)  SELECT DEMO AND MINOR REMODEL TO APPROX 3,500 SQFT. OF EXISTING 2ND FLOOR CLINIC SPACE OF EXAM ROOMS AND NEW PARTITION WALLS FOR SMALL OFFICE ROOMS.  NO CHANGE IN USE OR EXITING.      Const type:  II-B     Occupancy: B           2020 M","metadescription":"Commercial. Remodel. (DMH - ProjectDox)  SELECT DEMO AND MINOR REMODEL TO APPROX 3,500 SQFT. OF EXISTING 2ND FLOOR CLINIC SPACE OF EXAM ROOMS AND NEW PARTITION WALLS FOR SMALL OFFICE ROOMS.  NO CHANGE IN USE OR EXITING.      Const type:  II-B     Occupancy: B           2020 M. Closed","address":null,"x":"-93.26303","y":"44.95646","value":"337516","display":"2530 CHICAGO AVE","fullname":"CHILDRENS HEALTH CARE","issuedate":"2021/07/12 15:44:22+00","milestone":"Closed","completedate":"2022/12/14 08:14:00+00","applicantcity":"Minneapolis","applicantaddress1":"533  South 3rd Street #100"},"geometry":{"type":"Point","coordinates":[-93.26303,44.95646]}},{"type":"Feature","properties":{"date":null,"year":0,"description":"REMODEL 2ND FLOOR REAR BATH SAME LOCATIONS (JAG)  NO CHANGE IN USE OR OCCUPANCY THIS PERMIT. PROVIDE ANY REQUIRED FIRE/SOUND SEPARATIONS TO HALLS OR ADJACENT SPACES AS ALLOWED.  ASSUMED 1 HOUR CONSTRUCTION IN A 1 DWELLING UNIT WITH 19 ROOMS STRUCTURE (PER","metadescription":"Commercial. Remodel. REMODEL 2ND FLOOR REAR BATH SAME LOCATIONS (JAG)  NO CHANGE IN USE OR OCCUPANCY THIS PERMIT. PROVIDE ANY REQUIRED FIRE/SOUND SEPARATIONS TO HALLS OR ADJACENT SPACES AS ALLOWED.  ASSUMED 1 HOUR CONSTRUCTION IN A 1 DWELLING UNIT WITH 19 ROOMS STRUCTURE (PER. Closed","address":null,"x":"-93.2769299999999","y":"44.9566600000001","value":"8500","display":"2518 1ST AVE S","fullname":"NU WAY HOUSE INC","issuedate":"2018/07/31 12:00:46+00","milestone":"Closed","completedate":"2023/04/06 09:34:37+00","applicantcity":"CHISAGO CITY","applicantaddress1":"28940 GREEN LAKE AVE"},"geometry":{"type":"Point","coordinates":[-93.27693,44.95666]}},{"type":"Feature","properties":{"date":null,"year":0,"description":"(DMH-ProjectDox)  FIRE AND SMOKE DAMAGE REPAIRS TO PIZZA SHOP TENANT SPACE INCLUDING, REMOVE AND REPLACE A.C.T AND GRID, F.R.P BOARD, NEW FLOORING, SHEETROCK REPAIRS.    NO CHANGE IN USE OR EXITING.    INSURANCE ADJUSTERS WORKSHEET DRAWING SUBMITTED.    I","metadescription":"Commercial. Remodel. (DMH-ProjectDox)  FIRE AND SMOKE DAMAGE REPAIRS TO PIZZA SHOP TENANT SPACE INCLUDING, REMOVE AND REPLACE A.C.T AND GRID, F.R.P BOARD, NEW FLOORING, SHEETROCK REPAIRS.    NO CHANGE IN USE OR EXITING.    INSURANCE ADJUSTERS WORKSHEET DRAWING SUBMITTED.    I. Closed","address":null,"x":"-93.2948","y":"44.9575800000001","value":"119685","display":"2441 HENNEPIN AVE","fullname":"HENN 25 LLC","issuedate":"2022/10/14 08:13:47+00","milestone":"Closed","completedate":"2023/11/20 14:55:27+00","applicantcity":"St Joseph","applicantaddress1":"715 15th Ave NE"},"geometry":{"type":"Point","coordinates":[-93.2948,44.95758]}},{"type":"Feature","properties":{"date":null,"year":0,"description":"CHANGE OF USE/OCCUPANCY AT MAIN LEVEL.  ADULT DAY CARE DURING THE WEEK, EVENT CENTER ON WEEKENDS. ALL DOORS ON 2 HOUR WALL TO HAVE 90 MINUTE RATING.   (JJL)     certificate of occupancy required  yes    special inspections required    yes     const type:","metadescription":"Commercial. Remodel. CHANGE OF USE/OCCUPANCY AT MAIN LEVEL.  ADULT DAY CARE DURING THE WEEK, EVENT CENTER ON WEEKENDS. ALL DOORS ON 2 HOUR WALL TO HAVE 90 MINUTE RATING.   (JJL)     certificate of occupancy required  yes    special inspections required    yes     const type:. Issued","address":null,"x":"-93.27491","y":"44.9613400000001","value":"15000","display":"2115 STEVENS AVE","fullname":"SOMALI COMMUNITY RESETTLEMENT SERVICES OF OLMSTED COUNTY","issuedate":"2026/02/23 09:11:50+00","milestone":"Inspection","applicantcity":"Golden Valley","applicantaddress1":"1710 N Douglas Dr, Ste 213"},"geometry":{"type":"Point","coordinates":[-93.27491,44.96134]}},{"type":"Feature","properties":{"date":null,"year":0,"description":"(DMH#1)   SELECT DEMO OF OFFICE PARTITION WALLS AND REMODEL FOR OPEN OFFICE SPACE AND INSTALL OF PARTITION WALLS FOR 4 SMALL OFFICES.   NO CHANGE IN USE OR EXITS.  Const type:         Occupancy: B        2015 MSBC Sprinklered: YES 20% accessibility upgrad","metadescription":"Commercial. Remodel. (DMH#1)   SELECT DEMO OF OFFICE PARTITION WALLS AND REMODEL FOR OPEN OFFICE SPACE AND INSTALL OF PARTITION WALLS FOR 4 SMALL OFFICES.   NO CHANGE IN USE OR EXITS.  Const type:         Occupancy: B        2015 MSBC Sprinklered: YES 20% accessibility upgrad. Closed","address":null,"x":"-93.2258399999999","y":"44.9831600000001","value":"41000","display":"1800 ELM ST SE","fullname":"B9 POLAR UNIVERSITY LLC","issuedate":"2019/09/20 11:20:07+00","milestone":"Closed","completedate":"2019/11/25 10:28:09+00","applicantcity":"Plymouth","applicantaddress1":"725 Hwy 169 N"},"geometry":{"type":"Point","coordinates":[-93.22584,44.98316]}},{"type":"Feature","properties":{"date":null,"year":0,"description":"(DMH - ProjectDox)  INTERIOR DEMO AND REMODEL TO APPROX 1,060 SQFT  OFFICE SUITE #210.   INSTALL NEW WOOD PARTITION WALLS FOR 3 OFFICES, SMALL CONFERENCE ROOM AND RECEPTION/ SUITE ENTRY.  NO CHANGE IN USE OR EXITING.   SEPARATE PLANS, PERMITS AND APPROVAL","metadescription":"Commercial. Remodel. (DMH - ProjectDox)  INTERIOR DEMO AND REMODEL TO APPROX 1,060 SQFT  OFFICE SUITE #210.   INSTALL NEW WOOD PARTITION WALLS FOR 3 OFFICES, SMALL CONFERENCE ROOM AND RECEPTION/ SUITE ENTRY.  NO CHANGE IN USE OR EXITING.   SEPARATE PLANS, PERMITS AND APPROVAL. Closed","address":null,"x":"-93.25031","y":"44.9897","value":"37000","display":"201 6TH ST SE","issuedate":"2021/07/20 08:48:43+00","milestone":"Closed","completedate":"2021/08/26 08:03:49+00","applicantcity":"Bloomington","applicantaddress1":"7803 Glenroy Rd #200"},"geometry":{"type":"Point","coordinates":[-93.25031,44.9897]}},{"type":"Feature","properties":{"date":null,"year":0,"description":"(DMH - ProjectDox)  INTERIOR DEMO AND REMODEL TO APPROX 1,060 SQFT  OFFICE SUITE #210.   INSTALL NEW WOOD PARTITION WALLS FOR 3 OFFICES, SMALL CONFERENCE ROOM AND RECEPTION/ SUITE ENTRY.  NO CHANGE IN USE OR EXITING.   SEPARATE PLANS, PERMITS AND APPROVAL","metadescription":"Commercial. Remodel. (DMH - ProjectDox)  INTERIOR DEMO AND REMODEL TO APPROX 1,060 SQFT  OFFICE SUITE #210.   INSTALL NEW WOOD PARTITION WALLS FOR 3 OFFICES, SMALL CONFERENCE ROOM AND RECEPTION/ SUITE ENTRY.  NO CHANGE IN USE OR EXITING.   SEPARATE PLANS, PERMITS AND APPROVAL. Closed","address":null,"x":"-93.2505399999999","y":"44.98934","value":"37000","display":"201 6TH ST SE","issuedate":"2021/07/20 08:48:43+00","milestone":"Closed","completedate":"2021/08/26 08:03:49+00","applicantcity":"Bloomington","applicantaddress1":"7803 Glenroy Rd #200"},"geometry":{"type":"Point","coordinates":[-93.25054,44.98934]}},{"type":"Feature","properties":{"date":null,"year":0,"description":"DEMISE SUITE#152 INTO 2 SPACES (Tettersall) (JAG)   DIVIDE EXISTING TENANT SPACE INTO TWO SPACES. NO CHANGE IN USE OR OCCUPANCY THIS PERMIT.     certificate of occupancy required: YES (SEE POLICY ATT TO PLANS)  mechanical plans required for certificate of","metadescription":"Commercial. Remodel. DEMISE SUITE#152 INTO 2 SPACES (Tettersall) (JAG)   DIVIDE EXISTING TENANT SPACE INTO TWO SPACES. NO CHANGE IN USE OR OCCUPANCY THIS PERMIT.     certificate of occupancy required: YES (SEE POLICY ATT TO PLANS)  mechanical plans required for certificate of. Closed","address":null,"x":"-93.24873","y":"45.0051800000001","value":"53000","display":"1620 CENTRAL AVE NE","fullname":"JGS MANAGEMENT LLC","issuedate":"2017/08/29 08:59:58+00","milestone":"Closed","completedate":"2018/08/24 09:15:22+00","applicantcity":"Minneapolis","applicantaddress1":"1620 Central Ave NE"},"geometry":{"type":"Point","coordinates":[-93.24873,45.00518]}},{"type":"Feature","properties":{"date":null,"year":0,"description":"1,329 S.F  TENANT IMPROVEMENT/ EXPANSION TO ADD 6 SMALL OFFICES AND 2 SMALL CONFERENCE ROOMS INTO ADJACENT SPACE.   NO CHANGE IN USE OR EXIT.  (DMH#1)   Const type: 1-B        Occupancy:            2015 MSBC  occupant load: NO CHANGE  sprinklered: YES  20","metadescription":"Commercial. Remodel. 1,329 S.F  TENANT IMPROVEMENT/ EXPANSION TO ADD 6 SMALL OFFICES AND 2 SMALL CONFERENCE ROOMS INTO ADJACENT SPACE.   NO CHANGE IN USE OR EXIT.  (DMH#1)   Const type: 1-B        Occupancy:            2015 MSBC  occupant load: NO CHANGE  sprinklered: YES  20. Closed","address":null,"x":"-93.29787","y":"44.9495400000001","value":"63362","display":"1350 LAGOON AVE","issuedate":"2018/08/03 10:40:23+00","milestone":"Closed","completedate":"2018/11/06 08:59:54+00","applicantcity":"PLYMOUTH","applicantaddress1":"14700 28TH AVE N STE 30"},"geometry":{"type":"Point","coordinates":[-93.29787,44.94954]}},{"type":"Feature","properties":{"date":null,"year":0,"description":"1,329 S.F  TENANT IMPROVEMENT/ EXPANSION TO ADD 6 SMALL OFFICES AND 2 SMALL CONFERENCE ROOMS INTO ADJACENT SPACE.   NO CHANGE IN USE OR EXIT.  (DMH#1)   Const type: 1-B        Occupancy:            2015 MSBC  occupant load: NO CHANGE  sprinklered: YES  20","metadescription":"Commercial. Remodel. 1,329 S.F  TENANT IMPROVEMENT/ EXPANSION TO ADD 6 SMALL OFFICES AND 2 SMALL CONFERENCE ROOMS INTO ADJACENT SPACE.   NO CHANGE IN USE OR EXIT.  (DMH#1)   Const type: 1-B        Occupancy:            2015 MSBC  occupant load: NO CHANGE  sprinklered: YES  20. Closed","address":null,"x":"-93.29957","y":"44.9502600000001","value":"63362","display":"1350 LAGOON AVE","issuedate":"2018/08/03 10:40:23+00","milestone":"Closed","completedate":"2018/11/06 08:59:54+00","applicantcity":"PLYMOUTH","applicantaddress1":"14700 28TH AVE N STE 30"},"geometry":{"type":"Point","coordinates":[-93.29957,44.95026]}},{"type":"Feature","properties":{"date":null,"year":0,"description":"Renovate Building for Multi-Tenant Occupancy   Individual tenant spaces will require separate permits, SAC determinations and CO.  SAC charges for the change of use from warehouse to office and retail was charged on BLDG791731, letter reference 180425B8","metadescription":"Commercial. Remodel. Renovate Building for Multi-Tenant Occupancy   Individual tenant spaces will require separate permits, SAC determinations and CO.  SAC charges for the change of use from warehouse to office and retail was charged on BLDG791731, letter reference 180425B8. Closed","address":null,"x":"-93.25056","y":"45.00102","value":"102730","display":"1325 QUINCY ST NE","fullname":"1325 PROPERTY OWNER LLC","issuedate":"2021/03/30 14:51:57+00","milestone":"Closed","completedate":"2022/03/10 08:23:14+00","applicantcity":"Plymouth","applicantaddress1":"13821 Industiral Blvd"},"geometry":{"type":"Point","coordinates":[-93.25056,45.00102]}},{"type":"Feature","properties":{"date":null,"year":0,"description":"1,329 S.F  TENANT IMPROVEMENT/ EXPANSION TO ADD 6 SMALL OFFICES AND 2 SMALL CONFERENCE ROOMS INTO ADJACENT SPACE.   NO CHANGE IN USE OR EXIT.  (DMH#1)   Const type: 1-B        Occupancy:            2015 MSBC  occupant load: NO CHANGE  sprinklered: YES  20","metadescription":"Commercial. Remodel. 1,329 S.F  TENANT IMPROVEMENT/ EXPANSION TO ADD 6 SMALL OFFICES AND 2 SMALL CONFERENCE ROOMS INTO ADJACENT SPACE.   NO CHANGE IN USE OR EXIT.  (DMH#1)   Const type: 1-B        Occupancy:            2015 MSBC  occupant load: NO CHANGE  sprinklered: YES  20. Closed","address":null,"x":"-93.2977299999999","y":"44.95005","value":"63362","display":"1350 LAGOON AVE","issuedate":"2018/08/03 10:40:23+00","milestone":"Closed","completedate":"2018/11/06 08:59:54+00","applicantcity":"PLYMOUTH","applicantaddress1":"14700 28TH AVE N STE 30"},"geometry":{"type":"Point","coordinates":[-93.29773,44.95005]}},{"type":"Feature","properties":{"date":null,"year":0,"description":"Renovate Building for Multi-Tenant Occupancy *****   SAC charges for the change of use from warehouse to office and retail is charged on this permit, letter reference 180425B8 *****   Individual tenant spaces will require separate permits, SAC determinati","metadescription":"Commercial. Remodel. Renovate Building for Multi-Tenant Occupancy *****   SAC charges for the change of use from warehouse to office and retail is charged on this permit, letter reference 180425B8 *****   Individual tenant spaces will require separate permits, SAC determinati. Closed","address":null,"x":"-93.25056","y":"45.00102","value":"5100000","display":"1325 QUINCY ST NE","fullname":"1325 PROPERTY OWNER LLC","issuedate":"2019/10/11 08:41:25+00","milestone":"Closed","completedate":"2022/01/20 08:31:04+00","applicantcity":"PLYMOUTH","applicantaddress1":"14700 28TH AVE N STE 30"},"geometry":{"type":"Point","coordinates":[-93.25056,45.00102]}},{"type":"Feature","properties":{"date":null,"year":0,"description":"PERMIT FOR CORRECTION TO KIVA PERMIT BIRE 3095546.   UPDATE INCORRECT OCCUPANT LOAD CALCULATION PER ARCHITECT. (DMH#2)  THIS PERMIT IS NOT TO PERMIT ANY CONSTRUCTION OR CHANGE IN USE.     Const type: V-B    Occupancy: E        2015 MSBC (previous permit i","metadescription":"Commercial. Remodel. PERMIT FOR CORRECTION TO KIVA PERMIT BIRE 3095546.   UPDATE INCORRECT OCCUPANT LOAD CALCULATION PER ARCHITECT. (DMH#2)  THIS PERMIT IS NOT TO PERMIT ANY CONSTRUCTION OR CHANGE IN USE.     Const type: V-B    Occupancy: E        2015 MSBC (previous permit i. Closed","address":null,"x":"-93.26211","y":"44.9668500000001","value":"500","display":"1613 CHICAGO AVE","fullname":"DAHAB SHIL PROPERTIES LLC","issuedate":"2017/12/18 11:17:52+00","milestone":"Closed","completedate":"2017/12/20 10:24:53+00","applicantcity":"Minneapolis","applicantaddress1":"1607 Chicago Ave S #2"},"geometry":{"type":"Point","coordinates":[-93.26211,44.96685]}},{"type":"Feature","properties":{"date":null,"year":0,"description":"1,329 S.F  TENANT IMPROVEMENT/ EXPANSION TO ADD 6 SMALL OFFICES AND 2 SMALL CONFERENCE ROOMS INTO ADJACENT SPACE.   NO CHANGE IN USE OR EXIT.  (DMH#1)   Const type: 1-B        Occupancy:            2015 MSBC  occupant load: NO CHANGE  sprinklered: YES  20","metadescription":"Commercial. Remodel. 1,329 S.F  TENANT IMPROVEMENT/ EXPANSION TO ADD 6 SMALL OFFICES AND 2 SMALL CONFERENCE ROOMS INTO ADJACENT SPACE.   NO CHANGE IN USE OR EXIT.  (DMH#1)   Const type: 1-B        Occupancy:            2015 MSBC  occupant load: NO CHANGE  sprinklered: YES  20. Closed","address":null,"x":"-93.2961099999999","y":"44.9494700000001","value":"63362","display":"1350 LAGOON AVE","issuedate":"2018/08/03 10:40:23+00","milestone":"Closed","completedate":"2018/11/06 08:59:54+00","applicantcity":"PLYMOUTH","applicantaddress1":"14700 28TH AVE N STE 30"},"geometry":{"type":"Point","coordinates":[-93.29611,44.94947]}},{"type":"Feature","properties":{"date":null,"year":0,"description":"1,329 S.F  TENANT IMPROVEMENT/ EXPANSION TO ADD 6 SMALL OFFICES AND 2 SMALL CONFERENCE ROOMS INTO ADJACENT SPACE.   NO CHANGE IN USE OR EXIT.  (DMH#1)   Const type: 1-B        Occupancy:            2015 MSBC  occupant load: NO CHANGE  sprinklered: YES  20","metadescription":"Commercial. Remodel. 1,329 S.F  TENANT IMPROVEMENT/ EXPANSION TO ADD 6 SMALL OFFICES AND 2 SMALL CONFERENCE ROOMS INTO ADJACENT SPACE.   NO CHANGE IN USE OR EXIT.  (DMH#1)   Const type: 1-B        Occupancy:            2015 MSBC  occupant load: NO CHANGE  sprinklered: YES  20. Closed","address":null,"x":"-93.2964899999999","y":"44.94985","value":"63362","display":"1350 LAGOON AVE","issuedate":"2018/08/03 10:40:23+00","milestone":"Closed","completedate":"2018/11/06 08:59:54+00","applicantcity":"PLYMOUTH","applicantaddress1":"14700 28TH AVE N STE 30"},"geometry":{"type":"Point","coordinates":[-93.29649,44.94985]}},{"type":"Feature","properties":{"date":null,"year":0,"description":"1,329 S.F  TENANT IMPROVEMENT/ EXPANSION TO ADD 6 SMALL OFFICES AND 2 SMALL CONFERENCE ROOMS INTO ADJACENT SPACE.   NO CHANGE IN USE OR EXIT.  (DMH#1)   Const type: 1-B        Occupancy:            2015 MSBC  occupant load: NO CHANGE  sprinklered: YES  20","metadescription":"Commercial. Remodel. 1,329 S.F  TENANT IMPROVEMENT/ EXPANSION TO ADD 6 SMALL OFFICES AND 2 SMALL CONFERENCE ROOMS INTO ADJACENT SPACE.   NO CHANGE IN USE OR EXIT.  (DMH#1)   Const type: 1-B        Occupancy:            2015 MSBC  occupant load: NO CHANGE  sprinklered: YES  20. Closed","address":null,"x":"-93.2973499999999","y":"44.9497200000001","value":"63362","display":"1350 LAGOON AVE","issuedate":"2018/08/03 10:40:23+00","milestone":"Closed","completedate":"2018/11/06 08:59:54+00","applicantcity":"PLYMOUTH","applicantaddress1":"14700 28TH AVE N STE 30"},"geometry":{"type":"Point","coordinates":[-93.29735,44.94972]}},{"type":"Feature","properties":{"date":null,"year":0,"description":"1,329 S.F  TENANT IMPROVEMENT/ EXPANSION TO ADD 6 SMALL OFFICES AND 2 SMALL CONFERENCE ROOMS INTO ADJACENT SPACE.   NO CHANGE IN USE OR EXIT.  (DMH#1)   Const type: 1-B        Occupancy:            2015 MSBC  occupant load: NO CHANGE  sprinklered: YES  20","metadescription":"Commercial. Remodel. 1,329 S.F  TENANT IMPROVEMENT/ EXPANSION TO ADD 6 SMALL OFFICES AND 2 SMALL CONFERENCE ROOMS INTO ADJACENT SPACE.   NO CHANGE IN USE OR EXIT.  (DMH#1)   Const type: 1-B        Occupancy:            2015 MSBC  occupant load: NO CHANGE  sprinklered: YES  20. Closed","address":null,"x":"-93.29738","y":"44.9494100000001","value":"63362","display":"1350 LAGOON AVE","issuedate":"2018/08/03 10:40:23+00","milestone":"Closed","completedate":"2018/11/06 08:59:54+00","applicantcity":"PLYMOUTH","applicantaddress1":"14700 28TH AVE N STE 30"},"geometry":{"type":"Point","coordinates":[-93.29738,44.94941]}},{"type":"Feature","properties":{"date":null,"year":0,"description":"INSTALL 3 BASEMENT EGRESS WINDOWS  (NO CHANGE OF USE OF ROOMS IS A PART OF THIS PERMIT)     Building Code: 2020 MNSBC/2018 IRC     Energy Code: MINNESOTA RULES CHAPTER 1322     SEPARATE PERMITS ARE REQUIRED FOR ELECTRICAL, PLUMBING, AND HEATING/AIR CONDIT","metadescription":"Res. Remodel. INSTALL 3 BASEMENT EGRESS WINDOWS  (NO CHANGE OF USE OF ROOMS IS A PART OF THIS PERMIT)     Building Code: 2020 MNSBC/2018 IRC     Energy Code: MINNESOTA RULES CHAPTER 1322     SEPARATE PERMITS ARE REQUIRED FOR ELECTRICAL, PLUMBING, AND HEATING/AIR CONDIT. Closed","address":null,"x":"-93.3162799999999","y":"44.9917100000001","value":"4000","display":"1301 VINCENT AVE N","fullname":"YORKSHIRE PROPERTIES LLC","issuedate":"2024/12/10 09:12:52+00","milestone":"Closed","completedate":"2025/03/06 10:16:10+00","applicantcity":"MINNEAPOLIS","applicantaddress1":"1207 WASHBURN AVE N"},"geometry":{"type":"Point","coordinates":[-93.31628,44.99171]}},{"type":"Feature","properties":{"date":null,"year":0,"description":"1,329 S.F  TENANT IMPROVEMENT/ EXPANSION TO ADD 6 SMALL OFFICES AND 2 SMALL CONFERENCE ROOMS INTO ADJACENT SPACE.   NO CHANGE IN USE OR EXIT.  (DMH#1)   Const type: 1-B        Occupancy:            2015 MSBC  occupant load: NO CHANGE  sprinklered: YES  20","metadescription":"Commercial. Remodel. 1,329 S.F  TENANT IMPROVEMENT/ EXPANSION TO ADD 6 SMALL OFFICES AND 2 SMALL CONFERENCE ROOMS INTO ADJACENT SPACE.   NO CHANGE IN USE OR EXIT.  (DMH#1)   Const type: 1-B        Occupancy:            2015 MSBC  occupant load: NO CHANGE  sprinklered: YES  20. Closed","address":null,"x":"-93.29787","y":"44.9498","value":"63362","display":"1350 LAGOON AVE","issuedate":"2018/08/03 10:40:23+00","milestone":"Closed","completedate":"2018/11/06 08:59:54+00","applicantcity":"PLYMOUTH","applicantaddress1":"14700 28TH AVE N STE 30"},"geometry":{"type":"Point","coordinates":[-93.29787,44.9498]}},{"type":"Feature","properties":{"date":null,"year":0,"description":"CHANGE OF USE 1stFlr Office space to- Element Social Club  certificate of occupancy required:  yes  (from B to A-3).  CofO procedures attached to approved documents APPROVED mechanical electrical, plumbing permits are required for a certificate of occupan","metadescription":"Commercial. Remodel. CHANGE OF USE 1stFlr Office space to- Element Social Club  certificate of occupancy required:  yes  (from B to A-3).  CofO procedures attached to approved documents APPROVED mechanical electrical, plumbing permits are required for a certificate of occupan. Closed","address":null,"x":"-93.2804","y":"44.9731400000001","value":"5000","display":"1221 HARMON PL","fullname":"1229 HARMON PLACE LLC","issuedate":"2022/01/13 15:34:52+00","milestone":"Closed","completedate":"2023/04/05 06:43:17+00","applicantcity":"Blaine","applicantaddress1":"11101 National St NE"},"geometry":{"type":"Point","coordinates":[-93.2804,44.97314]}},{"type":"Feature","properties":{"date":null,"year":0,"description":"OFFICE BUILD-OUT TO SMALL 16' X 27' OFFICE SPACE.  NO CHANGE IN USE, EXIT OR CORRIDOR.  (DMH#2)  APPROVED PLANS AND PERMIT MUST BE ON SITE BEFORE INSPECTIONS WILL BE PROVIDED.      SEPARATE PERMITS ARE REQUIRED FOR ELECTRICAL, PLUMBING, HEATING/AIR CONDIT","metadescription":"Commercial. Remodel. OFFICE BUILD-OUT TO SMALL 16' X 27' OFFICE SPACE.  NO CHANGE IN USE, EXIT OR CORRIDOR.  (DMH#2)  APPROVED PLANS AND PERMIT MUST BE ON SITE BEFORE INSPECTIONS WILL BE PROVIDED.      SEPARATE PERMITS ARE REQUIRED FOR ELECTRICAL, PLUMBING, HEATING/AIR CONDIT. Closed","address":null,"x":"-93.27109","y":"44.97441","value":"8640","display":"121 8TH ST S","fullname":"FSP 121 SOUTH EIGHTH ST LLC","issuedate":"2018/11/14 09:50:51+00","milestone":"Closed","completedate":"2019/02/15 05:36:59+00","applicantcity":"MINNEAPOLIS","applicantaddress1":"50 6TH ST S STE 1413"},"geometry":{"type":"Point","coordinates":[-93.27109,44.97441]}},{"type":"Feature","properties":{"date":null,"year":0,"description":"New HVAC for 6 apartments.  BLDG1079731         BLDG1059895  refer to G100 for code and life safety sheet.        CONVERT TO 6 DWELLING UNITS & 'AMMENITY'   CHANGE OF USE FROM E (DAYCARE)     const type:  IA       occupancy: R2             2020 MSBC   spr","metadescription":"Mechanical. ComMFDNR. New HVAC for 6 apartments.  BLDG1079731         BLDG1059895  refer to G100 for code and life safety sheet.        CONVERT TO 6 DWELLING UNITS & 'AMMENITY'   CHANGE OF USE FROM E (DAYCARE)     const type:  IA       occupancy: R2             2020 MSBC   spr. Closed","address":null,"x":"-93.26373","y":"44.9818700000001","value":"78130","display":"115 2ND AVE S","fullname":"RIVERGATE APARTMENTS LLC","issuedate":"2024/09/23 11:47:22+00","milestone":"Closed","completedate":"2024/12/17 09:40:42+00","applicantcity":"Delano","applicantaddress1":"9145 County Road 17"},"geometry":{"type":"Point","coordinates":[-93.26373,44.98187]}},{"type":"Feature","properties":{"date":null,"year":0,"description":"MINOR REMODEL OF APPROX. 2,806 SF OFFICE SPACE ON 3RD FLOOR FOR WITH TWO CONFERENCE ROOMS AND AN ACCESSIBLE BREAK ROOM AREA.  NO CHANGE IN USE OR EXITING. (LAH)  certificate of occupancy required  NO   const type:  IIB       occupancy:    B          2015","metadescription":"Commercial. Remodel. MINOR REMODEL OF APPROX. 2,806 SF OFFICE SPACE ON 3RD FLOOR FOR WITH TWO CONFERENCE ROOMS AND AN ACCESSIBLE BREAK ROOM AREA.  NO CHANGE IN USE OR EXITING. (LAH)  certificate of occupancy required  NO   const type:  IIB       occupancy:    B          2015. Closed","address":null,"x":"-93.27486","y":"44.97105","value":"100000","display":"1201 MARQUETTE AVE","fullname":"J3 LLC","issuedate":"2017/08/02 13:06:05+00","milestone":"Closed","completedate":"2017/10/12 10:51:46+00","applicantcity":"MINNEAPOLIS","applicantaddress1":"121 S 8TH ST"},"geometry":{"type":"Point","coordinates":[-93.27486,44.97105]}},{"type":"Feature","properties":{"date":null,"year":0,"description":"CONVERT TO 6 DWELLING UNITS & 'AMMENITY'        BLDG1059895       CHANGE OF USE FROM E (DAYCARE)     const type:  IA       occupancy: R2             2020 MSBC   sprinklered: yes     sac: _6.00_ charges  _1.19_ credits = _4.81_ net  met council letter date","metadescription":"Commercial. Remodel. CONVERT TO 6 DWELLING UNITS & 'AMMENITY'        BLDG1059895       CHANGE OF USE FROM E (DAYCARE)     const type:  IA       occupancy: R2             2020 MSBC   sprinklered: yes     sac: _6.00_ charges  _1.19_ credits = _4.81_ net  met council letter date. Closed","address":null,"x":"-93.26373","y":"44.9818700000001","value":"1000000","display":"115 2ND AVE S","fullname":"RIVERGATE APARTMENTS LLC","issuedate":"2024/09/26 11:58:22+00","milestone":"Closed","completedate":"2024/12/17 11:26:52+00","applicantcity":"Minneapolis","applicantaddress1":"1834 38th St E"},"geometry":{"type":"Point","coordinates":[-93.26373,44.98187]}},{"type":"Feature","properties":{"date":null,"year":0,"description":"CHANGE OF USE - RESTAURANT     const type: VB        occupancy: A-2             2020 MSBC  occupant load:  117      sprinklered: NO  10/9/25 - Determination rcvd (0 charges) 251008C1     architect: 48654 - Haecker, Alexander Woods @ AWH","metadescription":"Commercial. Remodel. CHANGE OF USE - RESTAURANT     const type: VB        occupancy: A-2             2020 MSBC  occupant load:  117      sprinklered: NO  10/9/25 - Determination rcvd (0 charges) 251008C1     architect: 48654 - Haecker, Alexander Woods @ AWH. Issued","address":null,"x":"-93.25186","y":"44.9765400000001","value":"1250000","display":"1100 2ND ST S","fullname":"CITY OF MINNEAPOLIS - CPED","issuedate":"2026/05/01 14:42:30+00","milestone":"Inspection","applicantcity":"Minneapolis","applicantaddress1":"3560 Snelling Ave"},"geometry":{"type":"Point","coordinates":[-93.25186,44.97654]}}]}
