{"type":"FeatureCollection","features":[{"type":"Feature","properties":{"date":"2020-06-16T00:00:00.000Z","year":2020,"description":"SOLAR PANEL PERMIT. ERECT A PHOTOVOLTAIC ARRAY ON THE ROOF","metadescription":"PERMIT - EASY PERMIT PROCESS. SOLAR PANEL PERMIT. ERECT A PHOTOVOLTAIC ARRAY ON THE ROOF. 2909","address":"2909 West 102ND Place, Chicago, IL, CHICAGO, 60655, US","location":"POINT (-87.69438354262 41.707060886189)","pin_list":"2412315060","review_type":"EASY PERMIT","street_name":"102ND PL","xcoordinate":"1158719.3874725366","ycoordinate":"1836491.8313907045","census_tract":"720500","subtotal_paid":"$275.00","community_area":"72","contact_1_city":"FAIR OAKS","contact_1_name":"ZACHER, PAUL K","contact_1_type":"STRUCTURAL ENGINEER","contact_2_city":"SOMERSET","contact_2_name":"SUNRUN INSTALLATION SERVICES","contact_2_type":"CONTRACTOR-ELECTRICAL","contact_3_city":"SOMERSET","contact_3_name":"SUNRUN INSTALLATION SERVICES","contact_3_type":"CONTRACTOR-GENERAL CONTRACTOR","contact_4_city":"CHICAGO","contact_4_name":"JOSEPH GALLAPO","contact_4_type":"OWNER","other_fee_paid":"$0.00","contact_1_state":"CA","contact_2_state":"NJ","contact_3_state":"NJ","contact_4_state":"IL","processing_time":"6","subtotal_unpaid":"$0.00","subtotal_waived":"$0.00","zoning_fee_paid":"$50.00","other_fee_unpaid":"$0.00","other_fee_waived":"$0.00","street_direction":"W","building_fee_paid":"$225.00","contact_1_zipcode":"95628-6146","contact_2_zipcode":"08873","contact_3_zipcode":"08873","contact_4_zipcode":"60655","zoning_fee_unpaid":"$0.00","zoning_fee_waived":"$0.00","other_fee_subtotal":"$0","building_fee_unpaid":"$0.00","building_fee_waived":"$0.00","zoning_fee_subtotal":"$50","building_fee_subtotal":"$225"},"geometry":{"type":"Point","coordinates":[-87.694383543,41.707060886]}},{"type":"Feature","properties":{"date":"2009-05-11T00:00:00.000Z","year":2009,"description":"ROOF RECOVER ONLY - NO STRUCTURAL WORK","metadescription":"PERMIT - EASY PERMIT PROCESS. ROOF RECOVER ONLY - NO STRUCTURAL WORK. 2901","address":"2901 West 102ND Place, Chicago, IL, CHICAGO, 60655, US","location":"POINT (-87.694095151953 41.707064406291)","pin_list":"2412315062","review_type":"EASY PERMIT WEB","street_name":"102ND PL","xcoordinate":"1158798.1252757674","ycoordinate":"1836493.6984968795","census_tract":"7205","subtotal_paid":"$300.00","community_area":"72","contact_1_city":"CHICAGO","contact_1_name":"RICH CRUZ","contact_1_type":"OWNER AS GENERAL CONTRACTOR","contact_2_city":"CHICAGO","contact_2_name":"RICHARD D CRUZ","contact_2_type":"OWNER AS GENERAL CONTRACTOR","other_fee_paid":"$0.00","contact_1_state":"IL","contact_2_state":"IL","processing_time":"0","subtotal_unpaid":"$0.00","subtotal_waived":"$0.00","zoning_fee_paid":"$50.00","other_fee_unpaid":"$0.00","other_fee_waived":"$0.00","street_direction":"W","building_fee_paid":"$250.00","contact_1_zipcode":"60655","contact_2_zipcode":"60655","zoning_fee_unpaid":"$0.00","zoning_fee_waived":"$0.00","other_fee_subtotal":"$0","building_fee_unpaid":"$0.00","building_fee_waived":"$0.00","zoning_fee_subtotal":"$50","building_fee_subtotal":"$250"},"geometry":{"type":"Point","coordinates":[-87.694095152,41.707064406]}}]}
