{"type":"FeatureCollection","features":[{"type":"Feature","properties":{"date":"2025-03-27T00:00:00.000Z","year":2025,"description":"CHANGE OF USE FROM WAREHOUSE/LIGHT MANUFACTURING (F-1 OCCUPANCY) AND INCIDENTAL OFFICE (B-OFFICE) TO FRONTIER SERVICE VEHICLES STORAGE AND MAINTENANCE AREA (S2 OCCUPANCY), STORAGE (S-1 OCCUPANCY), AND INCIDENTAL OFFICE (B-OFFICE),  AND INTERIOR ALTERATION/REPAIR ASSOCIATED. INSTALL AUTO SERVICE LIFT AND CONCRETE SUPPORT PADS.  REDUCTION OF ON-SITE PARKING PER CURRENT CODE REQUIREMENTS.","metadescription":"Bldg-Alter/Repair. Commercial. CHANGE OF USE FROM WAREHOUSE/LIGHT MANUFACTURING (F-1 OCCUPANCY) AND INCIDENTAL OFFICE (B-OFFICE) TO FRONTIER SERVICE VEHICLES STORAGE AND MAINTENANCE AREA (S2 OCCUPANCY), STORAGE (S-1 OCCUPANCY), AND INCIDENTAL OFFICE (B-OFFICE),  AND INTERIOR ALTERATION/REPAIR ASSOCIATED. INSTALL AUTO SERVICE LIFT AND CONCRETE SUPPORT PADS.  REDUCTION OF ON-SITE PARKING PER CURRENT CODE REQUIREMENTS.. Issued. 605 N 8TH ST","address":"605 N 8TH ST","ct":"1042.01","ev":"N","apc":"North Valley","solar":"N","pin_nbr":"216B161    39","use_code":"23","status_date":"03/27/2025","construction":"Type III-B Construction","permit_group":"Building","refresh_time":"06/10/2026","type_lat_lon":"ADDRESS","business_unit":"Regular Plan Check","square_footage":"0"},"geometry":{"type":"Point","coordinates":[-118.41854,34.29133]}},{"type":"Feature","properties":{"date":"2023-12-07T00:00:00.000Z","year":2023,"description":"tenant improvement to existing office and warehouse space to create new offices, break room, server, etc.,  removing a row of striping in the rear of the building.  no change in use  / no change in occupancy (dual jurisdiction)","metadescription":"Bldg-Alter/Repair. Commercial. tenant improvement to existing office and warehouse space to create new offices, break room, server, etc.,  removing a row of striping in the rear of the building.  no change in use  / no change in occupancy (dual jurisdiction). PC Approved. 605 N 8TH ST","address":"605 N 8TH ST","ct":"1042.01","ev":"N","apc":"North Valley","cpa":"Sylmar","zone":"M1-1","solar":"N","pin_nbr":"216B161    24","use_code":"22","status_date":"02/28/2024","permit_group":"Building","refresh_time":"06/10/2026","type_lat_lon":"ADDRESS","business_unit":"Regular Plan Check","square_footage":"0"},"geometry":{"type":"Point","coordinates":[-118.41854,34.29133]}}]}
