{"type":"FeatureCollection","features":[{"type":"Feature","properties":{"date":"2024-11-08T00:00:00.000Z","year":2024,"description":"NEW 28' X 39' 2-STORY SFD per SB9 Two-Unit Development Ca Govt Code 65852.21 AND ACCESSORY DWELLING UNIT PER LAMC 12.22 A.33(c) AND (d). NFPA 13D FIRE SPRINKLERS THROUGHOUT. ALL WORK PER ENGINEERING.","metadescription":"Bldg-New. 1 or 2 Family Dwelling. NEW 28' X 39' 2-STORY SFD per SB9 Two-Unit Development Ca Govt Code 65852.21 AND ACCESSORY DWELLING UNIT PER LAMC 12.22 A.33(c) AND (d). NFPA 13D FIRE SPRINKLERS THROUGHOUT. ALL WORK PER ENGINEERING.. CofO Issued. 13375-13375 1/2 W BROWNELL ST","address":"13379 West Brownell Street, CA, San Fernando, 91340, US","ct":"1043.10","ev":"N","apc":"North Valley","cpa":"Arleta - Pacoima","zone":"R1-1-CUGU","solar":"N","height":"25","pin_nbr":"213B157    13","use_code":"1","adu_changed":"1","status_date":"02/10/2026","construction":"Type V-B Construction","permit_group":"Building","refresh_time":"06/10/2026","type_lat_lon":"ADDRESS","business_unit":"Regular Plan Check","square_footage":"1972"},"geometry":{"type":"Point","coordinates":[-118.42444,34.28444]}},{"type":"Feature","properties":{"date":"2024-10-29T00:00:00.000Z","year":2024,"description":"NEW 2-STORY DETACHED 37'-0\" x 28'-0\" 2ND DWELLING UNIT PER SB9 TWO-UNIT DEVELOPMENT WITH ATTACHED PORCH WITH BALCONY PER ENGINEERING. NFPA-13D FIRE SPRINKLER THRU-OUT","metadescription":"Bldg-New. 1 or 2 Family Dwelling. NEW 2-STORY DETACHED 37'-0\" x 28'-0\" 2ND DWELLING UNIT PER SB9 TWO-UNIT DEVELOPMENT WITH ATTACHED PORCH WITH BALCONY PER ENGINEERING. NFPA-13D FIRE SPRINKLER THRU-OUT. Quality Review Completed. 13467 W BROWNELL ST","address":"13463 Brownell Street, CA, San Fernando, 91340, US","ct":"1043.10","ev":"N","apc":"North Valley","cpa":"Arleta - Pacoima","zone":"R1-1-CUGU","solar":"N","height":"24.92","pin_nbr":"213B157   111","use_code":"1","status_date":"11/05/2024","permit_group":"Building","refresh_time":"06/10/2026","type_lat_lon":"ADDRESS","business_unit":"Regular Plan Check","square_footage":"2071"},"geometry":{"type":"Point","coordinates":[-118.426,34.28318]}},{"type":"Feature","properties":{"date":"2022-10-03T00:00:00.000Z","year":2022,"description":"PROPOSED 36' X 39' IRREGULAR SHAPED 2-STORY ADDITION AND MAJOR REMODEL TO (E) 1-STORY SFD. NFPA 13D FIRE SPRINKLERS THROUGHOUT. ALL WORK PER ENGINEERING.","metadescription":"Bldg-Addition. 1 or 2 Family Dwelling. PROPOSED 36' X 39' IRREGULAR SHAPED 2-STORY ADDITION AND MAJOR REMODEL TO (E) 1-STORY SFD. NFPA 13D FIRE SPRINKLERS THROUGHOUT. ALL WORK PER ENGINEERING.. CofO Issued. 14448 W CARLSBAD ST","address":"14448 Carlsbad Street, CA, Sylmar, 91342, US","ct":"1070.20","ev":"N","apc":"North Valley","cpa":"Sylmar","zone":"R1-1","solar":"N","height":"22.8","pin_nbr":"219B149   801","use_code":"1","status_date":"04/17/2024","construction":"Type V-B Construction","permit_group":"Building","refresh_time":"06/10/2026","type_lat_lon":"BUILDING","business_unit":"Regular Plan Check","square_footage":"2563"},"geometry":{"type":"Point","coordinates":[-118.44769418,34.29399348]}},{"type":"Feature","properties":{"date":"2019-07-18T00:00:00.000Z","year":2019,"description":"Re-stucco for single family dwellings and duplexes only.(14)Window and (1)door change-out (same size & type) for residential buildings.  Dual glazing, labeled and certified by National Fenestration Rating Council (NFRC), is required for doors and windows replaced in all residential buildings, three stories or less, per Section 150.2(b)1B of Title 24.      Re-roof with Class A or B material weighing less than 6 pounds per sq. ft. over new solid sheathing ____16__Squares. Class A roof covering is required within Very High Fire Hazard Severity Zone (VHFHSZ). For residential roof replacement > 50% of the total roof area, apply Cool Roof Product labeled and certified by Cool Roof Rating Council (CRRC). Cool Roof may be required for non-residential buildings per Title 24, Part 6, Section 141.0(b)2B.","metadescription":"Bldg-Alter/Repair. 1 or 2 Family Dwelling. Re-stucco for single family dwellings and duplexes only.(14)Window and (1)door change-out (same size & type) for residential buildings.  Dual glazing, labeled and certified by National Fenestration Rating Council (NFRC), is required for doors and windows replaced in all residential buildings, three stories or less, per Section 150.2(b)1B of Title 24.      Re-roof with Class A or B material weighing less than 6 pounds per sq. ft. over new solid sheathing ____16__Squares. Class A roof covering is required within Very High Fire Hazard Severity Zone (VHFHSZ). For residential roof replacement > 50% of the total roof area, apply Cool Roof Product labeled and certified by Cool Roof Rating Council (CRRC). Cool Roof may be required for non-residential buildings per Title 24, Part 6, Section 141.0(b)2B.. Permit Finaled. 14075 W DAUBERT ST","address":"14075 Daubert Street, CA, San Fernando, 91340, US","ct":"1095.00","ev":"N","apc":"North Valley","cpa":"Arleta - Pacoima","zone":"R1-1-CUGU","solar":"N","pin_nbr":"210B153   335","use_code":"1","geolocation":"POINT (-118.44 34.27364)","status_date":"03/03/2020","permit_group":"Building","refresh_time":"06/10/2026","type_lat_lon":"ADDRESS","business_unit":"Express Permit"},"geometry":{"type":"Point","coordinates":[-118.44,34.27364]}},{"type":"Feature","properties":{"date":"2018-12-31T00:00:00.000Z","year":2018,"description":"Repair fire damaged roof","metadescription":"Bldg-Alter/Repair. 1 or 2 Family Dwelling. Repair fire damaged roof. Permit Finaled. 14075 W DAUBERT ST","address":"14075 Daubert Street, CA, San Fernando, 91340, US","ct":"1095.00","ev":"N","apc":"North Valley","cpa":"Arleta - Pacoima","zone":"R1-1-CUGU","solar":"N","pin_nbr":"210B153   335","use_code":"1","geolocation":"POINT (-118.44 34.27364)","status_date":"03/03/2020","permit_group":"Building","refresh_time":"06/10/2026","type_lat_lon":"ADDRESS","business_unit":"Plan Check at Counter"},"geometry":{"type":"Point","coordinates":[-118.44,34.27364]}},{"type":"Feature","properties":{"date":"2003-07-17T00:00:00.000Z","year":2003,"description":"Convert an (E) bedroom to living room.  Enclose a 4'10\"X14' Portion of the (E) front patio cover and convert it to a living room extension & bedroom closet.  Remove 2 bearing wall at the perimeter of the newly converted living rm and install beams.  Install a pre-fab fireplace & remove and replace one window w/ same size per plan.  All work shall comply with the type \"v\" sheet.","metadescription":"Bldg-Alter/Repair. 1 or 2 Family Dwelling. Convert an (E) bedroom to living room.  Enclose a 4'10\"X14' Portion of the (E) front patio cover and convert it to a living room extension & bedroom closet.  Remove 2 bearing wall at the perimeter of the newly converted living rm and install beams.  Install a pre-fab fireplace & remove and replace one window w/ same size per plan.  All work shall comply with the type \"v\" sheet.. Permit Finaled. 14160 W LA RUE ST","address":"14158 La Rue Street, CA, San Fernando, 91340, US","ct":"1095.00","ev":"N","apc":"North Valley","zone":"R1-1","solar":"N","pin_nbr":"210B153   426","use_code":"1","geolocation":"POINT (-118.44185 34.27321)","status_date":"08/02/2004","permit_group":"Building","refresh_time":"06/10/2026","type_lat_lon":"ADDRESS","business_unit":"Plan Check at Counter"},"geometry":{"type":"Point","coordinates":[-118.44185,34.27321]}}]}
