{"type":"FeatureCollection","features":[{"type":"Feature","properties":{"date":"2019-12-26T00:00:00.000Z","year":2019,"description":"Window (16) change-out (same size & type) for residential buildings.  Dual glazing, labeled and certified by National Fenestration Rating Council (NFRC), is required for doors and windows replaced in all residential buildings, three stories or less, per Section 150.2(b)1B of Title 24.","metadescription":"Bldg-Alter/Repair. 1 or 2 Family Dwelling. Window (16) change-out (same size & type) for residential buildings.  Dual glazing, labeled and certified by National Fenestration Rating Council (NFRC), is required for doors and windows replaced in all residential buildings, three stories or less, per Section 150.2(b)1B of Title 24.. Permit Finaled. 11202 N ONEIDA AVE","address":"11202 N ONEIDA AVE","ct":"1095.00","ev":"N","apc":"North Valley","cpa":"Arleta - Pacoima","zone":"R1-1-CUGU","solar":"N","pin_nbr":"210B153   400","use_code":"1","geolocation":"POINT (-118.44047526 34.2733416)","status_date":"06/17/2020","permit_group":"Building","refresh_time":"06/10/2026","type_lat_lon":"PIN","business_unit":"Express Permit"},"geometry":{"type":"Point","coordinates":[-118.44047526,34.2733416]}},{"type":"Feature","properties":{"date":"2019-10-31T00:00:00.000Z","year":2019,"description":"1 Window change-out (same size & type) for residential buildings.  Dual glazing, labeled and certified by National Fenestration Rating Council (NFRC), is required for doors and windows replaced in all residential buildings, three stories or less, per Section 150.2(b) 1B of Title 24.","metadescription":"Bldg-Alter/Repair. Apartment. 1 Window change-out (same size & type) for residential buildings.  Dual glazing, labeled and certified by National Fenestration Rating Council (NFRC), is required for doors and windows replaced in all residential buildings, three stories or less, per Section 150.2(b) 1B of Title 24.. Permit Finaled. 12284 N WILLOWBEND LANE","address":"12284 N WILLOWBEND LANE","ct":"1070.20","ev":"N","apc":"North Valley","cpa":"Sylmar","zone":"(Q)RD3-1","solar":"N","pin_nbr":"219B149   879","use_code":"5","geolocation":"POINT (-118.44898 34.2931)","status_date":"01/24/2020","permit_group":"Building","refresh_time":"06/10/2026","type_lat_lon":"ADDRESS","business_unit":"Express Permit"},"geometry":{"type":"Point","coordinates":[-118.44898,34.2931]}},{"type":"Feature","properties":{"date":"2019-07-18T00:00:00.000Z","year":2019,"description":"Re-stucco for single family dwellings and duplexes only.(14)Window and (1)door change-out (same size & type) for residential buildings.  Dual glazing, labeled and certified by National Fenestration Rating Council (NFRC), is required for doors and windows replaced in all residential buildings, three stories or less, per Section 150.2(b)1B of Title 24.      Re-roof with Class A or B material weighing less than 6 pounds per sq. ft. over new solid sheathing ____16__Squares. Class A roof covering is required within Very High Fire Hazard Severity Zone (VHFHSZ). For residential roof replacement > 50% of the total roof area, apply Cool Roof Product labeled and certified by Cool Roof Rating Council (CRRC). Cool Roof may be required for non-residential buildings per Title 24, Part 6, Section 141.0(b)2B.","metadescription":"Bldg-Alter/Repair. 1 or 2 Family Dwelling. Re-stucco for single family dwellings and duplexes only.(14)Window and (1)door change-out (same size & type) for residential buildings.  Dual glazing, labeled and certified by National Fenestration Rating Council (NFRC), is required for doors and windows replaced in all residential buildings, three stories or less, per Section 150.2(b)1B of Title 24.      Re-roof with Class A or B material weighing less than 6 pounds per sq. ft. over new solid sheathing ____16__Squares. Class A roof covering is required within Very High Fire Hazard Severity Zone (VHFHSZ). For residential roof replacement > 50% of the total roof area, apply Cool Roof Product labeled and certified by Cool Roof Rating Council (CRRC). Cool Roof may be required for non-residential buildings per Title 24, Part 6, Section 141.0(b)2B.. Permit Finaled. 14075 W DAUBERT ST","address":"14075 W DAUBERT ST","ct":"1095.00","ev":"N","apc":"North Valley","cpa":"Arleta - Pacoima","zone":"R1-1-CUGU","solar":"N","pin_nbr":"210B153   335","use_code":"1","geolocation":"POINT (-118.44 34.27364)","status_date":"03/03/2020","permit_group":"Building","refresh_time":"06/10/2026","type_lat_lon":"ADDRESS","business_unit":"Express Permit"},"geometry":{"type":"Point","coordinates":[-118.44,34.27364]}},{"type":"Feature","properties":{"date":"2019-06-18T00:00:00.000Z","year":2019,"description":"SUPPL. PERMIT TO 19014-20000-01807 TO REVISE THE FLOOR PLAN AT PORCH , INFILL WINDOWS AT LIVING ROOM , REMOVE NON-BEARING WALLS BETWEN DINING ROOM AND LIVING ROOM , REMOVE AND REPLACE HVAC UNIT WITH SAME SIZE AND SAME TYPE","metadescription":"Bldg-Alter/Repair. 1 or 2 Family Dwelling. SUPPL. PERMIT TO 19014-20000-01807 TO REVISE THE FLOOR PLAN AT PORCH , INFILL WINDOWS AT LIVING ROOM , REMOVE NON-BEARING WALLS BETWEN DINING ROOM AND LIVING ROOM , REMOVE AND REPLACE HVAC UNIT WITH SAME SIZE AND SAME TYPE. Permit Finaled. 14110 W FOX ST","address":"14110 Fox Street, CA, San Fernando, 91340, US","ct":"1095.00","ev":"N","apc":"North Valley","cpa":"Arleta - Pacoima","zone":"R1-1-CUGU","solar":"N","pin_nbr":"210B153   162","use_code":"1","geolocation":"POINT (-118.44091 34.27521)","status_date":"05/27/2020","permit_group":"Building","refresh_time":"06/10/2026","type_lat_lon":"ADDRESS","business_unit":"Plan Check at Counter"},"geometry":{"type":"Point","coordinates":[-118.44091,34.27521]}},{"type":"Feature","properties":{"date":"2019-06-07T00:00:00.000Z","year":2019,"description":"Window (16) change-out (same size & type) for residential buildings.  Dual glazing, labeled and certified by National Fenestration Rating Council (NFRC), is required for doors and windows replaced in all residential buildings, three stories or less, per Section 150.2(b)1B of Title 24.","metadescription":"Bldg-Alter/Repair. Apartment. Window (16) change-out (same size & type) for residential buildings.  Dual glazing, labeled and certified by National Fenestration Rating Council (NFRC), is required for doors and windows replaced in all residential buildings, three stories or less, per Section 150.2(b)1B of Title 24.. Permit Finaled. 13910 W LA RUE ST","address":"13910 W LA RUE ST","ct":"1095.00","ev":"N","apc":"North Valley","cpa":"Arleta - Pacoima","zone":"M1-1-CUGU","solar":"N","pin_nbr":"213B153   172","use_code":"5","geolocation":"POINT (-118.43628 34.27729)","status_date":"07/29/2019","permit_group":"Building","refresh_time":"06/10/2026","type_lat_lon":"ADDRESS","business_unit":"Express Permit"},"geometry":{"type":"Point","coordinates":[-118.43628,34.27729]}},{"type":"Feature","properties":{"date":"2012-09-25T00:00:00.000Z","year":2012,"description":"Window (1) change-out (same size & type) for residential buildings.  Dual glazing, labeled and certified by National Fenestration Rating Council (NFRC), is required for doors and windows replaced in all residential buildings, three stories or less, per Section 152(b) of Title 24.","metadescription":"Bldg-Alter/Repair. 1 or 2 Family Dwelling. Window (1) change-out (same size & type) for residential buildings.  Dual glazing, labeled and certified by National Fenestration Rating Council (NFRC), is required for doors and windows replaced in all residential buildings, three stories or less, per Section 152(b) of Title 24.. Permit Finaled. 14133 W LA RUE ST","address":"14133 W LA RUE ST","ct":"1095.00","ev":"N","apc":"North Valley","cpa":"Arleta - Pacoima","zone":"R1-1","solar":"N","pin_nbr":"210B153   311","use_code":"1","geolocation":"POINT (-118.44151 34.27384)","status_date":"10/24/2012","permit_group":"Building","refresh_time":"06/10/2026","type_lat_lon":"ADDRESS","business_unit":"Express Permit"},"geometry":{"type":"Point","coordinates":[-118.44151,34.27384]}},{"type":"Feature","properties":{"date":"2012-04-05T00:00:00.000Z","year":2012,"description":"Window (11)  change out (same size type and location) for residential buildings.Dual glazing, labeled and certified by National Fenestration rating council (NFRC), is required for doors and windows replaced in all residential buildings, 3 stories or less,          per Section 152 (b) of Title 24.  No structural changes, valuation to be verified by field Inspector.,  Kitchen/bathroom remodel for residential buildings \"COMPLY WITH DEPARTMENT ORDER effective date 08/06/2009. PERMIT WILL EXPIRE 30DAYS FROM ISSUANCE DATE.","metadescription":"Bldg-Alter/Repair. 1 or 2 Family Dwelling. Window (11)  change out (same size type and location) for residential buildings.Dual glazing, labeled and certified by National Fenestration rating council (NFRC), is required for doors and windows replaced in all residential buildings, 3 stories or less,          per Section 152 (b) of Title 24.  No structural changes, valuation to be verified by field Inspector.,  Kitchen/bathroom remodel for residential buildings \"COMPLY WITH DEPARTMENT ORDER effective date 08/06/2009. PERMIT WILL EXPIRE 30DAYS FROM ISSUANCE DATE.. Permit Finaled. 14002 W LA RUE ST","address":"14002 W LA RUE ST","ct":"1095.00","ev":"N","apc":"North Valley","cpa":"Arleta - Pacoima","zone":"R1-1","solar":"N","pin_nbr":"210B153   114","use_code":"1","geolocation":"POINT (-118.43854 34.27565)","status_date":"04/27/2012","permit_group":"Building","refresh_time":"06/10/2026","type_lat_lon":"ADDRESS","business_unit":"Express Permit"},"geometry":{"type":"Point","coordinates":[-118.43854,34.27565]}},{"type":"Feature","properties":{"date":"2011-04-07T00:00:00.000Z","year":2011,"description":"Window (1)  change-out (same size & type) for residential buildings.  Dual glazing, labeled and certified by National Fenestration Rating Council (NFRC), is required for doors and windows replaced in all residential buildings, three stories or less, per Section 152(b) of Title 24.  INSULATION 1,811 SQ. FT. & (1) VENT.","metadescription":"Bldg-Alter/Repair. 1 or 2 Family Dwelling. Window (1)  change-out (same size & type) for residential buildings.  Dual glazing, labeled and certified by National Fenestration Rating Council (NFRC), is required for doors and windows replaced in all residential buildings, three stories or less, per Section 152(b) of Title 24.  INSULATION 1,811 SQ. FT. & (1) VENT.. Permit Finaled. 11310 N TAMARACK AVE","address":"11310 N TAMARACK AVE","ct":"1095.00","ev":"N","apc":"North Valley","cpa":"Arleta - Pacoima","zone":"R1-1","solar":"N","pin_nbr":"210B153   101","use_code":"1","geolocation":"POINT (-118.43641 34.27551)","status_date":"09/18/2012","permit_group":"Building","refresh_time":"06/10/2026","type_lat_lon":"ADDRESS","business_unit":"Express Permit"},"geometry":{"type":"Point","coordinates":[-118.43641,34.27551]}},{"type":"Feature","properties":{"date":"2010-03-26T00:00:00.000Z","year":2010,"description":"Kitchen/bathroom remodel for residential buildings.  Window change-out (same size, type, and location) for residential buildings.  Dual glazing, labeled and certified by National Fenestration Rating Council (NFRC), is required for doors and windows replaced in all residential buildings, three stories or less, per Section 152(b) of Title 24.  No structural changes.  Valuation to be verified by the field inspector.","metadescription":"Bldg-Alter/Repair. 1 or 2 Family Dwelling. Kitchen/bathroom remodel for residential buildings.  Window change-out (same size, type, and location) for residential buildings.  Dual glazing, labeled and certified by National Fenestration Rating Council (NFRC), is required for doors and windows replaced in all residential buildings, three stories or less, per Section 152(b) of Title 24.  No structural changes.  Valuation to be verified by the field inspector.. Permit Finaled. 14360 W AZTEC ST","address":"14360 W AZTEC ST","ct":"1070.20","ev":"N","apc":"North Valley","cpa":"Sylmar","zone":"R1-1","solar":"N","pin_nbr":"219B153   386","use_code":"1","geolocation":"POINT (-118.44591 34.295)","status_date":"05/19/2010","permit_group":"Building","refresh_time":"06/10/2026","type_lat_lon":"ADDRESS","business_unit":"Express Permit"},"geometry":{"type":"Point","coordinates":[-118.44591,34.295]}},{"type":"Feature","properties":{"date":"2010-03-18T00:00:00.000Z","year":2010,"description":"(N) 36' X 18' ADDITION OF ATTACHED PATIO COVER (WITH ACCESS FROM (E) LIVING ROOM), CHANGE OUT ALL (9) WINDOWS & (1) DOOR (GARAGE -TO- SFD) [SAME SIZE/LOCATION], AND REMODEL INTERIOR BATHROOMS.  ALL WORK IS PER TYPE V SHEET & CITY STANDARDS.    INSPECTOR TO VERIFY VALUATION.  **SEE COMMENTS**","metadescription":"Bldg-Addition. 1 or 2 Family Dwelling. (N) 36' X 18' ADDITION OF ATTACHED PATIO COVER (WITH ACCESS FROM (E) LIVING ROOM), CHANGE OUT ALL (9) WINDOWS & (1) DOOR (GARAGE -TO- SFD) [SAME SIZE/LOCATION], AND REMODEL INTERIOR BATHROOMS.  ALL WORK IS PER TYPE V SHEET & CITY STANDARDS.    INSPECTOR TO VERIFY VALUATION.  **SEE COMMENTS**. CofO Issued. 13273 W CORCORAN ST","address":"13273 W CORCORAN ST","ct":"1042.01","ev":"N","apc":"North Valley","cpa":"Arleta - Pacoima","zone":"R1-1","solar":"N","pin_nbr":"213B157     8","use_code":"1","geolocation":"POINT (-118.42229 34.28462)","status_date":"11/16/2012","construction":"Type V-B Construction","permit_group":"Building","refresh_time":"06/10/2026","type_lat_lon":"ADDRESS","business_unit":"Plan Check at Counter","square_footage":"648"},"geometry":{"type":"Point","coordinates":[-118.42229,34.28462]}},{"type":"Feature","properties":{"date":"2009-11-25T00:00:00.000Z","year":2009,"description":"Kitchen remodel for residential buildings (no structural changes). Window change-out (same size, type and location) for residential buildings.  Dual glazing, labeled and certified by National Fenestration Rating Council (NFRC), is er Section 52(b) of Title 24. Valuation to be verified by field inspector.","metadescription":"Bldg-Alter/Repair. 1 or 2 Family Dwelling. Kitchen remodel for residential buildings (no structural changes). Window change-out (same size, type and location) for residential buildings.  Dual glazing, labeled and certified by National Fenestration Rating Council (NFRC), is er Section 52(b) of Title 24. Valuation to be verified by field inspector.. Permit Finaled. 14435 W AZTEC ST","address":"14435 W AZTEC ST","ct":"1070.20","ev":"N","apc":"North Valley","cpa":"Sylmar","zone":"R1-1","solar":"N","pin_nbr":"219B149   818","use_code":"1","geolocation":"POINT (-118.44745 34.29368)","status_date":"01/06/2010","permit_group":"Building","refresh_time":"06/10/2026","type_lat_lon":"ADDRESS","business_unit":"Express Permit"},"geometry":{"type":"Point","coordinates":[-118.44745,34.29368]}},{"type":"Feature","properties":{"date":"2009-04-09T00:00:00.000Z","year":2009,"description":"New stucco. Window change-out (same size & type and location) for residential buildings.  Valuation to be verified by field inspector.  Dual glazing, labeled and certified by National Fenestration Rating Council (NFRC), is required for doors and windows replaced in all residential buildings, three stories or less, per Section 152(b) of Title 24.","metadescription":"Bldg-Alter/Repair. 1 or 2 Family Dwelling. New stucco. Window change-out (same size & type and location) for residential buildings.  Valuation to be verified by field inspector.  Dual glazing, labeled and certified by National Fenestration Rating Council (NFRC), is required for doors and windows replaced in all residential buildings, three stories or less, per Section 152(b) of Title 24.. Permit Finaled. 14307 W HUBBARD ST","address":"14307 W HUBBARD ST","ct":"1070.20","ev":"N","apc":"North Valley","cpa":"Sylmar","zone":"R1-1","solar":"N","pin_nbr":"219B153   381","use_code":"1","geolocation":"POINT (-118.44472 34.29487)","status_date":"07/19/2012","permit_group":"Building","refresh_time":"06/10/2026","type_lat_lon":"ADDRESS","business_unit":"Express Permit"},"geometry":{"type":"Point","coordinates":[-118.44472,34.29487]}},{"type":"Feature","properties":{"date":"2008-10-23T00:00:00.000Z","year":2008,"description":"9' x 7' laundry room additon to rear.  +63sf.  Related elec/hvac/plumb.","metadescription":"Bldg-Addition. 1 or 2 Family Dwelling. 9' x 7' laundry room additon to rear.  +63sf.  Related elec/hvac/plumb.. CofO Issued. 14085 W LA RUE ST","address":"14085 La Rue Street, CA, San Fernando, 91340, US","ct":"1095.00","ev":"N","apc":"North Valley","cpa":"Arleta - Pacoima","zone":"R1-1","solar":"N","pin_nbr":"210B153   235","use_code":"1","geolocation":"POINT (-118.44075113 34.27445252)","status_date":"10/14/2020","construction":"Type V-B Construction","permit_group":"Building","refresh_time":"06/10/2026","type_lat_lon":"BUILDING","business_unit":"Plan Check at Counter","square_footage":"63"},"geometry":{"type":"Point","coordinates":[-118.44075113,34.27445252]}},{"type":"Feature","properties":{"date":"2005-04-13T00:00:00.000Z","year":2005,"description":"1-STORY ADDITION (Extending Living Room & Adding 1 Bath / Laundry)  TO EXIST'G RESIDENCE  PER CITY STD. TYPE V SHEET.   Related Elec., Hvac., & Plumb.   Work To Comply w/ Dept. Order Dated 7/19/2004 By Insp. R Tikka (Permit Will Expire 30 Days From Issuance Date).","metadescription":"Bldg-Addition. 1 or 2 Family Dwelling. 1-STORY ADDITION (Extending Living Room & Adding 1 Bath / Laundry)  TO EXIST'G RESIDENCE  PER CITY STD. TYPE V SHEET.   Related Elec., Hvac., & Plumb.   Work To Comply w/ Dept. Order Dated 7/19/2004 By Insp. R Tikka (Permit Will Expire 30 Days From Issuance Date).. Issued. 14257 W HUBBARD ST","address":"14257 Hubbard Street, CA, Sylmar, 91342, US","ct":"1070.20","ev":"N","apc":"North Valley","cpa":"Sylmar","zone":"R1-1","solar":"N","pin_nbr":"219B153   341","use_code":"1","geolocation":"POINT (-118.44372 34.29577)","status_date":"04/13/2005","construction":"Type V-N Construction","permit_group":"Building","refresh_time":"06/10/2026","type_lat_lon":"ADDRESS","business_unit":"Plan Check at Counter","square_footage":"360"},"geometry":{"type":"Point","coordinates":[-118.44372,34.29577]}},{"type":"Feature","properties":{"date":"2004-11-22T00:00:00.000Z","year":2004,"description":"GENERAL REHAB PERMIT (CASE NO. 114515) - COMPLY WITH DEPARTMENT ORDER DATED 10-4-04 - PERMIT WILL EXPIRE 30 DAYS FROM ISSUANCE DATE - NEW STUCCO - REPLACE WINDOWS, AND RELATED HVAC AND PLUMBING - VALUATION TO BE VERIFIED BY FIELD INSPECTOR","metadescription":"Bldg-Alter/Repair. 1 or 2 Family Dwelling. GENERAL REHAB PERMIT (CASE NO. 114515) - COMPLY WITH DEPARTMENT ORDER DATED 10-4-04 - PERMIT WILL EXPIRE 30 DAYS FROM ISSUANCE DATE - NEW STUCCO - REPLACE WINDOWS, AND RELATED HVAC AND PLUMBING - VALUATION TO BE VERIFIED BY FIELD INSPECTOR. Permit Finaled. 14313 W AZTEC ST","address":"14313 Aztec Street, CA, Sylmar, 91342, US","ct":"1070.20","ev":"N","apc":"North Valley","cpa":"Sylmar","zone":"R1-1","solar":"N","pin_nbr":"219B153   328","use_code":"1","geolocation":"POINT (-118.44507 34.2962)","status_date":"12/16/2004","permit_group":"Building","refresh_time":"06/10/2026","type_lat_lon":"ADDRESS","business_unit":"Express Permit"},"geometry":{"type":"Point","coordinates":[-118.44507,34.2962]}},{"type":"Feature","properties":{"date":"2003-03-24T00:00:00.000Z","year":2003,"description":"NEW SINGLE FAMILY DWELLING. INCLUDES ELECT, PLUMBING, AND HVAC PERMITS. EQSO REQUIRED.","metadescription":"Bldg-New. 1 or 2 Family Dwelling. NEW SINGLE FAMILY DWELLING. INCLUDES ELECT, PLUMBING, AND HVAC PERMITS. EQSO REQUIRED.. Permit Finaled. 13978 W LA RUE ST","address":"13978 La Rue Street, CA, San Fernando, 91340, US","ct":"1095.00","ev":"N","apc":"North Valley","zone":"R1-1","solar":"N","pin_nbr":"210B153    69","use_code":"1","geolocation":"POINT (-118.43807 34.27598)","status_date":"09/26/2003","construction":"Type V-N Construction","permit_group":"Building","refresh_time":"06/10/2026","type_lat_lon":"ADDRESS","business_unit":"Appointment Plan Check","square_footage":"1056"},"geometry":{"type":"Point","coordinates":[-118.43807,34.27598]}},{"type":"Feature","properties":{"date":"1999-01-19T00:00:00.000Z","year":1999,"description":"convert (e) 14'3\" x 18'6\" gar. to storage rm, add 15' x 18'6\" carport, 11'3\" x 33'9\" bed,den bathrn, with elec, plumbing, hvac.work, install s.g.s.o.v.","metadescription":"Bldg-Addition. 1 or 2 Family Dwelling. convert (e) 14'3\" x 18'6\" gar. to storage rm, add 15' x 18'6\" carport, 11'3\" x 33'9\" bed,den bathrn, with elec, plumbing, hvac.work, install s.g.s.o.v.. Issued. 11233 KEWEN ST","address":"14061 Daubert Street, CA, San Fernando, 91340, US","ct":"1095.00","ev":"N","apc":"North Valley","zone":"R1-1","solar":"N","pin_nbr":"210B153   288","use_code":"1","geolocation":"POINT (-118.43953382 34.27413764)","status_date":"01/19/1999","construction":"Type V-N Construction","permit_group":"Building","refresh_time":"06/10/2026","type_lat_lon":"PIN","business_unit":"Plan Check at Counter","square_footage":"657"},"geometry":{"type":"Point","coordinates":[-118.43953382,34.27413764]}},{"type":"Feature","properties":{"date":"1997-06-11T00:00:00.000Z","year":1997,"description":"ADD BEDROOM AND BATHROOM TO EXISTING SFD, ADD BREEZEWAY TO CONNECT HOUSE TO GAR.,RELATED ELECTRICAL, HVAC AND PLUMBING ADD PATIO COVER (7X20.5) -143 SF BEDROOM ADDITION= 405 SF","metadescription":"Bldg-Addition. 1 or 2 Family Dwelling. ADD BEDROOM AND BATHROOM TO EXISTING SFD, ADD BREEZEWAY TO CONNECT HOUSE TO GAR.,RELATED ELECTRICAL, HVAC AND PLUMBING ADD PATIO COVER (7X20.5) -143 SF BEDROOM ADDITION= 405 SF. Permit Closed. 14160 W LA RUE ST","address":"14158 La Rue Street, CA, San Fernando, 91340, US","ct":"1095.00","ev":"N","apc":"North Valley","zone":"R1-1","solar":"N","pin_nbr":"210B153   426","use_code":"1","geolocation":"POINT (-118.44185 34.27321)","status_date":"09/10/1999","permit_group":"Building","refresh_time":"06/10/2026","type_lat_lon":"ADDRESS","business_unit":"Plan Check at Counter"},"geometry":{"type":"Point","coordinates":[-118.44185,34.27321]}}]}
