{"type":"FeatureCollection","features":[{"type":"Feature","properties":{"date":"2022-11-23T00:00:00.000Z","year":2022,"description":"8'-6\" X 5'-6\" ADDITION TO SINGLE FAMILY DWELLING  AND CONVERSION OF 18'-0\" X 14'-0\" EXISTING DEN TO MASTER BEDROOM , 14'-0\" X 38'-10\"ADDITION FOR ONE STORY ATTACHED  ACCEESSORY DWELLIGN UNIT PER LAMC 12.22 A.33(c) AND (e) - ALL WORK PER WFPP , AND REMOVAL OF EXISTING PATIO COVERThe LID clearance has been deferred. Approval for LID requirements shall be obtained from LASAN prior tothe issuance of the Certificate of Occupancy.*** COMPLY WITH DEPARTMENT ORDER effective date 7/08/2022. PERMIT WILL EXPIRE 30 DAYS FROM ISSUANCE DATE","metadescription":"Bldg-Addition. 1 or 2 Family Dwelling. 8'-6\" X 5'-6\" ADDITION TO SINGLE FAMILY DWELLING  AND CONVERSION OF 18'-0\" X 14'-0\" EXISTING DEN TO MASTER BEDROOM , 14'-0\" X 38'-10\"ADDITION FOR ONE STORY ATTACHED  ACCEESSORY DWELLIGN UNIT PER LAMC 12.22 A.33(c) AND (e) - ALL WORK PER WFPP , AND REMOVAL OF EXISTING PATIO COVERThe LID clearance has been deferred. Approval for LID requirements shall be obtained from LASAN prior tothe issuance of the Certificate of Occupancy.*** COMPLY WITH DEPARTMENT ORDER effective date 7/08/2022. PERMIT WILL EXPIRE 30 DAYS FROM ISSUANCE DATE. CofO Issued. 13407-13409 W BROWNELL ST","address":"13407 Brownell Street, CA, San Fernando, 91340, US","ct":"1043.10","ev":"N","apc":"North Valley","cpa":"Arleta - Pacoima","zone":"R1-1-CUGU","solar":"N","pin_nbr":"213B157    27","use_code":"1","status_date":"04/10/2025","construction":"Type V-B Construction","permit_group":"Building","refresh_time":"06/10/2026","type_lat_lon":"BUILDING","business_unit":"Expanded Counter Plan Check","square_footage":"538"},"geometry":{"type":"Point","coordinates":[-118.42466056,34.28429314]}},{"type":"Feature","properties":{"date":"2016-07-11T00:00:00.000Z","year":2016,"description":"CHANGE OF USE/OCCUPANCY OF 1-STORY LIGHT MANUFACTURING BLDG TO YOUTH CENTER.  RESTRIPE PARKING LOT TO REVISE LAYOUT.","metadescription":"Bldg-Alter/Repair. Commercial. CHANGE OF USE/OCCUPANCY OF 1-STORY LIGHT MANUFACTURING BLDG TO YOUTH CENTER.  RESTRIPE PARKING LOT TO REVISE LAYOUT.. CofO Issued. 11844 N GLENOAKS BLVD","address":"11844 Glenoaks Boulevard, CA, San Fernando, 91340, US","ct":"1042.01","ev":"N","apc":"North Valley","cpa":"Arleta - Pacoima","zone":"M2-1","solar":"N","height":"20","pin_nbr":"216B157    60","use_code":"14","geolocation":"POINT (-118.42349 34.28512)","status_date":"04/09/2018","permit_group":"Building","refresh_time":"06/10/2026","type_lat_lon":"ADDRESS","business_unit":"Regular Plan Check"},"geometry":{"type":"Point","coordinates":[-118.42349,34.28512]}}]}
