{"type":"FeatureCollection","features":[{"type":"Feature","properties":{"date":"2025-12-08T00:00:00.000Z","year":2025,"description":"SUPPLEMENTAL PERMIT TO 21047-20000-02427 TO RELOCATE THE SPA AND ADD STEPS INSIDE THE POOL.","metadescription":"Swimming-Pool/Spa. 1 or 2 Family Dwelling. SUPPLEMENTAL PERMIT TO 21047-20000-02427 TO RELOCATE THE SPA AND ADD STEPS INSIDE THE POOL.. Issued. 13357 W CORCORAN ST","address":"13357 Corcoran Street, CA, San Fernando, 91340, US","ct":"1043.10","ev":"N","apc":"North Valley","cpa":"Arleta - Pacoima","zone":"R1-1-CUGU","solar":"N","pin_nbr":"213B157   114","use_code":"20","status_date":"12/08/2025","permit_group":"Building","refresh_time":"06/10/2026","type_lat_lon":"ADDRESS","business_unit":"Expanded Counter Plan Check"},"geometry":{"type":"Point","coordinates":[-118.42427,34.28313]}},{"type":"Feature","properties":{"date":"2023-10-19T00:00:00.000Z","year":2023,"description":"NEW 9'X 6' DETACHED POOL BATHROOM. WORK DONE PER WFPP.","metadescription":"Bldg-New. 1 or 2 Family Dwelling. NEW 9'X 6' DETACHED POOL BATHROOM. WORK DONE PER WFPP.. CofO Issued. 14307 W AZTEC ST","address":"14307 Aztec Street, CA, Sylmar, 91342, US","ct":"1070.20","ev":"N","apc":"North Valley","cpa":"Sylmar","zone":"R1-1","solar":"N","height":"10.5","pin_nbr":"219B153   323","use_code":"23","status_date":"06/21/2024","construction":"Type V-B Construction","permit_group":"Building","refresh_time":"06/10/2026","type_lat_lon":"ADDRESS","business_unit":"Plan Check at Counter","square_footage":"54"},"geometry":{"type":"Point","coordinates":[-118.44496,34.29631]}},{"type":"Feature","properties":{"date":"2023-10-19T00:00:00.000Z","year":2023,"description":"NEW 17'-0\" X 32'-0\" POOL WITH A 10'-0\" X 10'-0\" SPA PER STANDARD PLAN 254","metadescription":"Swimming-Pool/Spa. 1 or 2 Family Dwelling. NEW 17'-0\" X 32'-0\" POOL WITH A 10'-0\" X 10'-0\" SPA PER STANDARD PLAN 254. CofO Issued. 14307 W AZTEC ST","address":"14307 Aztec Street, CA, Sylmar, 91342, US","ct":"1070.20","ev":"N","apc":"North Valley","cpa":"Sylmar","zone":"R1-1","solar":"N","pin_nbr":"219B153   323","use_code":"20","status_date":"06/21/2024","permit_group":"Building","refresh_time":"06/10/2026","type_lat_lon":"ADDRESS","business_unit":"Plan Check at Counter"},"geometry":{"type":"Point","coordinates":[-118.44496,34.29631]}},{"type":"Feature","properties":{"date":"2021-12-02T00:00:00.000Z","year":2021,"description":"NEW 30' X 16'-2\" SWIMMING POOL WITH 6' X 6' INTERIOR SPA. WORK PER ENGINEER.","metadescription":"Swimming-Pool/Spa. 1 or 2 Family Dwelling. NEW 30' X 16'-2\" SWIMMING POOL WITH 6' X 6' INTERIOR SPA. WORK PER ENGINEER.. Issued. 13357 W CORCORAN ST","address":"13357 Corcoran Street, CA, San Fernando, 91340, US","ct":"1043.10","ev":"N","apc":"North Valley","cpa":"Arleta - Pacoima","zone":"R1-1-CUGU","solar":"N","pin_nbr":"213B157   114","use_code":"20","status_date":"12/02/2021","permit_group":"Building","refresh_time":"06/10/2026","type_lat_lon":"ADDRESS","business_unit":"Plan Check at Counter"},"geometry":{"type":"Point","coordinates":[-118.42427,34.28313]}},{"type":"Feature","properties":{"date":"2007-01-03T00:00:00.000Z","year":2007,"description":"Remove existing pool & backfill with compacted fill.","metadescription":"Grading. 1 or 2 Family Dwelling. Remove existing pool & backfill with compacted fill.. Permit Finaled. 14417 W AZTEC ST","address":"14417 Aztec Street, CA, Sylmar, 91342, US","ct":"1070.20","ev":"N","apc":"North Valley","cpa":"Sylmar","zone":"R1-1","solar":"N","pin_nbr":"219B149   799","use_code":"60","geolocation":"POINT (-118.44704 34.29403)","status_date":"03/06/2007","permit_group":"Building","refresh_time":"06/10/2026","type_lat_lon":"ADDRESS","business_unit":"Express Permit"},"geometry":{"type":"Point","coordinates":[-118.44704,34.29403]}},{"type":"Feature","properties":{"date":"2004-10-26T00:00:00.000Z","year":2004,"description":"16' X 31' POOL  PER STD PLAN #268.","metadescription":"Swimming-Pool/Spa. 1 or 2 Family Dwelling. 16' X 31' POOL  PER STD PLAN #268.. Issued. 14334 W AZTEC ST","address":"14334 Aztec Street, CA, Sylmar, 91342, US","ct":"1070.20","ev":"N","apc":"North Valley","cpa":"Sylmar","zone":"R1-1","solar":"N","pin_nbr":"219B153   355","use_code":"20","geolocation":"POINT (-118.4453 34.29558)","status_date":"10/26/2004","permit_group":"Building","refresh_time":"06/10/2026","type_lat_lon":"ADDRESS","business_unit":"Plan Check at Counter"},"geometry":{"type":"Point","coordinates":[-118.4453,34.29558]}},{"type":"Feature","properties":{"date":"1997-08-04T00:00:00.000Z","year":1997,"description":"new 27'x17' swimming pool & spa","metadescription":"Swimming-Pool/Spa. 1 or 2 Family Dwelling. new 27'x17' swimming pool & spa. Permit Finaled. 14058 W DAUBERT ST","address":"14054 Daubert Street, CA, San Fernando, 91340, US","ct":"1095.00","ev":"N","apc":"North Valley","zone":"R1-1","solar":"N","pin_nbr":"210B153   357","use_code":"20","geolocation":"POINT (-118.43931 34.27375)","status_date":"12/13/2000","permit_group":"Building","refresh_time":"06/10/2026","type_lat_lon":"ADDRESS","business_unit":"Plan Check at Counter"},"geometry":{"type":"Point","coordinates":[-118.43931,34.27375]}},{"type":"Feature","properties":{"date":"1997-05-07T00:00:00.000Z","year":1997,"description":"CONVERT (E) GARAGE AND ENCLOSE (E) 17' X 8' PATIO AND CONVERT INTO REC. ROOM WITH 1/2 BATH . ADD 17' X 20' CARPORT. ADD 4' X 8' POOL SHOWER ROOM(ACCESSIBLE FROM THE OUTSIDE ONLY).","metadescription":"Bldg-Addition. 1 or 2 Family Dwelling. CONVERT (E) GARAGE AND ENCLOSE (E) 17' X 8' PATIO AND CONVERT INTO REC. ROOM WITH 1/2 BATH . ADD 17' X 20' CARPORT. ADD 4' X 8' POOL SHOWER ROOM(ACCESSIBLE FROM THE OUTSIDE ONLY).. Permit Expired. 14345 W AZTEC ST","address":"14345 Aztec Street, CA, Sylmar, 91342, US","ct":"1070.10","ev":"N","apc":"North Valley","zone":"R1-1","solar":"N","pin_nbr":"219B149   641","use_code":"7","geolocation":"POINT (-118.44589 34.29548)","status_date":"12/11/2006","permit_group":"Building","refresh_time":"06/10/2026","type_lat_lon":"ADDRESS","business_unit":"Plan Check at Counter"},"geometry":{"type":"Point","coordinates":[-118.44589,34.29548]}}]}
