{"type":"FeatureCollection","features":[{"type":"Feature","properties":{"date":"2024-07-02T04:00:00.000Z","year":2024,"description":"A reconnect/disconnect for a solar system to existing commercial only. Address is located in the ETJ.","metadescription":"EP. Repair. A reconnect/disconnect for a solar system to existing commercial only. Address is located in the ETJ.. Final. 204 EANES SCHOOL RD","address":"204 Eanes School Road, Austin, TX, 78746, US","link":"https://abc.austintexas.gov/web/permit/public-search-other?t_detail=1&t_selected_folderrsn=13352902","tcad_id":"0111190403","location":"    (30.28084266, -97.81188842)","day_issued":"TUESDAY","project_id":"13352902","condominium":"No","status_date":"10/25/2024","jurisdiction":"WEST LAKE HILLS FULL PURPOSE","housing_units":"1","contractor_zip":"78716","contractor_city":"AUSTIN","issuance_method":"Permit Center","contractor_phone":"5125163711","contractor_trade":"Electrical Contractor","number_of_floors":"1","permit_type_desc":"Electrical Permit","fiscal_year_issued":"2024","permit_class_mapped":"Commercial","remodel_repair_sqft":"0","contractor_address_1":"PO BOX 16304","contractor_full_name":"Jason A Thomas","issued_in_last_30_days":"No","certificate_of_occupancy":"No","property_legal_description":"ACR 4.51 OF LOT 16 BARTON SPRINGS ESTATES","electrical_valuation_remodel":"$150,000.00"},"geometry":{"type":"Point","coordinates":[-97.81188842,30.28084266]}},{"type":"Feature","properties":{"date":"2024-07-01T04:00:00.000Z","year":2024,"description":"A reconnect/disconnect for a solar system to existing commercial only. Address is located in the ETJ.","metadescription":"EP. Repair. A reconnect/disconnect for a solar system to existing commercial only. Address is located in the ETJ.. Final. 304 CAMP CRAFT RD","address":"304 Camp Craft Road, Austin, TX, 78746, US","link":"https://abc.austintexas.gov/web/permit/public-search-other?t_detail=1&t_selected_folderrsn=13352906","tcad_id":"0111190403","location":"    (30.28151633, -97.81188033)","day_issued":"MONDAY","project_id":"13352906","condominium":"No","status_date":"10/28/2024","jurisdiction":"WEST LAKE HILLS FULL PURPOSE","housing_units":"1","contractor_zip":"78716","contractor_city":"AUSTIN","issuance_method":"Permit Center","contractor_phone":"5125163711","contractor_trade":"Electrical Contractor","number_of_floors":"1","permit_type_desc":"Electrical Permit","fiscal_year_issued":"2024","permit_class_mapped":"Commercial","remodel_repair_sqft":"0","contractor_address_1":"PO BOX 16304","contractor_full_name":"Jason A Thomas","issued_in_last_30_days":"No","certificate_of_occupancy":"No","property_legal_description":"ACR 4.51 OF LOT 16 BARTON SPRINGS ESTATES","electrical_valuation_remodel":"$150,000.00"},"geometry":{"type":"Point","coordinates":[-97.81188033,30.28151633]}},{"type":"Feature","properties":{"date":"2024-07-01T04:00:00.000Z","year":2024,"description":"Install 116.40 KW Rooftop Solar System to existing commercial only. Address is located in the ETJ.","metadescription":"EP. Auxiliary Power. Install 116.40 KW Rooftop Solar System to existing commercial only. Address is located in the ETJ.. Final. 304 CAMP CRAFT RD","address":"304 Camp Craft Road, Austin, TX, 78746, US","link":"https://abc.austintexas.gov/web/permit/public-search-other?t_detail=1&t_selected_folderrsn=13350068","tcad_id":"0111190403","location":"    (30.28151633, -97.81188033)","day_issued":"MONDAY","project_id":"13350068","condominium":"No","status_date":"10/21/2024","jurisdiction":"WEST LAKE HILLS FULL PURPOSE","housing_units":"1","contractor_zip":"78716","contractor_city":"AUSTIN","issuance_method":"Permit Center","contractor_phone":"5125163711","contractor_trade":"Electrical Contractor","number_of_floors":"1","permit_type_desc":"Electrical Permit","fiscal_year_issued":"2024","permit_class_mapped":"Commercial","contractor_address_1":"PO BOX 16304","contractor_full_name":"Jason A Thomas","issued_in_last_30_days":"No","certificate_of_occupancy":"No","property_legal_description":"ACR 4.51 OF LOT 16 BARTON SPRINGS ESTATES","electrical_valuation_remodel":"$0.00"},"geometry":{"type":"Point","coordinates":[-97.81188033,30.28151633]}},{"type":"Feature","properties":{"date":"2024-07-01T04:00:00.000Z","year":2024,"description":"Install 181.87 KW Rooftop Solar System to existing commercial only. Address is located in the ETJ.","metadescription":"EP. Auxiliary Power. Install 181.87 KW Rooftop Solar System to existing commercial only. Address is located in the ETJ.. Final. 204 EANES SCHOOL RD","address":"204 Eanes School Road, Austin, TX, 78746, US","link":"https://abc.austintexas.gov/web/permit/public-search-other?t_detail=1&t_selected_folderrsn=13350014","tcad_id":"0111190403","location":"    (30.28084266, -97.81188842)","day_issued":"MONDAY","project_id":"13350014","condominium":"No","status_date":"10/22/2024","jurisdiction":"WEST LAKE HILLS FULL PURPOSE","housing_units":"1","contractor_zip":"78716","contractor_city":"AUSTIN","issuance_method":"Permit Center","contractor_phone":"5125163711","contractor_trade":"Electrical Contractor","number_of_floors":"1","permit_type_desc":"Electrical Permit","fiscal_year_issued":"2024","permit_class_mapped":"Commercial","contractor_address_1":"PO BOX 16304","contractor_full_name":"Jason A Thomas","issued_in_last_30_days":"No","certificate_of_occupancy":"No","property_legal_description":"ACR 4.51 OF LOT 16 BARTON SPRINGS ESTATES","electrical_valuation_remodel":"$0.00"},"geometry":{"type":"Point","coordinates":[-97.81188842,30.28084266]}},{"type":"Feature","properties":{"date":"2015-06-10T04:00:00.000Z","year":2015,"description":"Replacement of complete existing central heat and air system with or without duct work. (HVAC REPLACEMENT / COMMERCIAL).","metadescription":"MP. Change Out. Replacement of complete existing central heat and air system with or without duct work. (HVAC REPLACEMENT / COMMERCIAL).. Expired. 404 CAMP CRAFT RD","address":"404 Camp Craft Road, Austin, TX, 78746, US","link":"https://abc.austintexas.gov/web/permit/public-search-other?t_detail=1&t_selected_folderrsn=11368044","tcad_id":"0111190427","location":"    (30.27919768, -97.81341124)","day_issued":"WEDNESDAY","project_id":"11368044","condominium":"No","status_date":"12/08/2015","jurisdiction":"WEST LAKE HILLS FULL PURPOSE","contractor_zip":"78744","contractor_city":"AUSTIN","issuance_method":"Online","contractor_phone":"5122432628","contractor_trade":"Mechanical Contractor","permit_type_desc":"Mechanical Permit","fiscal_year_issued":"2015","permit_class_mapped":"Residential","contractor_address_1":"7910 BURLESO","contractor_address_2":"AUSTIN TX  7","contractor_full_name":"Frank Antonucci","issued_in_last_30_days":"No","certificate_of_occupancy":"No","property_legal_description":"LOT 1 *RESUB OF OAK HOLLOW CONFIRMING PLAT","mechanical_valuation_remodel":"$7,877.00"},"geometry":{"type":"Point","coordinates":[-97.81341124,30.27919768]}},{"type":"Feature","properties":{"date":"2014-07-15T04:00:00.000Z","year":2014,"description":"Retrofit one for one track lights to led fixtures to exist  commercial bldg only.EUD","metadescription":"EP. Remodel. Retrofit one for one track lights to led fixtures to exist  commercial bldg only.EUD. Expired. 911 WESTLAKE DR BLDG B","address":"911 Westlake Drive, Austin, TX, 78746, US","link":"https://abc.austintexas.gov/web/permit/public-search-other?t_detail=1&t_selected_folderrsn=11182711","tcad_id":"0115130903","location":"    (30.29117773, -97.799588)","day_issued":"TUESDAY","project_id":"11182711","condominium":"No","status_date":"09/07/2015","jurisdiction":"WEST LAKE HILLS FULL PURPOSE","housing_units":"1","contractor_zip":"78753-____","contractor_city":"AUSTIN","issuance_method":"Permit Center","contractor_phone":"5128370022","contractor_trade":"Electrical Contractor","number_of_floors":"1","permit_type_desc":"Electrical Permit","fiscal_year_issued":"2014","permit_class_mapped":"Commercial","remodel_repair_sqft":"0","contractor_address_2":"8203 N LAMAR","contractor_full_name":"Mark Mitchell","issued_in_last_30_days":"No","certificate_of_occupancy":"No","property_legal_description":"LOT 1 VILLAGE GREEN SEC 1 RESUB","electrical_valuation_remodel":"$7,000.00"},"geometry":{"type":"Point","coordinates":[-97.799588,30.29117773]}},{"type":"Feature","properties":{"date":"2013-09-13T04:00:00.000Z","year":2013,"description":"Rebuild elec service for exist. commercial bldg only. EUD","metadescription":"EP. Remodel. Rebuild elec service for exist. commercial bldg only. EUD. Final. 307 CAMP CRAFT RD","address":"307 Camp Craft Road, Austin, TX, 78746, US","link":"https://abc.austintexas.gov/web/permit/public-search-other?t_detail=1&t_selected_folderrsn=11015365","tcad_id":"0111190504","location":"    (30.27862678, -97.81249134)","day_issued":"FRIDAY","project_id":"11015365","condominium":"No","status_date":"09/26/2013","jurisdiction":"WEST LAKE HILLS FULL PURPOSE","housing_units":"1","contractor_zip":"75074","contractor_city":"Plano","issuance_method":"Permit Center","contractor_phone":"9724222665","contractor_trade":"Electrical Contractor","number_of_floors":"1","permit_type_desc":"Electrical Permit","fiscal_year_issued":"2013","permit_class_mapped":"Commercial","remodel_repair_sqft":"0","contractor_address_1":"704 E CENTRA","contractor_address_2":"PLANO TX  75","contractor_full_name":"Ronnie Riddle","issued_in_last_30_days":"No","certificate_of_occupancy":"No","property_legal_description":"LOT 1 WILD WOOD II CONFIRMING PLAT PLUS N .011AC TRI OF LOT 1 WILD WOOD CONFIRMING PLAT","electrical_valuation_remodel":"$12,770.00"},"geometry":{"type":"Point","coordinates":[-97.81249134,30.27862678]}},{"type":"Feature","properties":{"date":"2007-10-26T04:00:00.000Z","year":2007,"description":"Install electrical service for new commercial building EUD","metadescription":"EP. New. Install electrical service for new commercial building EUD. Final. 6200 FM 2244 RD","address":"6200 Farm to Market 2244, Austin, TX, 78746, US","link":"https://abc.austintexas.gov/web/permit/public-search-other?t_detail=1&t_selected_folderrsn=10085277","tcad_id":"0117230119","location":"    (30.29716841, -97.82942305)","day_issued":"FRIDAY","project_id":"10085277","condominium":"No","status_date":"10/09/2008","jurisdiction":"AUSTIN 2 MILE ETJ","housing_units":"0","contractor_zip":"78733","contractor_city":"Austin","issuance_method":"Permit Center","contractor_phone":"5122634359","contractor_trade":"Electrical Contractor","number_of_floors":"0","permit_type_desc":"Electrical Permit","fiscal_year_issued":"2008","total_new_add_sqft":"4,200","permit_class_mapped":"Commercial","contractor_address_1":"2419 CUERNAV","contractor_address_2":"AUSTIN TX  7","contractor_full_name":"Jeffrey Anderson","issued_in_last_30_days":"No","certificate_of_occupancy":"No","property_legal_description":"LOT 3 BLK A PALISADES WEST AMENDED PLAT OF THE AMENDED PLAT"},"geometry":{"type":"Point","coordinates":[-97.82942305,30.29716841]}},{"type":"Feature","properties":{"date":"1994-08-25T04:00:00.000Z","year":1994,"description":"Service Only - Remodel Commercial Apts","metadescription":"MP. Remodel. Service Only - Remodel Commercial Apts. Final. 850 FOREST VIEW DR","address":"850 Forest View Drive, Austin, TX, 78746, US","link":"https://abc.austintexas.gov/web/permit/public-search-other?t_detail=1&t_selected_folderrsn=3321677","tcad_id":"0113130212","location":"    (30.28803725, -97.79724288)","day_issued":"THURSDAY","project_id":"3321677","condominium":"No","status_date":"05/22/2007","jurisdiction":"WEST LAKE HILLS FULL PURPOSE","housing_units":"1","issuance_method":"Permit Center","permit_type_desc":"Mechanical Permit","master_permit_num":"4229354","fiscal_year_issued":"1994","permit_class_mapped":"Commercial","issued_in_last_30_days":"No","certificate_of_occupancy":"No","property_legal_description":"LOT 1 (.23AC) HOLLY BELL CONFIRMING PLAT AMENDED PLAT OF"},"geometry":{"type":"Point","coordinates":[-97.79724288,30.28803725]}},{"type":"Feature","properties":{"date":"1994-08-25T04:00:00.000Z","year":1994,"description":"Service Only - Remodel Commercial Apts","metadescription":"EP. Remodel. Service Only - Remodel Commercial Apts. Final. 850 FOREST VIEW DR","address":"850 Forest View Drive, Austin, TX, 78746, US","link":"https://abc.austintexas.gov/web/permit/public-search-other?t_detail=1&t_selected_folderrsn=4229354","tcad_id":"0113130212","location":"    (30.28803725, -97.79724288)","day_issued":"THURSDAY","project_id":"4229354","condominium":"No","status_date":"05/22/2007","jurisdiction":"WEST LAKE HILLS FULL PURPOSE","housing_units":"1","issuance_method":"Permit Center","permit_type_desc":"Electrical Permit","fiscal_year_issued":"1994","permit_class_mapped":"Commercial","issued_in_last_30_days":"No","certificate_of_occupancy":"No","property_legal_description":"LOT 1 (.23AC) HOLLY BELL CONFIRMING PLAT AMENDED PLAT OF"},"geometry":{"type":"Point","coordinates":[-97.79724288,30.28803725]}},{"type":"Feature","properties":{"date":"1993-04-13T04:00:00.000Z","year":1993,"description":"Electrical Finish For Commercial Bldg","metadescription":"EP. Remodel. Electrical Finish For Commercial Bldg. Final. 401 CAMP CRAFT RD","address":"401 Camp Craft Road, Austin, TX, 78746, US","link":"https://abc.austintexas.gov/web/permit/public-search-other?t_detail=1&t_selected_folderrsn=4214398","tcad_id":"0111190502","location":"    (30.27878944, -97.81293073)","day_issued":"TUESDAY","project_id":"4214398","condominium":"No","status_date":"05/22/2007","jurisdiction":"WEST LAKE HILLS FULL PURPOSE","housing_units":"1","issuance_method":"Permit Center","permit_type_desc":"Electrical Permit","fiscal_year_issued":"1993","permit_class_mapped":"Commercial","issued_in_last_30_days":"No","certificate_of_occupancy":"No","property_legal_description":"LOT 1 * LESS N .011AC TRI WILD WOOD CONFIRMING PLAT"},"geometry":{"type":"Point","coordinates":[-97.81293073,30.27878944]}},{"type":"Feature","properties":{"date":"1993-04-13T04:00:00.000Z","year":1993,"description":"Electrical Finish For Commercial Bldg","metadescription":"MP. Remodel. Electrical Finish For Commercial Bldg. Final. 401 CAMP CRAFT RD","address":"401 Camp Craft Road, Austin, TX, 78746, US","link":"https://abc.austintexas.gov/web/permit/public-search-other?t_detail=1&t_selected_folderrsn=3307145","tcad_id":"0111190502","location":"    (30.27878944, -97.81293073)","day_issued":"TUESDAY","project_id":"3307145","condominium":"No","status_date":"05/22/2007","jurisdiction":"WEST LAKE HILLS FULL PURPOSE","housing_units":"1","issuance_method":"Permit Center","permit_type_desc":"Mechanical Permit","master_permit_num":"4214398","fiscal_year_issued":"1993","permit_class_mapped":"Commercial","issued_in_last_30_days":"No","certificate_of_occupancy":"No","property_legal_description":"LOT 1 * LESS N .011AC TRI WILD WOOD CONFIRMING PLAT"},"geometry":{"type":"Point","coordinates":[-97.81293073,30.27878944]}},{"type":"Feature","properties":{"date":"1993-03-30T05:00:00.000Z","year":1993,"description":"Finish Out For Commercial Use","metadescription":"MP. Remodel. Finish Out For Commercial Use. Final. 305 CAMP CRAFT RD","address":"305 Camp Craft Road, Austin, TX, 78746, US","link":"https://abc.austintexas.gov/web/permit/public-search-other?t_detail=1&t_selected_folderrsn=3306771","tcad_id":"0111190504","location":"    (30.27861831, -97.8120606)","day_issued":"TUESDAY","project_id":"3306771","condominium":"No","status_date":"05/22/2007","jurisdiction":"WEST LAKE HILLS FULL PURPOSE","housing_units":"1","issuance_method":"Permit Center","permit_type_desc":"Mechanical Permit","master_permit_num":"4214032","fiscal_year_issued":"1993","permit_class_mapped":"Commercial","issued_in_last_30_days":"No","certificate_of_occupancy":"No","property_legal_description":"LOT 1 WILD WOOD II CONFIRMING PLAT PLUS N .011AC TRI OF LOT 1 WILD WOOD CONFIRMING PLAT"},"geometry":{"type":"Point","coordinates":[-97.8120606,30.27861831]}},{"type":"Feature","properties":{"date":"1993-03-30T05:00:00.000Z","year":1993,"description":"Finish Out For Commercial Use","metadescription":"EP. Remodel. Finish Out For Commercial Use. Final. 305 CAMP CRAFT RD","address":"305 Camp Craft Road, Austin, TX, 78746, US","link":"https://abc.austintexas.gov/web/permit/public-search-other?t_detail=1&t_selected_folderrsn=4214032","tcad_id":"0111190504","location":"    (30.27861831, -97.8120606)","day_issued":"TUESDAY","project_id":"4214032","condominium":"No","status_date":"05/22/2007","jurisdiction":"WEST LAKE HILLS FULL PURPOSE","housing_units":"1","issuance_method":"Permit Center","permit_type_desc":"Electrical Permit","fiscal_year_issued":"1993","permit_class_mapped":"Commercial","issued_in_last_30_days":"No","certificate_of_occupancy":"No","property_legal_description":"LOT 1 WILD WOOD II CONFIRMING PLAT PLUS N .011AC TRI OF LOT 1 WILD WOOD CONFIRMING PLAT"},"geometry":{"type":"Point","coordinates":[-97.8120606,30.27861831]}},{"type":"Feature","properties":{"date":"1992-10-02T04:00:00.000Z","year":1992,"description":"Connect Elect To A/C Unit Commercial","metadescription":"EP. Remodel. Connect Elect To A/C Unit Commercial. VOID. 1821 WESTLAKE DR","address":"1821 Westlake Drive, Austin, TX, 78746, US","link":"https://abc.austintexas.gov/web/permit/public-search-other?t_detail=1&t_selected_folderrsn=4209600","tcad_id":"0119130732","location":"    (30.30400806, -97.79514643)","day_issued":"FRIDAY","project_id":"4209600","condominium":"No","status_date":"09/08/2008","jurisdiction":"AUSTIN LTD","housing_units":"1","issuance_method":"Permit Center","permit_type_desc":"Electrical Permit","fiscal_year_issued":"1993","permit_class_mapped":"Commercial","issued_in_last_30_days":"No","certificate_of_occupancy":"No"},"geometry":{"type":"Point","coordinates":[-97.79514643,30.30400806]}},{"type":"Feature","properties":{"date":"1992-10-02T04:00:00.000Z","year":1992,"description":"Connect Elect To A/C Unit Commercial","metadescription":"MP. Remodel. Connect Elect To A/C Unit Commercial. VOID. 1821 WESTLAKE DR","address":"1821 Westlake Drive, Austin, TX, 78746, US","link":"https://abc.austintexas.gov/web/permit/public-search-other?t_detail=1&t_selected_folderrsn=3302441","tcad_id":"0119130732","location":"    (30.30400806, -97.79514643)","day_issued":"FRIDAY","project_id":"3302441","condominium":"No","status_date":"09/08/2008","jurisdiction":"AUSTIN LTD","housing_units":"1","issuance_method":"Permit Center","permit_type_desc":"Mechanical Permit","master_permit_num":"4209600","fiscal_year_issued":"1993","permit_class_mapped":"Commercial","issued_in_last_30_days":"No","certificate_of_occupancy":"No"},"geometry":{"type":"Point","coordinates":[-97.79514643,30.30400806]}},{"type":"Feature","properties":{"date":"1992-02-19T05:00:00.000Z","year":1992,"description":"Electrical Repairs Commercial","metadescription":"MP. Remodel. Electrical Repairs Commercial. Final. 1109 WESTLAKE DR","address":"1109 Westlake Drive, Austin, TX, 78746, US","link":"https://abc.austintexas.gov/web/permit/public-search-other?t_detail=1&t_selected_folderrsn=3296633","tcad_id":"0115130608","location":"    (30.292677, -97.79738084)","day_issued":"WEDNESDAY","project_id":"3296633","condominium":"No","status_date":"05/22/2007","jurisdiction":"WEST LAKE HILLS FULL PURPOSE","housing_units":"1","issuance_method":"Permit Center","permit_type_desc":"Mechanical Permit","master_permit_num":"4203657","fiscal_year_issued":"1992","permit_class_mapped":"Commercial","issued_in_last_30_days":"No","certificate_of_occupancy":"No","property_legal_description":"LOT B WESTLAKE FIREHOUSE NO 1"},"geometry":{"type":"Point","coordinates":[-97.79738084,30.292677]}},{"type":"Feature","properties":{"date":"1992-02-19T05:00:00.000Z","year":1992,"description":"Electrical Repairs Commercial","metadescription":"EP. Remodel. Electrical Repairs Commercial. Final. 1109 WESTLAKE DR","address":"1109 Westlake Drive, Austin, TX, 78746, US","link":"https://abc.austintexas.gov/web/permit/public-search-other?t_detail=1&t_selected_folderrsn=4203657","tcad_id":"0115130608","location":"    (30.292677, -97.79738084)","day_issued":"WEDNESDAY","project_id":"4203657","condominium":"No","status_date":"05/22/2007","jurisdiction":"WEST LAKE HILLS FULL PURPOSE","housing_units":"1","issuance_method":"Permit Center","permit_type_desc":"Electrical Permit","fiscal_year_issued":"1992","permit_class_mapped":"Commercial","issued_in_last_30_days":"No","certificate_of_occupancy":"No","property_legal_description":"LOT B WESTLAKE FIREHOUSE NO 1"},"geometry":{"type":"Point","coordinates":[-97.79738084,30.292677]}},{"type":"Feature","properties":{"date":"1991-08-15T04:00:00.000Z","year":1991,"description":"Only Electric Commercial","metadescription":"MP. Remodel. Only Electric Commercial. Final. 515 S CAPITAL OF TEXAS HWY NB","address":"515 South Capital Of Texas Highway Northbound, Austin, TX, 78746, US","link":"https://abc.austintexas.gov/web/permit/public-search-other?t_detail=1&t_selected_folderrsn=3292670","tcad_id":"0117230213","location":"    (30.29692778, -97.82682087)","day_issued":"THURSDAY","project_id":"3292670","condominium":"No","status_date":"05/22/2007","jurisdiction":"WEST LAKE HILLS FULL PURPOSE","housing_units":"1","issuance_method":"Permit Center","permit_type_desc":"Mechanical Permit","master_permit_num":"4199563","fiscal_year_issued":"1991","permit_class_mapped":"Commercial","issued_in_last_30_days":"No","certificate_of_occupancy":"No","property_legal_description":"LOT C FLINTRIDGE OAKS RESUB NO 1"},"geometry":{"type":"Point","coordinates":[-97.82682087,30.29692778]}},{"type":"Feature","properties":{"date":"1991-08-15T04:00:00.000Z","year":1991,"description":"Only Electric Commercial","metadescription":"EP. Remodel. Only Electric Commercial. Final. 515 S CAPITAL OF TEXAS HWY NB","address":"515 South Capital Of Texas Highway Northbound, Austin, TX, 78746, US","link":"https://abc.austintexas.gov/web/permit/public-search-other?t_detail=1&t_selected_folderrsn=4199563","tcad_id":"0117230213","location":"    (30.29692778, -97.82682087)","day_issued":"THURSDAY","project_id":"4199563","condominium":"No","status_date":"05/22/2007","jurisdiction":"WEST LAKE HILLS FULL PURPOSE","housing_units":"1","issuance_method":"Permit Center","permit_type_desc":"Electrical Permit","fiscal_year_issued":"1991","permit_class_mapped":"Commercial","issued_in_last_30_days":"No","certificate_of_occupancy":"No","property_legal_description":"LOT C FLINTRIDGE OAKS RESUB NO 1"},"geometry":{"type":"Point","coordinates":[-97.82682087,30.29692778]}},{"type":"Feature","properties":{"date":"1990-03-29T05:00:00.000Z","year":1990,"description":"New Water Service Commercial","metadescription":"PP. Remodel. New Water Service Commercial. Final. 404 CAMP CRAFT RD","address":"404 Camp Craft Road, Austin, TX, 78746, US","link":"https://abc.austintexas.gov/web/permit/public-search-other?t_detail=1&t_selected_folderrsn=3651371","tcad_id":"0111190427","location":"    (30.27919768, -97.81341124)","day_issued":"THURSDAY","project_id":"3651371","condominium":"No","status_date":"09/29/2008","jurisdiction":"WEST LAKE HILLS FULL PURPOSE","housing_units":"1","issuance_method":"Permit Center","permit_type_desc":"Plumbing Permit","master_permit_num":"593931","fiscal_year_issued":"1990","permit_class_mapped":"Commercial","issued_in_last_30_days":"No","certificate_of_occupancy":"No","property_legal_description":"LOT 1 *RESUB OF OAK HOLLOW CONFIRMING PLAT"},"geometry":{"type":"Point","coordinates":[-97.81341124,30.27919768]}},{"type":"Feature","properties":{"date":"1990-03-29T05:00:00.000Z","year":1990,"description":"New Water Service Commercial","metadescription":"BP. Remodel. New Water Service Commercial. Expired. 404 CAMP CRAFT RD","address":"404 Camp Craft Road, Austin, TX, 78746, US","link":"https://abc.austintexas.gov/web/permit/public-search-other?t_detail=1&t_selected_folderrsn=593931","tcad_id":"0111190427","location":"    (30.27919768, -97.81341124)","day_issued":"THURSDAY","project_id":"593931","condominium":"No","status_date":"06/06/2007","jurisdiction":"WEST LAKE HILLS FULL PURPOSE","housing_units":"1","issuance_method":"Permit Center","permit_type_desc":"Building Permit","fiscal_year_issued":"1990","permit_class_mapped":"Commercial","issued_in_last_30_days":"No","certificate_of_occupancy":"No","property_legal_description":"LOT 1 *RESUB OF OAK HOLLOW CONFIRMING PLAT"},"geometry":{"type":"Point","coordinates":[-97.81341124,30.27919768]}},{"type":"Feature","properties":{"date":"1988-11-21T05:00:00.000Z","year":1988,"description":"Finish Out For Commercial Space","metadescription":"EP. Remodel. Finish Out For Commercial Space. Final. 305 CAMP CRAFT RD UNIT 100","address":"305 Camp Craft Road, Austin, TX, 78746, US","link":"https://abc.austintexas.gov/web/permit/public-search-other?t_detail=1&t_selected_folderrsn=4174318","tcad_id":"0111190504","location":"    (30.27861831, -97.8120606)","day_issued":"MONDAY","project_id":"4174318","condominium":"No","status_date":"05/22/2007","jurisdiction":"WEST LAKE HILLS FULL PURPOSE","housing_units":"1","issuance_method":"Permit Center","permit_type_desc":"Electrical Permit","fiscal_year_issued":"1989","permit_class_mapped":"Commercial","issued_in_last_30_days":"No","certificate_of_occupancy":"No","property_legal_description":"LOT 1 WILD WOOD II CONFIRMING PLAT PLUS N .011AC TRI OF LOT 1 WILD WOOD CONFIRMING PLAT"},"geometry":{"type":"Point","coordinates":[-97.8120606,30.27861831]}},{"type":"Feature","properties":{"date":"1988-11-21T05:00:00.000Z","year":1988,"description":"Finish Out For Commercial Space","metadescription":"MP. Remodel. Finish Out For Commercial Space. Final. 305 CAMP CRAFT RD UNIT 100","address":"305 Camp Craft Road, Austin, TX, 78746, US","link":"https://abc.austintexas.gov/web/permit/public-search-other?t_detail=1&t_selected_folderrsn=3269521","tcad_id":"0111190504","location":"    (30.27861831, -97.8120606)","day_issued":"MONDAY","project_id":"3269521","condominium":"No","status_date":"05/22/2007","jurisdiction":"WEST LAKE HILLS FULL PURPOSE","housing_units":"1","issuance_method":"Permit Center","permit_type_desc":"Mechanical Permit","master_permit_num":"4174318","fiscal_year_issued":"1989","permit_class_mapped":"Commercial","issued_in_last_30_days":"No","certificate_of_occupancy":"No","property_legal_description":"LOT 1 WILD WOOD II CONFIRMING PLAT PLUS N .011AC TRI OF LOT 1 WILD WOOD CONFIRMING PLAT"},"geometry":{"type":"Point","coordinates":[-97.8120606,30.27861831]}},{"type":"Feature","properties":{"date":"1987-04-07T04:00:00.000Z","year":1987,"description":"Adding New A/C Unit-Commercial","metadescription":"MP. Remodel. Adding New A/C Unit-Commercial. Final. 4615 BEE CAVE RD","address":"4613 Bee Cave Road, Austin, TX, 78746, US","link":"https://abc.austintexas.gov/web/permit/public-search-other?t_detail=1&t_selected_folderrsn=3447104","tcad_id":"0113190402","location":"    (30.28696084, -97.81532236)","day_issued":"TUESDAY","project_id":"3447104","condominium":"No","status_date":"06/06/2007","jurisdiction":"WEST LAKE HILLS FULL PURPOSE","housing_units":"1","issuance_method":"Permit Center","permit_type_desc":"Mechanical Permit","master_permit_num":"4413536","fiscal_year_issued":"1987","permit_class_mapped":"Commercial","issued_in_last_30_days":"No","certificate_of_occupancy":"No","property_legal_description":"LOT 5A AMENDED PLAT LOTS 5&6 LOT 2 LOMA GRACIOSA SUBD"},"geometry":{"type":"Point","coordinates":[-97.81532236,30.28696084]}},{"type":"Feature","properties":{"date":"1987-04-07T04:00:00.000Z","year":1987,"description":"Adding New A/C Unit-Commercial","metadescription":"EP. Remodel. Adding New A/C Unit-Commercial. Final. 4615 BEE CAVE RD","address":"4613 Bee Cave Road, Austin, TX, 78746, US","link":"https://abc.austintexas.gov/web/permit/public-search-other?t_detail=1&t_selected_folderrsn=4413536","tcad_id":"0113190402","location":"    (30.28696084, -97.81532236)","day_issued":"TUESDAY","project_id":"4413536","condominium":"No","status_date":"06/06/2007","jurisdiction":"WEST LAKE HILLS FULL PURPOSE","housing_units":"1","issuance_method":"Permit Center","permit_type_desc":"Electrical Permit","fiscal_year_issued":"1987","permit_class_mapped":"Commercial","issued_in_last_30_days":"No","certificate_of_occupancy":"No","property_legal_description":"LOT 5A AMENDED PLAT LOTS 5&6 LOT 2 LOMA GRACIOSA SUBD"},"geometry":{"type":"Point","coordinates":[-97.81532236,30.28696084]}},{"type":"Feature","properties":{"date":"1987-03-30T05:00:00.000Z","year":1987,"description":"Relocating Water Line-Commercial","metadescription":"PP. Remodel. Relocating Water Line-Commercial. VOID. 4615 BEE CAVE RD","address":"4613 Bee Cave Road, Austin, TX, 78746, US","link":"https://abc.austintexas.gov/web/permit/public-search-other?t_detail=1&t_selected_folderrsn=3629639","tcad_id":"0113190402","location":"    (30.28696084, -97.81532236)","day_issued":"MONDAY","project_id":"3629639","condominium":"No","status_date":"09/27/2012","jurisdiction":"WEST LAKE HILLS FULL PURPOSE","housing_units":"1","issuance_method":"Permit Center","permit_type_desc":"Plumbing Permit","master_permit_num":"574950","fiscal_year_issued":"1987","permit_class_mapped":"Commercial","issued_in_last_30_days":"No","certificate_of_occupancy":"No","property_legal_description":"LOT 5A AMENDED PLAT LOTS 5&6 LOT 2 LOMA GRACIOSA SUBD"},"geometry":{"type":"Point","coordinates":[-97.81532236,30.28696084]}},{"type":"Feature","properties":{"date":"1987-03-30T05:00:00.000Z","year":1987,"description":"Relocating Water Line-Commercial","metadescription":"BP. Remodel. Relocating Water Line-Commercial. VOID. 4615 BEE CAVE RD","address":"4613 Bee Cave Road, Austin, TX, 78746, US","link":"https://abc.austintexas.gov/web/permit/public-search-other?t_detail=1&t_selected_folderrsn=574950","tcad_id":"0113190402","location":"    (30.28696084, -97.81532236)","day_issued":"MONDAY","project_id":"574950","condominium":"No","status_date":"09/27/2012","jurisdiction":"WEST LAKE HILLS FULL PURPOSE","housing_units":"1","issuance_method":"Permit Center","permit_type_desc":"Building Permit","fiscal_year_issued":"1987","permit_class_mapped":"Commercial","issued_in_last_30_days":"No","certificate_of_occupancy":"No","property_legal_description":"LOT 5A AMENDED PLAT LOTS 5&6 LOT 2 LOMA GRACIOSA SUBD"},"geometry":{"type":"Point","coordinates":[-97.81532236,30.28696084]}},{"type":"Feature","properties":{"date":"1986-09-25T04:00:00.000Z","year":1986,"description":"Install A/C Commercial","metadescription":"EP. Remodel. Install A/C Commercial. Final. 1821 WESTLAKE DR UNIT 132","address":"1821 Westlake Drive, Austin, TX, 78746, US","link":"https://abc.austintexas.gov/web/permit/public-search-other?t_detail=1&t_selected_folderrsn=4149304","tcad_id":"0119130732","location":"    (30.30400806, -97.79514643)","day_issued":"THURSDAY","project_id":"4149304","condominium":"No","status_date":"06/06/2007","jurisdiction":"AUSTIN LTD","housing_units":"1","issuance_method":"Permit Center","permit_type_desc":"Electrical Permit","master_permit_num":"570363","fiscal_year_issued":"1986","permit_class_mapped":"Commercial","issued_in_last_30_days":"No","certificate_of_occupancy":"No"},"geometry":{"type":"Point","coordinates":[-97.79514643,30.30400806]}},{"type":"Feature","properties":{"date":"1986-09-25T04:00:00.000Z","year":1986,"description":"Install A/C Commercial","metadescription":"BP. Remodel. Install A/C Commercial. Final. 1821 WESTLAKE DR UNIT 132","address":"1821 Westlake Drive, Austin, TX, 78746, US","link":"https://abc.austintexas.gov/web/permit/public-search-other?t_detail=1&t_selected_folderrsn=570363","tcad_id":"0119130732","location":"    (30.30400806, -97.79514643)","day_issued":"THURSDAY","project_id":"570363","condominium":"No","status_date":"06/06/2007","jurisdiction":"AUSTIN LTD","housing_units":"1","issuance_method":"Permit Center","permit_type_desc":"Building Permit","fiscal_year_issued":"1986","permit_class_mapped":"Commercial","issued_in_last_30_days":"No","certificate_of_occupancy":"No"},"geometry":{"type":"Point","coordinates":[-97.79514643,30.30400806]}},{"type":"Feature","properties":{"date":"1986-09-25T04:00:00.000Z","year":1986,"description":"Install A/C Commercial","metadescription":"MP. Remodel. Install A/C Commercial. Final. 1821 WESTLAKE DR UNIT 132","address":"1821 Westlake Drive, Austin, TX, 78746, US","link":"https://abc.austintexas.gov/web/permit/public-search-other?t_detail=1&t_selected_folderrsn=3247100","tcad_id":"0119130732","location":"    (30.30400806, -97.79514643)","day_issued":"THURSDAY","project_id":"3247100","condominium":"No","status_date":"06/06/2007","jurisdiction":"AUSTIN LTD","housing_units":"1","issuance_method":"Permit Center","permit_type_desc":"Mechanical Permit","master_permit_num":"570363","fiscal_year_issued":"1986","permit_class_mapped":"Commercial","issued_in_last_30_days":"No","certificate_of_occupancy":"No"},"geometry":{"type":"Point","coordinates":[-97.79514643,30.30400806]}},{"type":"Feature","properties":{"date":"1986-08-06T04:00:00.000Z","year":1986,"description":"New Commercial Building Sportsplex","metadescription":"PP. Remodel. New Commercial Building Sportsplex. Final. 4615 BEE CAVE RD","address":"4613 Bee Cave Road, Austin, TX, 78746, US","link":"https://abc.austintexas.gov/web/permit/public-search-other?t_detail=1&t_selected_folderrsn=3624576","tcad_id":"0113190402","location":"    (30.28696084, -97.81532236)","day_issued":"WEDNESDAY","project_id":"3624576","condominium":"No","status_date":"05/22/2007","jurisdiction":"WEST LAKE HILLS FULL PURPOSE","housing_units":"1","issuance_method":"Permit Center","permit_type_desc":"Plumbing Permit","master_permit_num":"3245372","fiscal_year_issued":"1986","permit_class_mapped":"Commercial","issued_in_last_30_days":"No","certificate_of_occupancy":"No","property_legal_description":"LOT 5A AMENDED PLAT LOTS 5&6 LOT 2 LOMA GRACIOSA SUBD"},"geometry":{"type":"Point","coordinates":[-97.81532236,30.28696084]}},{"type":"Feature","properties":{"date":"1986-08-06T04:00:00.000Z","year":1986,"description":"New Commercial Building Sportsplex","metadescription":"MP. Remodel. New Commercial Building Sportsplex. Final. 4615 BEE CAVE RD","address":"4613 Bee Cave Road, Austin, TX, 78746, US","link":"https://abc.austintexas.gov/web/permit/public-search-other?t_detail=1&t_selected_folderrsn=3245372","tcad_id":"0113190402","location":"    (30.28696084, -97.81532236)","day_issued":"WEDNESDAY","project_id":"3245372","condominium":"No","status_date":"05/22/2007","jurisdiction":"WEST LAKE HILLS FULL PURPOSE","housing_units":"1","issuance_method":"Permit Center","permit_type_desc":"Mechanical Permit","master_permit_num":"4147290","fiscal_year_issued":"1986","permit_class_mapped":"Commercial","issued_in_last_30_days":"No","certificate_of_occupancy":"No","property_legal_description":"LOT 5A AMENDED PLAT LOTS 5&6 LOT 2 LOMA GRACIOSA SUBD"},"geometry":{"type":"Point","coordinates":[-97.81532236,30.28696084]}},{"type":"Feature","properties":{"date":"1986-08-06T04:00:00.000Z","year":1986,"description":"New Commercial Building Sportsplex","metadescription":"EP. Remodel. New Commercial Building Sportsplex. Final. 4615 BEE CAVE RD","address":"4613 Bee Cave Road, Austin, TX, 78746, US","link":"https://abc.austintexas.gov/web/permit/public-search-other?t_detail=1&t_selected_folderrsn=4147290","tcad_id":"0113190402","location":"    (30.28696084, -97.81532236)","day_issued":"WEDNESDAY","project_id":"4147290","condominium":"No","status_date":"05/22/2007","jurisdiction":"WEST LAKE HILLS FULL PURPOSE","housing_units":"1","issuance_method":"Permit Center","permit_type_desc":"Electrical Permit","fiscal_year_issued":"1986","permit_class_mapped":"Commercial","issued_in_last_30_days":"No","certificate_of_occupancy":"No","property_legal_description":"LOT 5A AMENDED PLAT LOTS 5&6 LOT 2 LOMA GRACIOSA SUBD"},"geometry":{"type":"Point","coordinates":[-97.81532236,30.28696084]}},{"type":"Feature","properties":{"date":"1986-06-02T04:00:00.000Z","year":1986,"description":"Electric Grid System Commercial","metadescription":"MP. Remodel. Electric Grid System Commercial. VOID. 301 CAMP CRAFT RD","address":"301 Camp Craft Road, Austin, TX, 78746, US","link":"https://abc.austintexas.gov/web/permit/public-search-other?t_detail=1&t_selected_folderrsn=3242731","tcad_id":"0111190504","location":"    (30.27945629, -97.8118771)","day_issued":"MONDAY","project_id":"3242731","condominium":"No","status_date":"01/20/2009","jurisdiction":"WEST LAKE HILLS FULL PURPOSE","housing_units":"1","issuance_method":"Permit Center","permit_type_desc":"Mechanical Permit","fiscal_year_issued":"1986","permit_class_mapped":"Commercial","issued_in_last_30_days":"No","certificate_of_occupancy":"No","property_legal_description":"LOT 1 WILD WOOD II CONFIRMING PLAT PLUS N .011AC TRI OF LOT 1 WILD WOOD CONFIRMING PLAT"},"geometry":{"type":"Point","coordinates":[-97.8118771,30.27945629]}},{"type":"Feature","properties":{"date":"1986-06-02T04:00:00.000Z","year":1986,"description":"Electric Grid System Commercial","metadescription":"MP. Remodel. Electric Grid System Commercial. VOID. 301 CAMP CRAFT RD","address":"301 Camp Craft Road, Austin, TX, 78746, US","link":"https://abc.austintexas.gov/web/permit/public-search-other?t_detail=1&t_selected_folderrsn=3242733","tcad_id":"0111190504","location":"    (30.27945629, -97.8118771)","day_issued":"MONDAY","project_id":"3242733","condominium":"No","status_date":"01/20/2009","jurisdiction":"WEST LAKE HILLS FULL PURPOSE","housing_units":"1","issuance_method":"Permit Center","permit_type_desc":"Mechanical Permit","fiscal_year_issued":"1986","permit_class_mapped":"Commercial","issued_in_last_30_days":"No","certificate_of_occupancy":"No","property_legal_description":"LOT 1 WILD WOOD II CONFIRMING PLAT PLUS N .011AC TRI OF LOT 1 WILD WOOD CONFIRMING PLAT"},"geometry":{"type":"Point","coordinates":[-97.8118771,30.27945629]}},{"type":"Feature","properties":{"date":"1986-05-27T04:00:00.000Z","year":1986,"description":"Irrigation System-Commercial","metadescription":"BP. Remodel. Irrigation System-Commercial. Final. 301 CAMP CRAFT RD","address":"301 Camp Craft Road, Austin, TX, 78746, US","link":"https://abc.austintexas.gov/web/permit/public-search-other?t_detail=1&t_selected_folderrsn=565839","tcad_id":"0111190504","location":"    (30.27945629, -97.8118771)","day_issued":"TUESDAY","project_id":"565839","condominium":"No","status_date":"06/06/2007","jurisdiction":"WEST LAKE HILLS FULL PURPOSE","housing_units":"1","issuance_method":"Permit Center","permit_type_desc":"Building Permit","fiscal_year_issued":"1986","permit_class_mapped":"Commercial","issued_in_last_30_days":"No","certificate_of_occupancy":"No","property_legal_description":"LOT 1 WILD WOOD II CONFIRMING PLAT PLUS N .011AC TRI OF LOT 1 WILD WOOD CONFIRMING PLAT"},"geometry":{"type":"Point","coordinates":[-97.8118771,30.27945629]}},{"type":"Feature","properties":{"date":"1986-05-27T04:00:00.000Z","year":1986,"description":"Irrigation System-Commercial","metadescription":"PP. Remodel. Irrigation System-Commercial. Final. 301 CAMP CRAFT RD","address":"301 Camp Craft Road, Austin, TX, 78746, US","link":"https://abc.austintexas.gov/web/permit/public-search-other?t_detail=1&t_selected_folderrsn=3622429","tcad_id":"0111190504","location":"    (30.27945629, -97.8118771)","day_issued":"TUESDAY","project_id":"3622429","condominium":"No","status_date":"06/06/2007","jurisdiction":"WEST LAKE HILLS FULL PURPOSE","housing_units":"1","issuance_method":"Permit Center","permit_type_desc":"Plumbing Permit","master_permit_num":"565839","fiscal_year_issued":"1986","permit_class_mapped":"Commercial","issued_in_last_30_days":"No","certificate_of_occupancy":"No","property_legal_description":"LOT 1 WILD WOOD II CONFIRMING PLAT PLUS N .011AC TRI OF LOT 1 WILD WOOD CONFIRMING PLAT"},"geometry":{"type":"Point","coordinates":[-97.8118771,30.27945629]}},{"type":"Feature","properties":{"date":"1986-05-21T04:00:00.000Z","year":1986,"description":"Lease Space - Commercial","metadescription":"EP. Remodel. Lease Space - Commercial. Final. 515 S CAPITAL OF TEXAS HWY NB UNIT 103","address":"515 South Capital Of Texas Highway Northbound, Austin, TX, 78746, US","link":"https://abc.austintexas.gov/web/permit/public-search-other?t_detail=1&t_selected_folderrsn=4143902","tcad_id":"0117230213","location":"    (30.29692778, -97.82682087)","day_issued":"WEDNESDAY","project_id":"4143902","condominium":"No","status_date":"05/22/2007","jurisdiction":"WEST LAKE HILLS FULL PURPOSE","housing_units":"1","issuance_method":"Permit Center","permit_type_desc":"Electrical Permit","fiscal_year_issued":"1986","permit_class_mapped":"Commercial","issued_in_last_30_days":"No","certificate_of_occupancy":"No","property_legal_description":"LOT C FLINTRIDGE OAKS RESUB NO 1"},"geometry":{"type":"Point","coordinates":[-97.82682087,30.29692778]}},{"type":"Feature","properties":{"date":"1986-05-21T04:00:00.000Z","year":1986,"description":"Lease Space - Commercial","metadescription":"MP. Remodel. Lease Space - Commercial. Final. 515 S CAPITAL OF TEXAS HWY NB UNIT 103","address":"515 South Capital Of Texas Highway Northbound, Austin, TX, 78746, US","link":"https://abc.austintexas.gov/web/permit/public-search-other?t_detail=1&t_selected_folderrsn=3242380","tcad_id":"0117230213","location":"    (30.29692778, -97.82682087)","day_issued":"WEDNESDAY","project_id":"3242380","condominium":"No","status_date":"05/22/2007","jurisdiction":"WEST LAKE HILLS FULL PURPOSE","housing_units":"1","issuance_method":"Permit Center","permit_type_desc":"Mechanical Permit","master_permit_num":"4143902","fiscal_year_issued":"1986","permit_class_mapped":"Commercial","issued_in_last_30_days":"No","certificate_of_occupancy":"No","property_legal_description":"LOT C FLINTRIDGE OAKS RESUB NO 1"},"geometry":{"type":"Point","coordinates":[-97.82682087,30.29692778]}},{"type":"Feature","properties":{"date":"1986-05-08T04:00:00.000Z","year":1986,"description":"Electric Grid System Commercial","metadescription":"MP. Remodel. Electric Grid System Commercial. VOID. 301 CAMP CRAFT RD","address":"301 Camp Craft Road, Austin, TX, 78746, US","link":"https://abc.austintexas.gov/web/permit/public-search-other?t_detail=1&t_selected_folderrsn=3241904","tcad_id":"0111190504","location":"    (30.27945629, -97.8118771)","day_issued":"THURSDAY","project_id":"3241904","condominium":"No","status_date":"01/20/2009","jurisdiction":"WEST LAKE HILLS FULL PURPOSE","housing_units":"1","issuance_method":"Permit Center","permit_type_desc":"Mechanical Permit","fiscal_year_issued":"1986","permit_class_mapped":"Commercial","issued_in_last_30_days":"No","certificate_of_occupancy":"No","property_legal_description":"LOT 1 WILD WOOD II CONFIRMING PLAT PLUS N .011AC TRI OF LOT 1 WILD WOOD CONFIRMING PLAT"},"geometry":{"type":"Point","coordinates":[-97.8118771,30.27945629]}},{"type":"Feature","properties":{"date":"1986-05-02T04:00:00.000Z","year":1986,"description":"Install Electric Grid System Commercial","metadescription":"MP. Remodel. Install Electric Grid System Commercial. VOID. 301 CAMP CRAFT RD","address":"301 Camp Craft Road, Austin, TX, 78746, US","link":"https://abc.austintexas.gov/web/permit/public-search-other?t_detail=1&t_selected_folderrsn=3435001","tcad_id":"0111190504","location":"    (30.27945629, -97.8118771)","day_issued":"FRIDAY","project_id":"3435001","condominium":"No","status_date":"01/20/2009","jurisdiction":"WEST LAKE HILLS FULL PURPOSE","housing_units":"1","issuance_method":"Permit Center","permit_type_desc":"Mechanical Permit","fiscal_year_issued":"1986","permit_class_mapped":"Commercial","issued_in_last_30_days":"No","certificate_of_occupancy":"No","property_legal_description":"LOT 1 WILD WOOD II CONFIRMING PLAT PLUS N .011AC TRI OF LOT 1 WILD WOOD CONFIRMING PLAT"},"geometry":{"type":"Point","coordinates":[-97.8118771,30.27945629]}},{"type":"Feature","properties":{"date":"1986-02-03T05:00:00.000Z","year":1986,"description":"Duct Work Only - Commercial","metadescription":"EP. Remodel. Duct Work Only - Commercial. VOID. 102 WESTLAKE DR","address":"102 Westlake Drive, Austin, TX, 78746, US","link":"https://abc.austintexas.gov/web/permit/public-search-other?t_detail=1&t_selected_folderrsn=4139070","tcad_id":"0111150204","location":"    (30.28239334, -97.80851101)","day_issued":"MONDAY","project_id":"4139070","condominium":"No","status_date":"05/14/2010","jurisdiction":"WEST LAKE HILLS FULL PURPOSE","housing_units":"1","issuance_method":"Permit Center","permit_type_desc":"Electrical Permit","fiscal_year_issued":"1986","permit_class_mapped":"Commercial","issued_in_last_30_days":"No","certificate_of_occupancy":"No","property_legal_description":"LOT 2A BRADFIELD ADDN NO 2"},"geometry":{"type":"Point","coordinates":[-97.80851101,30.28239334]}},{"type":"Feature","properties":{"date":"1983-08-09T04:00:00.000Z","year":1983,"description":"Commercial Finish Out Lease Space","metadescription":"MP. Remodel. Commercial Finish Out Lease Space. Expired. 1015 BEECAVE WOODS DR","address":"1015 Beecave Woods Drive, Austin, TX, 78746, US","link":"https://abc.austintexas.gov/web/permit/public-search-other?t_detail=1&t_selected_folderrsn=3197349","tcad_id":"0107130708","location":"    (30.27065511, -97.79695489)","day_issued":"TUESDAY","project_id":"3197349","condominium":"No","status_date":"06/06/2007","jurisdiction":"ROLLINGWOOD FULL PURPOSE","housing_units":"1","issuance_method":"Permit Center","permit_type_desc":"Mechanical Permit","fiscal_year_issued":"1983","permit_class_mapped":"Commercial","issued_in_last_30_days":"No","certificate_of_occupancy":"No","property_legal_description":"LOT 1 BLK 2 CORNERS THE"},"geometry":{"type":"Point","coordinates":[-97.79695489,30.27065511]}}]}
