{"type":"FeatureCollection","features":[{"type":"Feature","properties":{"date":"1985-08-08T04:00:00.000Z","year":1985,"description":"Elevator","metadescription":"EP. Remodel. Elevator. Final. 515 S CAPITAL OF TEXAS HWY NB","address":"515 South Capital Of Texas Highway Northbound, Austin, TX, 78746, US","link":"https://abc.austintexas.gov/web/permit/public-search-other?t_detail=1&t_selected_folderrsn=4130982","tcad_id":"0117230213","location":"    (30.29692778, -97.82682087)","day_issued":"THURSDAY","project_id":"4130982","condominium":"No","status_date":"05/22/2007","jurisdiction":"WEST LAKE HILLS FULL PURPOSE","housing_units":"1","issuance_method":"Permit Center","permit_type_desc":"Electrical Permit","fiscal_year_issued":"1985","permit_class_mapped":"Commercial","issued_in_last_30_days":"No","certificate_of_occupancy":"No","property_legal_description":"LOT C FLINTRIDGE OAKS RESUB NO 1"},"geometry":{"type":"Point","coordinates":[-97.82682087,30.29692778]}},{"type":"Feature","properties":{"date":"1985-08-08T04:00:00.000Z","year":1985,"description":"Elevator","metadescription":"PP. Remodel. Elevator. Final. 515 S CAPITAL OF TEXAS HWY NB","address":"515 South Capital Of Texas Highway Northbound, Austin, TX, 78746, US","link":"https://abc.austintexas.gov/web/permit/public-search-other?t_detail=1&t_selected_folderrsn=3613470","tcad_id":"0117230213","location":"    (30.29692778, -97.82682087)","day_issued":"THURSDAY","project_id":"3613470","condominium":"No","status_date":"05/22/2007","jurisdiction":"WEST LAKE HILLS FULL PURPOSE","housing_units":"1","issuance_method":"Permit Center","permit_type_desc":"Plumbing Permit","master_permit_num":"3230617","fiscal_year_issued":"1985","permit_class_mapped":"Commercial","issued_in_last_30_days":"No","certificate_of_occupancy":"No","property_legal_description":"LOT C FLINTRIDGE OAKS RESUB NO 1"},"geometry":{"type":"Point","coordinates":[-97.82682087,30.29692778]}},{"type":"Feature","properties":{"date":"1985-08-08T04:00:00.000Z","year":1985,"description":"Elevator","metadescription":"MP. Remodel. Elevator. Final. 515 S CAPITAL OF TEXAS HWY NB","address":"515 South Capital Of Texas Highway Northbound, Austin, TX, 78746, US","link":"https://abc.austintexas.gov/web/permit/public-search-other?t_detail=1&t_selected_folderrsn=3230617","tcad_id":"0117230213","location":"    (30.29692778, -97.82682087)","day_issued":"THURSDAY","project_id":"3230617","condominium":"No","status_date":"05/22/2007","jurisdiction":"WEST LAKE HILLS FULL PURPOSE","housing_units":"1","issuance_method":"Permit Center","permit_type_desc":"Mechanical Permit","master_permit_num":"4130982","fiscal_year_issued":"1985","permit_class_mapped":"Commercial","issued_in_last_30_days":"No","certificate_of_occupancy":"No","property_legal_description":"LOT C FLINTRIDGE OAKS RESUB NO 1"},"geometry":{"type":"Point","coordinates":[-97.82682087,30.29692778]}}]}
