{"type":"FeatureCollection","features":[{"type":"Feature","properties":{"date":"2025-08-17T04:00:00.000Z","year":2025,"description":"Install new gas line for generator","metadescription":"PP. Repair. Install new gas line for generator. Expired. 324 EANES SCHOOL RD","address":"324 EANES SCHOOL RD","link":"https://abc.austintexas.gov/web/permit/public-search-other?t_detail=1&t_selected_folderrsn=13566886","tcad_id":"0111210115","location":"    (30.28299841, -97.81858201)","day_issued":"SUNDAY","project_id":"13566886","condominium":"No","status_date":"02/14/2026","jurisdiction":"WEST LAKE HILLS FULL PURPOSE","housing_units":"0","contractor_zip":"78613","contractor_city":"CEDAR PARK","issuance_method":"Permit Center","contractor_phone":"5199928278","contractor_trade":"Plumbing Contractor","number_of_floors":"1","permit_type_desc":"Plumbing Permit","fiscal_year_issued":"2025","permit_class_mapped":"Residential","remodel_repair_sqft":"0","contractor_address_2":"300 N KINGS","contractor_full_name":"Burl Fulenwider","issued_in_last_30_days":"No","certificate_of_occupancy":"No","property_legal_description":"LOT 2 DORSETTSHIRE ESTATES AMD LOTS 4-A & 5"},"geometry":{"type":"Point","coordinates":[-97.81858201,30.28299841]}},{"type":"Feature","properties":{"date":"2025-07-11T04:00:00.000Z","year":2025,"description":"Request to disconnect to install 200-amp transfer switch and 26 KW generator","metadescription":"EP. Repair. Request to disconnect to install 200-amp transfer switch and 26 KW generator. Final. 58 SUNDOWN PKWY","address":"58 SUNDOWN PKWY","link":"https://abc.austintexas.gov/web/permit/public-search-other?t_detail=1&t_selected_folderrsn=13545047","tcad_id":"0113210128","location":"    (30.28639826, -97.81874696)","day_issued":"FRIDAY","project_id":"13545047","condominium":"No","status_date":"08/06/2025","jurisdiction":"WEST LAKE HILLS ETJ","housing_units":"1","contractor_zip":"78760","contractor_city":"Austin","issuance_method":"Permit Center","contractor_phone":"5124489292","contractor_trade":"Electrical Contractor","number_of_floors":"1","permit_type_desc":"Electrical Permit","fiscal_year_issued":"2025","permit_class_mapped":"Residential","remodel_repair_sqft":"0","contractor_address_2":"4300 S Congr","contractor_full_name":"Timothy Hires","issued_in_last_30_days":"No","certificate_of_occupancy":"No","property_legal_description":"LOT 29 WESTLAKE OAKS","electrical_valuation_remodel":"$7,000.00"},"geometry":{"type":"Point","coordinates":[-97.81874696,30.28639826]}},{"type":"Feature","properties":{"date":"2025-06-23T04:00:00.000Z","year":2025,"description":"26kW whole home generator (Natural Gas) connected to house meter and main panel. \n\n***AE disconnect required. ***(Phillip Willhelm)","metadescription":"EP. Repair. 26kW whole home generator (Natural Gas) connected to house meter and main panel. \n\n***AE disconnect required. ***(Phillip Willhelm). Final. 324 EANES SCHOOL RD","address":"324 EANES SCHOOL RD","link":"https://abc.austintexas.gov/web/permit/public-search-other?t_detail=1&t_selected_folderrsn=13531704","tcad_id":"0111210115","location":"    (30.28299841, -97.81858201)","day_issued":"MONDAY","project_id":"13531704","condominium":"No","status_date":"08/20/2025","jurisdiction":"WEST LAKE HILLS FULL PURPOSE","housing_units":"1","contractor_zip":"78613-____","contractor_city":"CEDAR PARK","issuance_method":"Permit Center","contractor_phone":"5122014108","contractor_trade":"Electrical Contractor","number_of_floors":"1","permit_type_desc":"Electrical Permit","fiscal_year_issued":"2025","permit_class_mapped":"Residential","remodel_repair_sqft":"0","contractor_address_2":"2020 N BELL","contractor_full_name":"Justin Meyers","issued_in_last_30_days":"No","certificate_of_occupancy":"No","property_legal_description":"LOT 2 DORSETTSHIRE ESTATES AMD LOTS 4-A & 5","electrical_valuation_remodel":"$6,000.00"},"geometry":{"type":"Point","coordinates":[-97.81858201,30.28299841]}},{"type":"Feature","properties":{"date":"2025-03-17T04:00:00.000Z","year":2025,"description":"30kW Kohler at end of driveway - Mount one 200amp Regular transfer switch on right of main breaker panel -- from transfer switch trench across small grass area 10ft to edge of driveway. Trench 40ft down the edge of driveway to generator - 50 total feet\n\n**disconnect/reconnect to install 200A ATS","metadescription":"EP. Repair. 30kW Kohler at end of driveway - Mount one 200amp Regular transfer switch on right of main breaker panel -- from transfer switch trench across small grass area 10ft to edge of driveway. Trench 40ft down the edge of driveway to generator - 50 total feet\n\n**disconnect/reconnect to install 200A ATS. Final. 620 LOGANS LN","address":"620 LOGANS LN","link":"https://abc.austintexas.gov/web/permit/public-search-other?t_detail=1&t_selected_folderrsn=13476337","tcad_id":"0121130609","location":"    (30.30757727, -97.79552802)","day_issued":"MONDAY","project_id":"13476337","condominium":"No","status_date":"04/22/2025","jurisdiction":"AUSTIN 2 MILE ETJ","housing_units":"1","contractor_zip":"77904-____","contractor_city":"Victoria","issuance_method":"Permit Center","contractor_phone":"3615737344","contractor_trade":"Electrical Contractor","number_of_floors":"1","permit_type_desc":"Electrical Permit","fiscal_year_issued":"2025","permit_class_mapped":"Residential","remodel_repair_sqft":"0","contractor_address_2":"9685  US HWY","contractor_full_name":"Aarin Wendt","issued_in_last_30_days":"No","certificate_of_occupancy":"No","property_legal_description":"LOT 14 BLK D SUMMIT AT WEST RIM ON MOUNT LARSON BLK D SEC 1 THE","electrical_valuation_remodel":"$1,500.00"},"geometry":{"type":"Point","coordinates":[-97.79552802,30.30757727]}},{"type":"Feature","properties":{"date":"2025-02-27T05:00:00.000Z","year":2025,"description":"Install of 30KW home standby generator - trenching to be done from generator to gas meter (appx 50) to connect","metadescription":"PP. Repair. Install of 30KW home standby generator - trenching to be done from generator to gas meter (appx 50) to connect. Final. 620 LOGANS LN","address":"620 LOGANS LN","link":"https://abc.austintexas.gov/web/permit/public-search-other?t_detail=1&t_selected_folderrsn=13470894","tcad_id":"0121130609","location":"    (30.30757727, -97.79552802)","day_issued":"THURSDAY","project_id":"13470894","condominium":"No","status_date":"03/26/2025","jurisdiction":"AUSTIN 2 MILE ETJ","housing_units":"1","contractor_zip":"77904-____","contractor_city":"Victoria","issuance_method":"Permit Center","contractor_phone":"3615737344","contractor_trade":"Plumbing Contractor","number_of_floors":"1","permit_type_desc":"Plumbing Permit","fiscal_year_issued":"2025","permit_class_mapped":"Residential","remodel_repair_sqft":"1,500","contractor_address_2":"9685  US hwy","contractor_full_name":"William Price","issued_in_last_30_days":"No","certificate_of_occupancy":"No","property_legal_description":"LOT 14 BLK D SUMMIT AT WEST RIM ON MOUNT LARSON BLK D SEC 1 THE"},"geometry":{"type":"Point","coordinates":[-97.79552802,30.30757727]}},{"type":"Feature","properties":{"date":"2025-01-01T05:00:00.000Z","year":2025,"description":"Upgrade main electrical service to 200a for the installation of a generator interlock kit","metadescription":"EP. Upgrade. Upgrade main electrical service to 200a for the installation of a generator interlock kit. Final. 803 TERRACE MOUNTAIN DR","address":"803 TERRACE MOUNTAIN DR","link":"https://abc.austintexas.gov/web/permit/public-search-other?t_detail=1&t_selected_folderrsn=13430626","tcad_id":"0119130416","location":"    (30.30556013, -97.80047511)","day_issued":"WEDNESDAY","project_id":"13430626","condominium":"No","status_date":"01/30/2025","jurisdiction":"WEST LAKE HILLS FULL PURPOSE","housing_units":"1","contractor_zip":"78744","contractor_city":"Austin","issuance_method":"Permit Center","contractor_phone":"5126505383","contractor_trade":"Electrical Contractor","number_of_floors":"1","permit_type_desc":"Electrical Permit","fiscal_year_issued":"2025","permit_class_mapped":"Residential","remodel_repair_sqft":"0","contractor_address_2":"2400 W Dove","contractor_full_name":"Richard Gumbert","issued_in_last_30_days":"No","certificate_of_occupancy":"No","property_legal_description":"LOT 17 BLK N STONEHEDGE ESTATES BLK N","electrical_valuation_remodel":"$1,000.00"},"geometry":{"type":"Point","coordinates":[-97.80047511,30.30556013]}},{"type":"Feature","properties":{"date":"2024-11-01T04:00:00.000Z","year":2024,"description":"Installation of 200A Service-Rated Automatic Transfer Switch 26kW Whole Home Generator additional grounding and type II surge protection","metadescription":"EP. Repair. Installation of 200A Service-Rated Automatic Transfer Switch 26kW Whole Home Generator additional grounding and type II surge protection. Final. 400 LAS LOMAS DR","address":"400 LAS LOMAS DR","link":"https://abc.austintexas.gov/web/permit/public-search-other?t_detail=1&t_selected_folderrsn=13419289","tcad_id":"0111131601","location":"    (30.27958785, -97.79527517)","day_issued":"FRIDAY","project_id":"13419289","condominium":"No","status_date":"12/30/2024","jurisdiction":"WEST LAKE HILLS FULL PURPOSE","housing_units":"1","contractor_zip":"78724-____","contractor_city":"AUSTIN","issuance_method":"Permit Center","contractor_phone":"5122936828","contractor_trade":"Electrical Contractor","number_of_floors":"1","permit_type_desc":"Electrical Permit","fiscal_year_issued":"2025","permit_class_mapped":"Residential","remodel_repair_sqft":"0","contractor_address_2":"5817  BERRYL","contractor_full_name":"Matt Hurtado","issued_in_last_30_days":"No","certificate_of_occupancy":"No","property_legal_description":"LOT 22 BLK C LAS LOMAS SUBD","electrical_valuation_remodel":"$1,500.00"},"geometry":{"type":"Point","coordinates":[-97.79527517,30.27958785]}},{"type":"Feature","properties":{"date":"2024-10-18T04:00:00.000Z","year":2024,"description":"Request to disconnect -Installation of new Service Rated Generac Transfer Switch and Generator. This will require disconnecting and reconnecting power. The Transfer Switch will be placed between the meter and existing house panel. 350 AMP SERVICE with 1-200 AMP ATS and 1-150 AMP ATS","metadescription":"EP. Repair. Request to disconnect -Installation of new Service Rated Generac Transfer Switch and Generator. This will require disconnecting and reconnecting power. The Transfer Switch will be placed between the meter and existing house panel. 350 AMP SERVICE with 1-200 AMP ATS and 1-150 AMP ATS. Withdrawn. 901 LIVE OAK RIDGE RD","address":"901 LIVE OAK RIDGE RD","link":"https://abc.austintexas.gov/web/permit/public-search-other?t_detail=1&t_selected_folderrsn=13416702","tcad_id":"0115190701","location":"    (30.29547988, -97.81357246)","day_issued":"FRIDAY","project_id":"13416702","condominium":"No","status_date":"03/21/2025","jurisdiction":"WEST LAKE HILLS FULL PURPOSE","housing_units":"1","contractor_zip":"78758-____","contractor_city":"AUSTIN","issuance_method":"Permit Center","contractor_phone":"5124310414","contractor_trade":"Electrical Contractor","number_of_floors":"1","permit_type_desc":"Electrical Permit","fiscal_year_issued":"2025","permit_class_mapped":"Residential","remodel_repair_sqft":"0","contractor_address_2":"2105  Denton","contractor_full_name":"Donald Childers","issued_in_last_30_days":"No","certificate_of_occupancy":"No","property_legal_description":"LOT 14 MAYO ADDN","electrical_valuation_remodel":"$10,000.00"},"geometry":{"type":"Point","coordinates":[-97.81357246,30.29547988]}},{"type":"Feature","properties":{"date":"2024-10-09T04:00:00.000Z","year":2024,"description":"Request to disconnect installation of 26 KW generator 200 amp service rated ATS whole house surge protection and additional grounding","metadescription":"EP. Repair. Request to disconnect installation of 26 KW generator 200 amp service rated ATS whole house surge protection and additional grounding. Final. 506 ROCKY RIVER RD","address":"506 ROCKY RIVER RD","link":"https://abc.austintexas.gov/web/permit/public-search-other?t_detail=1&t_selected_folderrsn=13409660","tcad_id":"0113150218","location":"    (30.28605237, -97.80312929)","day_issued":"WEDNESDAY","project_id":"13409660","condominium":"No","status_date":"10/30/2024","jurisdiction":"WEST LAKE HILLS FULL PURPOSE","housing_units":"1","contractor_zip":"78724-____","contractor_city":"AUSTIN","issuance_method":"Permit Center","contractor_phone":"5122936828","contractor_trade":"Electrical Contractor","number_of_floors":"1","permit_type_desc":"Electrical Permit","fiscal_year_issued":"2025","permit_class_mapped":"Residential","remodel_repair_sqft":"0","contractor_address_2":"5817  BERRYL","contractor_full_name":"Matt Hurtado","issued_in_last_30_days":"No","certificate_of_occupancy":"No","property_legal_description":"LOT 3 BURNS J D ADDN RESUB OF LOT 1","electrical_valuation_remodel":"$2,500.00"},"geometry":{"type":"Point","coordinates":[-97.80312929,30.28605237]}},{"type":"Feature","properties":{"date":"2024-08-02T04:00:00.000Z","year":2024,"description":"Installation of x1 200A Service-Rated Automatic Transfer Switch x1 150A Service-Rated Automatic Transfer Switch 48kW Whole Home Generator and underground conduit.","metadescription":"EP. Repair. Installation of x1 200A Service-Rated Automatic Transfer Switch x1 150A Service-Rated Automatic Transfer Switch 48kW Whole Home Generator and underground conduit.. Final. 703 LOMA LINDA","address":"703 LOMA LINDA","link":"https://abc.austintexas.gov/web/permit/public-search-other?t_detail=1&t_selected_folderrsn=13370200","tcad_id":"0119130408","location":"    (30.30424022, -97.8003481)","day_issued":"FRIDAY","project_id":"13370200","condominium":"No","status_date":"01/15/2025","jurisdiction":"WEST LAKE HILLS FULL PURPOSE","housing_units":"1","contractor_zip":"78724-____","contractor_city":"AUSTIN","issuance_method":"Permit Center","contractor_phone":"5122936828","contractor_trade":"Electrical Contractor","number_of_floors":"1","permit_type_desc":"Electrical Permit","fiscal_year_issued":"2024","permit_class_mapped":"Residential","remodel_repair_sqft":"0","contractor_address_2":"5817  BERRYL","contractor_full_name":"Matt Hurtado","issued_in_last_30_days":"No","certificate_of_occupancy":"No","property_legal_description":"LOT 8 BLK N STONEHEDGE ESTATES BLK N","electrical_valuation_remodel":"$2,500.00"},"geometry":{"type":"Point","coordinates":[-97.8003481,30.30424022]}},{"type":"Feature","properties":{"date":"2024-07-24T04:00:00.000Z","year":2024,"description":"Request to Disconnect\n\nReplacing existing 200 AMP main lug panel that has no main disconnect and no pare breakers spaces with 200 AMO outdoor main breaker panel with more space and main disconnect like for like not relocating then install new 50 AMP portable generator inlet/interlock kit","metadescription":"EP. Repair. Request to Disconnect\n\nReplacing existing 200 AMP main lug panel that has no main disconnect and no pare breakers spaces with 200 AMO outdoor main breaker panel with more space and main disconnect like for like not relocating then install new 50 AMP portable generator inlet/interlock kit. Final. 107 WOOD TRL","address":"107 WOOD TRL","link":"https://abc.austintexas.gov/web/permit/public-search-other?t_detail=1&t_selected_folderrsn=13362600","tcad_id":"0113210155","location":"    (30.28799347, -97.81888921)","day_issued":"WEDNESDAY","project_id":"13362600","condominium":"No","status_date":"08/15/2024","jurisdiction":"WEST LAKE HILLS FULL PURPOSE","housing_units":"1","contractor_zip":"78758-____","contractor_city":"AUSTIN","issuance_method":"Permit Center","contractor_phone":"5124310414","contractor_trade":"Electrical Contractor","number_of_floors":"1","permit_type_desc":"Electrical Permit","fiscal_year_issued":"2024","permit_class_mapped":"Residential","remodel_repair_sqft":"0","contractor_address_2":"2105  Denton","contractor_full_name":"Donald Childers","issued_in_last_30_days":"No","certificate_of_occupancy":"No","property_legal_description":"LOT 5 WOOD TRAIL ESTATES","electrical_valuation_remodel":"$8,000.00"},"geometry":{"type":"Point","coordinates":[-97.81888921,30.28799347]}},{"type":"Feature","properties":{"date":"2024-06-14T04:00:00.000Z","year":2024,"description":"Need Disconnect/Reconnect to install 22kw home standby generator","metadescription":"EP. Repair. Need Disconnect/Reconnect to install 22kw home standby generator. Final. 208 MC CONNELL DR","address":"208 MC CONNELL DR","link":"https://abc.austintexas.gov/web/permit/public-search-other?t_detail=1&t_selected_folderrsn=13342785","tcad_id":"0113190201","location":"    (30.28655066, -97.81026886)","day_issued":"FRIDAY","project_id":"13342785","condominium":"No","status_date":"07/30/2024","jurisdiction":"WEST LAKE HILLS FULL PURPOSE","housing_units":"1","contractor_zip":"77511","contractor_city":"Alvin","issuance_method":"Permit Center","contractor_phone":"5123616823","contractor_trade":"Electrical Contractor","number_of_floors":"1","permit_type_desc":"Electrical Permit","fiscal_year_issued":"2024","permit_class_mapped":"Residential","remodel_repair_sqft":"0","contractor_address_2":"1709 E South","contractor_full_name":"Timothy Oliff","issued_in_last_30_days":"No","certificate_of_occupancy":"No","property_legal_description":"LOT 8 WESTLAKE TERRACE","electrical_valuation_remodel":"$800.00"},"geometry":{"type":"Point","coordinates":[-97.81026886,30.28655066]}},{"type":"Feature","properties":{"date":"2024-02-28T05:00:00.000Z","year":2024,"description":"Request to disconnect and reconnet\n\nAE Confirmed\nAdding generator to existing service","metadescription":"EP. Repair. Request to disconnect and reconnet\n\nAE Confirmed\nAdding generator to existing service. Expired. 705 SPLIT RAIL TRL","address":"705 SPLIT RAIL TRL","link":"https://abc.austintexas.gov/web/permit/public-search-other?t_detail=1&t_selected_folderrsn=13283176","tcad_id":"0111110802","location":"    (30.28226732, -97.79447586)","day_issued":"WEDNESDAY","project_id":"13283176","condominium":"No","status_date":"08/27/2024","jurisdiction":"WEST LAKE HILLS FULL PURPOSE","housing_units":"1","contractor_zip":"78744","contractor_city":"AUSTIN","issuance_method":"Permit Center","contractor_phone":"5123856160","contractor_trade":"Electrical Contractor","number_of_floors":"1","permit_type_desc":"Electrical Permit","fiscal_year_issued":"2024","permit_class_mapped":"Residential","remodel_repair_sqft":"0","contractor_address_1":"7101 BURLESO","contractor_address_2":"AUSTIN TX  7","contractor_full_name":"Vincent Real","issued_in_last_30_days":"No","certificate_of_occupancy":"No","property_legal_description":"LOT 10 RAINBOW S END ESTATES SEC 2","electrical_valuation_remodel":"$5,000.00"},"geometry":{"type":"Point","coordinates":[-97.79447586,30.28226732]}},{"type":"Feature","properties":{"date":"2024-02-01T05:00:00.000Z","year":2024,"description":"REQUEST TO DISCONNECT\nInstall 22kw generac generator and transfer switch","metadescription":"EP. Repair. REQUEST TO DISCONNECT\nInstall 22kw generac generator and transfer switch. Final. 616 WESTBROOK DR","address":"616 WESTBROOK DR","link":"https://abc.austintexas.gov/web/permit/public-search-other?t_detail=1&t_selected_folderrsn=13273377","tcad_id":"0111130335","location":"    (30.28337063, -97.79699788)","day_issued":"THURSDAY","project_id":"13273377","condominium":"No","status_date":"08/20/2024","jurisdiction":"WEST LAKE HILLS FULL PURPOSE","housing_units":"1","contractor_zip":"78752-____","contractor_city":"Austin","issuance_method":"Permit Center","contractor_phone":"5126399242","contractor_trade":"Electrical Contractor","number_of_floors":"1","permit_type_desc":"Electrical Permit","fiscal_year_issued":"2024","permit_class_mapped":"Residential","remodel_repair_sqft":"2","contractor_address_2":"6016  Dillar","contractor_full_name":"Michael  Moore","issued_in_last_30_days":"No","certificate_of_occupancy":"No","property_legal_description":"LOT 2 RAINBOWS END ESTATES SEC 1","electrical_valuation_remodel":"$500.00"},"geometry":{"type":"Point","coordinates":[-97.79699788,30.28337063]}},{"type":"Feature","properties":{"date":"2024-01-26T05:00:00.000Z","year":2024,"description":"Disconnect - Reconnect\nInstallation of new 26KW permanent whole home generator (Propane) connected to house meter and main panel. No meter can required. (James Bylander)","metadescription":"EP. Repair. Disconnect - Reconnect\nInstallation of new 26KW permanent whole home generator (Propane) connected to house meter and main panel. No meter can required. (James Bylander). Withdrawn. 304 YAUPON VALLEY RD","address":"304 YAUPON VALLEY RD","link":"https://abc.austintexas.gov/web/permit/public-search-other?t_detail=1&t_selected_folderrsn=13266798","tcad_id":"0115150303","location":"    (30.29307934, -97.80368353)","day_issued":"FRIDAY","project_id":"13266798","condominium":"No","status_date":"03/10/2025","jurisdiction":"WEST LAKE HILLS FULL PURPOSE","housing_units":"1","contractor_zip":"78645-____","contractor_city":"JONESTOWN","issuance_method":"Permit Center","contractor_phone":"5124503271","contractor_trade":"Electrical Contractor","number_of_floors":"1","permit_type_desc":"Electrical Permit","fiscal_year_issued":"2024","permit_class_mapped":"Residential","remodel_repair_sqft":"0","contractor_address_2":"188221  DOUB","contractor_full_name":"Vico Garcia","issued_in_last_30_days":"No","certificate_of_occupancy":"No","property_legal_description":"LOT 4 YAUPON VALLEY SUBD","electrical_valuation_remodel":"$7,049.00"},"geometry":{"type":"Point","coordinates":[-97.80368353,30.29307934]}},{"type":"Feature","properties":{"date":"2023-12-13T05:00:00.000Z","year":2023,"description":"Request to disconnect\nInstallation of 26KW Generator with 200 ATS","metadescription":"EP. Repair. Request to disconnect\nInstallation of 26KW Generator with 200 ATS. Final. 1448 WILD BASIN LEDGE","address":"1448 WILD BASIN LEDGE","link":"https://abc.austintexas.gov/web/permit/public-search-other?t_detail=1&t_selected_folderrsn=13252558","tcad_id":"0121150223","location":"    (30.30897096, -97.80398017)","day_issued":"WEDNESDAY","project_id":"13252558","condominium":"No","status_date":"02/18/2024","housing_units":"1","contractor_zip":"78758-____","contractor_city":"AUSTIN","issuance_method":"Permit Center","contractor_phone":"5124310414","contractor_trade":"Electrical Contractor","number_of_floors":"1","permit_type_desc":"Electrical Permit","fiscal_year_issued":"2024","permit_class_mapped":"Residential","remodel_repair_sqft":"0","contractor_address_2":"2105  Denton","contractor_full_name":"Donald Childers","issued_in_last_30_days":"No","certificate_of_occupancy":"No","property_legal_description":"LOT 6 WILD BASIN LEDGE AMENDED","electrical_valuation_remodel":"$24,000.00"},"geometry":{"type":"Point","coordinates":[-97.80398017,30.30897096]}},{"type":"Feature","properties":{"date":"2023-12-11T05:00:00.000Z","year":2023,"description":"generator install with automatic transfer switch","metadescription":"EP. Upgrade. generator install with automatic transfer switch. Final. 101 WOOD TRL","address":"101 WOOD TRL","link":"https://abc.austintexas.gov/web/permit/public-search-other?t_detail=1&t_selected_folderrsn=13252079","tcad_id":"0113210152","location":"    (30.28916512, -97.81945132)","day_issued":"MONDAY","project_id":"13252079","condominium":"No","status_date":"12/21/2023","jurisdiction":"WEST LAKE HILLS FULL PURPOSE","housing_units":"1","issuance_method":"Permit Center","contractor_phone":"9564363122","contractor_trade":"Electrical Contractor","number_of_floors":"1","permit_type_desc":"Electrical Permit","fiscal_year_issued":"2024","permit_class_mapped":"Residential","remodel_repair_sqft":"2","contractor_full_name":"Martin Medina","issued_in_last_30_days":"No","certificate_of_occupancy":"No","property_legal_description":"LOT 2 WOOD TRAIL ESTATES","electrical_valuation_remodel":"$15,000.00"},"geometry":{"type":"Point","coordinates":[-97.81945132,30.28916512]}},{"type":"Feature","properties":{"date":"2023-11-16T05:00:00.000Z","year":2023,"description":"**Disconnect / Reconnect** Connect generator","metadescription":"EP. Repair. **Disconnect / Reconnect** Connect generator. Final. 1421 CIRCLE RIDGE DR","address":"1421 CIRCLE RIDGE DR","link":"https://abc.austintexas.gov/web/permit/public-search-other?t_detail=1&t_selected_folderrsn=13242072","tcad_id":"0119210110","location":"    (30.30398993, -97.8175247)","day_issued":"THURSDAY","project_id":"13242072","condominium":"No","status_date":"01/26/2024","jurisdiction":"WEST LAKE HILLS FULL PURPOSE","housing_units":"1","contractor_zip":"78745","contractor_city":"Austin","issuance_method":"Permit Center","contractor_phone":"5128256181","contractor_trade":"Electrical Contractor","number_of_floors":"1","permit_type_desc":"Electrical Permit","fiscal_year_issued":"2024","permit_class_mapped":"Residential","remodel_repair_sqft":"0","contractor_address_1":"2309 DAVIS L","contractor_address_2":"AUSTIN TX  7","contractor_full_name":"Martin A Norris","issued_in_last_30_days":"No","certificate_of_occupancy":"No","property_legal_description":"LOT 3 WILD RIDGE SUBD AMENDED PLAT OF LOTS 3-A&3-B RESUB OF LOT 3","electrical_valuation_remodel":"$1,000.00"},"geometry":{"type":"Point","coordinates":[-97.8175247,30.30398993]}},{"type":"Feature","properties":{"date":"2023-11-15T05:00:00.000Z","year":2023,"description":"Installation of new 26KW permanent whole home generator (Propane) connected to house meter and main panel. No meter can required.(Santiago Montoya)","metadescription":"EP. Repair. Installation of new 26KW permanent whole home generator (Propane) connected to house meter and main panel. No meter can required.(Santiago Montoya). Final. 702 LOMA LINDA","address":"702 LOMA LINDA","link":"https://abc.austintexas.gov/web/permit/public-search-other?t_detail=1&t_selected_folderrsn=13237618","tcad_id":"0119130411","location":"    (30.30456281, -97.79969301)","day_issued":"WEDNESDAY","project_id":"13237618","condominium":"No","status_date":"03/06/2024","jurisdiction":"WEST LAKE HILLS FULL PURPOSE","housing_units":"1","contractor_zip":"78645-____","contractor_city":"JONESTOWN","issuance_method":"Permit Center","contractor_phone":"5124503271","contractor_trade":"Electrical Contractor","number_of_floors":"1","permit_type_desc":"Electrical Permit","fiscal_year_issued":"2024","permit_class_mapped":"Residential","remodel_repair_sqft":"0","contractor_address_2":"188221  DOUB","contractor_full_name":"Vico Garcia","issued_in_last_30_days":"No","certificate_of_occupancy":"No","property_legal_description":"LOT 22 BLK N STONEHEDGE ESTATES BLK N","electrical_valuation_remodel":"$7,049.00"},"geometry":{"type":"Point","coordinates":[-97.79969301,30.30456281]}},{"type":"Feature","properties":{"date":"2023-11-14T05:00:00.000Z","year":2023,"description":"Request to disconnect\nInstallation of 26 KW Generator with ATS Underground service","metadescription":"EP. Repair. Request to disconnect\nInstallation of 26 KW Generator with ATS Underground service. Final. 1703 YAUPON VALLEY RD","address":"1703 YAUPON VALLEY RD","link":"https://abc.austintexas.gov/web/permit/public-search-other?t_detail=1&t_selected_folderrsn=13239883","tcad_id":"0117230305","location":"    (30.30019902, -97.82603544)","day_issued":"TUESDAY","project_id":"13239883","condominium":"No","status_date":"12/28/2023","jurisdiction":"WEST LAKE HILLS FULL PURPOSE","housing_units":"1","contractor_zip":"78758-____","contractor_city":"AUSTIN","issuance_method":"Permit Center","contractor_phone":"5124310414","contractor_trade":"Electrical Contractor","number_of_floors":"1","permit_type_desc":"Electrical Permit","fiscal_year_issued":"2024","permit_class_mapped":"Residential","remodel_repair_sqft":"3","contractor_address_2":"2105  Denton","contractor_full_name":"Donald Childers","issued_in_last_30_days":"No","certificate_of_occupancy":"No","property_legal_description":"LOT 1 YAUPON VALLEY AT WILD BASIN SEC 1","electrical_valuation_remodel":"$16,000.00"},"geometry":{"type":"Point","coordinates":[-97.82603544,30.30019902]}},{"type":"Feature","properties":{"date":"2023-10-26T04:00:00.000Z","year":2023,"description":"Installation of a generator and automatic transfer switch.","metadescription":"EP. Repair. Installation of a generator and automatic transfer switch.. Final. 1628 WESTLAKE DR","address":"1628 WESTLAKE DR","link":"https://abc.austintexas.gov/web/permit/public-search-other?t_detail=1&t_selected_folderrsn=13209318","location":"    (30.3007447, -97.79687725)","day_issued":"THURSDAY","project_id":"13209318","condominium":"No","status_date":"07/02/2024","jurisdiction":"WEST LAKE HILLS FULL PURPOSE","housing_units":"1","contractor_zip":"78758-____","contractor_city":"AUSTIN","issuance_method":"Permit Center","contractor_phone":"5124310414","contractor_trade":"Electrical Contractor","number_of_floors":"1","permit_type_desc":"Electrical Permit","fiscal_year_issued":"2024","permit_class_mapped":"Residential","remodel_repair_sqft":"0","contractor_address_2":"2105  Denton","contractor_full_name":"Donald Childers","issued_in_last_30_days":"No","certificate_of_occupancy":"No","electrical_valuation_remodel":"$5,000.00"},"geometry":{"type":"Point","coordinates":[-97.79687725,30.3007447]}},{"type":"Feature","properties":{"date":"2023-10-25T04:00:00.000Z","year":2023,"description":"Request to disconnect. Replacement of existing 200A and 150A main feed-through service panels with (2) Tesla Gateways. Downstream of these Gateways will be (2) secondary automatic transfer switches for a 60 kW Generator. Related to separate auxiliary permit for solar and Tesla Powerwalls/ESS (that permit is pending application). No meter work being done. Overhead service. All this current permit covers is the replacement of the existing service panels with the Tesla Gateways which will then become the new main service panels.","metadescription":"EP. Repair. Request to disconnect. Replacement of existing 200A and 150A main feed-through service panels with (2) Tesla Gateways. Downstream of these Gateways will be (2) secondary automatic transfer switches for a 60 kW Generator. Related to separate auxiliary permit for solar and Tesla Powerwalls/ESS (that permit is pending application). No meter work being done. Overhead service. All this current permit covers is the replacement of the existing service panels with the Tesla Gateways which will then become the new main service panels.. Final. 1201 WESTLAKE DR","address":"1201 WESTLAKE DR","link":"https://abc.austintexas.gov/web/permit/public-search-other?t_detail=1&t_selected_folderrsn=13229844","tcad_id":"0115130604","location":"    (30.29387587, -97.79528294)","day_issued":"WEDNESDAY","project_id":"13229844","condominium":"No","status_date":"10/02/2024","jurisdiction":"WEST LAKE HILLS FULL PURPOSE","housing_units":"1","contractor_zip":"78748-____","contractor_city":"AUSTIN","issuance_method":"Permit Center","contractor_phone":"5128256800","contractor_trade":"Electrical Contractor","number_of_floors":"1","permit_type_desc":"Electrical Permit","fiscal_year_issued":"2024","permit_class_mapped":"Residential","remodel_repair_sqft":"0","contractor_address_2":"11248  LOST","contractor_full_name":"Ben Flynn","issued_in_last_30_days":"No","certificate_of_occupancy":"No","property_legal_description":"LOT 1 BLUE EYES ADDN","electrical_valuation_remodel":"$50,000.00"},"geometry":{"type":"Point","coordinates":[-97.79528294,30.29387587]}},{"type":"Feature","properties":{"date":"2023-10-17T04:00:00.000Z","year":2023,"description":"*REQUEST TO DISCONNECT*\nInstallation of new 48KW permanent whole home generator (Natural Gas) connected to house meter and main panel. No meter can required.(Paul Bessette)\n\nDisconnect / Reconnect","metadescription":"EP. Repair. *REQUEST TO DISCONNECT*\nInstallation of new 48KW permanent whole home generator (Natural Gas) connected to house meter and main panel. No meter can required.(Paul Bessette)\n\nDisconnect / Reconnect. Final. 203 BUCKEYE TRL","address":"203 BUCKEYE TRL","link":"https://abc.austintexas.gov/web/permit/public-search-other?t_detail=1&t_selected_folderrsn=13225465","tcad_id":"0115150528","location":"    (30.28994712, -97.80509668)","day_issued":"TUESDAY","project_id":"13225465","condominium":"No","status_date":"03/18/2024","jurisdiction":"WEST LAKE HILLS FULL PURPOSE","housing_units":"1","contractor_zip":"78645-____","contractor_city":"JONESTOWN","issuance_method":"Permit Center","contractor_phone":"5124503271","contractor_trade":"Electrical Contractor","number_of_floors":"1","permit_type_desc":"Electrical Permit","fiscal_year_issued":"2024","permit_class_mapped":"Residential","remodel_repair_sqft":"0","contractor_address_2":"188221  DOUB","contractor_full_name":"Vico Garcia","issued_in_last_30_days":"No","certificate_of_occupancy":"No","property_legal_description":"LOT 7A OVERLOOK AT WEST LAKE SECOND AMENDED PLAT OF LOTS 7 & 8","electrical_valuation_remodel":"$18,198.00"},"geometry":{"type":"Point","coordinates":[-97.80509668,30.28994712]}},{"type":"Feature","properties":{"date":"2023-10-05T04:00:00.000Z","year":2023,"description":"Request to Disconnect Install 24kw generator with 200amp transfer switch. Not replacing existing meter can.","metadescription":"EP. Repair. Request to Disconnect Install 24kw generator with 200amp transfer switch. Not replacing existing meter can.. Expired. 101 WOOD TRL","address":"101 WOOD TRL","link":"https://abc.austintexas.gov/web/permit/public-search-other?t_detail=1&t_selected_folderrsn=13216757","tcad_id":"0113210152","location":"    (30.28916512, -97.81945132)","day_issued":"THURSDAY","project_id":"13216757","condominium":"No","status_date":"05/07/2024","jurisdiction":"WEST LAKE HILLS FULL PURPOSE","housing_units":"1","contractor_zip":"75219-____","contractor_city":"Dallas","issuance_method":"Permit Center","contractor_phone":"9725628055","contractor_trade":"Electrical Contractor","number_of_floors":"1","permit_type_desc":"Electrical Permit","fiscal_year_issued":"2024","permit_class_mapped":"Residential","remodel_repair_sqft":"1","contractor_address_2":"3838  Oak La","contractor_full_name":"James Liston","issued_in_last_30_days":"No","certificate_of_occupancy":"No","property_legal_description":"LOT 2 WOOD TRAIL ESTATES","electrical_valuation_remodel":"$13,000.00"},"geometry":{"type":"Point","coordinates":[-97.81945132,30.28916512]}},{"type":"Feature","properties":{"date":"2023-09-29T04:00:00.000Z","year":2023,"description":"REQUEST TO DISCONNECT - Installation of a 200A and 150A ATS for Generator \nProvider is AE","metadescription":"EP. Repair. REQUEST TO DISCONNECT - Installation of a 200A and 150A ATS for Generator \nProvider is AE. Withdrawn. 309 BUCKEYE TRL","address":"309 BUCKEYE TRL","link":"https://abc.austintexas.gov/web/permit/public-search-other?t_detail=1&t_selected_folderrsn=13214832","tcad_id":"0115150507","location":"    (30.29086381, -97.80569701)","day_issued":"FRIDAY","project_id":"13214832","condominium":"No","status_date":"05/02/2025","jurisdiction":"WEST LAKE HILLS FULL PURPOSE","housing_units":"1","contractor_zip":"78650","contractor_city":"McDade","issuance_method":"Permit Center","contractor_phone":"9088720798","contractor_trade":"Electrical Contractor","number_of_floors":"1","permit_type_desc":"Electrical Permit","fiscal_year_issued":"2023","permit_class_mapped":"Residential","remodel_repair_sqft":"0","contractor_address_2":"2085  CR 311","contractor_full_name":"Jason Kalafut","issued_in_last_30_days":"No","certificate_of_occupancy":"No","property_legal_description":"ABS 198 SUR 504 CHAMBERS T J ACR 1.000","electrical_valuation_remodel":"$2,000.00"},"geometry":{"type":"Point","coordinates":[-97.80569701,30.29086381]}},{"type":"Feature","properties":{"date":"2023-09-19T04:00:00.000Z","year":2023,"description":"Installing standby generator 26KW in ETJ","metadescription":"EP. Repair. Installing standby generator 26KW in ETJ. Final. 402 CEDAR OAK DR","address":"402 CEDAR OAK DR","link":"https://abc.austintexas.gov/web/permit/public-search-other?t_detail=1&t_selected_folderrsn=13202922","tcad_id":"0117150434","location":"    (30.29693364, -97.80318316)","day_issued":"TUESDAY","project_id":"13202922","condominium":"No","status_date":"11/02/2023","jurisdiction":"WEST LAKE HILLS FULL PURPOSE","housing_units":"1","contractor_zip":"77511","contractor_city":"Alvin","issuance_method":"Permit Center","contractor_phone":"5123616823","contractor_trade":"Electrical Contractor","number_of_floors":"1","permit_type_desc":"Electrical Permit","fiscal_year_issued":"2023","permit_class_mapped":"Residential","remodel_repair_sqft":"0","contractor_address_2":"1709 E South","contractor_full_name":"Timothy Oliff","issued_in_last_30_days":"No","certificate_of_occupancy":"No","property_legal_description":"LOT 4 BLK A RED BUD HILLS","electrical_valuation_remodel":"$800.00"},"geometry":{"type":"Point","coordinates":[-97.80318316,30.29693364]}},{"type":"Feature","properties":{"date":"2023-09-06T04:00:00.000Z","year":2023,"description":"**request to disconnect**install 200 amp ATS and 26KW GENERATOR","metadescription":"EP. Repair. **request to disconnect**install 200 amp ATS and 26KW GENERATOR. Final. 525 BUCKEYE TRL","address":"525 BUCKEYE TRL","link":"https://abc.austintexas.gov/web/permit/public-search-other?t_detail=1&t_selected_folderrsn=13202307","tcad_id":"0113150305","location":"    (30.28807469, -97.8097283)","day_issued":"WEDNESDAY","project_id":"13202307","condominium":"No","status_date":"12/13/2023","jurisdiction":"WEST LAKE HILLS FULL PURPOSE","housing_units":"1","contractor_zip":"78724-____","contractor_city":"AUSTIN","issuance_method":"Permit Center","contractor_phone":"5122936828","contractor_trade":"Electrical Contractor","number_of_floors":"1","permit_type_desc":"Electrical Permit","fiscal_year_issued":"2023","permit_class_mapped":"Residential","remodel_repair_sqft":"0","contractor_address_2":"5817  BERRYL","contractor_full_name":"Matt Hurtado","issued_in_last_30_days":"No","certificate_of_occupancy":"No","property_legal_description":"LOT 1 RESUB OF PT OF 29&30 BARTON SPRINGS ESTATES","electrical_valuation_remodel":"$2,200.00"},"geometry":{"type":"Point","coordinates":[-97.8097283,30.28807469]}},{"type":"Feature","properties":{"date":"2023-08-31T04:00:00.000Z","year":2023,"description":"requesting a disconnect of service to install a standby generator.","metadescription":"EP. Repair. requesting a disconnect of service to install a standby generator.. Final. 1601 WILD BASIN LEDGE","address":"1601 WILD BASIN LEDGE","link":"https://abc.austintexas.gov/web/permit/public-search-other?t_detail=1&t_selected_folderrsn=13192764","tcad_id":"0121130410","location":"    (30.30848852, -97.8007184)","day_issued":"THURSDAY","project_id":"13192764","condominium":"No","status_date":"02/12/2024","jurisdiction":"AUSTIN 2 MILE ETJ","housing_units":"1","contractor_zip":"77511","contractor_city":"Alvin","issuance_method":"Permit Center","contractor_phone":"5123616823","contractor_trade":"Electrical Contractor","number_of_floors":"1","permit_type_desc":"Electrical Permit","fiscal_year_issued":"2023","permit_class_mapped":"Residential","remodel_repair_sqft":"0","contractor_address_2":"1709 E South","contractor_full_name":"Timothy Oliff","issued_in_last_30_days":"No","certificate_of_occupancy":"No","property_legal_description":"ABS 75 SUR 503 BONHAM A L D ACR 9.50","electrical_valuation_remodel":"$800.00"},"geometry":{"type":"Point","coordinates":[-97.8007184,30.30848852]}},{"type":"Feature","properties":{"date":"2023-05-17T04:00:00.000Z","year":2023,"description":"Recondition existing service and install Automatic Transfer Switch and electrical power to Generator equipment. Reusing existing meter and replacing old 125amp main with new 125amp main.  \ndisconnect and reconnect only","metadescription":"EP. Repair. Recondition existing service and install Automatic Transfer Switch and electrical power to Generator equipment. Reusing existing meter and replacing old 125amp main with new 125amp main.  \ndisconnect and reconnect only. Final. 100 SKYLINE DR","address":"100 SKYLINE DR","link":"https://abc.austintexas.gov/web/permit/public-search-other?t_detail=1&t_selected_folderrsn=13140437","tcad_id":"0115130502","location":"    (30.29468577, -97.79590502)","day_issued":"WEDNESDAY","project_id":"13140437","condominium":"No","status_date":"08/28/2023","jurisdiction":"WEST LAKE HILLS FULL PURPOSE","housing_units":"1","contractor_zip":"78736","contractor_city":"Austin","issuance_method":"Permit Center","contractor_phone":"5122884063","contractor_trade":"Electrical Contractor","number_of_floors":"1","permit_type_desc":"Electrical Permit","fiscal_year_issued":"2023","permit_class_mapped":"Residential","remodel_repair_sqft":"0","contractor_address_2":"9020  circle","contractor_full_name":"Lane H Eskew","issued_in_last_30_days":"No","certificate_of_occupancy":"No","property_legal_description":"LOT 1 CITY VIEW SUBD AMENDED PLAT OF LOTS 1-A&2-A OF THE RESUB OF LOTS 1&2","electrical_valuation_remodel":"$9,000.00"},"geometry":{"type":"Point","coordinates":[-97.79590502,30.29468577]}},{"type":"Feature","properties":{"date":"2023-05-16T04:00:00.000Z","year":2023,"description":"Shutdown required for generator and ATS install","metadescription":"EP. Repair. Shutdown required for generator and ATS install. Final. 1437 CIRCLE RIDGE DR","address":"1437 CIRCLE RIDGE DR","link":"https://abc.austintexas.gov/web/permit/public-search-other?t_detail=1&t_selected_folderrsn=13139009","tcad_id":"0119190334","location":"    (30.30429194, -97.81525686)","day_issued":"TUESDAY","project_id":"13139009","condominium":"No","status_date":"07/11/2023","jurisdiction":"WEST LAKE HILLS FULL PURPOSE","housing_units":"1","contractor_zip":"78650","contractor_city":"McDade","issuance_method":"Permit Center","contractor_phone":"9088720798","contractor_trade":"Electrical Contractor","number_of_floors":"1","permit_type_desc":"Electrical Permit","fiscal_year_issued":"2023","permit_class_mapped":"Residential","remodel_repair_sqft":"0","contractor_address_2":"2085  CR 311","contractor_full_name":"Jason Kalafut","issued_in_last_30_days":"No","certificate_of_occupancy":"No","property_legal_description":"ABS 198 SUR 504 CHAMBERS T J & ABS 75 SUR 503 BENHAM A L D ACR 1.2500","electrical_valuation_remodel":"$2,000.00"},"geometry":{"type":"Point","coordinates":[-97.81525686,30.30429194]}},{"type":"Feature","properties":{"date":"2023-04-30T04:00:00.000Z","year":2023,"description":"Integrate automatic transfer switch into existing service and connect generator feeders. Update meter can.\nREQUEST TO DISCONNECT.","metadescription":"EP. Repair. Integrate automatic transfer switch into existing service and connect generator feeders. Update meter can.\nREQUEST TO DISCONNECT.. Final. 310 BUCKEYE TRL","address":"310 BUCKEYE TRL","link":"https://abc.austintexas.gov/web/permit/public-search-other?t_detail=1&t_selected_folderrsn=13128140","tcad_id":"0115150412","location":"    (30.29208432, -97.8052467)","day_issued":"SUNDAY","project_id":"13128140","condominium":"No","status_date":"07/12/2023","jurisdiction":"WEST LAKE HILLS FULL PURPOSE","housing_units":"1","contractor_zip":"78757","contractor_city":"AUSTIN","issuance_method":"Permit Center","contractor_phone":"5126792409","contractor_trade":"Electrical Contractor","number_of_floors":"1","permit_type_desc":"Electrical Permit","fiscal_year_issued":"2023","permit_class_mapped":"Residential","remodel_repair_sqft":"0","contractor_address_2":"2107  MUROC","contractor_full_name":"Chas West","issued_in_last_30_days":"No","certificate_of_occupancy":"No","property_legal_description":"LOT 1 JAYBO ADDN","electrical_valuation_remodel":"$1.00"},"geometry":{"type":"Point","coordinates":[-97.8052467,30.29208432]}},{"type":"Feature","properties":{"date":"2023-04-11T04:00:00.000Z","year":2023,"description":"REQUEST TO DISCONNECT:\ninstall  generator Replace existing service disconnect panel with service rated transfer switches 200 and 150 amp. No meter can required.","metadescription":"EP. Repair. REQUEST TO DISCONNECT:\ninstall  generator Replace existing service disconnect panel with service rated transfer switches 200 and 150 amp. No meter can required.. Final. 109 SKYLINE DR","address":"109 SKYLINE DR","link":"https://abc.austintexas.gov/web/permit/public-search-other?t_detail=1&t_selected_folderrsn=13119400","tcad_id":"0115130406","location":"    (30.29466536, -97.79709724)","day_issued":"TUESDAY","project_id":"13119400","condominium":"No","status_date":"05/17/2023","jurisdiction":"WEST LAKE HILLS FULL PURPOSE","housing_units":"1","contractor_zip":"78737","contractor_city":"AUSTIN","issuance_method":"Permit Center","contractor_phone":"5126528463","contractor_trade":"Electrical Contractor","number_of_floors":"1","permit_type_desc":"Electrical Permit","fiscal_year_issued":"2023","permit_class_mapped":"Residential","remodel_repair_sqft":"0","contractor_address_2":"10107  SIGNA","contractor_full_name":"Richard J Rinehart","issued_in_last_30_days":"No","certificate_of_occupancy":"No","property_legal_description":"ABS 21 SUR 1 SPARKS W ACR 0.755","electrical_valuation_remodel":"$35,000.00"},"geometry":{"type":"Point","coordinates":[-97.79709724,30.29466536]}},{"type":"Feature","properties":{"date":"2023-03-30T04:00:00.000Z","year":2023,"description":"Shutdown required for generator and ATS install","metadescription":"EP. Repair. Shutdown required for generator and ATS install. Final. 895 LIVE OAK CIR","address":"895 LIVE OAK CIR","link":"https://abc.austintexas.gov/web/permit/public-search-other?t_detail=1&t_selected_folderrsn=13116083","tcad_id":"0115190903","location":"    (30.2948337, -97.81246104)","day_issued":"THURSDAY","project_id":"13116083","condominium":"No","status_date":"07/07/2023","jurisdiction":"WEST LAKE HILLS FULL PURPOSE","housing_units":"1","contractor_zip":"78650","contractor_city":"McDade","issuance_method":"Permit Center","contractor_phone":"9088720798","contractor_trade":"Electrical Contractor","number_of_floors":"1","permit_type_desc":"Electrical Permit","fiscal_year_issued":"2023","permit_class_mapped":"Residential","remodel_repair_sqft":"0","contractor_address_2":"2085  CR 311","contractor_full_name":"Jason Kalafut","issued_in_last_30_days":"No","certificate_of_occupancy":"No","property_legal_description":"LOT 12 MAYO ADDN","electrical_valuation_remodel":"$2,000.00"},"geometry":{"type":"Point","coordinates":[-97.81246104,30.2948337]}},{"type":"Feature","properties":{"date":"2023-03-16T04:00:00.000Z","year":2023,"description":"Install automatic transfer switch panel for generator.  Reroute line from meter can to automatic transfer switch panel.  Feed main panel.\nDisconnect and reconnect from AE","metadescription":"EP. Repair. Install automatic transfer switch panel for generator.  Reroute line from meter can to automatic transfer switch panel.  Feed main panel.\nDisconnect and reconnect from AE. Final. 315 EANES SCHOOL RD","address":"315 EANES SCHOOL RD","link":"https://abc.austintexas.gov/web/permit/public-search-other?t_detail=1&t_selected_folderrsn=13107496","tcad_id":"0111190419","location":"    (30.28234119, -97.81704635)","day_issued":"THURSDAY","project_id":"13107496","condominium":"No","status_date":"04/18/2023","jurisdiction":"WEST LAKE HILLS FULL PURPOSE","housing_units":"1","contractor_zip":"78709-____","contractor_city":"AUSTIN","issuance_method":"Permit Center","contractor_phone":"3615489681","contractor_trade":"Electrical Contractor","number_of_floors":"1","permit_type_desc":"Electrical Permit","fiscal_year_issued":"2023","permit_class_mapped":"Residential","remodel_repair_sqft":"0","contractor_address_1":"PO BOX 91135","contractor_full_name":"Aaron Bedwell","issued_in_last_30_days":"No","certificate_of_occupancy":"No","property_legal_description":"LOT 1 SHADOWOOD SUBD","electrical_valuation_remodel":"$2,100.00"},"geometry":{"type":"Point","coordinates":[-97.81704635,30.28234119]}},{"type":"Feature","properties":{"date":"2023-03-09T05:00:00.000Z","year":2023,"description":"Replace the existing 200-amp main breaker disconnect switch with 200-amp main breaker panel & install inlet receptacle for a portable generator connection. Will require AE disconnect/reconnect.","metadescription":"EP. Repair. Replace the existing 200-amp main breaker disconnect switch with 200-amp main breaker panel & install inlet receptacle for a portable generator connection. Will require AE disconnect/reconnect.. Final. 804 YAUPON VALLEY RD","address":"804 YAUPON VALLEY RD","link":"https://abc.austintexas.gov/web/permit/public-search-other?t_detail=1&t_selected_folderrsn=13101746","tcad_id":"0115190912","location":"    (30.29384926, -97.81302871)","day_issued":"THURSDAY","project_id":"13101746","condominium":"No","status_date":"04/04/2023","jurisdiction":"WEST LAKE HILLS FULL PURPOSE","housing_units":"1","contractor_zip":"78758","contractor_city":"Austin","issuance_method":"Permit Center","contractor_phone":"5124545325","contractor_trade":"Electrical Contractor","number_of_floors":"1","permit_type_desc":"Electrical Permit","fiscal_year_issued":"2023","permit_class_mapped":"Residential","remodel_repair_sqft":"0","contractor_address_2":"2120  Denton","contractor_full_name":"Robert Bowne","issued_in_last_30_days":"No","certificate_of_occupancy":"No","property_legal_description":"LOT 28 MAYO ADDN","electrical_valuation_remodel":"$2,000.00"},"geometry":{"type":"Point","coordinates":[-97.81302871,30.29384926]}},{"type":"Feature","properties":{"date":"2023-03-08T05:00:00.000Z","year":2023,"description":"***Request to Disconnect***\nInstallation of new 48KW permanent whole home generator (Propane) connected to house meter and main panel. No meter can required","metadescription":"EP. Repair. ***Request to Disconnect***\nInstallation of new 48KW permanent whole home generator (Propane) connected to house meter and main panel. No meter can required. Final. 907 TERRACE MOUNTAIN DR","address":"907 TERRACE MOUNTAIN DR","link":"https://abc.austintexas.gov/web/permit/public-search-other?t_detail=1&t_selected_folderrsn=13102689","tcad_id":"0119150213","location":"    (30.30501894, -97.80398866)","day_issued":"WEDNESDAY","project_id":"13102689","condominium":"No","status_date":"04/12/2023","jurisdiction":"WEST LAKE HILLS FULL PURPOSE","housing_units":"1","contractor_zip":"78645-____","contractor_city":"JONESTOWN","issuance_method":"Permit Center","contractor_phone":"5124503271","contractor_trade":"Electrical Contractor","number_of_floors":"1","permit_type_desc":"Electrical Permit","fiscal_year_issued":"2023","permit_class_mapped":"Residential","remodel_repair_sqft":"0","contractor_address_2":"188221  DOUB","contractor_full_name":"Vico Garcia","issued_in_last_30_days":"No","certificate_of_occupancy":"No","property_legal_description":"NE & NW TRI OF LOT 12 & ALL OF LOT 13 & SW19.88FT FRT OF LOT 14 BLK O TERRACE MOUNTAIN BLK O","electrical_valuation_remodel":"$17,618.00"},"geometry":{"type":"Point","coordinates":[-97.80398866,30.30501894]}},{"type":"Feature","properties":{"date":"2023-03-02T05:00:00.000Z","year":2023,"description":"Installation of a generac generator and service rated ATS requiring an AE disconnect.","metadescription":"EP. Repair. Installation of a generac generator and service rated ATS requiring an AE disconnect.. Withdrawn. 28 SUNDOWN PKWY","address":"28 SUNDOWN PKWY","link":"https://abc.austintexas.gov/web/permit/public-search-other?t_detail=1&t_selected_folderrsn=13095462","tcad_id":"0113210116","location":"    (30.28526948, -97.82373907)","day_issued":"THURSDAY","project_id":"13095462","condominium":"No","status_date":"11/21/2023","jurisdiction":"WEST LAKE HILLS ETJ","housing_units":"1","contractor_zip":"11803-____","contractor_city":"Plainview","issuance_method":"Permit Center","contractor_phone":"5127862865","contractor_trade":"Electrical Contractor","number_of_floors":"1","permit_type_desc":"Electrical Permit","fiscal_year_issued":"2023","permit_class_mapped":"Residential","remodel_repair_sqft":"0","contractor_address_2":"100  Newton","contractor_full_name":"Timothy J Linahan","issued_in_last_30_days":"No","certificate_of_occupancy":"No","property_legal_description":"LOT 14 WESTLAKE OAKS","electrical_valuation_remodel":"$5,000.00"},"geometry":{"type":"Point","coordinates":[-97.82373907,30.28526948]}},{"type":"Feature","properties":{"date":"2023-02-24T05:00:00.000Z","year":2023,"description":"Upgrade main service and install generator interlock system.","metadescription":"EP. Upgrade. Upgrade main service and install generator interlock system.. Final. 108 BLUFF PARK CIR","address":"108 BLUFF PARK CIR","link":"https://abc.austintexas.gov/web/permit/public-search-other?t_detail=1&t_selected_folderrsn=13095994","tcad_id":"0115210224","location":"    (30.29130227, -97.81875864)","day_issued":"FRIDAY","project_id":"13095994","condominium":"No","status_date":"03/30/2023","jurisdiction":"WEST LAKE HILLS FULL PURPOSE","housing_units":"1","contractor_zip":"78659-____","contractor_city":"Paige","issuance_method":"Permit Center","contractor_phone":"5126614132","contractor_trade":"Electrical Contractor","number_of_floors":"1","permit_type_desc":"Electrical Permit","fiscal_year_issued":"2023","permit_class_mapped":"Residential","remodel_repair_sqft":"0","contractor_address_2":"207  Squirre","contractor_full_name":"Darryl Goodner","issued_in_last_30_days":"No","certificate_of_occupancy":"No","property_legal_description":"LOT 1A RESUB OF LOT 1 BLUFF ABOVE BEE CAVE THE","electrical_valuation_remodel":"$4,000.00"},"geometry":{"type":"Point","coordinates":[-97.81875864,30.29130227]}},{"type":"Feature","properties":{"date":"2023-02-08T05:00:00.000Z","year":2023,"description":"intal gas line to generator location","metadescription":"PP. Repair. intal gas line to generator location. Expired. 502 KONSTANTY CIR","address":"502 KONSTANTY CIR","link":"https://abc.austintexas.gov/web/permit/public-search-other?t_detail=1&t_selected_folderrsn=13088908","tcad_id":"0111190409","location":"    (30.27973182, -97.8146997)","day_issued":"WEDNESDAY","project_id":"13088908","condominium":"No","status_date":"08/08/2023","jurisdiction":"WEST LAKE HILLS FULL PURPOSE","housing_units":"1","contractor_zip":"77503","contractor_city":"Pasadena","issuance_method":"Permit Center","contractor_phone":"7132992519","contractor_trade":"Plumbing Contractor","number_of_floors":"1","permit_type_desc":"Plumbing Permit","fiscal_year_issued":"2023","permit_class_mapped":"Residential","remodel_repair_sqft":"754","contractor_address_2":"3414  Presto","contractor_full_name":"Teodoro Vela","issued_in_last_30_days":"No","certificate_of_occupancy":"No","property_legal_description":"LOT 12 STONEY WOOD SUBD"},"geometry":{"type":"Point","coordinates":[-97.8146997,30.27973182]}},{"type":"Feature","properties":{"date":"2023-02-06T05:00:00.000Z","year":2023,"description":"Installation of permanent generator","metadescription":"EP. Repair. Installation of permanent generator. Final. 1904 YAUPON VALLEY RD","address":"1904 YAUPON VALLEY RD","link":"https://abc.austintexas.gov/web/permit/public-search-other?t_detail=1&t_selected_folderrsn=13087145","tcad_id":"0119210117","location":"    (30.30271562, -97.82308889)","day_issued":"MONDAY","project_id":"13087145","condominium":"No","status_date":"05/01/2023","jurisdiction":"WEST LAKE HILLS FULL PURPOSE","housing_units":"1","contractor_zip":"78613","contractor_city":"CEDAR PARK","issuance_method":"Permit Center","contractor_phone":"5128448111","contractor_trade":"Electrical Contractor","number_of_floors":"1","permit_type_desc":"Electrical Permit","fiscal_year_issued":"2023","permit_class_mapped":"Residential","remodel_repair_sqft":"0","contractor_address_2":"2214 N CANNE","contractor_full_name":"James Reese","issued_in_last_30_days":"No","certificate_of_occupancy":"No","property_legal_description":"LOT 3 LOS RINCONES","electrical_valuation_remodel":"$7,200.00"},"geometry":{"type":"Point","coordinates":[-97.82308889,30.30271562]}},{"type":"Feature","properties":{"date":"2023-01-13T05:00:00.000Z","year":2023,"description":"installing a standby generator","metadescription":"EP. Repair. installing a standby generator. Withdrawn. 502 KONSTANTY CIR","address":"502 KONSTANTY CIR","link":"https://abc.austintexas.gov/web/permit/public-search-other?t_detail=1&t_selected_folderrsn=13076872","tcad_id":"0111190409","location":"    (30.27973182, -97.8146997)","day_issued":"FRIDAY","project_id":"13076872","condominium":"No","status_date":"04/15/2023","jurisdiction":"WEST LAKE HILLS FULL PURPOSE","housing_units":"1","contractor_zip":"77084","contractor_city":"Houston","issuance_method":"Permit Center","contractor_phone":"2818460901","contractor_trade":"Electrical Contractor","number_of_floors":"1","permit_type_desc":"Electrical Permit","fiscal_year_issued":"2023","permit_class_mapped":"Residential","remodel_repair_sqft":"0","contractor_address_2":"18307  Sea B","contractor_full_name":"Saul Molina","issued_in_last_30_days":"No","certificate_of_occupancy":"No","property_legal_description":"LOT 12 STONEY WOOD SUBD","electrical_valuation_remodel":"$3,800.00"},"geometry":{"type":"Point","coordinates":[-97.8146997,30.27973182]}},{"type":"Feature","properties":{"date":"2023-01-12T05:00:00.000Z","year":2023,"description":"Installing transfer switch and generator.  Will only need inspection at service for Austin Energy temp disconnect.  City of Westlake Hills will also inspect.","metadescription":"EP. Repair. Installing transfer switch and generator.  Will only need inspection at service for Austin Energy temp disconnect.  City of Westlake Hills will also inspect.. Final. 307 WESTHAVEN DR","address":"307 WESTHAVEN DR","link":"https://abc.austintexas.gov/web/permit/public-search-other?t_detail=1&t_selected_folderrsn=13073347","tcad_id":"0113150524","location":"    (30.28671666, -97.80780531)","day_issued":"THURSDAY","project_id":"13073347","condominium":"No","status_date":"02/23/2023","jurisdiction":"WEST LAKE HILLS FULL PURPOSE","housing_units":"1","contractor_zip":"78620","contractor_city":"Dripping Spr","issuance_method":"Permit Center","contractor_phone":"5127500700","contractor_trade":"Electrical Contractor","number_of_floors":"1","permit_type_desc":"Electrical Permit","fiscal_year_issued":"2023","permit_class_mapped":"Residential","remodel_repair_sqft":"0","contractor_address_1":"P O BOX 508","contractor_address_2":"26850  Ranch","contractor_full_name":"Todd Purcell","issued_in_last_30_days":"No","certificate_of_occupancy":"No","property_legal_description":"LOT 34 WESTLAKE PARK","electrical_valuation_remodel":"$3,000.00"},"geometry":{"type":"Point","coordinates":[-97.80780531,30.28671666]}},{"type":"Feature","properties":{"date":"2022-12-06T05:00:00.000Z","year":2022,"description":"Tee in line to existing outside line and run dedicated gas line to generator with meter upgrade.","metadescription":"PP. Repair. Tee in line to existing outside line and run dedicated gas line to generator with meter upgrade.. Final. 555 CORTONA DR","address":"555 CORTONA DR","link":"https://abc.austintexas.gov/web/permit/public-search-other?t_detail=1&t_selected_folderrsn=13058403","tcad_id":"0113150133","location":"    (30.28787752, -97.80586395)","day_issued":"TUESDAY","project_id":"13058403","condominium":"No","status_date":"12/07/2022","jurisdiction":"WEST LAKE HILLS FULL PURPOSE","housing_units":"1","contractor_zip":"78703-____","contractor_city":"AUSTIN","issuance_method":"Permit Center","contractor_phone":"5123599857","contractor_trade":"Plumbing Contractor","number_of_floors":"0","permit_type_desc":"Plumbing Permit","fiscal_year_issued":"2023","permit_class_mapped":"Residential","remodel_repair_sqft":"4,847","contractor_address_2":"1401  ETHRI","contractor_full_name":"Christopher McIvor","issued_in_last_30_days":"No","certificate_of_occupancy":"No","property_legal_description":"LOT 6 BLK A CORTONA SUBD"},"geometry":{"type":"Point","coordinates":[-97.80586395,30.28787752]}},{"type":"Feature","properties":{"date":"2022-11-04T04:00:00.000Z","year":2022,"description":"**request disconnect**  install 200 amp ATS and install 20 kw generator","metadescription":"EP. Repair. **request disconnect**  install 200 amp ATS and install 20 kw generator. Final. 101 WESTBROOK DR","address":"101 WESTBROOK DR","link":"https://abc.austintexas.gov/web/permit/public-search-other?t_detail=1&t_selected_folderrsn=13046028","tcad_id":"0109150408","location":"    (30.27796972, -97.80357247)","day_issued":"FRIDAY","project_id":"13046028","condominium":"No","status_date":"12/07/2022","jurisdiction":"WEST LAKE HILLS FULL PURPOSE","housing_units":"1","contractor_zip":"78724-____","contractor_city":"AUSTIN","issuance_method":"Permit Center","contractor_phone":"5122936828","contractor_trade":"Electrical Contractor","number_of_floors":"1","permit_type_desc":"Electrical Permit","fiscal_year_issued":"2023","permit_class_mapped":"Residential","remodel_repair_sqft":"0","contractor_address_2":"5817  BERRYL","contractor_full_name":"Matt Hurtado","issued_in_last_30_days":"No","certificate_of_occupancy":"No","property_legal_description":"LOT 2 RESUB OF A PT OF LOT 2 WESTWOOD VILLAS SEC 3","electrical_valuation_remodel":"$3,000.00"},"geometry":{"type":"Point","coordinates":[-97.80357247,30.27796972]}},{"type":"Feature","properties":{"date":"2022-11-02T04:00:00.000Z","year":2022,"description":"Installation of new 60kW permanent whole home generator (Propane) connected to house meter and main panel. No meter can required (Kong Mellissa)","metadescription":"EP. Repair. Installation of new 60kW permanent whole home generator (Propane) connected to house meter and main panel. No meter can required (Kong Mellissa). Final. 901 TERRACE MOUNTAIN DR","address":"901 TERRACE MOUNTAIN DR","link":"https://abc.austintexas.gov/web/permit/public-search-other?t_detail=1&t_selected_folderrsn=13044489","tcad_id":"0119150215","location":"    (30.30478952, -97.80309448)","day_issued":"WEDNESDAY","project_id":"13044489","condominium":"No","status_date":"01/05/2023","jurisdiction":"WEST LAKE HILLS FULL PURPOSE","housing_units":"1","contractor_zip":"78645-____","contractor_city":"JONESTOWN","issuance_method":"Permit Center","contractor_phone":"5124503271","contractor_trade":"Electrical Contractor","number_of_floors":"1","permit_type_desc":"Electrical Permit","fiscal_year_issued":"2023","permit_class_mapped":"Residential","remodel_repair_sqft":"0","contractor_address_2":"188221  DOUB","contractor_full_name":"Vico Garcia","issued_in_last_30_days":"No","certificate_of_occupancy":"No","property_legal_description":"LOT 15 BLK O TERRACE MOUNTAIN BLK O","electrical_valuation_remodel":"$20,497.00"},"geometry":{"type":"Point","coordinates":[-97.80309448,30.30478952]}},{"type":"Feature","properties":{"date":"2022-10-04T04:00:00.000Z","year":2022,"description":"Shutdown required for generator and ATS install","metadescription":"EP. Repair. Shutdown required for generator and ATS install. Final. 555 CORTONA DR","address":"555 CORTONA DR","link":"https://abc.austintexas.gov/web/permit/public-search-other?t_detail=1&t_selected_folderrsn=13022147","tcad_id":"0113150133","location":"    (30.28787752, -97.80586395)","day_issued":"TUESDAY","project_id":"13022147","condominium":"No","status_date":"03/03/2023","jurisdiction":"WEST LAKE HILLS FULL PURPOSE","housing_units":"1","contractor_zip":"78650","contractor_city":"McDade","issuance_method":"Permit Center","contractor_phone":"9088720798","contractor_trade":"Electrical Contractor","number_of_floors":"1","permit_type_desc":"Electrical Permit","fiscal_year_issued":"2023","permit_class_mapped":"Residential","remodel_repair_sqft":"0","contractor_address_2":"2085  CR 311","contractor_full_name":"Jason Kalafut","issued_in_last_30_days":"No","certificate_of_occupancy":"No","property_legal_description":"LOT 6 BLK A CORTONA SUBD","electrical_valuation_remodel":"$2,000.00"},"geometry":{"type":"Point","coordinates":[-97.80586395,30.28787752]}},{"type":"Feature","properties":{"date":"2022-08-25T04:00:00.000Z","year":2022,"description":"tying into a natural gas line for a standby generator","metadescription":"PP. Repair. tying into a natural gas line for a standby generator. Expired. 1810 LOGANS HOLLOW DR","address":"1810 LOGANS HOLLOW DR","link":"https://abc.austintexas.gov/web/permit/public-search-other?t_detail=1&t_selected_folderrsn=12998084","tcad_id":"0121130623","location":"    (30.30808238, -97.79631353)","day_issued":"THURSDAY","project_id":"12998084","condominium":"No","status_date":"05/31/2023","jurisdiction":"AUSTIN 2 MILE ETJ","housing_units":"1","contractor_zip":"77904-____","contractor_city":"Victoria","issuance_method":"Permit Center","contractor_phone":"3615737344","contractor_trade":"Plumbing Contractor","number_of_floors":"1","permit_type_desc":"Plumbing Permit","fiscal_year_issued":"2022","permit_class_mapped":"Residential","remodel_repair_sqft":"2,500","contractor_address_2":"9685  US hwy","contractor_full_name":"William Price","issued_in_last_30_days":"No","certificate_of_occupancy":"No","property_legal_description":"LOT 29 BLK D SUMMIT AT WEST RIM ON MOUNT LARSON BLK D SEC 1 THE (PRIVATE STREET)"},"geometry":{"type":"Point","coordinates":[-97.79631353,30.30808238]}},{"type":"Feature","properties":{"date":"2022-08-24T04:00:00.000Z","year":2022,"description":"Install Automated Transfer Switch for generator","metadescription":"EP. Repair. Install Automated Transfer Switch for generator. Expired. 624 LOGANS LN","address":"624 LOGANS LN","link":"https://abc.austintexas.gov/web/permit/public-search-other?t_detail=1&t_selected_folderrsn=12922669","tcad_id":"0121130610","location":"    (30.30796125, -97.79561302)","day_issued":"WEDNESDAY","project_id":"12922669","condominium":"No","status_date":"06/04/2023","jurisdiction":"AUSTIN 2 MILE ETJ","housing_units":"1","issuance_method":"Permit Center","contractor_trade":"Electrical Contractor","number_of_floors":"1","permit_type_desc":"Electrical Permit","fiscal_year_issued":"2022","permit_class_mapped":"Residential","remodel_repair_sqft":"0","contractor_full_name":"Karl Wendt","issued_in_last_30_days":"No","certificate_of_occupancy":"No","property_legal_description":"LOT 13 BLK D SUMMIT AT WEST RIM ON MOUNT LARSON BLK D SEC 1 THE","electrical_valuation_remodel":"$7,500.00"},"geometry":{"type":"Point","coordinates":[-97.79561302,30.30796125]}},{"type":"Feature","properties":{"date":"2022-08-08T04:00:00.000Z","year":2022,"description":"install whole home stand by generator with an automatic transfer switch","metadescription":"EP. New. install whole home stand by generator with an automatic transfer switch. Final. 922 TERRACE MOUNTAIN DR","address":"922 TERRACE MOUNTAIN DR","link":"https://abc.austintexas.gov/web/permit/public-search-other?t_detail=1&t_selected_folderrsn=12989092","tcad_id":"0119150105","location":"    (30.30253281, -97.80776226)","day_issued":"MONDAY","project_id":"12989092","condominium":"No","status_date":"01/12/2023","jurisdiction":"WEST LAKE HILLS FULL PURPOSE","housing_units":"1","contractor_zip":"78664-____","contractor_city":"ROUND ROCK","issuance_method":"Permit Center","contractor_phone":"5122725000","contractor_trade":"Electrical Contractor","number_of_floors":"1","permit_type_desc":"Electrical Permit","fiscal_year_issued":"2022","total_new_add_sqft":"0","permit_class_mapped":"Residential","remodel_repair_sqft":"0","contractor_address_2":"3804  BENT B","contractor_full_name":"Justin Garza","issued_in_last_30_days":"No","certificate_of_occupancy":"No","property_legal_description":"LOT 2 TERRACE MOUNTAIN SUBD","electrical_valuation_remodel":"$10,000.00"},"geometry":{"type":"Point","coordinates":[-97.80776226,30.30253281]}},{"type":"Feature","properties":{"date":"2022-07-24T04:00:00.000Z","year":2022,"description":"Shutdown required for generator and ATS install","metadescription":"EP. Repair. Shutdown required for generator and ATS install. Final. 308 EANES SCHOOL RD","address":"308 EANES SCHOOL RD","link":"https://abc.austintexas.gov/web/permit/public-search-other?t_detail=1&t_selected_folderrsn=12980586","tcad_id":"0111190111","location":"    (30.28262766, -97.81524842)","day_issued":"SUNDAY","project_id":"12980586","condominium":"No","status_date":"09/01/2022","jurisdiction":"WEST LAKE HILLS ETJ","housing_units":"1","contractor_zip":"78650","contractor_city":"McDade","issuance_method":"Permit Center","contractor_phone":"9088720798","contractor_trade":"Electrical Contractor","number_of_floors":"1","permit_type_desc":"Electrical Permit","fiscal_year_issued":"2022","permit_class_mapped":"Residential","remodel_repair_sqft":"0","contractor_address_2":"2085  CR 311","contractor_full_name":"Jason Kalafut","issued_in_last_30_days":"No","certificate_of_occupancy":"No","property_legal_description":"LOT 2 *RESUB OF LOT 20 BARTON SPRINGS ESTATES","electrical_valuation_remodel":"$2,000.00"},"geometry":{"type":"Point","coordinates":[-97.81524842,30.28262766]}},{"type":"Feature","properties":{"date":"2022-07-14T04:00:00.000Z","year":2022,"description":"**Request to Disconnect**     1/19/2023\n\nEUD. Service only permit for Austin Energy temporary meter disconnect on an occupied home. For installation of a 48kw Liquid Propane Generac generator. (Shockley David)  (AE meter only)","metadescription":"EP. Repair. **Request to Disconnect**     1/19/2023\n\nEUD. Service only permit for Austin Energy temporary meter disconnect on an occupied home. For installation of a 48kw Liquid Propane Generac generator. (Shockley David)  (AE meter only). Final. 907 TERRACE MOUNTAIN DR","address":"907 TERRACE MOUNTAIN DR","link":"https://abc.austintexas.gov/web/permit/public-search-other?t_detail=1&t_selected_folderrsn=12926977","tcad_id":"0119150213","location":"    (30.30501894, -97.80398866)","day_issued":"THURSDAY","project_id":"12926977","condominium":"No","status_date":"03/01/2023","jurisdiction":"WEST LAKE HILLS FULL PURPOSE","housing_units":"1","contractor_zip":"78645-____","contractor_city":"JONESTOWN","issuance_method":"Permit Center","contractor_phone":"5124503271","contractor_trade":"Electrical Contractor","number_of_floors":"1","permit_type_desc":"Electrical Permit","fiscal_year_issued":"2022","permit_class_mapped":"Residential","remodel_repair_sqft":"0","contractor_address_2":"188221  DOUB","contractor_full_name":"Vico Garcia","issued_in_last_30_days":"No","certificate_of_occupancy":"No","property_legal_description":"NE & NW TRI OF LOT 12 & ALL OF LOT 13 & SW19.88FT FRT OF LOT 14 BLK O TERRACE MOUNTAIN BLK O","electrical_valuation_remodel":"$17,618.00"},"geometry":{"type":"Point","coordinates":[-97.80398866,30.30501894]}},{"type":"Feature","properties":{"date":"2022-06-20T04:00:00.000Z","year":2022,"description":"Installation of new Service Rated Generac Transfer Switch and Generator. This will require an Austin Energy Meter disconnect and reconnect Because the Transfer Switch will be place between meter and existing house panel.","metadescription":"EP. New. Installation of new Service Rated Generac Transfer Switch and Generator. This will require an Austin Energy Meter disconnect and reconnect Because the Transfer Switch will be place between meter and existing house panel.. Withdrawn. 622 CORTONA DR","address":"622 CORTONA DR","link":"https://abc.austintexas.gov/web/permit/public-search-other?t_detail=1&t_selected_folderrsn=12946389","tcad_id":"0113150116","location":"    (30.28961425, -97.80662661)","day_issued":"MONDAY","project_id":"12946389","condominium":"No","status_date":"05/01/2024","jurisdiction":"WEST LAKE HILLS FULL PURPOSE","housing_units":"1","contractor_zip":"78758-____","contractor_city":"AUSTIN","issuance_method":"Permit Center","contractor_phone":"5124310414","contractor_trade":"Electrical Contractor","number_of_floors":"1","permit_type_desc":"Electrical Permit","fiscal_year_issued":"2022","total_new_add_sqft":"0","permit_class_mapped":"Residential","remodel_repair_sqft":"0","contractor_address_2":"2105  Denton","contractor_full_name":"Donald Childers","issued_in_last_30_days":"No","certificate_of_occupancy":"No","property_legal_description":"LOT 27 BLK A CORTONA SUBD","electrical_valuation_remodel":"$5,000.00"},"geometry":{"type":"Point","coordinates":[-97.80662661,30.28961425]}},{"type":"Feature","properties":{"date":"2022-05-09T04:00:00.000Z","year":2022,"description":"Service only permit for Austin Energy temporary meter disconnect on an occupied home. For installation of a 38kw Propane Generac generator. (Humble Monty)  (AE meter only)","metadescription":"EP. Repair. Service only permit for Austin Energy temporary meter disconnect on an occupied home. For installation of a 38kw Propane Generac generator. (Humble Monty)  (AE meter only). Final. 1000 THE HIGH RD","address":"1000 THE HIGH RD","link":"https://abc.austintexas.gov/web/permit/public-search-other?t_detail=1&t_selected_folderrsn=12925845","tcad_id":"0121130110","location":"    (30.31033708, -97.80073645)","day_issued":"MONDAY","project_id":"12925845","condominium":"No","status_date":"02/17/2023","jurisdiction":"SB 2038 ETJ RELEASE","housing_units":"1","contractor_zip":"78645-____","contractor_city":"JONESTOWN","issuance_method":"Permit Center","contractor_phone":"5124503271","contractor_trade":"Electrical Contractor","number_of_floors":"1","permit_type_desc":"Electrical Permit","fiscal_year_issued":"2022","permit_class_mapped":"Residential","remodel_repair_sqft":"0","contractor_address_2":"188221  DOUB","contractor_full_name":"Vico Garcia","issued_in_last_30_days":"No","certificate_of_occupancy":"No","property_legal_description":"HIGH CANYON ESTATES SUBDIVISION AMENDED PLAT OF BLK A LOT 3","electrical_valuation_remodel":"$13,434.00"},"geometry":{"type":"Point","coordinates":[-97.80073645,30.31033708]}},{"type":"Feature","properties":{"date":"2022-04-06T04:00:00.000Z","year":2022,"description":"Shutdown required for generator and ATS install","metadescription":"EP. Repair. Shutdown required for generator and ATS install. Withdrawn. 1502 HARBOR VIEW DR","address":"1502 HARBOR VIEW DR","link":"https://abc.austintexas.gov/web/permit/public-search-other?t_detail=1&t_selected_folderrsn=12896919","tcad_id":"0117130106","location":"    (30.29842929, -97.7955055)","day_issued":"WEDNESDAY","project_id":"12896919","condominium":"No","status_date":"05/02/2025","jurisdiction":"WEST LAKE HILLS FULL PURPOSE","housing_units":"1","contractor_zip":"78650","contractor_city":"McDade","issuance_method":"Permit Center","contractor_phone":"9088720798","contractor_trade":"Electrical Contractor","number_of_floors":"1","permit_type_desc":"Electrical Permit","fiscal_year_issued":"2022","permit_class_mapped":"Residential","remodel_repair_sqft":"0","contractor_address_2":"2085  CR 311","contractor_full_name":"Jason Kalafut","issued_in_last_30_days":"No","certificate_of_occupancy":"No","property_legal_description":"LOT 1 KRAFT NELDA RESUB","electrical_valuation_remodel":"$2,000.00"},"geometry":{"type":"Point","coordinates":[-97.7955055,30.29842929]}},{"type":"Feature","properties":{"date":"2022-02-24T05:00:00.000Z","year":2022,"description":"Install Generator","metadescription":"EP. Repair. Install Generator. Final. 116 REVEILLE RD","address":"116 REVEILLE RD","link":"https://abc.austintexas.gov/web/permit/public-search-other?t_detail=1&t_selected_folderrsn=12873599","tcad_id":"0111150307","location":"    (30.28301949, -97.80651086)","day_issued":"THURSDAY","project_id":"12873599","condominium":"No","status_date":"07/11/2022","jurisdiction":"WEST LAKE HILLS FULL PURPOSE","housing_units":"1","contractor_zip":"78620","contractor_city":"Dripping Spr","issuance_method":"Permit Center","contractor_phone":"5127500700","contractor_trade":"Electrical Contractor","number_of_floors":"1","permit_type_desc":"Electrical Permit","fiscal_year_issued":"2022","permit_class_mapped":"Residential","remodel_repair_sqft":"0","contractor_address_1":"P O BOX 508","contractor_address_2":"26850  Ranch","contractor_full_name":"Todd Purcell","issued_in_last_30_days":"No","certificate_of_occupancy":"No","property_legal_description":"LOT 10B RESUB OF LOT 37-38 BARTON SPRINGS ESTATES","electrical_valuation_remodel":"$6,000.00"},"geometry":{"type":"Point","coordinates":[-97.80651086,30.28301949]}},{"type":"Feature","properties":{"date":"2022-02-17T05:00:00.000Z","year":2022,"description":"Shutdown required for generator and ATS install","metadescription":"EP. Repair. Shutdown required for generator and ATS install. Final. 1500 OLD WAGON RD","address":"1500 OLD WAGON RD","link":"https://abc.austintexas.gov/web/permit/public-search-other?t_detail=1&t_selected_folderrsn=12867493","tcad_id":"0119210112","location":"    (30.30202417, -97.82050465)","day_issued":"THURSDAY","project_id":"12867493","condominium":"No","status_date":"08/29/2022","jurisdiction":"WEST LAKE HILLS FULL PURPOSE","housing_units":"1","contractor_zip":"78650","contractor_city":"McDade","issuance_method":"Permit Center","contractor_phone":"9088720798","contractor_trade":"Electrical Contractor","number_of_floors":"1","permit_type_desc":"Electrical Permit","fiscal_year_issued":"2022","permit_class_mapped":"Residential","remodel_repair_sqft":"0","contractor_address_2":"2085  CR 311","contractor_full_name":"Jason Kalafut","issued_in_last_30_days":"No","certificate_of_occupancy":"No","property_legal_description":"LOT 6 LOS RINCONES LOT A WAGON GAP 3.284AC OF T J CHAMBERS SUR","electrical_valuation_remodel":"$2,000.00"},"geometry":{"type":"Point","coordinates":[-97.82050465,30.30202417]}},{"type":"Feature","properties":{"date":"2021-11-17T05:00:00.000Z","year":2021,"description":"Install automatic transfer switch to support backup emergency generator and  installation of the emergency backup generator","metadescription":"EP. Repair. Install automatic transfer switch to support backup emergency generator and  installation of the emergency backup generator. Final. 21 SUGAR SHACK DR","address":"21 SUGAR SHACK DR","link":"https://abc.austintexas.gov/web/permit/public-search-other?t_detail=1&t_selected_folderrsn=12830803","tcad_id":"0111110854","location":"    (30.28268093, -97.7884281)","day_issued":"WEDNESDAY","project_id":"12830803","condominium":"No","status_date":"12/28/2022","jurisdiction":"AUSTIN FULL PURPOSE","housing_units":"1","contractor_zip":"78759","contractor_city":"Austin","issuance_method":"Permit Center","contractor_phone":"5127510340","contractor_trade":"Electrical Contractor","number_of_floors":"1","permit_type_desc":"Electrical Permit","fiscal_year_issued":"2022","permit_class_mapped":"Residential","remodel_repair_sqft":"0","contractor_address_2":"3406  Gable","contractor_full_name":"Timothy R. Putman","issued_in_last_30_days":"No","certificate_of_occupancy":"No","property_legal_description":".116A OF LOT 2021-22 RIDGEWOOD VILLAGE SEC 5 & LOT 4-A RESUB OF LOT 2-4 RIDGEWOOD VILLAGE SEC 1","electrical_valuation_remodel":"$2,500.00"},"geometry":{"type":"Point","coordinates":[-97.7884281,30.28268093]}},{"type":"Feature","properties":{"date":"2021-11-08T05:00:00.000Z","year":2021,"description":"Installation of new Service Rated Generac Transfer Switch and Generator. This will require an Austin Energy meter disconnect and reconnect Because the Transfer Switch will be placed between meter and existing house panel.","metadescription":"EP. Repair. Installation of new Service Rated Generac Transfer Switch and Generator. This will require an Austin Energy meter disconnect and reconnect Because the Transfer Switch will be placed between meter and existing house panel.. Final. 980 LIVE OAK CIR","address":"980 LIVE OAK CIR","link":"https://abc.austintexas.gov/web/permit/public-search-other?t_detail=1&t_selected_folderrsn=12809820","tcad_id":"0117190306","location":"    (30.29722418, -97.81346353)","day_issued":"MONDAY","project_id":"12809820","condominium":"No","status_date":"11/10/2022","jurisdiction":"WEST LAKE HILLS FULL PURPOSE","housing_units":"1","contractor_zip":"11803-____","contractor_city":"Plainview","issuance_method":"Permit Center","contractor_phone":"5127862865","contractor_trade":"Electrical Contractor","number_of_floors":"1","permit_type_desc":"Electrical Permit","fiscal_year_issued":"2022","permit_class_mapped":"Residential","remodel_repair_sqft":"0","contractor_address_2":"100  Newton","contractor_full_name":"Timothy J Linahan","issued_in_last_30_days":"No","certificate_of_occupancy":"No","property_legal_description":"LOT 3 MAYO ADDN","electrical_valuation_remodel":"$5,000.00"},"geometry":{"type":"Point","coordinates":[-97.81346353,30.29722418]}},{"type":"Feature","properties":{"date":"2021-10-15T04:00:00.000Z","year":2021,"description":"Service Only Permit required by AE for a temporary power disconnect installing automatic transfer switch for Generac whole home stand by generator.","metadescription":"EP. Repair. Service Only Permit required by AE for a temporary power disconnect installing automatic transfer switch for Generac whole home stand by generator.. Final. 20 NOB HILL CIR","address":"20 NOB HILL CIR","link":"https://abc.austintexas.gov/web/permit/public-search-other?t_detail=1&t_selected_folderrsn=12801581","tcad_id":"0117130233","location":"    (30.29779539, -97.79891349)","day_issued":"FRIDAY","project_id":"12801581","condominium":"No","status_date":"01/25/2022","jurisdiction":"WEST LAKE HILLS FULL PURPOSE","housing_units":"1","contractor_zip":"78645-____","contractor_city":"JONESTOWN","issuance_method":"Permit Center","contractor_phone":"5124503271","contractor_trade":"Electrical Contractor","number_of_floors":"1","permit_type_desc":"Electrical Permit","fiscal_year_issued":"2022","permit_class_mapped":"Residential","remodel_repair_sqft":"0","contractor_address_2":"188221  DOUB","contractor_full_name":"Vico Garcia","issued_in_last_30_days":"No","certificate_of_occupancy":"No","property_legal_description":"LOT 1 NOB HILL NORTH","electrical_valuation_remodel":"$10,799.00"},"geometry":{"type":"Point","coordinates":[-97.79891349,30.29779539]}},{"type":"Feature","properties":{"date":"2021-10-05T04:00:00.000Z","year":2021,"description":"installing transfer switch and install generator","metadescription":"EP. Repair. installing transfer switch and install generator. Final. 904 LIVE OAK RIDGE RD","address":"904 LIVE OAK RIDGE RD","link":"https://abc.austintexas.gov/web/permit/public-search-other?t_detail=1&t_selected_folderrsn=12794298","tcad_id":"0117191102","location":"    (30.29620873, -97.81315409)","day_issued":"TUESDAY","project_id":"12794298","condominium":"No","status_date":"12/30/2021","jurisdiction":"WEST LAKE HILLS FULL PURPOSE","housing_units":"1","contractor_zip":"78610","contractor_city":"BUDA","issuance_method":"Permit Center","contractor_phone":"5128539647","contractor_trade":"Electrical Contractor","number_of_floors":"1","permit_type_desc":"Electrical Permit","fiscal_year_issued":"2022","permit_class_mapped":"Residential","remodel_repair_sqft":"0","contractor_address_2":"100  Precisi","contractor_full_name":"Russell D Johnson","issued_in_last_30_days":"No","certificate_of_occupancy":"No","property_legal_description":"LOT 19 MAYO ADDN","electrical_valuation_remodel":"$1.00"},"geometry":{"type":"Point","coordinates":[-97.81315409,30.29620873]}},{"type":"Feature","properties":{"date":"2021-09-21T04:00:00.000Z","year":2021,"description":"Installation of stand-by generator to prevent homeowner from being without important necessities during severe weather will need to run natural gas line for generator to function properly.","metadescription":"PP. Repair. Installation of stand-by generator to prevent homeowner from being without important necessities during severe weather will need to run natural gas line for generator to function properly.. Expired. 1814 LOGANS HOLLOW DR","address":"1814 LOGANS HOLLOW DR","link":"https://abc.austintexas.gov/web/permit/public-search-other?t_detail=1&t_selected_folderrsn=12776737","tcad_id":"0121130611","location":"    (30.30827857, -97.79580437)","day_issued":"TUESDAY","project_id":"12776737","condominium":"No","status_date":"05/31/2023","jurisdiction":"AUSTIN 2 MILE ETJ","housing_units":"1","contractor_zip":"77904-____","contractor_city":"Victoria","issuance_method":"Permit Center","contractor_phone":"3615737344","contractor_trade":"Plumbing Contractor","number_of_floors":"0","permit_type_desc":"Plumbing Permit","fiscal_year_issued":"2021","permit_class_mapped":"Residential","remodel_repair_sqft":"4,853","contractor_address_2":"9685  US hwy","contractor_full_name":"William Price","issued_in_last_30_days":"No","certificate_of_occupancy":"No","property_legal_description":"LOT 12 BLK D SUMMIT AT WEST RIM ON MOUNT LARSON BLK D SEC 1 THE"},"geometry":{"type":"Point","coordinates":[-97.79580437,30.30827857]}},{"type":"Feature","properties":{"date":"2021-09-20T04:00:00.000Z","year":2021,"description":"disconnect/reconnect to install stand by generator EUD","metadescription":"EP. Repair. disconnect/reconnect to install stand by generator EUD. Withdrawn. 201 SKYLINE DR","address":"201 SKYLINE DR","link":"https://abc.austintexas.gov/web/permit/public-search-other?t_detail=1&t_selected_folderrsn=12772153","tcad_id":"0115130205","location":"    (30.29477176, -97.80066948)","day_issued":"MONDAY","project_id":"12772153","condominium":"No","status_date":"03/09/2022","jurisdiction":"WEST LAKE HILLS FULL PURPOSE","housing_units":"1","contractor_zip":"77511","contractor_city":"Alvin","issuance_method":"Permit Center","contractor_phone":"5123616823","contractor_trade":"Electrical Contractor","number_of_floors":"1","permit_type_desc":"Electrical Permit","fiscal_year_issued":"2021","permit_class_mapped":"Residential","remodel_repair_sqft":"0","contractor_address_2":"1709 E South","contractor_full_name":"Timothy Oliff","issued_in_last_30_days":"No","certificate_of_occupancy":"No","property_legal_description":"ABS 21 SUR 1 SPARKS W ACR 2.152","electrical_valuation_remodel":"$800.00"},"geometry":{"type":"Point","coordinates":[-97.80066948,30.29477176]}},{"type":"Feature","properties":{"date":"2021-09-14T04:00:00.000Z","year":2021,"description":"Install Stand by Generator and upgrade existing service.","metadescription":"EP. Upgrade. Install Stand by Generator and upgrade existing service.. Final. 388 CORTONA DR","address":"388 CORTONA DR","link":"https://abc.austintexas.gov/web/permit/public-search-other?t_detail=1&t_selected_folderrsn=12772072","tcad_id":"0113150123","location":"    (30.28885179, -97.80812974)","day_issued":"TUESDAY","project_id":"12772072","condominium":"No","status_date":"05/03/2022","jurisdiction":"WEST LAKE HILLS FULL PURPOSE","housing_units":"1","contractor_zip":"77511","contractor_city":"Alvin","issuance_method":"Permit Center","contractor_phone":"5123616823","contractor_trade":"Electrical Contractor","number_of_floors":"1","permit_type_desc":"Electrical Permit","fiscal_year_issued":"2021","permit_class_mapped":"Residential","remodel_repair_sqft":"0","contractor_address_2":"1709 E South","contractor_full_name":"Timothy Oliff","issued_in_last_30_days":"No","certificate_of_occupancy":"No","property_legal_description":"LOT 17 BLK A CORTONA SUBD","electrical_valuation_remodel":"$800.00"},"geometry":{"type":"Point","coordinates":[-97.80812974,30.28885179]}},{"type":"Feature","properties":{"date":"2021-08-11T04:00:00.000Z","year":2021,"description":"Upgrade of overhead electrical service. Installing back up generator","metadescription":"EP. Upgrade. Upgrade of overhead electrical service. Installing back up generator. Final. 22 SUGAR SHACK DR","address":"22 SUGAR SHACK DR","link":"https://abc.austintexas.gov/web/permit/public-search-other?t_detail=1&t_selected_folderrsn=12756064","tcad_id":"0111110854","location":"    (30.2830262, -97.78822568)","day_issued":"WEDNESDAY","project_id":"12756064","condominium":"No","status_date":"12/28/2022","jurisdiction":"WEST LAKE HILLS FULL PURPOSE","housing_units":"1","contractor_zip":"78759","contractor_city":"Austin","issuance_method":"Permit Center","contractor_phone":"5127510340","contractor_trade":"Electrical Contractor","number_of_floors":"1","permit_type_desc":"Electrical Permit","fiscal_year_issued":"2021","permit_class_mapped":"Residential","remodel_repair_sqft":"0","contractor_address_2":"3406  Gable","contractor_full_name":"Timothy R. Putman","issued_in_last_30_days":"No","certificate_of_occupancy":"No","property_legal_description":".116A OF LOT 2021-22 RIDGEWOOD VILLAGE SEC 5 & LOT 4-A RESUB OF LOT 2-4 RIDGEWOOD VILLAGE SEC 1","electrical_valuation_remodel":"$3,500.00"},"geometry":{"type":"Point","coordinates":[-97.78822568,30.2830262]}},{"type":"Feature","properties":{"date":"2021-07-20T04:00:00.000Z","year":2021,"description":"Shutdown required for generator and ATS install.","metadescription":"EP. Repair. Shutdown required for generator and ATS install.. Final. 801 YAUPON VALLEY RD","address":"801 YAUPON VALLEY RD","link":"https://abc.austintexas.gov/web/permit/public-search-other?t_detail=1&t_selected_folderrsn=12742211","tcad_id":"0115190309","location":"    (30.29290181, -97.81226113)","day_issued":"TUESDAY","project_id":"12742211","condominium":"No","status_date":"12/01/2021","jurisdiction":"WEST LAKE HILLS FULL PURPOSE","housing_units":"1","contractor_zip":"78650","contractor_city":"McDade","issuance_method":"Permit Center","contractor_phone":"9088720798","contractor_trade":"Electrical Contractor","number_of_floors":"1","permit_type_desc":"Electrical Permit","fiscal_year_issued":"2021","permit_class_mapped":"Residential","remodel_repair_sqft":"0","contractor_address_2":"2085  CR 311","contractor_full_name":"Jason Kalafut","issued_in_last_30_days":"No","certificate_of_occupancy":"No","electrical_valuation_remodel":"$2,000.00"},"geometry":{"type":"Point","coordinates":[-97.81226113,30.29290181]}},{"type":"Feature","properties":{"date":"2021-07-20T04:00:00.000Z","year":2021,"description":"Shutdown required for generator and ATS install.","metadescription":"EP. Repair. Shutdown required for generator and ATS install.. Final. 306 BUCKEYE TRL","address":"306 BUCKEYE TRL","link":"https://abc.austintexas.gov/web/permit/public-search-other?t_detail=1&t_selected_folderrsn=12742209","tcad_id":"0115150411","location":"    (30.2919946, -97.80488142)","day_issued":"TUESDAY","project_id":"12742209","condominium":"No","status_date":"12/20/2021","jurisdiction":"WEST LAKE HILLS FULL PURPOSE","housing_units":"1","contractor_zip":"78650","contractor_city":"McDade","issuance_method":"Permit Center","contractor_phone":"9088720798","contractor_trade":"Electrical Contractor","number_of_floors":"1","permit_type_desc":"Electrical Permit","fiscal_year_issued":"2021","permit_class_mapped":"Residential","remodel_repair_sqft":"0","contractor_address_2":"2085  CR 311","contractor_full_name":"Jason Kalafut","issued_in_last_30_days":"No","certificate_of_occupancy":"No","property_legal_description":"LOT 2 JAYBO ADDN","electrical_valuation_remodel":"$2,000.00"},"geometry":{"type":"Point","coordinates":[-97.80488142,30.2919946]}},{"type":"Feature","properties":{"date":"2021-05-10T04:00:00.000Z","year":2021,"description":"SHUTDOWN REQUIRED to install generator","metadescription":"EP. Repair. SHUTDOWN REQUIRED to install generator. Final. 9 N PEAK RD","address":"9 N PEAK RD","link":"https://abc.austintexas.gov/web/permit/public-search-other?t_detail=1&t_selected_folderrsn=12683795","tcad_id":"0109110410","location":"    (30.27510657, -97.79480678)","day_issued":"MONDAY","project_id":"12683795","condominium":"No","status_date":"08/12/2021","jurisdiction":"WEST LAKE HILLS FULL PURPOSE","housing_units":"1","contractor_zip":"78650","contractor_city":"McDade","issuance_method":"Permit Center","contractor_phone":"9088720798","contractor_trade":"Electrical Contractor","number_of_floors":"1","permit_type_desc":"Electrical Permit","fiscal_year_issued":"2021","permit_class_mapped":"Residential","remodel_repair_sqft":"0","contractor_address_2":"2085  CR 311","contractor_full_name":"Jason Kalafut","issued_in_last_30_days":"No","certificate_of_occupancy":"No","property_legal_description":"ABS 14 SUR 21 HILL H P ACR 0.7926","electrical_valuation_remodel":"$350,000.00"},"geometry":{"type":"Point","coordinates":[-97.79480678,30.27510657]}},{"type":"Feature","properties":{"date":"2021-04-14T04:00:00.000Z","year":2021,"description":"Install whole home generator","metadescription":"EP. Repair. Install whole home generator. Final. 304 HILLCREST CT","address":"304 HILLCREST CT","link":"https://abc.austintexas.gov/web/permit/public-search-other?t_detail=1&t_selected_folderrsn=12667187","tcad_id":"0111131605","location":"    (30.2807214, -97.79710235)","day_issued":"WEDNESDAY","project_id":"12667187","condominium":"No","status_date":"06/25/2021","jurisdiction":"WEST LAKE HILLS FULL PURPOSE","housing_units":"1","contractor_zip":"78760","contractor_city":"Austin","issuance_method":"Permit Center","contractor_phone":"5124489292","contractor_trade":"Electrical Contractor","number_of_floors":"1","permit_type_desc":"Electrical Permit","fiscal_year_issued":"2021","permit_class_mapped":"Residential","remodel_repair_sqft":"0","contractor_address_2":"4300 S Congr","contractor_full_name":"Timothy Hires","issued_in_last_30_days":"No","certificate_of_occupancy":"No","property_legal_description":"LOT 18 BLK C LAS LOMAS SUBD","electrical_valuation_remodel":"$11,730.00"},"geometry":{"type":"Point","coordinates":[-97.79710235,30.2807214]}},{"type":"Feature","properties":{"date":"2004-06-29T04:00:00.000Z","year":2004,"description":"Install Tranfer Swith For Generator Eud","metadescription":"EP. Remodel. Install Tranfer Swith For Generator Eud. Final. 1400 WILD CAT HOLW","address":"1400 WILD CAT HOLW","link":"https://abc.austintexas.gov/web/permit/public-search-other?t_detail=1&t_selected_folderrsn=4349258","tcad_id":"0117130228","location":"    (30.29566049, -97.79748945)","day_issued":"TUESDAY","project_id":"4349258","condominium":"No","status_date":"03/05/2007","jurisdiction":"WEST LAKE HILLS FULL PURPOSE","contractor_zip":"78676","contractor_city":"Wimberley","issuance_method":"Permit Center","contractor_phone":"5128422233","contractor_trade":"Electrical Contractor","permit_type_desc":"Electrical Permit","fiscal_year_issued":"2004","permit_class_mapped":"Commercial","contractor_address_1":"P.O. Box 141","contractor_full_name":"Michael Oldmixon","issued_in_last_30_days":"No","certificate_of_occupancy":"No","property_legal_description":"LOT 2 JENSS HILLSIDE SUBD"},"geometry":{"type":"Point","coordinates":[-97.79748945,30.29566049]}},{"type":"Feature","properties":{"date":"1983-11-15T05:00:00.000Z","year":1983,"description":"Install Meter Loop For Generator","metadescription":"MP. Remodel. Install Meter Loop For Generator. Expired. 402 WESTLAKE DR","address":"402 WESTLAKE DR","link":"https://abc.austintexas.gov/web/permit/public-search-other?t_detail=1&t_selected_folderrsn=3201566","tcad_id":"0113150523","location":"    (30.28621239, -97.80622129)","day_issued":"TUESDAY","project_id":"3201566","condominium":"No","status_date":"06/06/2007","jurisdiction":"WEST LAKE HILLS FULL PURPOSE","housing_units":"1","issuance_method":"Permit Center","permit_type_desc":"Mechanical Permit","master_permit_num":"4100090","fiscal_year_issued":"1984","permit_class_mapped":"Commercial","issued_in_last_30_days":"No","certificate_of_occupancy":"No","property_legal_description":"LOT 5 VISTA DE LA CIMA SUBD"},"geometry":{"type":"Point","coordinates":[-97.80622129,30.28621239]}},{"type":"Feature","properties":{"date":"1983-11-15T05:00:00.000Z","year":1983,"description":"Install Meter Loop For Generator","metadescription":"EP. Remodel. Install Meter Loop For Generator. Expired. 402 WESTLAKE DR","address":"402 WESTLAKE DR","link":"https://abc.austintexas.gov/web/permit/public-search-other?t_detail=1&t_selected_folderrsn=4100090","tcad_id":"0113150523","location":"    (30.28621239, -97.80622129)","day_issued":"TUESDAY","project_id":"4100090","condominium":"No","status_date":"06/06/2007","jurisdiction":"WEST LAKE HILLS FULL PURPOSE","housing_units":"1","issuance_method":"Permit Center","permit_type_desc":"Electrical Permit","fiscal_year_issued":"1984","permit_class_mapped":"Commercial","issued_in_last_30_days":"No","certificate_of_occupancy":"No","property_legal_description":"LOT 5 VISTA DE LA CIMA SUBD"},"geometry":{"type":"Point","coordinates":[-97.80622129,30.28621239]}}]}
