{"type":"FeatureCollection","features":[{"type":"Feature","properties":{"date":"2025-08-22T04:00:00.000Z","year":2025,"description":"Disconnect/reconnect to tie in pv/ESS components. We are not upgrading the size of the service not upgrading the meter size.","metadescription":"EP. Repair. Disconnect/reconnect to tie in pv/ESS components. We are not upgrading the size of the service not upgrading the meter size.. Withdrawn. 5 SUNDOWN PKWY","address":"5 Sundown Parkway, Austin, TX, 78746, US","link":"https://abc.austintexas.gov/web/permit/public-search-other?t_detail=1&t_selected_folderrsn=13570344","tcad_id":"0113210145","location":"    (30.28853821, -97.82142301)","day_issued":"FRIDAY","project_id":"13570344","condominium":"No","status_date":"11/04/2025","jurisdiction":"WEST LAKE HILLS ETJ","housing_units":"1","issuance_method":"Permit Center","contractor_phone":"8005042337","contractor_trade":"Electrical Contractor","number_of_floors":"1","permit_type_desc":"Electrical Permit","fiscal_year_issued":"2025","permit_class_mapped":"Residential","remodel_repair_sqft":"0","contractor_full_name":"Adrian Buck","issued_in_last_30_days":"No","certificate_of_occupancy":"No","property_legal_description":"LOT 45 WESTLAKE OAKS","electrical_valuation_remodel":"$29,500.00"},"geometry":{"type":"Point","coordinates":[-97.82142301,30.28853821]}},{"type":"Feature","properties":{"date":"2025-06-19T04:00:00.000Z","year":2025,"description":"Install a Temporary Meter Loop for Construction Power for Whole House Remodel. Property is Under West Lake Hills Jurisdiction but the Service Provider is Austin Energy. There is an Open Building Permit Under West Lake Hills. We Will be Upgrading the Existing Service Soon and Will Apply for a Different Standalone Permit for the Upgarde but Need to Set the Construction Site up for Temporary Power First to Make Sure There is Uninterrupted Power During the Building Process.","metadescription":"EP. Homebuilder Loop. Install a Temporary Meter Loop for Construction Power for Whole House Remodel. Property is Under West Lake Hills Jurisdiction but the Service Provider is Austin Energy. There is an Open Building Permit Under West Lake Hills. We Will be Upgrading the Existing Service Soon and Will Apply for a Different Standalone Permit for the Upgarde but Need to Set the Construction Site up for Temporary Power First to Make Sure There is Uninterrupted Power During the Building Process.. Final. 311 WESTHAVEN DR","address":"311 Westhaven Drive, Austin, TX, 78746, US","link":"https://abc.austintexas.gov/web/permit/public-search-other?t_detail=1&t_selected_folderrsn=13535344","tcad_id":"0113150515","location":"    (30.28708558, -97.8075453)","day_issued":"THURSDAY","project_id":"13535344","status_date":"07/01/2025","jurisdiction":"WEST LAKE HILLS FULL PURPOSE","contractor_zip":"78757-____","contractor_city":"AUSTIN","issuance_method":"Permit Center","contractor_phone":"5122936386","contractor_trade":"Electrical Contractor","permit_type_desc":"Electrical Permit","fiscal_year_issued":"2025","permit_class_mapped":"Residential","contractor_address_2":"8900  SHOAL","contractor_full_name":"Mikel Cincunegui-Legator","issued_in_last_30_days":"No","property_legal_description":"LOT 36 WESTLAKE PARK"},"geometry":{"type":"Point","coordinates":[-97.8075453,30.28708558]}},{"type":"Feature","properties":{"date":"2024-08-20T04:00:00.000Z","year":2024,"description":"Remodel Addition. Upgrading the Service\nIn the ETJ","metadescription":"EP. Upgrade. Remodel Addition. Upgrading the Service\nIn the ETJ. Final. 500 LAS LOMAS DR","address":"500 Las Lomas Drive, Austin, TX, 78746, US","link":"https://abc.austintexas.gov/web/permit/public-search-other?t_detail=1&t_selected_folderrsn=13380598","tcad_id":"0111110830","location":"    (30.28125795, -97.79405876)","day_issued":"TUESDAY","project_id":"13380598","condominium":"No","status_date":"10/16/2025","jurisdiction":"WEST LAKE HILLS FULL PURPOSE","housing_units":"1","contractor_zip":"78758-____","contractor_city":"AUSTIN","issuance_method":"Permit Center","contractor_phone":"5128366951","contractor_trade":"Electrical Contractor","number_of_floors":"1","permit_type_desc":"Electrical Permit","fiscal_year_issued":"2024","permit_class_mapped":"Residential","remodel_repair_sqft":"0","contractor_address_2":"817  MC PHAU","contractor_full_name":"Trenton Wilkins","issued_in_last_30_days":"No","certificate_of_occupancy":"No","property_legal_description":"LOT 26 BLK C LAS LOMAS SUBD","electrical_valuation_remodel":"$0.00"},"geometry":{"type":"Point","coordinates":[-97.79405876,30.28125795]}},{"type":"Feature","properties":{"date":"2024-05-09T04:00:00.000Z","year":2024,"description":"Request to Disconnect     Contractor temporarily disconnect required to tie in PV/ESS components. We are not upgrading the size of the service not upgrading the meter size","metadescription":"EP. Repair. Request to Disconnect     Contractor temporarily disconnect required to tie in PV/ESS components. We are not upgrading the size of the service not upgrading the meter size. Final. 101 SWIFTCURRENT TRL","address":"101 Swiftcurrent Trail, Austin, TX, 78746, US","link":"https://abc.austintexas.gov/web/permit/public-search-other?t_detail=1&t_selected_folderrsn=13320704","tcad_id":"0113190128","location":"    (30.28896046, -97.81617023)","day_issued":"THURSDAY","project_id":"13320704","condominium":"No","status_date":"07/31/2024","jurisdiction":"WEST LAKE HILLS FULL PURPOSE","housing_units":"1","issuance_method":"Permit Center","contractor_phone":"8005042337","contractor_trade":"Electrical Contractor","number_of_floors":"1","permit_type_desc":"Electrical Permit","fiscal_year_issued":"2024","permit_class_mapped":"Residential","remodel_repair_sqft":"0","contractor_full_name":"Adrian Buck","issued_in_last_30_days":"No","certificate_of_occupancy":"No","property_legal_description":"LOT 1 MIRKWOOD SUBD","electrical_valuation_remodel":"$28,000.00"},"geometry":{"type":"Point","coordinates":[-97.81617023,30.28896046]}},{"type":"Feature","properties":{"date":"2021-04-29T04:00:00.000Z","year":2021,"description":"I am needing a meter loop disconnect. We ae upgrading 200AMP Panel no change on breakers client just wants them all the same brand. I am needing a stand alone permit ETJ","metadescription":"EP. Upgrade. I am needing a meter loop disconnect. We ae upgrading 200AMP Panel no change on breakers client just wants them all the same brand. I am needing a stand alone permit ETJ. Withdrawn. 409 OAK RIDGE DR","address":"409 Oak Ridge Drive, Austin, TX, 78746, US","link":"https://abc.austintexas.gov/web/permit/public-search-other?t_detail=1&t_selected_folderrsn=12685911","tcad_id":"0113130521","location":"    (30.28523479, -97.7966922)","day_issued":"THURSDAY","project_id":"12685911","condominium":"No","status_date":"09/08/2021","jurisdiction":"WEST LAKE HILLS FULL PURPOSE","housing_units":"1","contractor_zip":"78666","contractor_city":"San Marcos","issuance_method":"Permit Center","contractor_phone":"5125956900","contractor_trade":"Electrical Contractor","number_of_floors":"1","permit_type_desc":"Electrical Permit","fiscal_year_issued":"2021","permit_class_mapped":"Residential","remodel_repair_sqft":"0","contractor_address_2":"1101  Leah A","contractor_full_name":"Moses Ortiz","issued_in_last_30_days":"No","certificate_of_occupancy":"No","property_legal_description":"LOT 5 BLK F LIVEOAK TERRACE PARTIAL REPLAT","electrical_valuation_remodel":"$0.00"},"geometry":{"type":"Point","coordinates":[-97.7966922,30.28523479]}},{"type":"Feature","properties":{"date":"2020-07-29T04:00:00.000Z","year":2020,"description":"Upgrading service\nWEST LAKE HILLS FULL PURPOSE","metadescription":"EP. Upgrade. Upgrading service\nWEST LAKE HILLS FULL PURPOSE. Final. 7 REDBUD CV","address":"7 Redbud Cove, Austin, TX, 78746, US","link":"https://abc.austintexas.gov/web/permit/public-search-other?t_detail=1&t_selected_folderrsn=12515822","tcad_id":"0117210811","location":"    (30.29584379, -97.82300773)","day_issued":"WEDNESDAY","project_id":"12515822","condominium":"No","status_date":"08/24/2020","jurisdiction":"WEST LAKE HILLS FULL PURPOSE","housing_units":"1","contractor_zip":"78748","contractor_city":"Austin","issuance_method":"Permit Center","contractor_phone":"5127886839","contractor_trade":"Electrical Contractor","number_of_floors":"1","permit_type_desc":"Electrical Permit","fiscal_year_issued":"2020","permit_class_mapped":"Residential","remodel_repair_sqft":"0","contractor_address_2":"9300 S IH 35","contractor_full_name":"Mark Dondlinger","issued_in_last_30_days":"No","certificate_of_occupancy":"No","property_legal_description":"LOT 3 (1.49 ACR) RED BUD PARK SUBD","electrical_valuation_remodel":"$4,000.00"},"geometry":{"type":"Point","coordinates":[-97.82300773,30.29584379]}},{"type":"Feature","properties":{"date":"2020-07-29T04:00:00.000Z","year":2020,"description":"Upgrading service\nWEST LAKE HILLS FULL PURPOSE","metadescription":"EP. Upgrade. Upgrading service\nWEST LAKE HILLS FULL PURPOSE. Expired. 6 REDBUD CV","address":"6 Redbud Cove, Austin, TX, 78746, US","link":"https://abc.austintexas.gov/web/permit/public-search-other?t_detail=1&t_selected_folderrsn=12515818","tcad_id":"0117210811","location":"    (30.29613139, -97.82280692)","day_issued":"WEDNESDAY","project_id":"12515818","condominium":"No","status_date":"03/03/2022","jurisdiction":"WEST LAKE HILLS FULL PURPOSE","housing_units":"1","contractor_zip":"78748","contractor_city":"Austin","issuance_method":"Permit Center","contractor_phone":"5127886839","contractor_trade":"Electrical Contractor","number_of_floors":"1","permit_type_desc":"Electrical Permit","fiscal_year_issued":"2020","permit_class_mapped":"Residential","remodel_repair_sqft":"0","contractor_address_2":"9300 S IH 35","contractor_full_name":"Mark Dondlinger","issued_in_last_30_days":"No","certificate_of_occupancy":"No","property_legal_description":"LOT 3 (1.49 ACR) RED BUD PARK SUBD","electrical_valuation_remodel":"$4,000.00"},"geometry":{"type":"Point","coordinates":[-97.82280692,30.29613139]}},{"type":"Feature","properties":{"date":"2019-08-21T04:00:00.000Z","year":2019,"description":"Upgrading electrical service to existing residence.EUD","metadescription":"EP. Upgrade. Upgrading electrical service to existing residence.EUD. Expired. 105 BUCKEYE TRL","address":"105 Buckeye Trail, Austin, TX, 78746, US","link":"https://abc.austintexas.gov/web/permit/public-search-other?t_detail=1&t_selected_folderrsn=12304337","tcad_id":"0115150527","location":"    (30.28992812, -97.80413375)","day_issued":"WEDNESDAY","project_id":"12304337","condominium":"No","status_date":"03/03/2022","jurisdiction":"WEST LAKE HILLS FULL PURPOSE","housing_units":"1","contractor_zip":"78681","contractor_city":"ROUND ROCK","issuance_method":"Permit Center","contractor_phone":"5129851238","contractor_trade":"Electrical Contractor","number_of_floors":"1","permit_type_desc":"Electrical Permit","fiscal_year_issued":"2019","permit_class_mapped":"Residential","remodel_repair_sqft":"0","contractor_address_2":"1104  OAKLAN","contractor_full_name":"James Adam Morris","issued_in_last_30_days":"No","certificate_of_occupancy":"No","property_legal_description":"LOT 8A OVERLOOK AT WEST LAKE SECOND AMENDED PLAT OF LOTS 7 & 8","electrical_valuation_remodel":"$3,500.00"},"geometry":{"type":"Point","coordinates":[-97.80413375,30.28992812]}},{"type":"Feature","properties":{"date":"2019-08-09T04:00:00.000Z","year":2019,"description":"Upgrading electrical service to existing residence","metadescription":"EP. Upgrade. Upgrading electrical service to existing residence. Final. 905 RIDGEWOOD DR","address":"905 Ridgewood Drive, Austin, TX, 78746, US","link":"https://abc.austintexas.gov/web/permit/public-search-other?t_detail=1&t_selected_folderrsn=12296415","tcad_id":"0109110628","location":"    (30.27477204, -97.79235983)","day_issued":"FRIDAY","project_id":"12296415","condominium":"No","status_date":"01/02/2020","jurisdiction":"ROLLINGWOOD FULL PURPOSE","housing_units":"1","contractor_zip":"78747","contractor_city":"Austin","issuance_method":"Permit Center","contractor_phone":"5126625427","contractor_trade":"Electrical Contractor","number_of_floors":"1","permit_type_desc":"Electrical Permit","fiscal_year_issued":"2019","permit_class_mapped":"Residential","remodel_repair_sqft":"0","contractor_address_2":"10007  Capit","contractor_full_name":"Jose Vargas","issued_in_last_30_days":"No","certificate_of_occupancy":"No","property_legal_description":"LOT 7 ROLLINGWOOD PARK","electrical_valuation_remodel":"$2,800.00"},"geometry":{"type":"Point","coordinates":[-97.79235983,30.27477204]}},{"type":"Feature","properties":{"date":"2019-07-31T04:00:00.000Z","year":2019,"description":"Upgrading electrical service to existing residence","metadescription":"EP. Upgrade. Upgrading electrical service to existing residence. Expired. 303 BUCKEYE TRL","address":"303 Buckeye Trail, Austin, TX, 78746, US","link":"https://abc.austintexas.gov/web/permit/public-search-other?t_detail=1&t_selected_folderrsn=12289711","tcad_id":"0115150509","location":"    (30.29102731, -97.80492261)","day_issued":"WEDNESDAY","project_id":"12289711","condominium":"No","status_date":"02/09/2020","jurisdiction":"WEST LAKE HILLS FULL PURPOSE","housing_units":"1","contractor_zip":"78610","contractor_city":"Buda","issuance_method":"Permit Center","contractor_phone":"5129216762","contractor_trade":"Electrical Contractor","number_of_floors":"1","permit_type_desc":"Electrical Permit","fiscal_year_issued":"2019","permit_class_mapped":"Residential","remodel_repair_sqft":"0","contractor_address_1":"100 PRECISIO","contractor_address_2":"BUDA TX  786","contractor_full_name":"Eric Hoffman","issued_in_last_30_days":"No","certificate_of_occupancy":"No","property_legal_description":"LOT 1 CARISSA ADDN","electrical_valuation_remodel":"$1,850.00"},"geometry":{"type":"Point","coordinates":[-97.80492261,30.29102731]}},{"type":"Feature","properties":{"date":"2019-07-16T04:00:00.000Z","year":2019,"description":"Upgrading service\nWEST LAKE HILLS FULL PURPOSE","metadescription":"EP. Upgrade. Upgrading service\nWEST LAKE HILLS FULL PURPOSE. Final. 7 OLD STABLE LN","address":"7 Old Stable Lane, Austin, TX, 78746, US","link":"https://abc.austintexas.gov/web/permit/public-search-other?t_detail=1&t_selected_folderrsn=12279770","tcad_id":"0115210243","location":"    (30.29226386, -97.81828672)","day_issued":"TUESDAY","project_id":"12279770","condominium":"No","status_date":"08/19/2019","jurisdiction":"WEST LAKE HILLS FULL PURPOSE","housing_units":"1","contractor_zip":"78665","contractor_city":"ROUND ROCK","issuance_method":"Permit Center","contractor_phone":"5129920437","contractor_trade":"Electrical Contractor","number_of_floors":"1","permit_type_desc":"Electrical Permit","fiscal_year_issued":"2019","permit_class_mapped":"Residential","remodel_repair_sqft":"0","contractor_address_2":"3401  SUNRIS","contractor_full_name":"Aaron Gifford","issued_in_last_30_days":"No","certificate_of_occupancy":"No","property_legal_description":"LOT 3 PLUS 27.33% OF LOT 4 SEVEN OAKS SUBD","electrical_valuation_remodel":"$0.00"},"geometry":{"type":"Point","coordinates":[-97.81828672,30.29226386]}},{"type":"Feature","properties":{"date":"2019-05-31T04:00:00.000Z","year":2019,"description":"Upgrading service \nWEST LAKE HILLS FULL PURPOSE","metadescription":"EP. Repair. Upgrading service \nWEST LAKE HILLS FULL PURPOSE. Expired. 412 BRADY LN","address":"412 Brady Lane, Austin, TX, 78746, US","link":"https://abc.austintexas.gov/web/permit/public-search-other?t_detail=1&t_selected_folderrsn=12209275","tcad_id":"0111110925","location":"    (30.27991915, -97.79076032)","day_issued":"FRIDAY","project_id":"12209275","condominium":"No","status_date":"01/29/2020","jurisdiction":"WEST LAKE HILLS FULL PURPOSE","housing_units":"1","contractor_zip":"78641","contractor_city":"LEANDER","issuance_method":"Permit Center","contractor_phone":"5406716758","contractor_trade":"Electrical Contractor","number_of_floors":"1","permit_type_desc":"Electrical Permit","fiscal_year_issued":"2019","permit_class_mapped":"Residential","remodel_repair_sqft":"0","contractor_address_2":"132  HOUSE F","contractor_full_name":"Michael Kevin Lumpkins","issued_in_last_30_days":"No","certificate_of_occupancy":"No","property_legal_description":"LOT 40 RIDGEWOOD VILLAGE SEC 2 S 10 FT OF LOT 44 RIDGEWOOD VILLAGE SEC 1","electrical_valuation_remodel":"$5,100.00"},"geometry":{"type":"Point","coordinates":[-97.79076032,30.27991915]}},{"type":"Feature","properties":{"date":"2015-03-18T04:00:00.000Z","year":2015,"description":"Adding new disconnect upgrading residential service and replacing panel.","metadescription":"EP. Remodel. Adding new disconnect upgrading residential service and replacing panel.. Final. 900 LIVE OAK CIR","address":"900 Live Oak Circle, Austin, TX, 78746, US","link":"https://abc.austintexas.gov/web/permit/public-search-other?t_detail=1&t_selected_folderrsn=11314117","tcad_id":"0117191103","location":"    (30.29544649, -97.8117351)","day_issued":"WEDNESDAY","project_id":"11314117","condominium":"No","status_date":"03/25/2015","jurisdiction":"WEST LAKE HILLS FULL PURPOSE","housing_units":"1","contractor_zip":"78737","contractor_city":"AUSTIN","issuance_method":"Permit Center","contractor_phone":"5126528463","contractor_trade":"Electrical Contractor","number_of_floors":"1","permit_type_desc":"Electrical Permit","fiscal_year_issued":"2015","permit_class_mapped":"Residential","contractor_address_2":"10107  SIGNA","contractor_full_name":"Richard J Rinehart","issued_in_last_30_days":"No","certificate_of_occupancy":"No","property_legal_description":"MAYO ADDN AMD LTS 20 & 34 LOT 34A","electrical_valuation_remodel":"$2,000.00"},"geometry":{"type":"Point","coordinates":[-97.8117351,30.29544649]}},{"type":"Feature","properties":{"date":"2010-05-19T04:00:00.000Z","year":2010,"description":"upgrading electrical service to existing residence only --ETJ","metadescription":"EP. Upgrade. upgrading electrical service to existing residence only --ETJ. Final. 613 WESTBROOK DR","address":"613 Westbrook Drive, Austin, TX, 78746, US","link":"https://abc.austintexas.gov/web/permit/public-search-other?t_detail=1&t_selected_folderrsn=10441157","tcad_id":"0111130517","location":"    (30.28332585, -97.79626385)","day_issued":"WEDNESDAY","project_id":"10441157","condominium":"No","status_date":"11/08/2010","jurisdiction":"WEST LAKE HILLS FULL PURPOSE","housing_units":"0","contractor_zip":"78758","contractor_city":"Austin","issuance_method":"Permit Center","contractor_phone":"5124545325","contractor_trade":"Electrical Contractor","number_of_floors":"0","permit_type_desc":"Electrical Permit","fiscal_year_issued":"2010","permit_class_mapped":"Residential","remodel_repair_sqft":"0","contractor_address_2":"2120  Denton","contractor_full_name":"Robert Bowne","issued_in_last_30_days":"No","certificate_of_occupancy":"No","property_legal_description":"LOT 14 RAINBOWS END ESTATES SEC 1","electrical_valuation_remodel":"$3,000.00"},"geometry":{"type":"Point","coordinates":[-97.79626385,30.28332585]}},{"type":"Feature","properties":{"date":"2009-07-31T04:00:00.000Z","year":2009,"description":"Upgrading electrical service to existing residence only","metadescription":"EP. Upgrade. Upgrading electrical service to existing residence only. Final. 6 S PEAK RD","address":"6 South Peak Road, Austin, TX, 78746, US","link":"https://abc.austintexas.gov/web/permit/public-search-other?t_detail=1&t_selected_folderrsn=10320391","tcad_id":"0107131002","location":"    (30.27274246, -97.79625364)","day_issued":"FRIDAY","project_id":"10320391","condominium":"No","status_date":"08/17/2009","jurisdiction":"ROLLINGWOOD FULL PURPOSE","housing_units":"0","contractor_zip":"78666","contractor_city":"San Marcos","issuance_method":"Permit Center","contractor_phone":"5122030633","contractor_trade":"Electrical Contractor","number_of_floors":"0","permit_type_desc":"Electrical Permit","fiscal_year_issued":"2009","permit_class_mapped":"Residential","remodel_repair_sqft":"0","contractor_address_2":"961  Boulder","contractor_full_name":"Sean A. Stanley","issued_in_last_30_days":"No","certificate_of_occupancy":"No","property_legal_description":"LOT 3 BLK A & NW TRI OF LOT 2 BLK A TIMBERLINE TERRACE SEC 1","electrical_valuation_remodel":"$500.00"},"geometry":{"type":"Point","coordinates":[-97.79625364,30.27274246]}},{"type":"Feature","properties":{"date":"2009-01-06T05:00:00.000Z","year":2009,"description":"Upgrading electrical service to existing residence only EUD","metadescription":"EP. Upgrade. Upgrading electrical service to existing residence only EUD. Final. 500 BULIAN LN","address":"500 Bulian Lane, Austin, TX, 78746, US","link":"https://abc.austintexas.gov/web/permit/public-search-other?t_detail=1&t_selected_folderrsn=10224911","tcad_id":"0111130507","location":"    (30.28000442, -97.79881337)","day_issued":"TUESDAY","project_id":"10224911","condominium":"No","status_date":"02/02/2009","jurisdiction":"WEST LAKE HILLS ETJ","housing_units":"0","contractor_zip":"78736","contractor_city":"Austin","issuance_method":"Permit Center","contractor_phone":"5127758774","contractor_trade":"Electrical Contractor","number_of_floors":"0","permit_type_desc":"Electrical Permit","fiscal_year_issued":"2009","permit_class_mapped":"Residential","remodel_repair_sqft":"0","contractor_address_2":"7305  Trento","contractor_full_name":"Grant Campbell","issued_in_last_30_days":"No","certificate_of_occupancy":"No","property_legal_description":"LOT 8 BLK O WESTWOOD SEC 7","electrical_valuation_remodel":"$1,000.00"},"geometry":{"type":"Point","coordinates":[-97.79881337,30.28000442]}},{"type":"Feature","properties":{"date":"2008-08-12T04:00:00.000Z","year":2008,"description":"Upgrading electrical service to existing residence only","metadescription":"EP. Upgrade. Upgrading electrical service to existing residence only. Final. 204 SKYLINE DR","address":"204 Skyline Drive, Austin, TX, 78746, US","link":"https://abc.austintexas.gov/web/permit/public-search-other?t_detail=1&t_selected_folderrsn=10181438","tcad_id":"0115130303","location":"    (30.29477882, -97.79935718)","day_issued":"TUESDAY","project_id":"10181438","condominium":"No","status_date":"10/09/2008","jurisdiction":"WEST LAKE HILLS FULL PURPOSE","housing_units":"0","contractor_zip":"78729","contractor_city":"AUSTIN","issuance_method":"Permit Center","contractor_phone":"5127896798","contractor_trade":"Electrical Contractor","number_of_floors":"0","permit_type_desc":"Electrical Permit","fiscal_year_issued":"2008","permit_class_mapped":"Residential","remodel_repair_sqft":"0","contractor_address_1":"7300 N UTE T","contractor_address_2":"AUSTIN TX  7","contractor_full_name":"Carl Geers","issued_in_last_30_days":"No","certificate_of_occupancy":"No","property_legal_description":"LOT 2 DOTY FREEMAN & SUTHERLAND SUBD","electrical_valuation_remodel":"$1,600.00"},"geometry":{"type":"Point","coordinates":[-97.79935718,30.29477882]}},{"type":"Feature","properties":{"date":"2008-07-24T04:00:00.000Z","year":2008,"description":"Upgrading Electrical service to existing duplex only","metadescription":"EP. Upgrade. Upgrading Electrical service to existing duplex only. Final. 1208 YAUPON VALLEY RD","address":"1208 Yaupon Valley Road, Austin, TX, 78746, US","link":"https://abc.austintexas.gov/web/permit/public-search-other?t_detail=1&t_selected_folderrsn=10174589","tcad_id":"0117210604","location":"    (30.29742411, -97.81860231)","day_issued":"THURSDAY","project_id":"10174589","condominium":"No","status_date":"10/09/2008","jurisdiction":"WEST LAKE HILLS FULL PURPOSE","housing_units":"0","contractor_zip":"78745","contractor_city":"AUSTIN","issuance_method":"Permit Center","contractor_phone":"5123283268","contractor_trade":"Electrical Contractor","number_of_floors":"0","permit_type_desc":"Electrical Permit","fiscal_year_issued":"2008","permit_class_mapped":"Residential","remodel_repair_sqft":"0","contractor_address_2":"4825  WEIDEM","contractor_full_name":"Craig T. Bryant","issued_in_last_30_days":"No","certificate_of_occupancy":"No","property_legal_description":"LOT 10 BLK X STONEHEDGE ESTATES BLK X","electrical_valuation_remodel":"$3,500.00"},"geometry":{"type":"Point","coordinates":[-97.81860231,30.29742411]}},{"type":"Feature","properties":{"date":"2008-06-30T04:00:00.000Z","year":2008,"description":"Upgrading electrical service to existing residence only","metadescription":"EP. Upgrade. Upgrading electrical service to existing residence only. Final. 1001 LIVE OAK RIDGE RD","address":"1001 Live Oak Ridge Road, Austin, TX, 78746, US","link":"https://abc.austintexas.gov/web/permit/public-search-other?t_detail=1&t_selected_folderrsn=10165944","tcad_id":"0117190412","location":"    (30.29632919, -97.81494483)","day_issued":"MONDAY","project_id":"10165944","condominium":"No","status_date":"10/09/2008","jurisdiction":"WEST LAKE HILLS FULL PURPOSE","housing_units":"0","contractor_zip":"78654-____","contractor_city":"SPICEWOOD","issuance_method":"Permit Center","contractor_phone":"5122631214","contractor_trade":"Electrical Contractor","number_of_floors":"0","permit_type_desc":"Electrical Permit","fiscal_year_issued":"2008","permit_class_mapped":"Residential","remodel_repair_sqft":"0","contractor_address_1":"PO BOX 449","contractor_full_name":"Jackie D Oliver","issued_in_last_30_days":"No","certificate_of_occupancy":"No","property_legal_description":"LOT 17 MAYO ADDN","electrical_valuation_remodel":"$1,200.00"},"geometry":{"type":"Point","coordinates":[-97.81494483,30.29632919]}},{"type":"Feature","properties":{"date":"2008-06-23T04:00:00.000Z","year":2008,"description":"upgrading electrical service only","metadescription":"EP. Upgrade. upgrading electrical service only. Final. 301 WESTHAVEN DR","address":"301 Westhaven Drive, Austin, TX, 78746, US","link":"https://abc.austintexas.gov/web/permit/public-search-other?t_detail=1&t_selected_folderrsn=10163586","tcad_id":"0113150510","location":"    (30.28599969, -97.80840718)","day_issued":"MONDAY","project_id":"10163586","condominium":"No","status_date":"10/09/2008","jurisdiction":"WEST LAKE HILLS FULL PURPOSE","housing_units":"0","contractor_zip":"78613","contractor_city":"Cedar Park","issuance_method":"Permit Center","contractor_phone":"5123357682","contractor_trade":"Electrical Contractor","number_of_floors":"0","permit_type_desc":"Electrical Permit","fiscal_year_issued":"2008","permit_class_mapped":"Residential","remodel_repair_sqft":"0","contractor_address_1":"1716 JUNIPER","contractor_address_2":"CEDAR PARK T","contractor_full_name":"Richard D Neely","issued_in_last_30_days":"No","certificate_of_occupancy":"No","property_legal_description":"LOT 31 WESTLAKE PARK","electrical_valuation_remodel":"$2,000.00"},"geometry":{"type":"Point","coordinates":[-97.80840718,30.28599969]}},{"type":"Feature","properties":{"date":"2007-08-29T04:00:00.000Z","year":2007,"description":"Upgrading  Elect Serv only  To Existing Comm Bsns (EUD)","metadescription":"EP. Repair. Upgrading  Elect Serv only  To Existing Comm Bsns (EUD). Withdrawn. 201 WILD CAT HOLW","address":"100 Redbud Trail, Austin, TX, 78746, US","link":"https://abc.austintexas.gov/web/permit/public-search-other?t_detail=1&t_selected_folderrsn=10067009","tcad_id":"0115130404","location":"    (30.2939357, -97.79775028)","day_issued":"WEDNESDAY","project_id":"10067009","condominium":"No","status_date":"12/08/2016","jurisdiction":"WEST LAKE HILLS FULL PURPOSE","housing_units":"1","contractor_zip":"78738","contractor_city":"AUSTIN","issuance_method":"Permit Center","contractor_phone":"5127999510","contractor_trade":"Electrical Contractor","number_of_floors":"1","permit_type_desc":"Electrical Permit","fiscal_year_issued":"2007","total_new_add_sqft":"0","permit_class_mapped":"Commercial","remodel_repair_sqft":"0","contractor_address_2":"3012  PORTOL","contractor_full_name":"Matthew M. Pourrajabi","issued_in_last_30_days":"No","certificate_of_occupancy":"No","property_legal_description":"ABS 21 SUR 1 SPARKS W ACR 0.610","electrical_valuation_remodel":"$1,800.00"},"geometry":{"type":"Point","coordinates":[-97.79775028,30.2939357]}},{"type":"Feature","properties":{"date":"2007-01-29T05:00:00.000Z","year":2007,"description":"Upgrading Exst. Solar Elec. To Exst. Res. Only","metadescription":"EP. Remodel. Upgrading Exst. Solar Elec. To Exst. Res. Only. Final. 518 BUCKEYE TRL","address":"518 Buckeye Trail, Austin, TX, 78746, US","link":"https://abc.austintexas.gov/web/permit/public-search-other?t_detail=1&t_selected_folderrsn=4391773","tcad_id":"0113190132","location":"    (30.28848628, -97.81121655)","day_issued":"MONDAY","project_id":"4391773","condominium":"No","status_date":"03/28/2007","jurisdiction":"WEST LAKE HILLS FULL PURPOSE","housing_units":"0","contractor_zip":"78744","contractor_city":"AUSTIN","issuance_method":"Permit Center","contractor_phone":"5125525581","contractor_trade":"Electrical Contractor","number_of_floors":"0","permit_type_desc":"Electrical Permit","fiscal_year_issued":"2007","permit_class_mapped":"Residential","contractor_address_2":"4109  Todd","contractor_full_name":"Eric Kay","issued_in_last_30_days":"No","certificate_of_occupancy":"No","property_legal_description":"LOT 1 BLK A KLECK-MCCALL SUBD AMENDED PLAT OF LOT 1 & PART OF LOTS 28 & 29 OF BARTON SPRINGS ESTATES","electrical_valuation_remodel":"$0.00"},"geometry":{"type":"Point","coordinates":[-97.81121655,30.28848628]}},{"type":"Feature","properties":{"date":"2006-01-27T05:00:00.000Z","year":2006,"description":"Relocating Elec Srv And Upgrading Panels  To Exist Resd Only. Eud.","metadescription":"EP. Remodel. Relocating Elec Srv And Upgrading Panels  To Exist Resd Only. Eud.. Final. 301 LAUREL VALLEY RD","address":"301 Laurel Valley Road, Austin, TX, 78746, US","link":"https://abc.austintexas.gov/web/permit/public-search-other?t_detail=1&t_selected_folderrsn=4373954","tcad_id":"0115150330","location":"    (30.29300598, -97.80289313)","day_issued":"FRIDAY","project_id":"4373954","condominium":"No","status_date":"03/05/2007","jurisdiction":"WEST LAKE HILLS FULL PURPOSE","contractor_zip":"78610","contractor_city":"Buda","issuance_method":"Permit Center","contractor_phone":"5122030339","contractor_trade":"Electrical Contractor","permit_type_desc":"Electrical Permit","fiscal_year_issued":"2006","permit_class_mapped":"Residential","contractor_address_1":"P.O. BOX 102","contractor_address_2":"BUDA TX  786","contractor_full_name":"Jerry Martin","issued_in_last_30_days":"No","certificate_of_occupancy":"No","property_legal_description":"LOT 2 YAUPON VALLEY SUBD"},"geometry":{"type":"Point","coordinates":[-97.80289313,30.29300598]}},{"type":"Feature","properties":{"date":"2005-09-07T04:00:00.000Z","year":2005,"description":"Relocating Exst. Elec Srv  To Front Of The House And Upgrading Elec Srv Only-Eud","metadescription":"EP. Remodel. Relocating Exst. Elec Srv  To Front Of The House And Upgrading Elec Srv Only-Eud. Final. 1407 FLINTRIDGE RD","address":"1407 Flintridge Road, Austin, TX, 78746, US","link":"https://abc.austintexas.gov/web/permit/public-search-other?t_detail=1&t_selected_folderrsn=4367797","tcad_id":"0117210801","location":"    (30.29672813, -97.82196101)","day_issued":"WEDNESDAY","project_id":"4367797","condominium":"No","status_date":"03/05/2007","jurisdiction":"WEST LAKE HILLS FULL PURPOSE","contractor_zip":"78640","contractor_city":"Kyle","issuance_method":"Permit Center","contractor_phone":"5122176562","contractor_trade":"Electrical Contractor","permit_type_desc":"Electrical Permit","fiscal_year_issued":"2005","permit_class_mapped":"Residential","contractor_address_2":"115  Joylynn","contractor_full_name":"George A Cox","issued_in_last_30_days":"No","certificate_of_occupancy":"No","property_legal_description":"LOT 1 (2.27 ACR) RED BUD PARK SUBD"},"geometry":{"type":"Point","coordinates":[-97.82196101,30.29672813]}},{"type":"Feature","properties":{"date":"2005-06-02T04:00:00.000Z","year":2005,"description":"Upgrading Elec Srv On Exist Resd Only. Eud.","metadescription":"EP. Remodel. Upgrading Elec Srv On Exist Resd Only. Eud.. Final. 2 HIDDEN CV","address":"2 Hidden Cove, Austin, TX, 78746, US","link":"https://abc.austintexas.gov/web/permit/public-search-other?t_detail=1&t_selected_folderrsn=4363153","tcad_id":"0117110124","location":"    (30.29967055, -97.79291188)","day_issued":"THURSDAY","project_id":"4363153","condominium":"No","status_date":"03/05/2007","jurisdiction":"WEST LAKE HILLS FULL PURPOSE","issuance_method":"Permit Center","contractor_trade":"Electrical Contractor","permit_type_desc":"Electrical Permit","fiscal_year_issued":"2005","permit_class_mapped":"Residential","contractor_full_name":"Patricia Philbin(Owner)","issued_in_last_30_days":"No","certificate_of_occupancy":"No","property_legal_description":"LOT 2A RESUB OF LOT 1-3 HOLLOWAY COLEMAN SUBD"},"geometry":{"type":"Point","coordinates":[-97.79291188,30.29967055]}},{"type":"Feature","properties":{"date":"2004-12-23T05:00:00.000Z","year":2004,"description":"Upgrading Exst. Elec Srv Only","metadescription":"EP. Remodel. Upgrading Exst. Elec Srv Only. Final. 5 SUGAR SHACK DR","address":"5 Sugar Shack Drive, Austin, TX, 78746, US","link":"https://abc.austintexas.gov/web/permit/public-search-other?t_detail=1&t_selected_folderrsn=4356187","tcad_id":"0111110839","location":"    (30.2840695, -97.78854994)","day_issued":"THURSDAY","project_id":"4356187","condominium":"No","status_date":"03/05/2007","jurisdiction":"WEST LAKE HILLS FULL PURPOSE","contractor_zip":"78620-2391","contractor_city":"Dripping Spr","issuance_method":"Permit Center","contractor_phone":"5127915619","contractor_trade":"Electrical Contractor","permit_type_desc":"Electrical Permit","fiscal_year_issued":"2005","permit_class_mapped":"Residential","contractor_address_1":"P.O. Box 175","contractor_full_name":"Keith Coons","issued_in_last_30_days":"No","certificate_of_occupancy":"No","property_legal_description":"LOT 5-A RIDGEWOOD VILLAGE SEC 5 AMENDED PLAT OF LOT 5 & WEST PART OF LOT 4"},"geometry":{"type":"Point","coordinates":[-97.78854994,30.2840695]}},{"type":"Feature","properties":{"date":"2004-04-21T04:00:00.000Z","year":2004,"description":"Upgrading Exst. Elec Srv Only","metadescription":"EP. Remodel. Upgrading Exst. Elec Srv Only. Final. 300 BUCKEYE TRL","address":"300 Buckeye Trail, Austin, TX, 78746, US","link":"https://abc.austintexas.gov/web/permit/public-search-other?t_detail=1&t_selected_folderrsn=4346501","tcad_id":"0115150409","location":"    (30.29132481, -97.80424927)","day_issued":"WEDNESDAY","project_id":"4346501","condominium":"No","status_date":"03/05/2007","jurisdiction":"WEST LAKE HILLS FULL PURPOSE","contractor_zip":"78669","contractor_city":"Spicewood","issuance_method":"Permit Center","contractor_phone":"5122824644","contractor_trade":"Electrical Contractor","permit_type_desc":"Electrical Permit","fiscal_year_issued":"2004","permit_class_mapped":"Residential","contractor_address_1":"106 WESLEY R","contractor_address_2":"SPICEWOOD TX","contractor_full_name":"James D. Noble III","issued_in_last_30_days":"No","certificate_of_occupancy":"No","property_legal_description":"LOT 2 SUN CREST NO 1"},"geometry":{"type":"Point","coordinates":[-97.80424927,30.29132481]}},{"type":"Feature","properties":{"date":"2003-10-16T04:00:00.000Z","year":2003,"description":"Upgrading And Repairing Existing Elec Meter (Fire Damage) Only - Eud  A B C","metadescription":"EP. Remodel. Upgrading And Repairing Existing Elec Meter (Fire Damage) Only - Eud  A B C. Final. 1712 LAKESHORE DR","address":"1712 Lakeshore Drive, Austin, TX, 78746, US","link":"https://abc.austintexas.gov/web/permit/public-search-other?t_detail=1&t_selected_folderrsn=4340175","tcad_id":"0117110209","location":"    (30.29845691, -97.78899148)","day_issued":"THURSDAY","project_id":"4340175","condominium":"No","status_date":"03/05/2007","jurisdiction":"AUSTIN 2 MILE ETJ","contractor_zip":"78759","contractor_city":"Austin","issuance_method":"Permit Center","contractor_phone":"5127510340","contractor_trade":"Electrical Contractor","permit_type_desc":"Electrical Permit","fiscal_year_issued":"2004","permit_class_mapped":"Commercial","contractor_address_2":"3406  Gable","contractor_full_name":"Timothy R. Putman","issued_in_last_30_days":"No","certificate_of_occupancy":"No","property_legal_description":"ABS 21 SUR 1 SPARKS W ACR .436"},"geometry":{"type":"Point","coordinates":[-97.78899148,30.29845691]}},{"type":"Feature","properties":{"date":"2003-08-25T04:00:00.000Z","year":2003,"description":"Upgrading Exst. Elec Srv Only","metadescription":"EP. Remodel. Upgrading Exst. Elec Srv Only. Final. 10 SUNDOWN PKWY","address":"10 Sundown Parkway, Austin, TX, 78746, US","link":"https://abc.austintexas.gov/web/permit/public-search-other?t_detail=1&t_selected_folderrsn=4338375","tcad_id":"0113210105","location":"    (30.28865216, -97.82288736)","day_issued":"MONDAY","project_id":"4338375","condominium":"No","status_date":"03/05/2007","jurisdiction":"WEST LAKE HILLS ETJ","contractor_zip":"78602-____","contractor_city":"Bastrop","issuance_method":"Permit Center","contractor_phone":"5127976188","contractor_trade":"Electrical Contractor","permit_type_desc":"Electrical Permit","fiscal_year_issued":"2003","permit_class_mapped":"Residential","contractor_address_2":"264  akaloa","contractor_full_name":"Kevin D Carrington","issued_in_last_30_days":"No","certificate_of_occupancy":"No","property_legal_description":"LOT 5 WESTLAKE OAKS"},"geometry":{"type":"Point","coordinates":[-97.82288736,30.28865216]}},{"type":"Feature","properties":{"date":"2003-06-09T04:00:00.000Z","year":2003,"description":"Upgrading Exst. Elec Srv Only","metadescription":"EP. Remodel. Upgrading Exst. Elec Srv Only. Final. 109 SKYLINE DR","address":"109 Skyline Drive, Austin, TX, 78746, US","link":"https://abc.austintexas.gov/web/permit/public-search-other?t_detail=1&t_selected_folderrsn=4335368","tcad_id":"0115130406","location":"    (30.29466536, -97.79709724)","day_issued":"MONDAY","project_id":"4335368","condominium":"No","status_date":"03/05/2007","jurisdiction":"WEST LAKE HILLS FULL PURPOSE","contractor_zip":"78709-0548","contractor_city":"Austin","issuance_method":"Permit Center","contractor_phone":"5122882603","contractor_trade":"Electrical Contractor","permit_type_desc":"Electrical Permit","fiscal_year_issued":"2003","permit_class_mapped":"Residential","contractor_address_1":"P.O.Box 9054","contractor_full_name":"Charles Farrell","issued_in_last_30_days":"No","certificate_of_occupancy":"No","property_legal_description":"ABS 21 SUR 1 SPARKS W ACR 0.755"},"geometry":{"type":"Point","coordinates":[-97.79709724,30.29466536]}},{"type":"Feature","properties":{"date":"2002-09-26T04:00:00.000Z","year":2002,"description":"Upgrading Exst. Elec Srv Only Eud","metadescription":"EP. Remodel. Upgrading Exst. Elec Srv Only Eud. Final. 904 OLD STONEHEDGE","address":"904 Old Stonehedge, Austin, TX, 78746, US","link":"https://abc.austintexas.gov/web/permit/public-search-other?t_detail=1&t_selected_folderrsn=4327099","tcad_id":"0117150301","location":"    (30.29778042, -97.80804826)","day_issued":"THURSDAY","project_id":"4327099","condominium":"No","status_date":"03/05/2007","jurisdiction":"WEST LAKE HILLS FULL PURPOSE","contractor_zip":"78681","contractor_city":"Round Rock","issuance_method":"Permit Center","contractor_phone":"5122180020","contractor_trade":"Electrical Contractor","permit_type_desc":"Electrical Permit","fiscal_year_issued":"2002","permit_class_mapped":"Residential","contractor_address_1":"1501 SAGEBRU","contractor_address_2":"ROUND ROCK T","contractor_full_name":"Edward Shanklin","issued_in_last_30_days":"No","certificate_of_occupancy":"No","property_legal_description":"LOT 1 OLD STONEHEDGE"},"geometry":{"type":"Point","coordinates":[-97.80804826,30.29778042]}},{"type":"Feature","properties":{"date":"2001-06-25T04:00:00.000Z","year":2001,"description":"Upgrading Exst Elec Srv Only","metadescription":"EP. Remodel. Upgrading Exst Elec Srv Only. Final. 816 TERRACE MOUNTAIN DR","address":"816 Terrace Mountain Drive, Austin, TX, 78746, US","link":"https://abc.austintexas.gov/web/permit/public-search-other?t_detail=1&t_selected_folderrsn=4312085","tcad_id":"0119150303","location":"    (30.30558386, -97.80195474)","day_issued":"MONDAY","project_id":"4312085","condominium":"No","status_date":"03/05/2007","jurisdiction":"WEST LAKE HILLS FULL PURPOSE","contractor_zip":"78745","contractor_city":"Austin","issuance_method":"Permit Center","contractor_phone":"5124489295","contractor_trade":"Electrical Contractor","permit_type_desc":"Electrical Permit","fiscal_year_issued":"2001","permit_class_mapped":"Residential","contractor_address_1":"4300 S CONGR","contractor_address_2":"AUSTIN TX  7","contractor_full_name":"Bruce Romberger","issued_in_last_30_days":"No","certificate_of_occupancy":"No","property_legal_description":"LOT 5 BLK K STONEHEDGE ESTATES BLK K"},"geometry":{"type":"Point","coordinates":[-97.80195474,30.30558386]}},{"type":"Feature","properties":{"date":"2000-06-19T04:00:00.000Z","year":2000,"description":"Upgrading Exst Res Elec Srv Only","metadescription":"EP. Remodel. Upgrading Exst Res Elec Srv Only. Final. 1613 WESTLAKE DR","address":"1613 Westlake Drive, Austin, TX, 78746, US","link":"https://abc.austintexas.gov/web/permit/public-search-other?t_detail=1&t_selected_folderrsn=4298849","tcad_id":"0117110116","location":"    (30.29989038, -97.79331814)","day_issued":"MONDAY","project_id":"4298849","condominium":"No","status_date":"03/02/2007","jurisdiction":"WEST LAKE HILLS FULL PURPOSE","contractor_zip":"78725","contractor_city":"Austin","issuance_method":"Permit Center","contractor_phone":"5124154420","contractor_trade":"Electrical Contractor","permit_type_desc":"Electrical Permit","fiscal_year_issued":"2000","permit_class_mapped":"Residential","contractor_address_1":"4925 CRAIG W","contractor_full_name":"Alireza Haghighi","issued_in_last_30_days":"No","certificate_of_occupancy":"No","property_legal_description":"ABS 21 SUR 1 SPARKS W ACR .921"},"geometry":{"type":"Point","coordinates":[-97.79331814,30.29989038]}},{"type":"Feature","properties":{"date":"1999-06-30T04:00:00.000Z","year":1999,"description":"Upgrading Existing Electrical Service Eud","metadescription":"EP. Remodel. Upgrading Existing Electrical Service Eud. Final. 2 LIMERICK LN","address":"2 Limerick Lane, Austin, TX, 78746, US","link":"https://abc.austintexas.gov/web/permit/public-search-other?t_detail=1&t_selected_folderrsn=4287935","tcad_id":"0117150417","location":"    (30.29643505, -97.8063498)","day_issued":"WEDNESDAY","project_id":"4287935","condominium":"No","status_date":"05/22/2007","jurisdiction":"WEST LAKE HILLS FULL PURPOSE","housing_units":"1","issuance_method":"Permit Center","permit_type_desc":"Electrical Permit","fiscal_year_issued":"1999","permit_class_mapped":"Residential","issued_in_last_30_days":"No","certificate_of_occupancy":"No","property_legal_description":"LOT 2A LIMERICK ACRES AMENDED PLAT OF LOTS 2&3"},"geometry":{"type":"Point","coordinates":[-97.8063498,30.29643505]}},{"type":"Feature","properties":{"date":"1999-06-14T04:00:00.000Z","year":1999,"description":"Upgrading Res Elec Srv Only(Eud)","metadescription":"MP. Remodel. Upgrading Res Elec Srv Only(Eud). Expired. 7 N PEAK RD","address":"7 North Peak Road, Austin, TX, 78746, US","link":"https://abc.austintexas.gov/web/permit/public-search-other?t_detail=1&t_selected_folderrsn=3376863","tcad_id":"0109110408","location":"    (30.27481352, -97.79500778)","day_issued":"MONDAY","project_id":"3376863","condominium":"No","status_date":"06/06/2007","jurisdiction":"WEST LAKE HILLS FULL PURPOSE","housing_units":"1","issuance_method":"Permit Center","permit_type_desc":"Mechanical Permit","fiscal_year_issued":"1999","permit_class_mapped":"Residential","issued_in_last_30_days":"No","certificate_of_occupancy":"No","property_legal_description":"LOT 17 * & N10.24 FT OF LOT 18 DELLANA HILLS SEC 2 & 3"},"geometry":{"type":"Point","coordinates":[-97.79500778,30.27481352]}}]}
