{"type":"FeatureCollection","features":[{"type":"Feature","properties":{"date":"2026-01-02T05:00:00.000Z","year":2026,"description":"New Construction Electrical 4000 sq ft. ETJ","metadescription":"EP. New. New Construction Electrical 4000 sq ft. ETJ. Final. 1703 WILD BASIN LEDGE","address":"1703 WILD BASIN LEDGE","link":"https://abc.austintexas.gov/web/permit/public-search-other?t_detail=1&t_selected_folderrsn=13628828","tcad_id":"0121130801","location":"    (30.30938851, -97.80019394)","day_issued":"FRIDAY","project_id":"13628828","condominium":"No","status_date":"01/14/2026","jurisdiction":"AUSTIN 2 MILE ETJ","housing_units":"1","issuance_method":"Permit Center","contractor_phone":"5122151865","contractor_trade":"Electrical Contractor","number_of_floors":"1","permit_type_desc":"Electrical Permit","fiscal_year_issued":"2026","total_new_add_sqft":"4,000","permit_class_mapped":"Residential","contractor_full_name":"Jose Alejandro","issued_in_last_30_days":"No","certificate_of_occupancy":"No"},"geometry":{"type":"Point","coordinates":[-97.80019394,30.30938851]}},{"type":"Feature","properties":{"date":"2025-06-20T04:00:00.000Z","year":2025,"description":"New Construction SFR in ETJ","metadescription":"EP. New. New Construction SFR in ETJ. Final. 211 WESTHAVEN DR","address":"211 WESTHAVEN DR","link":"https://abc.austintexas.gov/web/permit/public-search-other?t_detail=1&t_selected_folderrsn=13537365","tcad_id":"0113150905","location":"    (30.28539237, -97.80885088)","day_issued":"FRIDAY","project_id":"13537365","condominium":"No","status_date":"03/26/2026","jurisdiction":"WEST LAKE HILLS FULL PURPOSE","housing_units":"1","contractor_zip":"78228","contractor_city":"San Antonio","issuance_method":"Permit Center","contractor_phone":"5125288128","contractor_trade":"Electrical Contractor","number_of_floors":"1","permit_type_desc":"Electrical Permit","fiscal_year_issued":"2025","total_new_add_sqft":"2,000","permit_class_mapped":"Residential","contractor_address_2":"5022  WITT","contractor_full_name":"Juan Balderas","issued_in_last_30_days":"No","certificate_of_occupancy":"No","property_legal_description":"LOT 12 WESTLAKE PARK"},"geometry":{"type":"Point","coordinates":[-97.80885088,30.28539237]}},{"type":"Feature","properties":{"date":"2025-06-13T04:00:00.000Z","year":2025,"description":"new construction in the ETJ","metadescription":"EP. New. new construction in the ETJ. Final. 1901 TORO CANYON RD","address":"1901 TORO CANYON RD","link":"https://abc.austintexas.gov/web/permit/public-search-other?t_detail=1&t_selected_folderrsn=13534041","tcad_id":"0121130601","location":"    (30.30914499, -97.79691956)","day_issued":"FRIDAY","project_id":"13534041","condominium":"No","status_date":"11/07/2025","jurisdiction":"AUSTIN 2 MILE ETJ","housing_units":"1","contractor_zip":"78724","contractor_city":"Austin","issuance_method":"Permit Center","contractor_phone":"5128392478","contractor_trade":"Electrical Contractor","number_of_floors":"1","permit_type_desc":"Electrical Permit","fiscal_year_issued":"2025","total_new_add_sqft":"0","permit_class_mapped":"Residential","contractor_address_2":"7500  Inspir","contractor_full_name":"Terry Herrin","issued_in_last_30_days":"No","certificate_of_occupancy":"No","property_legal_description":"LOT 1 BLK B WESTLAKE MADRONES SEC 2"},"geometry":{"type":"Point","coordinates":[-97.79691956,30.30914499]}},{"type":"Feature","properties":{"date":"2025-01-17T05:00:00.000Z","year":2025,"description":"New construction sfr in the etj","metadescription":"EP. New. New construction sfr in the etj. Active. 4 MARTELLI LN","address":"4 MARTELLI LN","link":"https://abc.austintexas.gov/web/permit/public-search-other?t_detail=1&t_selected_folderrsn=13448658","tcad_id":"0117130248","location":"    (30.300106, -97.7999051)","day_issued":"FRIDAY","project_id":"13448658","condominium":"No","status_date":"05/03/2026","jurisdiction":"WEST LAKE HILLS FULL PURPOSE","housing_units":"1","contractor_zip":"78640","contractor_city":"Kyle","issuance_method":"Permit Center","contractor_phone":"5123124040","contractor_trade":"Electrical Contractor","number_of_floors":"1","permit_type_desc":"Electrical Permit","fiscal_year_issued":"2025","total_new_add_sqft":"0","permit_class_mapped":"Residential","contractor_address_2":"5401  FM 162","contractor_full_name":"Rodney Mueller","issued_in_last_30_days":"No","certificate_of_occupancy":"No","property_legal_description":"WILDCAT CLUB SUBD AMD LOT 2"},"geometry":{"type":"Point","coordinates":[-97.7999051,30.300106]}},{"type":"Feature","properties":{"date":"2024-08-07T04:00:00.000Z","year":2024,"description":"New construction sfr in the etj","metadescription":"EP. New. New construction sfr in the etj. Final. 6 SUNDOWN PKWY","address":"6 SUNDOWN PKWY","link":"https://abc.austintexas.gov/web/permit/public-search-other?t_detail=1&t_selected_folderrsn=13372418","tcad_id":"0113210103","location":"    (30.28928967, -97.82229716)","day_issued":"WEDNESDAY","project_id":"13372418","condominium":"No","status_date":"02/12/2026","jurisdiction":"WEST LAKE HILLS ETJ","housing_units":"1","contractor_zip":"78640-____","contractor_city":"Kyle","issuance_method":"Permit Center","contractor_phone":"5129405638","contractor_trade":"Electrical Contractor","number_of_floors":"1","permit_type_desc":"Electrical Permit","fiscal_year_issued":"2024","total_new_add_sqft":"0","permit_class_mapped":"Residential","contractor_address_2":"161  Raintre","contractor_full_name":"Geryn  Madrid","issued_in_last_30_days":"No","certificate_of_occupancy":"No","property_legal_description":"LOT 3A WESTLAKE OAKS AMENDED PLAT OF LOTS 3 & 4"},"geometry":{"type":"Point","coordinates":[-97.82229716,30.28928967]}},{"type":"Feature","properties":{"date":"2024-05-08T04:00:00.000Z","year":2024,"description":"Temporary meter loop for new construction home","metadescription":"EP. Homebuilder Loop. Temporary meter loop for new construction home. Final. 405 CEDAR OAK DR","address":"405 CEDAR OAK DR","link":"https://abc.austintexas.gov/web/permit/public-search-other?t_detail=1&t_selected_folderrsn=13325205","tcad_id":"0117150428","location":"    (30.29651313, -97.80389462)","day_issued":"WEDNESDAY","project_id":"13325205","status_date":"05/15/2024","jurisdiction":"WEST LAKE HILLS FULL PURPOSE","contractor_zip":"78628","contractor_city":"GEORGETOWN","issuance_method":"Permit Center","contractor_phone":"5128768766","contractor_trade":"Electrical Contractor","permit_type_desc":"Electrical Permit","fiscal_year_issued":"2024","permit_class_mapped":"Residential","contractor_address_2":"707  Serenad","contractor_full_name":"James  L. Cox","issued_in_last_30_days":"No","property_legal_description":"LOT 2 BLK B RED BUD HILLS"},"geometry":{"type":"Point","coordinates":[-97.80389462,30.29651313]}},{"type":"Feature","properties":{"date":"2024-02-29T05:00:00.000Z","year":2024,"description":"UNDERGROUND TEMP LOOP FOR A NEW CONSTRUCTION OF A SINGLE FAMILY RESIDENCE. REF BP 2024-023633","metadescription":"EP. Homebuilder Loop. UNDERGROUND TEMP LOOP FOR A NEW CONSTRUCTION OF A SINGLE FAMILY RESIDENCE. REF BP 2024-023633. Final. 1700 LAGUNA LOMA CV","address":"1700 LAGUNA LOMA CV","link":"https://abc.austintexas.gov/web/permit/public-search-other?t_detail=1&t_selected_folderrsn=13288552","tcad_id":"0117110226","location":"    (30.29880711, -97.78876038)","day_issued":"THURSDAY","project_id":"13288552","status_date":"03/12/2024","jurisdiction":"AUSTIN FULL PURPOSE","contractor_zip":"78664","contractor_city":"Round Rock","issuance_method":"Permit Center","contractor_phone":"5127786240","contractor_trade":"Electrical Contractor","permit_type_desc":"Electrical Permit","fiscal_year_issued":"2024","permit_class_mapped":"Residential","contractor_address_2":"16808  Radho","contractor_full_name":"Seth Robinson","issued_in_last_30_days":"No","property_legal_description":"LOT 15 LAGUNA LOMA"},"geometry":{"type":"Point","coordinates":[-97.78876038,30.29880711]}},{"type":"Feature","properties":{"date":"2024-02-16T05:00:00.000Z","year":2024,"description":"400 Amp Service\nNew Construction Electrical 6162 sq. ft.  ETJ\nCT inspection required","metadescription":"EP. New. 400 Amp Service\nNew Construction Electrical 6162 sq. ft.  ETJ\nCT inspection required. Active. 800 OX EYE TRL","address":"800 OX EYE TRL","link":"https://abc.austintexas.gov/web/permit/public-search-other?t_detail=1&t_selected_folderrsn=13282908","tcad_id":"0119130404","location":"    (30.30381809, -97.80069833)","day_issued":"FRIDAY","project_id":"13282908","condominium":"No","status_date":"05/04/2026","jurisdiction":"WEST LAKE HILLS FULL PURPOSE","housing_units":"1","contractor_city":"Austin","issuance_method":"Permit Center","contractor_phone":"5123875181","contractor_trade":"Electrical Contractor","number_of_floors":"1","permit_type_desc":"Electrical Permit","fiscal_year_issued":"2024","total_new_add_sqft":"6,162","permit_class_mapped":"Residential","contractor_full_name":"Elizabeth Wilcocks","issued_in_last_30_days":"No","certificate_of_occupancy":"No","property_legal_description":"LOT 4 BLK G STONEHEDGE ESTATES BLK G"},"geometry":{"type":"Point","coordinates":[-97.80069833,30.30381809]}},{"type":"Feature","properties":{"date":"2024-02-05T05:00:00.000Z","year":2024,"description":"New construction home in EJT- temporary power","metadescription":"EP. Homebuilder Loop. New construction home in EJT- temporary power. Final. 800 OX EYE TRL","address":"800 OX EYE TRL","link":"https://abc.austintexas.gov/web/permit/public-search-other?t_detail=1&t_selected_folderrsn=13207118","tcad_id":"0119130404","location":"    (30.30381809, -97.80069833)","day_issued":"MONDAY","project_id":"13207118","status_date":"03/07/2024","jurisdiction":"WEST LAKE HILLS FULL PURPOSE","contractor_city":"Austin","issuance_method":"Permit Center","contractor_phone":"5123875181","contractor_trade":"Electrical Contractor","permit_type_desc":"Electrical Permit","fiscal_year_issued":"2024","permit_class_mapped":"Residential","contractor_full_name":"Elizabeth Wilcocks","issued_in_last_30_days":"No","property_legal_description":"LOT 4 BLK G STONEHEDGE ESTATES BLK G"},"geometry":{"type":"Point","coordinates":[-97.80069833,30.30381809]}},{"type":"Feature","properties":{"date":"2024-01-03T05:00:00.000Z","year":2024,"description":"New Construction Electric Service  SFR 3429 Sq. Ft.  ETJ","metadescription":"EP. New. New Construction Electric Service  SFR 3429 Sq. Ft.  ETJ. Final. 603 SPURLOCK VALLEY","address":"603 SPURLOCK VALLEY","link":"https://abc.austintexas.gov/web/permit/public-search-other?t_detail=1&t_selected_folderrsn=13261161","tcad_id":"0119130429","location":"    (30.30291227, -97.80050973)","day_issued":"WEDNESDAY","project_id":"13261161","condominium":"No","status_date":"01/29/2024","jurisdiction":"WEST LAKE HILLS FULL PURPOSE","housing_units":"1","contractor_city":"Austin","issuance_method":"Permit Center","contractor_phone":"5126206034","contractor_trade":"Electrical Contractor","number_of_floors":"1","permit_type_desc":"Electrical Permit","fiscal_year_issued":"2024","total_new_add_sqft":"3,429","permit_class_mapped":"Residential","contractor_address_2":"600  luther","contractor_full_name":"Osvaldo Moctezuma","issued_in_last_30_days":"No","certificate_of_occupancy":"No","property_legal_description":"LOT 9 BLK G STONEHEDGE ESTATES BLK G"},"geometry":{"type":"Point","coordinates":[-97.80050973,30.30291227]}},{"type":"Feature","properties":{"date":"2023-10-26T04:00:00.000Z","year":2023,"description":"TEMP LOOP FOR A NEW CONSTRUCTION OF A SINGLE FAMILY RESIDENCE. REF BP 2023-137933","metadescription":"EP. Homebuilder Loop. TEMP LOOP FOR A NEW CONSTRUCTION OF A SINGLE FAMILY RESIDENCE. REF BP 2023-137933. Final. 1801 LAKESHORE DR","address":"1801 LAKESHORE DR","link":"https://abc.austintexas.gov/web/permit/public-search-other?t_detail=1&t_selected_folderrsn=13230460","tcad_id":"0117110225","location":"    (30.29895818, -97.78875006)","day_issued":"THURSDAY","project_id":"13230460","status_date":"11/03/2023","jurisdiction":"AUSTIN FULL PURPOSE","contractor_zip":"78664","contractor_city":"Round Rock","issuance_method":"Permit Center","contractor_phone":"5127786240","contractor_trade":"Electrical Contractor","permit_type_desc":"Electrical Permit","fiscal_year_issued":"2024","permit_class_mapped":"Residential","contractor_address_2":"16808  Radho","contractor_full_name":"Seth Robinson","issued_in_last_30_days":"No","property_legal_description":"LOT 14 LAGUNA LOMA"},"geometry":{"type":"Point","coordinates":[-97.78875006,30.29895818]}},{"type":"Feature","properties":{"date":"2023-03-25T04:00:00.000Z","year":2023,"description":"New construction in the etj sfr","metadescription":"EP. New. New construction in the etj sfr. Final. 410 OAK RIDGE DR","address":"410 OAK RIDGE DR","link":"https://abc.austintexas.gov/web/permit/public-search-other?t_detail=1&t_selected_folderrsn=13110898","tcad_id":"0113130702","location":"    (30.28540424, -97.79608246)","day_issued":"SATURDAY","project_id":"13110898","condominium":"No","status_date":"05/29/2024","jurisdiction":"WEST LAKE HILLS FULL PURPOSE","housing_units":"1","contractor_city":"Austin","issuance_method":"Permit Center","contractor_phone":"5123875181","contractor_trade":"Electrical Contractor","number_of_floors":"1","permit_type_desc":"Electrical Permit","fiscal_year_issued":"2023","permit_class_mapped":"Residential","remodel_repair_sqft":"0","contractor_full_name":"Elizabeth Wilcocks","issued_in_last_30_days":"No","certificate_of_occupancy":"No","property_legal_description":"LIVEOAK TERRACE PARTIAL REPLAT OF (WLH) BLK D LOT 1","electrical_valuation_remodel":"$130,000.00"},"geometry":{"type":"Point","coordinates":[-97.79608246,30.28540424]}},{"type":"Feature","properties":{"date":"2023-01-03T05:00:00.000Z","year":2023,"description":"New construction of 32000 sq ft Community/Education Building for Trinity Episcopal Church","metadescription":"EP. New. New construction of 32000 sq ft Community/Education Building for Trinity Episcopal Church. Final. 950 WESTBANK DR","address":"950 WESTBANK DR","link":"https://abc.austintexas.gov/web/permit/public-search-other?t_detail=1&t_selected_folderrsn=13072253","tcad_id":"0111150914","location":"    (30.2781816, -97.8091567)","day_issued":"TUESDAY","project_id":"13072253","condominium":"No","status_date":"03/24/2023","jurisdiction":"WEST LAKE HILLS FULL PURPOSE","housing_units":"1","contractor_city":"Pflugerville","issuance_method":"Permit Center","contractor_phone":"5123603532","contractor_trade":"Electrical Contractor","number_of_floors":"1","permit_type_desc":"Electrical Permit","fiscal_year_issued":"2023","total_new_add_sqft":"0","permit_class_mapped":"Commercial","remodel_repair_sqft":"0","contractor_address_2":"20201  Keilm","contractor_full_name":"Michael Martins","issued_in_last_30_days":"No","certificate_of_occupancy":"No","property_legal_description":"LOT 1B BARTON SPRINGS ESTATES AMEND AMENDED TRT 2 RSB PT LT 15&1 M MCCLURE SUB & PT TRT 1 LAMPLIGHTER SUBD & LOT 1 WEST OAK OFFICE PARK & LOT 1B 2C BEE CAVE CORNERS REPLAT OF LOT 1 & LOT 2","electrical_valuation_remodel":"$849,648.00"},"geometry":{"type":"Point","coordinates":[-97.8091567,30.2781816]}},{"type":"Feature","properties":{"date":"2022-10-14T04:00:00.000Z","year":2022,"description":"Request Electrical Permit new construction","metadescription":"EP. New. Request Electrical Permit new construction. Final. 414 BRADY LN","address":"414 BRADY LN","link":"https://abc.austintexas.gov/web/permit/public-search-other?t_detail=1&t_selected_folderrsn=13029490","tcad_id":"0111110926","location":"    (30.27972081, -97.79088279)","day_issued":"FRIDAY","project_id":"13029490","condominium":"No","status_date":"12/15/2022","jurisdiction":"WEST LAKE HILLS FULL PURPOSE","housing_units":"1","contractor_zip":"78228","contractor_city":"San Antonio","issuance_method":"Permit Center","contractor_phone":"5125288128","contractor_trade":"Electrical Contractor","number_of_floors":"1","permit_type_desc":"Electrical Permit","fiscal_year_issued":"2023","permit_class_mapped":"Residential","remodel_repair_sqft":"4,600","contractor_address_2":"5022  WITT","contractor_full_name":"Juan Balderas","issued_in_last_30_days":"No","certificate_of_occupancy":"No","property_legal_description":"LOT 39 RIDGEWOOD VILLAGE SEC 2","electrical_valuation_remodel":"$1,000.00"},"geometry":{"type":"Point","coordinates":[-97.79088279,30.27972081]}},{"type":"Feature","properties":{"date":"2022-09-22T04:00:00.000Z","year":2022,"description":"New 350 Amp service.   new construction sfr etj","metadescription":"EP. New. New 350 Amp service.   new construction sfr etj. Final. 303 BULIAN LN","address":"303 BULIAN LN","link":"https://abc.austintexas.gov/web/permit/public-search-other?t_detail=1&t_selected_folderrsn=13022772","tcad_id":"0109131526","location":"    (30.27777905, -97.79962914)","day_issued":"THURSDAY","project_id":"13022772","condominium":"No","status_date":"06/08/2023","jurisdiction":"WEST LAKE HILLS ETJ","housing_units":"1","contractor_zip":"78942","contractor_city":"Giddings","issuance_method":"Permit Center","contractor_phone":"5122029089","contractor_trade":"Electrical Contractor","number_of_floors":"1","permit_type_desc":"Electrical Permit","fiscal_year_issued":"2022","permit_class_mapped":"Residential","remodel_repair_sqft":"5,000","contractor_address_2":"691 S Navarr","contractor_full_name":"Leonard Orocio","issued_in_last_30_days":"No","certificate_of_occupancy":"No","property_legal_description":"LOT 2 BLK T WESTWOOD SEC 6","electrical_valuation_remodel":"$800.00"},"geometry":{"type":"Point","coordinates":[-97.79962914,30.27777905]}},{"type":"Feature","properties":{"date":"2022-08-25T04:00:00.000Z","year":2022,"description":"400A service on new construction house","metadescription":"EP. Upgrade. 400A service on new construction house. Final. 299 CEDAR OAK DR","address":"299 CEDAR OAK DR","link":"https://abc.austintexas.gov/web/permit/public-search-other?t_detail=1&t_selected_folderrsn=12910745","tcad_id":"0115150606","location":"    (30.29532935, -97.8032791)","day_issued":"THURSDAY","project_id":"12910745","condominium":"No","status_date":"11/04/2022","jurisdiction":"WEST LAKE HILLS FULL PURPOSE","housing_units":"1","contractor_zip":"76527","contractor_city":"Florence","issuance_method":"Permit Center","contractor_phone":"5124236773","contractor_trade":"Electrical Contractor","number_of_floors":"1","permit_type_desc":"Electrical Permit","fiscal_year_issued":"2022","permit_class_mapped":"Residential","remodel_repair_sqft":"7,000","contractor_address_2":"550  Ramms D","contractor_full_name":"John Power","issued_in_last_30_days":"No","certificate_of_occupancy":"No","property_legal_description":"LOT 2 EAST LEDGEWAY SUBDIVISION","electrical_valuation_remodel":"$5,000.00"},"geometry":{"type":"Point","coordinates":[-97.8032791,30.29532935]}},{"type":"Feature","properties":{"date":"2022-06-02T04:00:00.000Z","year":2022,"description":"New Construction   Electrical Service for new Residence EUD","metadescription":"EP. New. New Construction   Electrical Service for new Residence EUD. Final. 1003 THE HIGH RD","address":"1003 THE HIGH RD","link":"https://abc.austintexas.gov/web/permit/public-search-other?t_detail=1&t_selected_folderrsn=12945836","tcad_id":"0121130702","location":"    (30.30995769, -97.80116166)","day_issued":"THURSDAY","project_id":"12945836","condominium":"No","status_date":"09/30/2024","jurisdiction":"AUSTIN 2 MILE ETJ","housing_units":"1","contractor_zip":"78724","contractor_city":"Austin","issuance_method":"Permit Center","contractor_phone":"5128392478","contractor_trade":"Electrical Contractor","number_of_floors":"1","permit_type_desc":"Electrical Permit","fiscal_year_issued":"2022","total_new_add_sqft":"0","permit_class_mapped":"Residential","remodel_repair_sqft":"0","contractor_address_2":"7500  Inspir","contractor_full_name":"Terry Herrin","issued_in_last_30_days":"No","certificate_of_occupancy":"No","property_legal_description":"LOT 4 BLK B SCENIC VIEW WEST SEC 2","electrical_valuation_remodel":"$80.00"},"geometry":{"type":"Point","coordinates":[-97.80116166,30.30995769]}},{"type":"Feature","properties":{"date":"2022-04-27T04:00:00.000Z","year":2022,"description":"Secondary Riser and service lateral to new structure. New service on new structure.","metadescription":"EP. Upgrade. Secondary Riser and service lateral to new structure. New service on new structure.. Expired. 187 SKYLINE DR","address":"187 SKYLINE DR","link":"https://abc.austintexas.gov/web/permit/public-search-other?t_detail=1&t_selected_folderrsn=12904223","tcad_id":"0115130204","location":"    (30.29432479, -97.80018045)","day_issued":"WEDNESDAY","project_id":"12904223","condominium":"No","status_date":"04/17/2023","jurisdiction":"WEST LAKE HILLS FULL PURPOSE","housing_units":"1","contractor_zip":"78754","contractor_city":"Austin","issuance_method":"Permit Center","contractor_phone":"5129149955","contractor_trade":"Electrical Contractor","number_of_floors":"1","permit_type_desc":"Electrical Permit","fiscal_year_issued":"2022","permit_class_mapped":"Residential","remodel_repair_sqft":"0","contractor_address_1":"12609 DESSAU","contractor_address_2":"AUSTIN TX  7","contractor_full_name":"Gary A Pritchard","issued_in_last_30_days":"No","certificate_of_occupancy":"No","property_legal_description":"187 SKYLINE DRIVE","electrical_valuation_remodel":"$10,000.00"},"geometry":{"type":"Point","coordinates":[-97.80018045,30.29432479]}},{"type":"Feature","properties":{"date":"2022-04-13T04:00:00.000Z","year":2022,"description":"ELECTRICAL ROUGH  TRIM AND SERVICE BUILD FOR A NEW CONSTRUCTION OF A RESIDENCE LOCATED IN ETJ","metadescription":"EP. Repair. ELECTRICAL ROUGH  TRIM AND SERVICE BUILD FOR A NEW CONSTRUCTION OF A RESIDENCE LOCATED IN ETJ. Final. 107 BLUE RIDGE TRL","address":"107 BLUE RIDGE TRL","link":"https://abc.austintexas.gov/web/permit/public-search-other?t_detail=1&t_selected_folderrsn=12911076","tcad_id":"0109130708","location":"    (30.27681203, -97.80191068)","day_issued":"WEDNESDAY","project_id":"12911076","condominium":"No","status_date":"06/15/2023","jurisdiction":"WEST LAKE HILLS ETJ","housing_units":"1","contractor_zip":"78660-____","contractor_city":"PFLUGERVILLE","issuance_method":"Permit Center","contractor_phone":"5122520040","contractor_trade":"Electrical Contractor","number_of_floors":"1","permit_type_desc":"Electrical Permit","fiscal_year_issued":"2022","permit_class_mapped":"Residential","remodel_repair_sqft":"2,500","contractor_address_2":"821  GRAND A","contractor_full_name":"William B. Crist Jr.","issued_in_last_30_days":"No","certificate_of_occupancy":"No","property_legal_description":"LOT 8 WESTWOOD VILLAS SEC 2","electrical_valuation_remodel":"$10,000.00"},"geometry":{"type":"Point","coordinates":[-97.80191068,30.27681203]}},{"type":"Feature","properties":{"date":"2022-04-05T04:00:00.000Z","year":2022,"description":"ELECTRICAL ROUGHTRIM AND SERVICE BUILD FOR A NEW CONSTRUCTION OF A SINGLE FAMILY RESIDENCE","metadescription":"EP. New. ELECTRICAL ROUGHTRIM AND SERVICE BUILD FOR A NEW CONSTRUCTION OF A SINGLE FAMILY RESIDENCE. Final. 1521 WILD CAT HOLW","address":"1521 WILD CAT HOLW","link":"https://abc.austintexas.gov/web/permit/public-search-other?t_detail=1&t_selected_folderrsn=12901033","tcad_id":"0117130202","location":"    (30.29874921, -97.79930365)","day_issued":"TUESDAY","project_id":"12901033","condominium":"No","status_date":"01/24/2023","jurisdiction":"WEST LAKE HILLS FULL PURPOSE","housing_units":"1","contractor_zip":"78660-____","contractor_city":"PFLUGERVILLE","issuance_method":"Permit Center","contractor_phone":"5122520040","contractor_trade":"Electrical Contractor","number_of_floors":"1","permit_type_desc":"Electrical Permit","fiscal_year_issued":"2022","permit_class_mapped":"Residential","remodel_repair_sqft":"0","contractor_address_2":"821  GRAND A","contractor_full_name":"William B. Crist Jr.","issued_in_last_30_days":"No","certificate_of_occupancy":"No","property_legal_description":"2018 CARPENTER ESTATE","electrical_valuation_remodel":"$25,000.00"},"geometry":{"type":"Point","coordinates":[-97.79930365,30.29874921]}},{"type":"Feature","properties":{"date":"2022-03-25T04:00:00.000Z","year":2022,"description":"electrical for a new build of a single family residence located in ETJ area- temp loop for a construction of a SFR","metadescription":"EP. Homebuilder Loop. electrical for a new build of a single family residence located in ETJ area- temp loop for a construction of a SFR. Final. 107 BLUE RIDGE TRL","address":"107 BLUE RIDGE TRL","link":"https://abc.austintexas.gov/web/permit/public-search-other?t_detail=1&t_selected_folderrsn=12894763","tcad_id":"0109130708","location":"    (30.27681203, -97.80191068)","day_issued":"FRIDAY","project_id":"12894763","status_date":"03/30/2022","jurisdiction":"WEST LAKE HILLS ETJ","contractor_zip":"78660-____","contractor_city":"PFLUGERVILLE","issuance_method":"Permit Center","contractor_phone":"5122520040","contractor_trade":"Electrical Contractor","permit_type_desc":"Electrical Permit","fiscal_year_issued":"2022","permit_class_mapped":"Residential","contractor_address_2":"821  GRAND A","contractor_full_name":"William B. Crist Jr.","issued_in_last_30_days":"No","property_legal_description":"LOT 8 WESTWOOD VILLAS SEC 2"},"geometry":{"type":"Point","coordinates":[-97.80191068,30.27681203]}},{"type":"Feature","properties":{"date":"2022-03-16T04:00:00.000Z","year":2022,"description":"TEMP LOOP FOR A NEW CONSTRUCTION OF A SINGLE FAMILY RESIDENCE.","metadescription":"EP. Homebuilder Loop. TEMP LOOP FOR A NEW CONSTRUCTION OF A SINGLE FAMILY RESIDENCE.. Final. 1108 BLACKACRE TRL","address":"1108 BLACKACRE TRL","link":"https://abc.austintexas.gov/web/permit/public-search-other?t_detail=1&t_selected_folderrsn=12886686","tcad_id":"0115210246","location":"    (30.2944156, -97.81903883)","day_issued":"WEDNESDAY","project_id":"12886686","status_date":"03/28/2022","jurisdiction":"WEST LAKE HILLS FULL PURPOSE","contractor_zip":"78660-____","contractor_city":"PFLUGERVILLE","issuance_method":"Permit Center","contractor_phone":"5122520040","contractor_trade":"Electrical Contractor","permit_type_desc":"Electrical Permit","fiscal_year_issued":"2022","permit_class_mapped":"Residential","contractor_address_2":"821  GRAND A","contractor_full_name":"William B. Crist Jr.","issued_in_last_30_days":"No","property_legal_description":"LOT 2 ESTATES AT BLACKACRE PHS 1 THE RESUB OF THE"},"geometry":{"type":"Point","coordinates":[-97.81903883,30.2944156]}},{"type":"Feature","properties":{"date":"2021-11-24T05:00:00.000Z","year":2021,"description":"Electrical Service in ETJ for Westlake High School Swim Cenetr. New building","metadescription":"EP. Repair. Electrical Service in ETJ for Westlake High School Swim Cenetr. New building. Final. 4300 WESTBANK DR UNIT 4","address":"4300 WESTBANK DR UNIT 4","link":"https://abc.austintexas.gov/web/permit/public-search-other?t_detail=1&t_selected_folderrsn=12832603","tcad_id":"0109210801","location":"    (30.27820367, -97.81727144)","day_issued":"WEDNESDAY","project_id":"12832603","condominium":"No","status_date":"12/08/2021","jurisdiction":"WEST LAKE HILLS FULL PURPOSE","housing_units":"1","contractor_zip":"78734","contractor_city":"Austin","issuance_method":"Permit Center","contractor_phone":"5122637990","contractor_trade":"Electrical Contractor","number_of_floors":"1","permit_type_desc":"Electrical Permit","fiscal_year_issued":"2022","permit_class_mapped":"Commercial","remodel_repair_sqft":"0","contractor_address_1":"P.O. BOX 340","contractor_address_2":"AUSTIN TX  7","contractor_full_name":"Steven R. Pomikahl","issued_in_last_30_days":"No","certificate_of_occupancy":"No","property_legal_description":"LOT 1 BLK A EANES VIEW","electrical_valuation_remodel":"$100,000.00"},"geometry":{"type":"Point","coordinates":[-97.81727144,30.27820367]}},{"type":"Feature","properties":{"date":"2021-05-11T04:00:00.000Z","year":2021,"description":"Temporary Power for New Construction:  Underground temporary power 200amp-EUD","metadescription":"EP. Upgrade. Temporary Power for New Construction:  Underground temporary power 200amp-EUD. Final. 622 CORTONA DR","address":"622 CORTONA DR","link":"https://abc.austintexas.gov/web/permit/public-search-other?t_detail=1&t_selected_folderrsn=12693936","tcad_id":"0113150116","location":"    (30.28961425, -97.80662661)","day_issued":"TUESDAY","project_id":"12693936","condominium":"No","status_date":"07/19/2021","jurisdiction":"WEST LAKE HILLS FULL PURPOSE","housing_units":"1","contractor_zip":"78660-____","contractor_city":"PFLUGERVILLE","issuance_method":"Permit Center","contractor_phone":"5125546789","contractor_trade":"Electrical Contractor","number_of_floors":"1","permit_type_desc":"Electrical Permit","fiscal_year_issued":"2021","permit_class_mapped":"Residential","remodel_repair_sqft":"0","contractor_address_2":"1006  VAPOR","contractor_full_name":"Charles D Gordon","issued_in_last_30_days":"No","certificate_of_occupancy":"No","property_legal_description":"LOT 27 BLK A CORTONA SUBD","electrical_valuation_remodel":"$3,000.00"},"geometry":{"type":"Point","coordinates":[-97.80662661,30.28961425]}},{"type":"Feature","properties":{"date":"2021-05-11T04:00:00.000Z","year":2021,"description":"New Construction new permanent electrical service (ref #2021-069038 EP).  320amp underground.-EUD","metadescription":"EP. New. New Construction new permanent electrical service (ref #2021-069038 EP).  320amp underground.-EUD. Final. 622 CORTONA DR","address":"622 CORTONA DR","link":"https://abc.austintexas.gov/web/permit/public-search-other?t_detail=1&t_selected_folderrsn=12695123","tcad_id":"0113150116","location":"    (30.28961425, -97.80662661)","day_issued":"TUESDAY","project_id":"12695123","condominium":"No","status_date":"04/12/2023","jurisdiction":"WEST LAKE HILLS FULL PURPOSE","housing_units":"1","contractor_zip":"78660-____","contractor_city":"PFLUGERVILLE","issuance_method":"Permit Center","contractor_phone":"5125546789","contractor_trade":"Electrical Contractor","number_of_floors":"1","permit_type_desc":"Electrical Permit","fiscal_year_issued":"2021","total_new_add_sqft":"0","permit_class_mapped":"Residential","remodel_repair_sqft":"0","contractor_address_2":"1006  VAPOR","contractor_full_name":"Charles D Gordon","issued_in_last_30_days":"No","certificate_of_occupancy":"No","property_legal_description":"LOT 27 BLK A CORTONA SUBD","electrical_valuation_remodel":"$10,000.00"},"geometry":{"type":"Point","coordinates":[-97.80662661,30.28961425]}},{"type":"Feature","properties":{"date":"2020-12-18T05:00:00.000Z","year":2020,"description":"etj underground and service for new construction house 320amp","metadescription":"EP. New. etj underground and service for new construction house 320amp. Final. 5 HILLSIDE CT","address":"5 HILLSIDE CT","link":"https://abc.austintexas.gov/web/permit/public-search-other?t_detail=1&t_selected_folderrsn=12511105","tcad_id":"0111190125","location":"    (30.28406232, -97.81533776)","day_issued":"FRIDAY","project_id":"12511105","condominium":"No","status_date":"03/19/2021","jurisdiction":"WEST LAKE HILLS ETJ","housing_units":"1","contractor_zip":"78666","contractor_city":"San Marcos","issuance_method":"Permit Center","contractor_phone":"5127874252","contractor_trade":"Electrical Contractor","number_of_floors":"1","permit_type_desc":"Electrical Permit","fiscal_year_issued":"2021","total_new_add_sqft":"7,764","permit_class_mapped":"Residential","contractor_address_1":"3409 FM 32 P","contractor_address_2":"SAN MARCOS T","contractor_full_name":"Joseph Fisher","issued_in_last_30_days":"No","certificate_of_occupancy":"No"},"geometry":{"type":"Point","coordinates":[-97.81533776,30.28406232]}},{"type":"Feature","properties":{"date":"2020-09-17T04:00:00.000Z","year":2020,"description":"Relocate 300AMP service to new building.","metadescription":"EP. Upgrade. Relocate 300AMP service to new building.. Final. 201 BULIAN LN","address":"201 BULIAN LN","link":"https://abc.austintexas.gov/web/permit/public-search-other?t_detail=1&t_selected_folderrsn=12550346","tcad_id":"0109131901","location":"    (30.27644994, -97.80056712)","day_issued":"THURSDAY","project_id":"12550346","condominium":"No","status_date":"09/21/2020","jurisdiction":"WEST LAKE HILLS ETJ","housing_units":"1","contractor_zip":"78942","contractor_city":"Giddings","issuance_method":"Permit Center","contractor_phone":"5122029089","contractor_trade":"Electrical Contractor","number_of_floors":"1","permit_type_desc":"Electrical Permit","fiscal_year_issued":"2020","permit_class_mapped":"Residential","remodel_repair_sqft":"0","contractor_address_2":"691 S Navarr","contractor_full_name":"Leonard Orocio","issued_in_last_30_days":"No","certificate_of_occupancy":"No","electrical_valuation_remodel":"$1,000.00"},"geometry":{"type":"Point","coordinates":[-97.80056712,30.27644994]}},{"type":"Feature","properties":{"date":"2020-07-31T04:00:00.000Z","year":2020,"description":"Supply 325 amp rack mounted service for new construction in West Lake","metadescription":"EP. Repair. Supply 325 amp rack mounted service for new construction in West Lake. Final. 1 SWEET SKY RD","address":"1 SWEET SKY RD","link":"https://abc.austintexas.gov/web/permit/public-search-other?t_detail=1&t_selected_folderrsn=12518024","tcad_id":"0117150220","location":"    (30.29923514, -97.80287877)","day_issued":"FRIDAY","project_id":"12518024","condominium":"No","status_date":"08/06/2020","jurisdiction":"WEST LAKE HILLS FULL PURPOSE","housing_units":"1","contractor_zip":"78728","contractor_city":"Austin","issuance_method":"Permit Center","contractor_phone":"5124614266","contractor_trade":"Electrical Contractor","number_of_floors":"1","permit_type_desc":"Electrical Permit","fiscal_year_issued":"2020","permit_class_mapped":"Residential","remodel_repair_sqft":"0","contractor_address_1":"1902 FLEISCH","contractor_address_2":"AUSTIN TX  7","contractor_full_name":"Bryan K Reed","issued_in_last_30_days":"No","certificate_of_occupancy":"No","property_legal_description":"LOT 4 JUNIPER RIDGE SUBD THE","electrical_valuation_remodel":"$4,500.00"},"geometry":{"type":"Point","coordinates":[-97.80287877,30.29923514]}},{"type":"Feature","properties":{"date":"2018-02-16T05:00:00.000Z","year":2018,"description":"Electrical services for new construction of SF res home. EUD.","metadescription":"EP. New. Electrical services for new construction of SF res home. EUD.. Final. 707 BUTLER CV","address":"707 BUTLER CV","link":"https://abc.austintexas.gov/web/permit/public-search-other?t_detail=1&t_selected_folderrsn=11868525","tcad_id":"0117150441","location":"    (30.29796843, -97.80544755)","day_issued":"FRIDAY","project_id":"11868525","condominium":"No","status_date":"06/26/2020","jurisdiction":"WEST LAKE HILLS FULL PURPOSE","housing_units":"1","contractor_zip":"78745","contractor_city":"Austin","issuance_method":"Permit Center","contractor_phone":"5125633944","contractor_trade":"Electrical Contractor","number_of_floors":"1","permit_type_desc":"Electrical Permit","fiscal_year_issued":"2018","total_new_add_sqft":"4,000","permit_class_mapped":"Residential","contractor_address_2":"2602  McGreg","contractor_full_name":"Jessie Orlando Carrillo","issued_in_last_30_days":"No","certificate_of_occupancy":"No","property_legal_description":"LOT 5 BLK A OVERLOOK AT BUTLER COVE THE"},"geometry":{"type":"Point","coordinates":[-97.80544755,30.29796843]}},{"type":"Feature","properties":{"date":"2017-08-18T04:00:00.000Z","year":2017,"description":"Electrical services for new construction of SF res home. EUD.","metadescription":"EP. New. Electrical services for new construction of SF res home. EUD.. Final. 118 REVEILLE RD","address":"118 REVEILLE RD","link":"https://abc.austintexas.gov/web/permit/public-search-other?t_detail=1&t_selected_folderrsn=11775926","tcad_id":"0111150306","location":"    (30.28325252, -97.80633364)","day_issued":"FRIDAY","project_id":"11775926","condominium":"No","status_date":"07/09/2018","jurisdiction":"WEST LAKE HILLS FULL PURPOSE","housing_units":"1","contractor_zip":"78724","contractor_city":"AUSTIN","issuance_method":"Permit Center","contractor_phone":"5129455592","contractor_trade":"Electrical Contractor","number_of_floors":"1","permit_type_desc":"Electrical Permit","fiscal_year_issued":"2017","total_new_add_sqft":"1,975","permit_class_mapped":"Residential","contractor_address_2":"7500  Inspir","contractor_full_name":"Roy Stephens JR","issued_in_last_30_days":"No","certificate_of_occupancy":"No","property_legal_description":"LOT 9B BLK A RESUB OF LOT 9 SMITH JOE SUBD"},"geometry":{"type":"Point","coordinates":[-97.80633364,30.28325252]}},{"type":"Feature","properties":{"date":"2017-07-31T04:00:00.000Z","year":2017,"description":"Electrical services for new construction of SF res home. EUD.","metadescription":"EP. New. Electrical services for new construction of SF res home. EUD.. Final. 605 HALF MOON CV","address":"605 HALF MOON CV","link":"https://abc.austintexas.gov/web/permit/public-search-other?t_detail=1&t_selected_folderrsn=11764885","tcad_id":"0109130512","location":"    (30.27747986, -97.80105027)","day_issued":"MONDAY","project_id":"11764885","condominium":"No","status_date":"05/25/2018","jurisdiction":"WEST LAKE HILLS ETJ","housing_units":"1","issuance_method":"Permit Center","contractor_phone":"5124609167","contractor_trade":"Electrical Contractor","number_of_floors":"1","permit_type_desc":"Electrical Permit","fiscal_year_issued":"2017","total_new_add_sqft":"3,200","permit_class_mapped":"Residential","contractor_address_1":"P.O. BOX 996","contractor_full_name":"Silvestre Serna","issued_in_last_30_days":"No","certificate_of_occupancy":"No","property_legal_description":"LOT 2 BLK R WESTWOOD SEC 5"},"geometry":{"type":"Point","coordinates":[-97.80105027,30.27747986]}},{"type":"Feature","properties":{"date":"2017-02-23T05:00:00.000Z","year":2017,"description":"Electrical service for new construction of SF res home. EUD.","metadescription":"EP. New. Electrical service for new construction of SF res home. EUD.. Final. 7 ROCKY RIVER CV","address":"7 ROCKY RIVER CV","link":"https://abc.austintexas.gov/web/permit/public-search-other?t_detail=1&t_selected_folderrsn=11678245","tcad_id":"0113130121","location":"    (30.28826467, -97.80137264)","day_issued":"THURSDAY","project_id":"11678245","condominium":"No","status_date":"10/13/2017","jurisdiction":"WEST LAKE HILLS FULL PURPOSE","housing_units":"1","contractor_zip":"78758","contractor_city":"Austin","issuance_method":"Permit Center","contractor_phone":"5127489446","contractor_trade":"Electrical Contractor","number_of_floors":"1","permit_type_desc":"Electrical Permit","fiscal_year_issued":"2017","total_new_add_sqft":"3,315","permit_class_mapped":"Residential","contractor_address_2":"817  McPhaul","contractor_full_name":"Eric Wilkins","issued_in_last_30_days":"No","certificate_of_occupancy":"No","property_legal_description":"LOT 7 ROCKY RIVER COVE"},"geometry":{"type":"Point","coordinates":[-97.80137264,30.28826467]}},{"type":"Feature","properties":{"date":"2017-02-21T05:00:00.000Z","year":2017,"description":"Electrical service for new construction of SF res home. EUD.","metadescription":"EP. New. Electrical service for new construction of SF res home. EUD.. Final. 421 RIDGEWOOD RD","address":"421 RIDGEWOOD RD","link":"https://abc.austintexas.gov/web/permit/public-search-other?t_detail=1&t_selected_folderrsn=11676039","tcad_id":"0111110401","location":"    (30.27861758, -97.78989465)","day_issued":"TUESDAY","project_id":"11676039","condominium":"No","status_date":"12/18/2017","jurisdiction":"WEST LAKE HILLS FULL PURPOSE","housing_units":"1","contractor_zip":"78620","contractor_city":"Dripping Spr","issuance_method":"Permit Center","contractor_phone":"5124315198","contractor_trade":"Electrical Contractor","number_of_floors":"1","permit_type_desc":"Electrical Permit","fiscal_year_issued":"2017","total_new_add_sqft":"3,220","permit_class_mapped":"Residential","contractor_address_1":"100 COMMONS","contractor_address_2":"DRIPPING SPR","contractor_full_name":"Scott Breen","issued_in_last_30_days":"No","certificate_of_occupancy":"No","property_legal_description":"S 45 FT OF LOT 4 *& N 60.05 FT OF LOT 5 RIDGEWOOD VILLAGE SEC 2"},"geometry":{"type":"Point","coordinates":[-97.78989465,30.27861758]}},{"type":"Feature","properties":{"date":"2016-07-22T04:00:00.000Z","year":2016,"description":"Electrical Services for new construction. EUD.","metadescription":"EP. New. Electrical Services for new construction. EUD.. Final. 600 W LEDGEWAY","address":"600 W LEDGEWAY","link":"https://abc.austintexas.gov/web/permit/public-search-other?t_detail=1&t_selected_folderrsn=11568792","tcad_id":"0115150212","location":"    (30.29525396, -97.80698607)","day_issued":"FRIDAY","project_id":"11568792","condominium":"No","status_date":"10/16/2017","jurisdiction":"WEST LAKE HILLS FULL PURPOSE","housing_units":"1","contractor_zip":"78611","contractor_city":"Burnet","issuance_method":"Permit Center","contractor_phone":"5127556580","contractor_trade":"Electrical Contractor","number_of_floors":"1","permit_type_desc":"Electrical Permit","fiscal_year_issued":"2016","total_new_add_sqft":"7,000","permit_class_mapped":"Residential","contractor_address_1":"1409 CR 135","contractor_address_2":"BURNET TX  7","contractor_full_name":"Joshua D. Sierakowski","issued_in_last_30_days":"No","certificate_of_occupancy":"No","property_legal_description":"LOT 6 MORA SUBD"},"geometry":{"type":"Point","coordinates":[-97.80698607,30.29525396]}},{"type":"Feature","properties":{"date":"2016-07-08T04:00:00.000Z","year":2016,"description":"Construction of commercial building. EUD.","metadescription":"EP. New. Construction of commercial building. EUD.. Final. 4300 WESTBANK DR","address":"4300 WESTBANK DR","link":"https://abc.austintexas.gov/web/permit/public-search-other?t_detail=1&t_selected_folderrsn=11562015","tcad_id":"0109210801","location":"    (30.27820367, -97.81727144)","day_issued":"FRIDAY","project_id":"11562015","condominium":"No","status_date":"04/10/2017","jurisdiction":"WEST LAKE HILLS FULL PURPOSE","housing_units":"1","contractor_zip":"78724","contractor_city":"Austin","issuance_method":"Permit Center","contractor_phone":"5129770011","contractor_trade":"Electrical Contractor","number_of_floors":"1","permit_type_desc":"Electrical Permit","fiscal_year_issued":"2016","total_new_add_sqft":"12,460","permit_class_mapped":"Commercial","contractor_address_2":"5103  COMMER","contractor_full_name":"Jerry L Roudebush","issued_in_last_30_days":"No","certificate_of_occupancy":"No","property_legal_description":"LOT 1 BLK A EANES VIEW"},"geometry":{"type":"Point","coordinates":[-97.81727144,30.27820367]}},{"type":"Feature","properties":{"date":"2013-03-14T04:00:00.000Z","year":2013,"description":"New Construction. 2 story 3/3 sfres w 1 car attach garage","metadescription":"MP. New. New Construction. 2 story 3/3 sfres w 1 car attach garage. Final. 1806 LAKESHORE DR","address":"1806 LAKESHORE DR","link":"https://abc.austintexas.gov/web/permit/public-search-other?t_detail=1&t_selected_folderrsn=10764496","tcad_id":"0117110206","location":"    (30.29917136, -97.78937517)","day_issued":"THURSDAY","project_id":"10764496","condominium":"No","status_date":"11/22/2013","jurisdiction":"AUSTIN LTD","housing_units":"1","issuance_method":"Permit Center","contractor_trade":"Mechanical Contractor","number_of_floors":"2","permit_type_desc":"Mechanical Permit","master_permit_num":"10764490","fiscal_year_issued":"2013","total_new_add_sqft":"3,800","permit_class_mapped":"Residential","contractor_full_name":"George Christianson","issued_in_last_30_days":"No","certificate_of_occupancy":"No","property_legal_description":"ABS 21 SUR 1 SPARKS W ACR .4700"},"geometry":{"type":"Point","coordinates":[-97.78937517,30.29917136]}},{"type":"Feature","properties":{"date":"2012-10-12T04:00:00.000Z","year":2012,"description":"Temp meter loop for new construction.","metadescription":"EP. Remodel. Temp meter loop for new construction.. Final. 807 THE HIGH RD","address":"807 THE HIGH RD","link":"https://abc.austintexas.gov/web/permit/public-search-other?t_detail=1&t_selected_folderrsn=10842675","tcad_id":"0121130423","location":"    (30.30886631, -97.79826455)","day_issued":"FRIDAY","project_id":"10842675","condominium":"No","status_date":"01/18/2013","jurisdiction":"AUSTIN 2 MILE ETJ","housing_units":"0","contractor_zip":"78641-____","contractor_city":"Leander","issuance_method":"Permit Center","contractor_phone":"5128453435","contractor_trade":"Electrical Contractor","number_of_floors":"0","permit_type_desc":"Electrical Permit","fiscal_year_issued":"2013","permit_class_mapped":"Residential","contractor_address_2":"11212  Beach","contractor_full_name":"Jason Dupre","issued_in_last_30_days":"No","certificate_of_occupancy":"No","property_legal_description":"LOT 1 LITTLE BEE CREEK FALLS SUBD","electrical_valuation_remodel":"$500.00"},"geometry":{"type":"Point","coordinates":[-97.79826455,30.30886631]}},{"type":"Feature","properties":{"date":"2012-09-13T04:00:00.000Z","year":2012,"description":"New Construction. 2 story 3/3 sfres w 1 car attach garage","metadescription":"EP. New. New Construction. 2 story 3/3 sfres w 1 car attach garage. Final. 1806 LAKESHORE DR","address":"1806 LAKESHORE DR","link":"https://abc.austintexas.gov/web/permit/public-search-other?t_detail=1&t_selected_folderrsn=10764495","tcad_id":"0117110206","location":"    (30.29917136, -97.78937517)","day_issued":"THURSDAY","project_id":"10764495","condominium":"No","status_date":"11/15/2013","jurisdiction":"AUSTIN LTD","housing_units":"1","contractor_zip":"78702","contractor_city":"Austin","issuance_method":"Permit Center","contractor_phone":"5123852588","contractor_trade":"Electrical Contractor","number_of_floors":"2","permit_type_desc":"Electrical Permit","master_permit_num":"10764490","fiscal_year_issued":"2012","total_new_add_sqft":"3,800","permit_class_mapped":"Residential","contractor_address_1":"4701 GONZALE","contractor_address_2":"AUSTIN TX  7","contractor_full_name":"Rudolph B. Vasquez","issued_in_last_30_days":"No","certificate_of_occupancy":"No","property_legal_description":"ABS 21 SUR 1 SPARKS W ACR .4700"},"geometry":{"type":"Point","coordinates":[-97.78937517,30.29917136]}},{"type":"Feature","properties":{"date":"2012-07-13T04:00:00.000Z","year":2012,"description":"New Construction. 2 story 3/3 sfres w 1 car attach garage","metadescription":"PP. New. New Construction. 2 story 3/3 sfres w 1 car attach garage. Final. 1806 LAKESHORE DR","address":"1806 LAKESHORE DR","link":"https://abc.austintexas.gov/web/permit/public-search-other?t_detail=1&t_selected_folderrsn=10764497","tcad_id":"0117110206","location":"    (30.29917136, -97.78937517)","day_issued":"FRIDAY","project_id":"10764497","condominium":"No","status_date":"11/22/2013","jurisdiction":"AUSTIN LTD","housing_units":"1","contractor_zip":"78610","contractor_city":"Buda","issuance_method":"Permit Center","contractor_phone":"5128446750","contractor_trade":"Plumbing Contractor","number_of_floors":"2","permit_type_desc":"Plumbing Permit","master_permit_num":"10764490","fiscal_year_issued":"2012","total_new_add_sqft":"3,800","permit_class_mapped":"Residential","contractor_address_1":"139 HY RD","contractor_address_2":"BUDA TX  786","contractor_full_name":"George Grigar","issued_in_last_30_days":"No","certificate_of_occupancy":"No","property_legal_description":"ABS 21 SUR 1 SPARKS W ACR .4700"},"geometry":{"type":"Point","coordinates":[-97.78937517,30.29917136]}},{"type":"Feature","properties":{"date":"2012-07-10T04:00:00.000Z","year":2012,"description":"New Construction. 2 story 3/3 sfres w 1 car attach garage","metadescription":"BP. New. New Construction. 2 story 3/3 sfres w 1 car attach garage. Final. 1806 LAKESHORE DR","address":"1806 LAKESHORE DR","link":"https://abc.austintexas.gov/web/permit/public-search-other?t_detail=1&t_selected_folderrsn=10764490","tcad_id":"0117110206","location":"    (30.29917136, -97.78937517)","day_issued":"TUESDAY","project_id":"10764490","condominium":"No","status_date":"11/22/2013","jurisdiction":"AUSTIN LTD","applicant_zip":"78745","housing_units":"1","applicant_city":"AUSTIN","contractor_zip":"78745","total_lot_sqft":"11,880","applicant_phone":"5124518050","contractor_city":"AUSTIN","issuance_method":"Permit Center","contractor_phone":"5124518050","contractor_trade":"General Contractor","number_of_floors":"2","permit_type_desc":"Building Permit","master_permit_num":"10738806","fiscal_year_issued":"2012","total_new_add_sqft":"3,800","applicant_address_2":"5609 S CONGR","permit_class_mapped":"Residential","contractor_address_2":"5609 S CONGR","applicant_organization":"Texas Construction Co","issued_in_last_30_days":"No","certificate_of_occupancy":"Yes","property_legal_description":"ABS 21 SUR 1 SPARKS W ACR .4700"},"geometry":{"type":"Point","coordinates":[-97.78937517,30.29917136]}},{"type":"Feature","properties":{"date":"2010-06-15T04:00:00.000Z","year":2010,"description":"Temp meter loop for future new construction. EUD","metadescription":"EP. Remodel. Temp meter loop for future new construction. EUD. Final. 1506 WESTLAKE DR","address":"1506 WESTLAKE DR","link":"https://abc.austintexas.gov/web/permit/public-search-other?t_detail=1&t_selected_folderrsn=10452450","tcad_id":"0117110604","location":"    (30.29660079, -97.79483412)","day_issued":"TUESDAY","project_id":"10452450","condominium":"No","status_date":"06/21/2010","jurisdiction":"WEST LAKE HILLS FULL PURPOSE","housing_units":"0","contractor_zip":"78745","contractor_city":"Austin","issuance_method":"Permit Center","contractor_phone":"5122829966","contractor_trade":"Electrical Contractor","number_of_floors":"0","permit_type_desc":"Electrical Permit","fiscal_year_issued":"2010","permit_class_mapped":"Residential","contractor_address_1":"8606 LEO ST","contractor_address_2":"AUSTIN TX  7","contractor_full_name":"Neill Garner","issued_in_last_30_days":"No","certificate_of_occupancy":"No","property_legal_description":"LOT 1 DRAKER SUBD THE","electrical_valuation_remodel":"$800.00"},"geometry":{"type":"Point","coordinates":[-97.79483412,30.29660079]}},{"type":"Feature","properties":{"date":"2003-02-03T05:00:00.000Z","year":2003,"description":"New Construction Of A Private Resid Boat Dock","metadescription":"BP. New. New Construction Of A Private Resid Boat Dock. Expired. 1615 WESTLAKE DR","address":"1615 WESTLAKE DR","link":"https://abc.austintexas.gov/web/permit/public-search-other?t_detail=1&t_selected_folderrsn=754956","tcad_id":"0117110118","location":"    (30.30013243, -97.79359702)","day_issued":"MONDAY","project_id":"754956","condominium":"No","status_date":"05/07/2007","jurisdiction":"WEST LAKE HILLS FULL PURPOSE","issuance_method":"Permit Center","contractor_phone":"5127914242","contractor_trade":"General Contractor","permit_type_desc":"Building Permit","fiscal_year_issued":"2003","permit_class_mapped":"Commercial","contractor_full_name":"Will Blaney","issued_in_last_30_days":"No","certificate_of_occupancy":"No","property_legal_description":"LOT 2 BLK A STUDER SUBD THE"},"geometry":{"type":"Point","coordinates":[-97.79359702,30.30013243]}},{"type":"Feature","properties":{"date":"2002-07-10T04:00:00.000Z","year":2002,"description":"New Construction Of A 30 X 30 Private Resid Boat Dock","metadescription":"BP. New. New Construction Of A 30 X 30 Private Resid Boat Dock. Final. 1847 WESTLAKE DR","address":"1847 WESTLAKE DR","link":"https://abc.austintexas.gov/web/permit/public-search-other?t_detail=1&t_selected_folderrsn=692503","tcad_id":"0119110701","location":"    (30.30267864, -97.79342859)","day_issued":"WEDNESDAY","project_id":"692503","condominium":"No","status_date":"07/28/2011","jurisdiction":"AUSTIN LTD","contractor_zip":"78746","contractor_city":"Austin","issuance_method":"Permit Center","contractor_phone":"5123282693","contractor_trade":"General Contractor","permit_type_desc":"Building Permit","fiscal_year_issued":"2002","total_new_add_sqft":"900","permit_class_mapped":"Residential","contractor_address_2":"1715 S CAPIT","contractor_full_name":"Vincent G Huebinger","issued_in_last_30_days":"No","certificate_of_occupancy":"No","property_legal_description":"LOT A F & Q SUBD"},"geometry":{"type":"Point","coordinates":[-97.79342859,30.30267864]}},{"type":"Feature","properties":{"date":"1998-02-12T05:00:00.000Z","year":1998,"description":"H & T Loop For New Construction","metadescription":"EP. Remodel. H & T Loop For New Construction. Final. 301 BENT TREE CT","address":"301 BENT TREE CT","link":"https://abc.austintexas.gov/web/permit/public-search-other?t_detail=1&t_selected_folderrsn=4269213","tcad_id":"0111131635","location":"    (30.27889373, -97.79744507)","day_issued":"THURSDAY","project_id":"4269213","condominium":"No","status_date":"05/22/2007","jurisdiction":"WEST LAKE HILLS FULL PURPOSE","housing_units":"1","issuance_method":"Permit Center","permit_type_desc":"Electrical Permit","fiscal_year_issued":"1998","permit_class_mapped":"Residential","issued_in_last_30_days":"No","certificate_of_occupancy":"No","property_legal_description":"UNNUMBERED LOT LAS LOMAS SUBD RESUB OF LOTS 13A&14A BLK C"},"geometry":{"type":"Point","coordinates":[-97.79744507,30.27889373]}},{"type":"Feature","properties":{"date":"1998-02-12T05:00:00.000Z","year":1998,"description":"H & T Loop For New Construction","metadescription":"MP. Remodel. H & T Loop For New Construction. Final. 301 BENT TREE CT","address":"301 BENT TREE CT","link":"https://abc.austintexas.gov/web/permit/public-search-other?t_detail=1&t_selected_folderrsn=3359718","tcad_id":"0111131635","location":"    (30.27889373, -97.79744507)","day_issued":"THURSDAY","project_id":"3359718","condominium":"No","status_date":"05/22/2007","jurisdiction":"WEST LAKE HILLS FULL PURPOSE","housing_units":"1","issuance_method":"Permit Center","permit_type_desc":"Mechanical Permit","master_permit_num":"4269213","fiscal_year_issued":"1998","permit_class_mapped":"Residential","issued_in_last_30_days":"No","certificate_of_occupancy":"No","property_legal_description":"UNNUMBERED LOT LAS LOMAS SUBD RESUB OF LOTS 13A&14A BLK C"},"geometry":{"type":"Point","coordinates":[-97.79744507,30.27889373]}}]}
