{"type":"FeatureCollection","features":[{"type":"Feature","properties":{"date":"2012-07-26T00:00:00.000Z","year":2012,"description":"CH12431B DC CONNECTION TO NEW UPGRADE SYSTEM MODULE.","metadescription":"PERMIT – EXPRESS PERMIT PROGRAM. Electrical Work. CH12431B DC CONNECTION TO NEW UPGRADE SYSTEM MODULE.. COMPLETE. 13550","address":"13560 South INDIANA Avenue, RIVERDALE, IL, RIVERDALE, 60827, US","location":"POINT (-87.617371876353 41.648455029512)","review_type":"EXPRESS PERMIT PROGRAM","street_name":"INDIANA AVE","xcoordinate":"1179925.4936943036","ycoordinate":"1815302.0723040253","subtotal_paid":"$100.00","community_area":"0","contact_1_city":"OAKBROOK","contact_1_name":"INSITE RE, INC.","contact_1_type":"EXPEDITER","contact_2_city":"ELK GROVE","contact_2_name":"DYROS ELECTRIC INC.","contact_2_type":"ELECTRICAL CONTRACTOR","contact_3_city":"OAK BROOK","contact_3_name":"GARNELLO JULIE M","contact_3_type":"APPLICANT","contact_4_city":"OAKBROOK","contact_4_name":"INSITE RE, INC.","contact_4_type":"APPLICANT","other_fee_paid":"$0.00","contact_1_state":"IL","contact_2_state":"IL","contact_3_state":"IL","contact_4_state":"IL","processing_time":"1","subtotal_unpaid":"$0.00","subtotal_waived":"$0.00","zoning_fee_paid":"$0.00","other_fee_unpaid":"$0.00","other_fee_waived":"$0.00","permit_milestone":"COMPLETE","street_direction":"S","building_fee_paid":"$100.00","contact_1_zipcode":"60523","contact_2_zipcode":"60007","contact_3_zipcode":"60523","contact_4_zipcode":"60523","zoning_fee_unpaid":"$0.00","zoning_fee_waived":"$0.00","other_fee_subtotal":"$0","building_fee_unpaid":"$0.00","building_fee_waived":"$0.00","zoning_fee_subtotal":"$0","building_fee_subtotal":"$100"},"geometry":{"type":"Point","coordinates":[-87.617371876,41.64845503]}},{"type":"Feature","properties":{"date":"2007-10-23T00:00:00.000Z","year":2007,"description":"INSTALLATION OF (1) 30 AMP DUAL POLE BREAKER AND CIRCUITS IN EXISTING 200 AMP SERVICE PANEL","metadescription":"PERMIT – EXPRESS PERMIT PROGRAM. Electrical Work. INSTALLATION OF (1) 30 AMP DUAL POLE BREAKER AND CIRCUITS IN EXISTING 200 AMP SERVICE PANEL. COMPLETE. 13550","address":"13560 South INDIANA Avenue, RIVERDALE, IL, RIVERDALE, 60827, US","location":"POINT (-87.617371876353 41.648455029512)","review_type":"EXPRESS PERMIT PROGRAM","street_name":"INDIANA AVE","xcoordinate":"1179925.4936943036","ycoordinate":"1815302.0723040253","subtotal_paid":"$40.00","community_area":"0","contact_1_city":"CHICAGO","contact_1_name":"DIAMOND ELECTRIC COMP., INC.","contact_1_type":"ELECTRICAL CONTRACTOR","contact_2_city":"CHICAGO","contact_2_name":"GARLAND LARRY A","contact_2_type":"APPLICANT","contact_3_city":"CHICAGO","contact_3_name":"DIAMOND ELECTRIC COMP., INC.","contact_3_type":"APPLICANT","other_fee_paid":"$0.00","contact_1_state":"IL","contact_2_state":"IL","contact_3_state":"IL","processing_time":"7","subtotal_unpaid":"$0.00","subtotal_waived":"$0.00","zoning_fee_paid":"$0.00","other_fee_unpaid":"$0.00","other_fee_waived":"$0.00","permit_milestone":"COMPLETE","street_direction":"S","building_fee_paid":"$40.00","contact_1_zipcode":"60631","contact_2_zipcode":"60631","contact_3_zipcode":"60631","zoning_fee_unpaid":"$0.00","zoning_fee_waived":"$0.00","other_fee_subtotal":"$0","building_fee_unpaid":"$0.00","building_fee_waived":"$0.00","zoning_fee_subtotal":"$0","building_fee_subtotal":"$40"},"geometry":{"type":"Point","coordinates":[-87.617371876,41.64845503]}}]}
