{"type":"FeatureCollection","features":[{"type":"Feature","properties":{"date":"2023-03-03T05:00:00.000Z","year":2023,"description":"Demo and upgrade service.","metadescription":"EP. Upgrade. Demo and upgrade service.. Final. 14360 FALCON HEAD BLVD UNIT 140","address":"14360 Falcon Head Boulevard, Austin, TX, 78738, US","link":"https://abc.austintexas.gov/web/permit/public-search-other?t_detail=1&t_selected_folderrsn=13101545","tcad_id":"0125680205","location":"    (30.32420188, -97.95944118)","day_issued":"FRIDAY","project_id":"13101545","condominium":"No","status_date":"08/08/2023","jurisdiction":"BEE CAVE FULL PURPOSE","housing_units":"1","contractor_zip":"78660","contractor_city":"Plugerville","issuance_method":"Permit Center","contractor_phone":"5127443401","contractor_trade":"Electrical Contractor","number_of_floors":"1","permit_type_desc":"Electrical Permit","fiscal_year_issued":"2023","permit_class_mapped":"Commercial","remodel_repair_sqft":"0","contractor_address_2":"15533  North","contractor_full_name":"Luis Lopez","issued_in_last_30_days":"No","certificate_of_occupancy":"No","property_legal_description":"LOT 100A BLK F SPILLMAN RANCH PHS 1 SEC 7 REPLAT OF","electrical_valuation_remodel":"$120,000.00"},"geometry":{"type":"Point","coordinates":[-97.95944118,30.32420188]}}]}
