{"type":"FeatureCollection","features":[{"type":"Feature","properties":{"date":"2002-03-06T05:00:00.000Z","year":2002,"description":"Excavate Under Foundation To Repair Exst. House Drain (Outside City Plbg. Only)\nThird Party Documents Attatched To Bp#05-3941i","metadescription":"PP. Remodel. Excavate Under Foundation To Repair Exst. House Drain (Outside City Plbg. Only)\nThird Party Documents Attatched To Bp#05-3941i. Final. 3204 HAYDEN BND","address":"3204 Hayden Bend, Austin, TX, 78738, US","link":"https://abc.austintexas.gov/web/permit/public-search-other?t_detail=1&t_selected_folderrsn=3739077","tcad_id":"0119550433","location":"    (30.30686794, -97.91898516)","day_issued":"WEDNESDAY","project_id":"3739077","condominium":"No","status_date":"03/05/2007","jurisdiction":"BEE CAVE FULL PURPOSE","contractor_zip":"78216","contractor_city":"San Antonio","issuance_method":"Permit Center","contractor_phone":"2106530823","contractor_trade":"Plumbing Contractor","permit_type_desc":"Plumbing Permit","fiscal_year_issued":"2002","permit_class_mapped":"Residential","contractor_address_1":"118 E.TURBO","contractor_full_name":"Terry Brown","issued_in_last_30_days":"No","certificate_of_occupancy":"No","property_legal_description":"LOT 96 BLK C UPLANDS PHS 2 THE"},"geometry":{"type":"Point","coordinates":[-97.91898516,30.30686794]}},{"type":"Feature","properties":{"date":"2002-02-08T05:00:00.000Z","year":2002,"description":"Resid Excavate Under Foundation Approx 56 To Repair House Drain Outside Coa","metadescription":"PP. Remodel. Resid Excavate Under Foundation Approx 56 To Repair House Drain Outside Coa. Final. 12007 COLLEYVILLE DR","address":"12007 Colleyville Drive, Austin, TX, 78738, US","link":"https://abc.austintexas.gov/web/permit/public-search-other?t_detail=1&t_selected_folderrsn=3738507","tcad_id":"0119580601","location":"    (30.30344455, -97.9299963)","day_issued":"FRIDAY","project_id":"3738507","condominium":"No","status_date":"03/19/2007","jurisdiction":"BEE CAVE FULL PURPOSE","contractor_zip":"78216","contractor_city":"San Antonio","issuance_method":"Permit Center","contractor_phone":"2106530823","contractor_trade":"Plumbing Contractor","permit_type_desc":"Plumbing Permit","fiscal_year_issued":"2002","permit_class_mapped":"Residential","contractor_address_1":"118 E.TURBO","contractor_full_name":"Terry Brown","issued_in_last_30_days":"No","certificate_of_occupancy":"No","property_legal_description":"LOT 2 BLK C UPLANDS PHS 1 THE"},"geometry":{"type":"Point","coordinates":[-97.9299963,30.30344455]}}]}
