{"type":"FeatureCollection","features":[{"type":"Feature","properties":{"date":"2026-04-06T04:00:00.000Z","year":2026,"description":"Austin Energy disconnect needed\nInstallation of new generac generator and service rated automatic transfer switch","metadescription":"EP. Repair. Austin Energy disconnect needed\nInstallation of new generac generator and service rated automatic transfer switch. Active. 16300 ROCKIES RUN SUMMIT","address":"16300 ROCKIES RUN SUMMIT","link":"https://abc.austintexas.gov/web/permit/public-search-other?t_detail=1&t_selected_folderrsn=13678143","tcad_id":"0125800219","location":"    (30.32151443, -97.99654074)","day_issued":"MONDAY","project_id":"13678143","condominium":"No","status_date":"04/06/2026","jurisdiction":"BEE CAVE FULL PURPOSE","housing_units":"1","contractor_zip":"78613-____","contractor_city":"CEDAR PARK","issuance_method":"Permit Center","contractor_phone":"5122014108","contractor_trade":"Electrical Contractor","number_of_floors":"1","permit_type_desc":"Electrical Permit","fiscal_year_issued":"2026","permit_class_mapped":"Residential","remodel_repair_sqft":"0","contractor_address_2":"2020 N BELL","contractor_full_name":"Justin Meyers","issued_in_last_30_days":"No","certificate_of_occupancy":"No","property_legal_description":"LOT 247 BLK C FALCONHEAD WEST PHS 1 SEC 2 & PHS 2","electrical_valuation_remodel":"$6,000.00"},"geometry":{"type":"Point","coordinates":[-97.99654074,30.32151443]}},{"type":"Feature","properties":{"date":"2025-09-29T04:00:00.000Z","year":2025,"description":"24kW whole home generator (Natural Gas) connected to house meter and main panel. Austin Energy disconnect required. (Will Locke)","metadescription":"EP. Repair. 24kW whole home generator (Natural Gas) connected to house meter and main panel. Austin Energy disconnect required. (Will Locke). Final. 10601 POINTE VIEW DR","address":"10601 POINTE VIEW DR","link":"https://abc.austintexas.gov/web/permit/public-search-other?t_detail=1&t_selected_folderrsn=13585601","tcad_id":"0123551101","location":"    (30.31765833, -97.91583678)","day_issued":"MONDAY","project_id":"13585601","condominium":"No","status_date":"11/18/2025","jurisdiction":"BEE CAVE ETJ","housing_units":"1","contractor_zip":"78613-____","contractor_city":"CEDAR PARK","issuance_method":"Permit Center","contractor_phone":"5122014108","contractor_trade":"Electrical Contractor","number_of_floors":"1","permit_type_desc":"Electrical Permit","fiscal_year_issued":"2025","permit_class_mapped":"Residential","remodel_repair_sqft":"0","contractor_address_2":"2020 N BELL","contractor_full_name":"Justin Meyers","issued_in_last_30_days":"No","certificate_of_occupancy":"No","property_legal_description":"LOT 22 BLK A LAKE POINTE SEC 6","electrical_valuation_remodel":"$6,000.00"},"geometry":{"type":"Point","coordinates":[-97.91583678,30.31765833]}},{"type":"Feature","properties":{"date":"2025-07-02T04:00:00.000Z","year":2025,"description":"Disconnect and reconnect of utility power for generator installation","metadescription":"EP. Repair. Disconnect and reconnect of utility power for generator installation. Pending. 3702 S FM 620 RD","address":"3702 S FM 620 RD","link":"https://abc.austintexas.gov/web/permit/public-search-other?t_detail=1&t_selected_folderrsn=13536270","tcad_id":"0123660202","location":"    (30.31760575, -97.95063549)","day_issued":"WEDNESDAY","project_id":"13536270","condominium":"No","status_date":"03/03/2026","jurisdiction":"BEE CAVE FULL PURPOSE","housing_units":"1","contractor_zip":"27703","contractor_city":"Durham","issuance_method":"Permit Center","contractor_phone":"4049982189","contractor_trade":"Electrical Contractor","number_of_floors":"1","permit_type_desc":"Electrical Permit","fiscal_year_issued":"2025","permit_class_mapped":"Commercial","remodel_repair_sqft":"0","contractor_address_2":"4068  Stirru","contractor_full_name":"Timothy Bean","issued_in_last_30_days":"No","certificate_of_occupancy":"No","property_legal_description":"5.2589A OF LOT 3A BLK B HOME DEPOT ADDN THE AMENDED PLAT OF LTS 2&3 BLK B OF REPLAT","electrical_valuation_remodel":"$10,000.00"},"geometry":{"type":"Point","coordinates":[-97.95063549,30.31760575]}},{"type":"Feature","properties":{"date":"2025-04-10T04:00:00.000Z","year":2025,"description":"Request to disconnect - Installing new Service Rated Generac Transfer Switch and Generator. This will require disconnecting and reconnecting power. The Transfer Switch will be placed between the meter and existing house panel. 200 AMP SERVICE with 200 AMP ATS \n\nFull OH Service: Meter Riser and Panel","metadescription":"EP. Repair. Request to disconnect - Installing new Service Rated Generac Transfer Switch and Generator. This will require disconnecting and reconnecting power. The Transfer Switch will be placed between the meter and existing house panel. 200 AMP SERVICE with 200 AMP ATS \n\nFull OH Service: Meter Riser and Panel. Final. 5601 STAGE STOP CIR","address":"5601 STAGE STOP CIR","link":"https://abc.austintexas.gov/web/permit/public-search-other?t_detail=1&t_selected_folderrsn=13496896","tcad_id":"0110770206","location":"    (30.29664915, -97.96444182)","day_issued":"THURSDAY","project_id":"13496896","condominium":"No","status_date":"05/01/2025","jurisdiction":"BEE CAVE FULL PURPOSE","housing_units":"1","contractor_zip":"78758-____","contractor_city":"AUSTIN","issuance_method":"Permit Center","contractor_phone":"5124310414","contractor_trade":"Electrical Contractor","number_of_floors":"1","permit_type_desc":"Electrical Permit","fiscal_year_issued":"2025","permit_class_mapped":"Residential","remodel_repair_sqft":"0","contractor_address_2":"2105  Denton","contractor_full_name":"Donald Childers","issued_in_last_30_days":"No","certificate_of_occupancy":"No","property_legal_description":"LOT 9 BLK D HOMESTEAD SEC 2 THE","electrical_valuation_remodel":"$5,000.00"},"geometry":{"type":"Point","coordinates":[-97.96444182,30.29664915]}},{"type":"Feature","properties":{"date":"2024-10-21T04:00:00.000Z","year":2024,"description":"Request to Disconnect ETJ\nGenerator and (2) Transfer Switch Install\n200A MCB / 150A MCB","metadescription":"EP. Repair. Request to Disconnect ETJ\nGenerator and (2) Transfer Switch Install\n200A MCB / 150A MCB. Final. 11205 GRAZING DEER TRL","address":"11205 GRAZING DEER TRL","link":"https://abc.austintexas.gov/web/permit/public-search-other?t_detail=1&t_selected_folderrsn=13414495","tcad_id":"0110570215","location":"    (30.29321256, -97.92056908)","day_issued":"MONDAY","project_id":"13414495","condominium":"No","status_date":"01/08/2025","jurisdiction":"BEE CAVE ETJ","housing_units":"1","contractor_zip":"78613-____","contractor_city":"CEDAR PARK","issuance_method":"Permit Center","contractor_phone":"5122014108","contractor_trade":"Electrical Contractor","number_of_floors":"1","permit_type_desc":"Electrical Permit","fiscal_year_issued":"2025","permit_class_mapped":"Residential","remodel_repair_sqft":"0","contractor_address_2":"2020 N BELL","contractor_full_name":"Justin Meyers","issued_in_last_30_days":"No","certificate_of_occupancy":"No","property_legal_description":"LOT 2 BLK B PRESERVE AT BARTON CREEK THE","electrical_valuation_remodel":"$7,500.00"},"geometry":{"type":"Point","coordinates":[-97.92056908,30.29321256]}},{"type":"Feature","properties":{"date":"2024-08-16T04:00:00.000Z","year":2024,"description":"Request to Disconnect Installation of a 24kW generator and a 150A automatic transfer switch. Currently has a 150A main breaker on current panel. Service will remain 150A. This is a service only inspection as Austin Energy is the provider.","metadescription":"EP. Repair. Request to Disconnect Installation of a 24kW generator and a 150A automatic transfer switch. Currently has a 150A main breaker on current panel. Service will remain 150A. This is a service only inspection as Austin Energy is the provider.. Final. 3921 VAIL DIVIDE","address":"3921 VAIL DIVIDE","link":"https://abc.austintexas.gov/web/permit/public-search-other?t_detail=1&t_selected_folderrsn=13376192","tcad_id":"0125760142","location":"    (30.32524696, -97.9795783)","day_issued":"FRIDAY","project_id":"13376192","condominium":"No","status_date":"10/31/2024","jurisdiction":"BEE CAVE FULL PURPOSE","housing_units":"1","contractor_zip":"78620","contractor_city":"Dripping Spr","issuance_method":"Permit Center","contractor_phone":"5127500700","contractor_trade":"Electrical Contractor","number_of_floors":"1","permit_type_desc":"Electrical Permit","fiscal_year_issued":"2024","permit_class_mapped":"Residential","remodel_repair_sqft":"0","contractor_address_1":"P O BOX 508","contractor_address_2":"26850  Ranch","contractor_full_name":"Todd Purcell","issued_in_last_30_days":"No","certificate_of_occupancy":"No","property_legal_description":"LOT 24 BLK C FALCONHEAD WEST PHS 1 SEC 1","electrical_valuation_remodel":"$5,000.00"},"geometry":{"type":"Point","coordinates":[-97.9795783,30.32524696]}},{"type":"Feature","properties":{"date":"2024-07-19T04:00:00.000Z","year":2024,"description":"26kw whole home generator (Natural Gas) connected to house meter and main panel. Address is ETJ but an AE disconnect will be required so we need a permit. (Barry Anderson)","metadescription":"EP. Repair. 26kw whole home generator (Natural Gas) connected to house meter and main panel. Address is ETJ but an AE disconnect will be required so we need a permit. (Barry Anderson). Final. 16112 MARITIME ALPS WAY","address":"16112 MARITIME ALPS WAY","link":"https://abc.austintexas.gov/web/permit/public-search-other?t_detail=1&t_selected_folderrsn=13361170","tcad_id":"0123800303","location":"    (30.32048656, -97.9932624)","day_issued":"FRIDAY","project_id":"13361170","condominium":"No","status_date":"12/12/2024","jurisdiction":"BEE CAVE FULL PURPOSE","housing_units":"1","contractor_zip":"78645-____","contractor_city":"JONESTOWN","issuance_method":"Permit Center","contractor_phone":"5124503271","contractor_trade":"Electrical Contractor","number_of_floors":"1","permit_type_desc":"Electrical Permit","fiscal_year_issued":"2024","permit_class_mapped":"Residential","remodel_repair_sqft":"0","contractor_address_2":"188221  DOUB","contractor_full_name":"Vico Garcia","issued_in_last_30_days":"No","certificate_of_occupancy":"No","property_legal_description":"LOT 215 BLK C FALCONHEAD WEST PHS 1 SEC 2 & PHS 2","electrical_valuation_remodel":"$5,000.00"},"geometry":{"type":"Point","coordinates":[-97.9932624,30.32048656]}},{"type":"Feature","properties":{"date":"2024-06-14T04:00:00.000Z","year":2024,"description":"26kw whole home generator (Natural Gas) connected to house meter and main panel. This property is ETJ but WILL REQUIRE AN AE DISCONNECT which is the reason for the Austin permit. (Daniel Pavilones)","metadescription":"EP. Repair. 26kw whole home generator (Natural Gas) connected to house meter and main panel. This property is ETJ but WILL REQUIRE AN AE DISCONNECT which is the reason for the Austin permit. (Daniel Pavilones). Final. 15712 COLINAS CV","address":"15712 COLINAS CV","link":"https://abc.austintexas.gov/web/permit/public-search-other?t_detail=1&t_selected_folderrsn=13344334","tcad_id":"0121781005","location":"    (30.31054999, -97.99190262)","day_issued":"FRIDAY","project_id":"13344334","condominium":"No","status_date":"06/24/2024","jurisdiction":"BEE CAVE ETJ","housing_units":"1","contractor_zip":"78645-____","contractor_city":"JONESTOWN","issuance_method":"Permit Center","contractor_phone":"5124503271","contractor_trade":"Electrical Contractor","number_of_floors":"1","permit_type_desc":"Electrical Permit","fiscal_year_issued":"2024","permit_class_mapped":"Residential","remodel_repair_sqft":"0","contractor_address_2":"188221  DOUB","contractor_full_name":"Vico Garcia","issued_in_last_30_days":"No","certificate_of_occupancy":"No","property_legal_description":"LOT 63 BLK F BELLA COLINAS SECS 345 & 6","electrical_valuation_remodel":"$6,000.00"},"geometry":{"type":"Point","coordinates":[-97.99190262,30.31054999]}},{"type":"Feature","properties":{"date":"2024-06-03T04:00:00.000Z","year":2024,"description":"REQUEST TO DISCONNECT. Installing generator with ATS using AE disconnect program.","metadescription":"EP. Repair. REQUEST TO DISCONNECT. Installing generator with ATS using AE disconnect program.. Final. 5000 HIGH CANYON PASS","address":"5000 HIGH CANYON PASS","link":"https://abc.austintexas.gov/web/permit/public-search-other?t_detail=1&t_selected_folderrsn=13331159","tcad_id":"0118670609","location":"    (30.30282292, -97.95936167)","day_issued":"MONDAY","project_id":"13331159","condominium":"No","status_date":"06/26/2024","jurisdiction":"BEE CAVE FULL PURPOSE","housing_units":"1","contractor_zip":"27612","contractor_city":"Raleigh","issuance_method":"Permit Center","contractor_phone":"9197823278","contractor_trade":"Electrical Contractor","number_of_floors":"1","permit_type_desc":"Electrical Permit","fiscal_year_issued":"2024","permit_class_mapped":"Residential","remodel_repair_sqft":"0","contractor_address_2":"6613  FLEETW","contractor_full_name":"David Martin","issued_in_last_30_days":"No","certificate_of_occupancy":"No","property_legal_description":"LOT 10 BLK B HOMESTEAD SEC 4 THE","electrical_valuation_remodel":"$2,700.00"},"geometry":{"type":"Point","coordinates":[-97.95936167,30.30282292]}},{"type":"Feature","properties":{"date":"2024-03-07T05:00:00.000Z","year":2024,"description":"Transfer switch and generator install.  Need temp disconnect from Austin Energy and service only inspection.","metadescription":"EP. Repair. Transfer switch and generator install.  Need temp disconnect from Austin Energy and service only inspection.. Final. 13504 COURI PASS","address":"13504 COURI PASS","link":"https://abc.austintexas.gov/web/permit/public-search-other?t_detail=1&t_selected_folderrsn=13291068","tcad_id":"0110770202","location":"    (30.2951055, -97.96365569)","day_issued":"THURSDAY","project_id":"13291068","condominium":"No","status_date":"03/18/2024","jurisdiction":"BEE CAVE FULL PURPOSE","housing_units":"1","contractor_zip":"78620","contractor_city":"Dripping Spr","issuance_method":"Permit Center","contractor_phone":"5127500700","contractor_trade":"Electrical Contractor","number_of_floors":"1","permit_type_desc":"Electrical Permit","fiscal_year_issued":"2024","permit_class_mapped":"Residential","remodel_repair_sqft":"0","contractor_address_1":"P O BOX 508","contractor_address_2":"26850  Ranch","contractor_full_name":"Todd Purcell","issued_in_last_30_days":"No","certificate_of_occupancy":"No","property_legal_description":"LOT 5 BLK D HOMESTEAD SEC 2 THE","electrical_valuation_remodel":"$5,000.00"},"geometry":{"type":"Point","coordinates":[-97.96365569,30.2951055]}},{"type":"Feature","properties":{"date":"2024-02-05T05:00:00.000Z","year":2024,"description":"Installing new disconnect with automatic transfer switch for future generator. No meter work required","metadescription":"EP. Repair. Installing new disconnect with automatic transfer switch for future generator. No meter work required. Expired. 14525 HAMILTON POOL RD","address":"14525 HAMILTON POOL RD","link":"https://abc.austintexas.gov/web/permit/public-search-other?t_detail=1&t_selected_folderrsn=13272121","tcad_id":"0118770450","location":"    (30.30673284, -97.97002962)","day_issued":"MONDAY","project_id":"13272121","condominium":"No","status_date":"02/02/2025","jurisdiction":"BEE CAVE FULL PURPOSE","housing_units":"1","contractor_zip":"78734","contractor_city":"Lakeway","issuance_method":"Permit Center","contractor_phone":"5122618866","contractor_trade":"Electrical Contractor","number_of_floors":"1","permit_type_desc":"Electrical Permit","fiscal_year_issued":"2024","permit_class_mapped":"Residential","remodel_repair_sqft":"0","contractor_address_2":"1909  Ranch","contractor_full_name":"James Harris","issued_in_last_30_days":"No","certificate_of_occupancy":"No","property_legal_description":"LOT 12 MEADOWFOX ESTATES (1-D-1B)","electrical_valuation_remodel":"$1,000.00"},"geometry":{"type":"Point","coordinates":[-97.97002962,30.30673284]}},{"type":"Feature","properties":{"date":"2024-01-09T05:00:00.000Z","year":2024,"description":"installing a whole home standby generator with an automatic transfer switch","metadescription":"EP. Repair. installing a whole home standby generator with an automatic transfer switch. Final. 15725 DE FORTUNA DR","address":"15725 DE FORTUNA DR","link":"https://abc.austintexas.gov/web/permit/public-search-other?t_detail=1&t_selected_folderrsn=13262839","tcad_id":"0121800602","location":"    (30.31042663, -97.99252689)","day_issued":"TUESDAY","project_id":"13262839","condominium":"No","status_date":"02/21/2024","jurisdiction":"BEE CAVE ETJ","housing_units":"1","contractor_zip":"78664-____","contractor_city":"ROUND ROCK","issuance_method":"Permit Center","contractor_phone":"5122725000","contractor_trade":"Electrical Contractor","number_of_floors":"1","permit_type_desc":"Electrical Permit","fiscal_year_issued":"2024","permit_class_mapped":"Residential","remodel_repair_sqft":"0","contractor_address_2":"3804  BENT B","contractor_full_name":"Justin Garza","issued_in_last_30_days":"No","certificate_of_occupancy":"No","property_legal_description":"LOT 73 BLK F BELLA COLINAS SEC 1","electrical_valuation_remodel":"$7,160.00"},"geometry":{"type":"Point","coordinates":[-97.99252689,30.31042663]}},{"type":"Feature","properties":{"date":"2024-01-09T05:00:00.000Z","year":2024,"description":"installing a dedicated gas line for a whole standby generator","metadescription":"PP. Repair. installing a dedicated gas line for a whole standby generator. Final. 15725 DE FORTUNA DR","address":"15725 DE FORTUNA DR","link":"https://abc.austintexas.gov/web/permit/public-search-other?t_detail=1&t_selected_folderrsn=13262842","tcad_id":"0121800602","location":"    (30.31042663, -97.99252689)","day_issued":"TUESDAY","project_id":"13262842","condominium":"No","status_date":"01/29/2024","jurisdiction":"BEE CAVE ETJ","housing_units":"1","contractor_zip":"78664-____","contractor_city":"ROUND ROCK","issuance_method":"Permit Center","contractor_phone":"5122725000","contractor_trade":"Plumbing Contractor","number_of_floors":"1","permit_type_desc":"Plumbing Permit","fiscal_year_issued":"2024","permit_class_mapped":"Residential","remodel_repair_sqft":"4,800","contractor_address_2":"3804  BENT B","contractor_full_name":"Brian Sylvester","issued_in_last_30_days":"No","certificate_of_occupancy":"No","property_legal_description":"LOT 73 BLK F BELLA COLINAS SEC 1"},"geometry":{"type":"Point","coordinates":[-97.99252689,30.31042663]}},{"type":"Feature","properties":{"date":"2023-10-10T04:00:00.000Z","year":2023,"description":"installing standby generator \nDisconnect / Reconnect","metadescription":"EP. Repair. installing standby generator \nDisconnect / Reconnect. Final. 16008 VILLA FRONTERA DR","address":"16008 VILLA FRONTERA DR","link":"https://abc.austintexas.gov/web/permit/public-search-other?t_detail=1&t_selected_folderrsn=13219014","tcad_id":"0121800540","location":"    (30.31063813, -97.99658222)","day_issued":"TUESDAY","project_id":"13219014","condominium":"No","status_date":"12/18/2023","jurisdiction":"BEE CAVE ETJ","housing_units":"1","contractor_zip":"77511","contractor_city":"Alvin","issuance_method":"Permit Center","contractor_phone":"5123616823","contractor_trade":"Electrical Contractor","number_of_floors":"1","permit_type_desc":"Electrical Permit","fiscal_year_issued":"2024","permit_class_mapped":"Residential","remodel_repair_sqft":"0","contractor_address_2":"1709 E South","contractor_full_name":"Timothy Oliff","issued_in_last_30_days":"No","certificate_of_occupancy":"No","property_legal_description":"LOT 41 BLK H BELLA COLINAS SEC 78& 9","electrical_valuation_remodel":"$800.00"},"geometry":{"type":"Point","coordinates":[-97.99658222,30.31063813]}},{"type":"Feature","properties":{"date":"2023-10-05T04:00:00.000Z","year":2023,"description":"Installation of new 24KW permanent whole home generator (Natural Gas) connected to house meter and main panel. No meter can required. (Dan Putnam)","metadescription":"EP. Repair. Installation of new 24KW permanent whole home generator (Natural Gas) connected to house meter and main panel. No meter can required. (Dan Putnam). Final. 16017 VILLA FRONTERA DR","address":"16017 VILLA FRONTERA DR","link":"https://abc.austintexas.gov/web/permit/public-search-other?t_detail=1&t_selected_folderrsn=13220012","tcad_id":"0121800701","location":"    (30.31026717, -97.99614744)","day_issued":"THURSDAY","project_id":"13220012","condominium":"No","status_date":"01/05/2024","jurisdiction":"BEE CAVE ETJ","housing_units":"1","contractor_zip":"78645-____","contractor_city":"JONESTOWN","issuance_method":"Permit Center","contractor_phone":"5124503271","contractor_trade":"Electrical Contractor","number_of_floors":"1","permit_type_desc":"Electrical Permit","fiscal_year_issued":"2024","permit_class_mapped":"Residential","remodel_repair_sqft":"2","contractor_address_2":"188221  DOUB","contractor_full_name":"Vico Garcia","issued_in_last_30_days":"No","certificate_of_occupancy":"No","property_legal_description":"LOT 12 BLK J BELLA COLINAS SEC 78& 9","electrical_valuation_remodel":"$6,429.00"},"geometry":{"type":"Point","coordinates":[-97.99614744,30.31026717]}},{"type":"Feature","properties":{"date":"2023-08-10T04:00:00.000Z","year":2023,"description":"**request to disconnect** install 200 amp ATS install 24kw generator","metadescription":"EP. Repair. **request to disconnect** install 200 amp ATS install 24kw generator. Final. 16001 SPILLMAN RANCH LOOP","address":"16001 SPILLMAN RANCH LOOP","link":"https://abc.austintexas.gov/web/permit/public-search-other?t_detail=1&t_selected_folderrsn=13188360","tcad_id":"0125730103","location":"    (30.32204541, -97.97298007)","day_issued":"THURSDAY","project_id":"13188360","condominium":"No","status_date":"09/06/2023","jurisdiction":"BEE CAVE FULL PURPOSE","housing_units":"1","contractor_zip":"78724-____","contractor_city":"AUSTIN","issuance_method":"Permit Center","contractor_phone":"5122936828","contractor_trade":"Electrical Contractor","number_of_floors":"1","permit_type_desc":"Electrical Permit","fiscal_year_issued":"2023","permit_class_mapped":"Residential","remodel_repair_sqft":"0","contractor_address_2":"5817  BERRYL","contractor_full_name":"Matt Hurtado","issued_in_last_30_days":"No","certificate_of_occupancy":"No","property_legal_description":"LOT 38 BLK F SPILLMAN RANCH PHS 2 SEC 1","electrical_valuation_remodel":"$2,400.00"},"geometry":{"type":"Point","coordinates":[-97.97298007,30.32204541]}},{"type":"Feature","properties":{"date":"2023-07-17T04:00:00.000Z","year":2023,"description":"Shutdown required for installation of generator and ATS.\nRequest to disconnect.\n\nInstalling a 200 Amp ATS between the existing meter and existing MDP.","metadescription":"EP. Repair. Shutdown required for installation of generator and ATS.\nRequest to disconnect.\n\nInstalling a 200 Amp ATS between the existing meter and existing MDP.. Final. 3701 KENORA CT","address":"3701 KENORA CT","link":"https://abc.austintexas.gov/web/permit/public-search-other?t_detail=1&t_selected_folderrsn=13173673","tcad_id":"0119580525","location":"    (30.30634724, -97.92580979)","day_issued":"MONDAY","project_id":"13173673","condominium":"No","status_date":"09/22/2023","jurisdiction":"BEE CAVE FULL PURPOSE","housing_units":"1","contractor_zip":"78650","contractor_city":"McDade","issuance_method":"Permit Center","contractor_phone":"9088720798","contractor_trade":"Electrical Contractor","number_of_floors":"1","permit_type_desc":"Electrical Permit","fiscal_year_issued":"2023","permit_class_mapped":"Residential","remodel_repair_sqft":"0","contractor_address_2":"2085  CR 311","contractor_full_name":"Jason Kalafut","issued_in_last_30_days":"No","certificate_of_occupancy":"No","property_legal_description":"LOT 53 BLK C UPLANDS PHS 1 THE","electrical_valuation_remodel":"$4,000.00"},"geometry":{"type":"Point","coordinates":[-97.92580979,30.30634724]}},{"type":"Feature","properties":{"date":"2023-05-22T04:00:00.000Z","year":2023,"description":"Installation of generac generator and automatic transfer switch","metadescription":"EP. Repair. Installation of generac generator and automatic transfer switch. Final. 14805 FOXFIELD CV","address":"14805 FOXFIELD CV","link":"https://abc.austintexas.gov/web/permit/public-search-other?t_detail=1&t_selected_folderrsn=13140403","tcad_id":"0119760107","location":"    (30.30554159, -97.97897489)","day_issued":"MONDAY","project_id":"13140403","condominium":"No","status_date":"10/30/2023","jurisdiction":"BEE CAVE FULL PURPOSE","housing_units":"1","contractor_zip":"11803-____","contractor_city":"Plainview","issuance_method":"Permit Center","contractor_phone":"5127862865","contractor_trade":"Electrical Contractor","number_of_floors":"1","permit_type_desc":"Electrical Permit","fiscal_year_issued":"2023","permit_class_mapped":"Residential","remodel_repair_sqft":"0","contractor_address_2":"100  Newton","contractor_full_name":"Timothy J Linahan","issued_in_last_30_days":"No","certificate_of_occupancy":"No","property_legal_description":"LOT 7 BLK A SPRING CREEK ESTATES PHS ONE (1-D-1W)","electrical_valuation_remodel":"$5,000.00"},"geometry":{"type":"Point","coordinates":[-97.97897489,30.30554159]}},{"type":"Feature","properties":{"date":"2023-05-11T04:00:00.000Z","year":2023,"description":"EUD Installing Standby Generator  disconnect/reconnect needed","metadescription":"EP. Repair. EUD Installing Standby Generator  disconnect/reconnect needed. Final. 11216 SOLITARY FAWN TRL","address":"11216 SOLITARY FAWN TRL","link":"https://abc.austintexas.gov/web/permit/public-search-other?t_detail=1&t_selected_folderrsn=13137797","tcad_id":"0118570213","location":"    (30.29758112, -97.91829518)","day_issued":"THURSDAY","project_id":"13137797","condominium":"No","status_date":"10/09/2023","jurisdiction":"BEE CAVE ETJ","housing_units":"1","contractor_zip":"77511","contractor_city":"Alvin","issuance_method":"Permit Center","contractor_phone":"5123616823","contractor_trade":"Electrical Contractor","number_of_floors":"1","permit_type_desc":"Electrical Permit","fiscal_year_issued":"2023","permit_class_mapped":"Residential","remodel_repair_sqft":"0","contractor_address_2":"1709 E South","contractor_full_name":"Timothy Oliff","issued_in_last_30_days":"No","certificate_of_occupancy":"No","property_legal_description":"LOT 18 BLK B PRESERVE AT BARTON CREEK THE","electrical_valuation_remodel":"$800.00"},"geometry":{"type":"Point","coordinates":[-97.91829518,30.29758112]}},{"type":"Feature","properties":{"date":"2023-05-11T04:00:00.000Z","year":2023,"description":"EUD installing standby generator disconnect/reconnect needed.","metadescription":"EP. Repair. EUD installing standby generator disconnect/reconnect needed.. Final. 15603 HAMILTON POOL RD","address":"15603 HAMILTON POOL RD","link":"https://abc.austintexas.gov/web/permit/public-search-other?t_detail=1&t_selected_folderrsn=13137763","tcad_id":"0118770488","location":"    (30.3049828, -97.99155908)","day_issued":"THURSDAY","project_id":"13137763","condominium":"No","status_date":"10/06/2023","jurisdiction":"BEE CAVE FULL PURPOSE","housing_units":"1","contractor_zip":"77511","contractor_city":"Alvin","issuance_method":"Permit Center","contractor_phone":"5123616823","contractor_trade":"Electrical Contractor","number_of_floors":"1","permit_type_desc":"Electrical Permit","fiscal_year_issued":"2023","permit_class_mapped":"Residential","remodel_repair_sqft":"0","contractor_address_2":"1709 E South","contractor_full_name":"Timothy Oliff","issued_in_last_30_days":"No","certificate_of_occupancy":"No","property_legal_description":"ABS 699 SUR 808 SMITH W B D ACR 4.038","electrical_valuation_remodel":"$800.00"},"geometry":{"type":"Point","coordinates":[-97.99155908,30.3049828]}},{"type":"Feature","properties":{"date":"2023-04-07T04:00:00.000Z","year":2023,"description":"Request to disconnect.Requesting a temporary power disconnect from Austin Energy - Installation of a new Briggs & Stratton 26KW backup generator and 200 Amp SE Rated Automatic Transfer Switch for home residence power backup. Generator will be installed on new 3 composite concrete pad. Generator will have new natural gas line run from meter to new generator. Automatic Transfer switch will be connected to existing 200A Main Electrical Panel and new generator.","metadescription":"EP. Repair. Request to disconnect.Requesting a temporary power disconnect from Austin Energy - Installation of a new Briggs & Stratton 26KW backup generator and 200 Amp SE Rated Automatic Transfer Switch for home residence power backup. Generator will be installed on new 3 composite concrete pad. Generator will have new natural gas line run from meter to new generator. Automatic Transfer switch will be connected to existing 200A Main Electrical Panel and new generator.. Final. 4212 VAIL DIVIDE","address":"4212 VAIL DIVIDE","link":"https://abc.austintexas.gov/web/permit/public-search-other?t_detail=1&t_selected_folderrsn=12970200","tcad_id":"0125760163","location":"    (30.3226583, -97.97894084)","day_issued":"FRIDAY","project_id":"12970200","condominium":"No","status_date":"05/03/2023","jurisdiction":"BEE CAVE FULL PURPOSE","housing_units":"1","contractor_zip":"78660","contractor_city":"PFLUGERVILLE","issuance_method":"Permit Center","contractor_phone":"5127835806","contractor_trade":"Electrical Contractor","number_of_floors":"1","permit_type_desc":"Electrical Permit","fiscal_year_issued":"2023","permit_class_mapped":"Residential","remodel_repair_sqft":"0","contractor_address_2":"3420  windin","contractor_full_name":"Lucian Kuqi","issued_in_last_30_days":"No","certificate_of_occupancy":"No","property_legal_description":"LOT 46 BLK C FALCONHEAD WEST PHS 1 SEC 1","electrical_valuation_remodel":"$6,398.00"},"geometry":{"type":"Point","coordinates":[-97.97894084,30.3226583]}},{"type":"Feature","properties":{"date":"2023-04-06T04:00:00.000Z","year":2023,"description":"Install generator and transfer switch at residence in Bee Cave.  Provider is Austin Energy so we will only need inspection of the service for the reconnect.  City of Bee Cave will inspect the rest.","metadescription":"EP. Repair. Install generator and transfer switch at residence in Bee Cave.  Provider is Austin Energy so we will only need inspection of the service for the reconnect.  City of Bee Cave will inspect the rest.. Final. 3916 VINALOPO DR","address":"3916 VINALOPO DR","link":"https://abc.austintexas.gov/web/permit/public-search-other?t_detail=1&t_selected_folderrsn=13117848","tcad_id":"0123700147","location":"    (30.31664961, -97.96329781)","day_issued":"THURSDAY","project_id":"13117848","condominium":"No","status_date":"09/05/2023","jurisdiction":"BEE CAVE FULL PURPOSE","housing_units":"1","contractor_zip":"78620","contractor_city":"Dripping Spr","issuance_method":"Permit Center","contractor_phone":"5127500700","contractor_trade":"Electrical Contractor","number_of_floors":"1","permit_type_desc":"Electrical Permit","fiscal_year_issued":"2023","permit_class_mapped":"Residential","remodel_repair_sqft":"0","contractor_address_1":"P O BOX 508","contractor_address_2":"26850  Ranch","contractor_full_name":"Todd Purcell","issued_in_last_30_days":"No","certificate_of_occupancy":"No","property_legal_description":"LOT 15 BLK B LADERA PHS 3A","electrical_valuation_remodel":"$5,000.00"},"geometry":{"type":"Point","coordinates":[-97.96329781,30.31664961]}},{"type":"Feature","properties":{"date":"2023-02-27T05:00:00.000Z","year":2023,"description":"Gas pipe install for home generator","metadescription":"PP. Repair. Gas pipe install for home generator. Final. 5624 SOMBRIA CT","address":"5624 SOMBRIA CT","link":"https://abc.austintexas.gov/web/permit/public-search-other?t_detail=1&t_selected_folderrsn=13082514","tcad_id":"0121781025","location":"    (30.31185762, -97.98730955)","day_issued":"MONDAY","project_id":"13082514","condominium":"No","status_date":"03/01/2023","jurisdiction":"BEE CAVE FULL PURPOSE","housing_units":"1","contractor_zip":"78613","contractor_city":"CEDAR PARK","issuance_method":"Permit Center","contractor_phone":"512","contractor_trade":"Plumbing Contractor","number_of_floors":"0","permit_type_desc":"Plumbing Permit","fiscal_year_issued":"2023","permit_class_mapped":"Residential","remodel_repair_sqft":"4,928","contractor_address_2":"1507  Rimsto","contractor_full_name":"Michaell See","issued_in_last_30_days":"No","certificate_of_occupancy":"No","property_legal_description":"LOT 50 SIGNAL HILL SUBD FINAL PLAT"},"geometry":{"type":"Point","coordinates":[-97.98730955,30.31185762]}},{"type":"Feature","properties":{"date":"2022-10-12T04:00:00.000Z","year":2022,"description":"*REQUEST TO DISCONNECT*\nInstallation of new 38kW permanent whole home generator (Natural Gas) connected to house meter and main panel. No meter can required (Levine Matt)","metadescription":"EP. Repair. *REQUEST TO DISCONNECT*\nInstallation of new 38kW permanent whole home generator (Natural Gas) connected to house meter and main panel. No meter can required (Levine Matt). Final. 5624 SOMBRIA CT","address":"5624 SOMBRIA CT","link":"https://abc.austintexas.gov/web/permit/public-search-other?t_detail=1&t_selected_folderrsn=13032084","tcad_id":"0121781025","location":"    (30.31185762, -97.98730955)","day_issued":"WEDNESDAY","project_id":"13032084","condominium":"No","status_date":"04/26/2023","jurisdiction":"BEE CAVE FULL PURPOSE","housing_units":"1","contractor_zip":"78645-____","contractor_city":"JONESTOWN","issuance_method":"Permit Center","contractor_phone":"5124503271","contractor_trade":"Electrical Contractor","number_of_floors":"1","permit_type_desc":"Electrical Permit","fiscal_year_issued":"2023","permit_class_mapped":"Residential","remodel_repair_sqft":"0","contractor_address_2":"188221  DOUB","contractor_full_name":"Vico Garcia","issued_in_last_30_days":"No","certificate_of_occupancy":"No","property_legal_description":"LOT 50 SIGNAL HILL SUBD FINAL PLAT","electrical_valuation_remodel":"$13,398.00"},"geometry":{"type":"Point","coordinates":[-97.98730955,30.31185762]}},{"type":"Feature","properties":{"date":"2022-04-15T04:00:00.000Z","year":2022,"description":"Installing generator","metadescription":"EP. Repair. Installing generator. Final. 5304 GREAT DIVIDE DR","address":"5304 GREAT DIVIDE DR","link":"https://abc.austintexas.gov/web/permit/public-search-other?t_detail=1&t_selected_folderrsn=12915944","tcad_id":"0110670314","location":"    (30.2960715, -97.95611756)","day_issued":"FRIDAY","project_id":"12915944","condominium":"No","status_date":"05/12/2022","jurisdiction":"BEE CAVE FULL PURPOSE","housing_units":"1","contractor_zip":"78620","contractor_city":"Dripping Spr","issuance_method":"Permit Center","contractor_phone":"5127500700","contractor_trade":"Electrical Contractor","number_of_floors":"1","permit_type_desc":"Electrical Permit","fiscal_year_issued":"2022","permit_class_mapped":"Residential","remodel_repair_sqft":"0","contractor_address_1":"P O BOX 508","contractor_address_2":"26850  Ranch","contractor_full_name":"Todd Purcell","issued_in_last_30_days":"No","certificate_of_occupancy":"No","property_legal_description":"LOT 17 BLK B HOMESTEAD THE","electrical_valuation_remodel":"$1,000.00"},"geometry":{"type":"Point","coordinates":[-97.95611756,30.2960715]}},{"type":"Feature","properties":{"date":"2022-04-04T04:00:00.000Z","year":2022,"description":"Install automatic transfer switch and generator circuits[disconnect and reconnect ]","metadescription":"EP. Repair. Install automatic transfer switch and generator circuits[disconnect and reconnect ]. Withdrawn. 13922 LONE RIDER TRL","address":"13922 LONE RIDER TRL","link":"https://abc.austintexas.gov/web/permit/public-search-other?t_detail=1&t_selected_folderrsn=12898080","tcad_id":"0118770472","location":"    (30.30028856, -97.96910665)","day_issued":"MONDAY","project_id":"12898080","condominium":"No","status_date":"04/07/2022","jurisdiction":"BEE CAVE FULL PURPOSE","housing_units":"1","contractor_zip":"78757","contractor_city":"AUSTIN","issuance_method":"Permit Center","contractor_phone":"5126792409","contractor_trade":"Electrical Contractor","number_of_floors":"1","permit_type_desc":"Electrical Permit","fiscal_year_issued":"2022","permit_class_mapped":"Residential","remodel_repair_sqft":"0","contractor_address_2":"2107  MUROC","contractor_full_name":"Chas West","issued_in_last_30_days":"No","certificate_of_occupancy":"No","property_legal_description":"LOT 11 MEADOWFOX ESTATES RESUB OF LOTS 1-11","electrical_valuation_remodel":"$6,500.00"},"geometry":{"type":"Point","coordinates":[-97.96910665,30.30028856]}},{"type":"Feature","properties":{"date":"2022-02-17T05:00:00.000Z","year":2022,"description":"Installing standby generator and tying in transfer switch (John Bollier)","metadescription":"EP. Repair. Installing standby generator and tying in transfer switch (John Bollier). Final. 5300 AVISPA WAY","address":"5300 AVISPA WAY","link":"https://abc.austintexas.gov/web/permit/public-search-other?t_detail=1&t_selected_folderrsn=12867761","tcad_id":"0118770505","location":"    (30.3099711, -97.98041367)","day_issued":"THURSDAY","project_id":"12867761","condominium":"No","status_date":"01/12/2023","jurisdiction":"BEE CAVE FULL PURPOSE","housing_units":"1","contractor_zip":"77511","contractor_city":"Alvin","issuance_method":"Permit Center","contractor_phone":"5123616823","contractor_trade":"Electrical Contractor","number_of_floors":"1","permit_type_desc":"Electrical Permit","fiscal_year_issued":"2022","permit_class_mapped":"Residential","remodel_repair_sqft":"0","contractor_address_2":"1709 E South","contractor_full_name":"Timothy Oliff","issued_in_last_30_days":"No","certificate_of_occupancy":"No","property_legal_description":"LOT 25A AVISPA ADDN MH S#12307447","electrical_valuation_remodel":"$800.00"},"geometry":{"type":"Point","coordinates":[-97.98041367,30.3099711]}},{"type":"Feature","properties":{"date":"2022-01-04T05:00:00.000Z","year":2022,"description":"Installing 400A Rated ATS for a 35kw Generator","metadescription":"EP. Repair. Installing 400A Rated ATS for a 35kw Generator. Withdrawn. 13922 LONE RIDER TRL","address":"13922 LONE RIDER TRL","link":"https://abc.austintexas.gov/web/permit/public-search-other?t_detail=1&t_selected_folderrsn=12851780","tcad_id":"0118770472","location":"    (30.30028856, -97.96910665)","day_issued":"TUESDAY","project_id":"12851780","condominium":"No","status_date":"01/18/2022","jurisdiction":"BEE CAVE FULL PURPOSE","housing_units":"1","contractor_zip":"78640","contractor_city":"Kyle","issuance_method":"Permit Center","contractor_phone":"8304910217","contractor_trade":"Electrical Contractor","number_of_floors":"1","permit_type_desc":"Electrical Permit","fiscal_year_issued":"2022","permit_class_mapped":"Residential","remodel_repair_sqft":"0","contractor_address_2":"1409  Graef","contractor_full_name":"MICHAEL BROWN","issued_in_last_30_days":"No","certificate_of_occupancy":"No","property_legal_description":"LOT 11 MEADOWFOX ESTATES RESUB OF LOTS 1-11","electrical_valuation_remodel":"$7,623.00"},"geometry":{"type":"Point","coordinates":[-97.96910665,30.30028856]}},{"type":"Feature","properties":{"date":"2021-12-22T05:00:00.000Z","year":2021,"description":"Installing standby generator tying transfer switch to electrical meter (Ketan P)","metadescription":"EP. Repair. Installing standby generator tying transfer switch to electrical meter (Ketan P). Final. 5601 SOMBRIA CT","address":"5601 SOMBRIA CT","link":"https://abc.austintexas.gov/web/permit/public-search-other?t_detail=1&t_selected_folderrsn=12849523","tcad_id":"0121781033","location":"    (30.31230432, -97.98602125)","day_issued":"WEDNESDAY","project_id":"12849523","condominium":"No","status_date":"03/27/2024","jurisdiction":"BEE CAVE FULL PURPOSE","housing_units":"1","contractor_zip":"77511","contractor_city":"Alvin","issuance_method":"Permit Center","contractor_phone":"5123616823","contractor_trade":"Electrical Contractor","number_of_floors":"1","permit_type_desc":"Electrical Permit","fiscal_year_issued":"2022","permit_class_mapped":"Residential","remodel_repair_sqft":"0","contractor_address_2":"1709 E South","contractor_full_name":"Timothy Oliff","issued_in_last_30_days":"No","certificate_of_occupancy":"No","property_legal_description":"LOT 44 SIGNAL HILL SUBD FINAL PLAT","electrical_valuation_remodel":"$800.00"},"geometry":{"type":"Point","coordinates":[-97.98602125,30.31230432]}},{"type":"Feature","properties":{"date":"2021-12-09T05:00:00.000Z","year":2021,"description":"Installing standby generator and tying in 200-amp transfer switch to electrical meter. (Andrea B.) ETJ.","metadescription":"EP. Repair. Installing standby generator and tying in 200-amp transfer switch to electrical meter. (Andrea B.) ETJ.. Final. 13824 LONE RIDER TRL","address":"13824 LONE RIDER TRL","link":"https://abc.austintexas.gov/web/permit/public-search-other?t_detail=1&t_selected_folderrsn=12838855","tcad_id":"0118770467","location":"    (30.30207243, -97.96562404)","day_issued":"THURSDAY","project_id":"12838855","condominium":"No","status_date":"07/01/2022","jurisdiction":"BEE CAVE FULL PURPOSE","housing_units":"1","contractor_zip":"77511","contractor_city":"Alvin","issuance_method":"Permit Center","contractor_phone":"5123616823","contractor_trade":"Electrical Contractor","number_of_floors":"1","permit_type_desc":"Electrical Permit","fiscal_year_issued":"2022","permit_class_mapped":"Residential","remodel_repair_sqft":"0","contractor_address_2":"1709 E South","contractor_full_name":"Timothy Oliff","issued_in_last_30_days":"No","certificate_of_occupancy":"No","property_legal_description":"7.11 OF LOT 16 MEADOWFOX ESTATES RESUB OF LOTS 1-11","electrical_valuation_remodel":"$800.00"},"geometry":{"type":"Point","coordinates":[-97.96562404,30.30207243]}},{"type":"Feature","properties":{"date":"2021-10-07T04:00:00.000Z","year":2021,"description":"installing standby generator tying in transfer switch to electrical meter","metadescription":"EP. Repair. installing standby generator tying in transfer switch to electrical meter. Final. 5625 SOMBRIA CT","address":"5625 SOMBRIA CT","link":"https://abc.austintexas.gov/web/permit/public-search-other?t_detail=1&t_selected_folderrsn=12797068","tcad_id":"0121781031","location":"    (30.31147925, -97.98662139)","day_issued":"THURSDAY","project_id":"12797068","condominium":"No","status_date":"07/26/2022","jurisdiction":"BEE CAVE FULL PURPOSE","housing_units":"1","contractor_zip":"77511","contractor_city":"Alvin","issuance_method":"Permit Center","contractor_phone":"5123616823","contractor_trade":"Electrical Contractor","number_of_floors":"1","permit_type_desc":"Electrical Permit","fiscal_year_issued":"2022","permit_class_mapped":"Residential","remodel_repair_sqft":"0","contractor_address_2":"1709 E South","contractor_full_name":"Timothy Oliff","issued_in_last_30_days":"No","certificate_of_occupancy":"No","property_legal_description":"LOT 46 SIGNAL HILL SUBD FINAL PLAT","electrical_valuation_remodel":"$800.00"},"geometry":{"type":"Point","coordinates":[-97.98662139,30.31147925]}},{"type":"Feature","properties":{"date":"2021-10-01T04:00:00.000Z","year":2021,"description":"Install generator transfer switch tie into existing service on building","metadescription":"EP. Repair. Install generator transfer switch tie into existing service on building. Final. 15768 HAMILTON POOL RD","address":"15768 HAMILTON POOL RD","link":"https://abc.austintexas.gov/web/permit/public-search-other?t_detail=1&t_selected_folderrsn=12793653","tcad_id":"0118870186","location":"    (30.30274298, -97.99888427)","day_issued":"FRIDAY","project_id":"12793653","condominium":"No","status_date":"10/13/2021","jurisdiction":"BEE CAVE FULL PURPOSE","housing_units":"1","contractor_zip":"78636","contractor_city":"Johnson City","issuance_method":"Permit Center","contractor_phone":"5126636811","contractor_trade":"Electrical Contractor","number_of_floors":"1","permit_type_desc":"Electrical Permit","fiscal_year_issued":"2022","permit_class_mapped":"Commercial","remodel_repair_sqft":"0","contractor_address_1":"P.O.Box 1406","contractor_full_name":"Zachary A Johnson","issued_in_last_30_days":"No","certificate_of_occupancy":"No","property_legal_description":"LOT 1 BLK A PERKINS SUBD","electrical_valuation_remodel":"$8,000.00"},"geometry":{"type":"Point","coordinates":[-97.99888427,30.30274298]}},{"type":"Feature","properties":{"date":"2021-08-20T04:00:00.000Z","year":2021,"description":"install gas line to stand by generator","metadescription":"PP. Repair. install gas line to stand by generator. Withdrawn. 5107 GREAT DIVIDE DR","address":"5107 GREAT DIVIDE DR","link":"https://abc.austintexas.gov/web/permit/public-search-other?t_detail=1&t_selected_folderrsn=12761951","tcad_id":"0118670535","location":"    (30.2994801, -97.95528562)","day_issued":"FRIDAY","project_id":"12761951","condominium":"No","status_date":"10/24/2022","jurisdiction":"BEE CAVE FULL PURPOSE","housing_units":"1","contractor_zip":"76539","contractor_city":"Kempner","issuance_method":"Permit Center","contractor_phone":"5125640013","contractor_trade":"Plumbing Contractor","number_of_floors":"0","permit_type_desc":"Plumbing Permit","fiscal_year_issued":"2021","permit_class_mapped":"Residential","remodel_repair_sqft":"15","contractor_address_2":"216  ORCHARD","contractor_full_name":"Abraham Sanchez","issued_in_last_30_days":"No","certificate_of_occupancy":"No","property_legal_description":"LOT 16 HOMESTEAD SEC 3 THE"},"geometry":{"type":"Point","coordinates":[-97.95528562,30.2994801]}},{"type":"Feature","properties":{"date":"2021-08-20T04:00:00.000Z","year":2021,"description":"install stand by generator","metadescription":"EP. Repair. install stand by generator. Final. 5107 GREAT DIVIDE DR","address":"5107 GREAT DIVIDE DR","link":"https://abc.austintexas.gov/web/permit/public-search-other?t_detail=1&t_selected_folderrsn=12762482","tcad_id":"0118670535","location":"    (30.2994801, -97.95528562)","day_issued":"FRIDAY","project_id":"12762482","condominium":"No","status_date":"03/01/2022","jurisdiction":"BEE CAVE FULL PURPOSE","housing_units":"1","contractor_zip":"77511","contractor_city":"Alvin","issuance_method":"Permit Center","contractor_phone":"5123616823","contractor_trade":"Electrical Contractor","number_of_floors":"1","permit_type_desc":"Electrical Permit","fiscal_year_issued":"2021","permit_class_mapped":"Residential","remodel_repair_sqft":"0","contractor_address_2":"1709 E South","contractor_full_name":"Timothy Oliff","issued_in_last_30_days":"No","certificate_of_occupancy":"No","property_legal_description":"LOT 16 HOMESTEAD SEC 3 THE","electrical_valuation_remodel":"$800.00"},"geometry":{"type":"Point","coordinates":[-97.95528562,30.2994801]}}]}
