{"type":"FeatureCollection","features":[{"type":"Feature","properties":{"date":"2026-02-02T05:00:00.000Z","year":2026,"description":"-We are upgrading the service to a 350 amp service.","metadescription":"EP. Upgrade. -We are upgrading the service to a 350 amp service.. Final. 5108 AVISPA WAY","address":"5108 Avispa Way, Austin, TX, 78738, US","link":"https://abc.austintexas.gov/web/permit/public-search-other?t_detail=1&t_selected_folderrsn=13643956","tcad_id":"0118770502","location":"    (30.31132798, -97.98046934)","day_issued":"MONDAY","project_id":"13643956","condominium":"No","status_date":"05/13/2026","jurisdiction":"BEE CAVE FULL PURPOSE","housing_units":"1","contractor_zip":"78664","contractor_city":"ROUND ROCK","issuance_method":"Permit Center","contractor_phone":"5126626675","contractor_trade":"Electrical Contractor","number_of_floors":"1","permit_type_desc":"Electrical Permit","fiscal_year_issued":"2026","permit_class_mapped":"Residential","remodel_repair_sqft":"0","contractor_address_2":"606  SPRING","contractor_full_name":"Tad Perkin","issued_in_last_30_days":"No","certificate_of_occupancy":"No","property_legal_description":"LOT 28 BEE CAVES WEST (HOMESTEAD)","electrical_valuation_remodel":"$10,000.00"},"geometry":{"type":"Point","coordinates":[-97.98046934,30.31132798]}},{"type":"Feature","properties":{"date":"2024-12-03T05:00:00.000Z","year":2024,"description":"Disconnect/reconnect power to tie in PV/ESS components. We are not upgrading the size of the service not upgrading the meter size.","metadescription":"EP. Repair. Disconnect/reconnect power to tie in PV/ESS components. We are not upgrading the size of the service not upgrading the meter size.. Final. 13508 LONE RIDER TRL","address":"13508 Lone Rider Trail, Austin, TX, 78738, US","link":"https://abc.austintexas.gov/web/permit/public-search-other?t_detail=1&t_selected_folderrsn=13431392","tcad_id":"0118670807","location":"    (30.30011617, -97.96037274)","day_issued":"TUESDAY","project_id":"13431392","condominium":"No","status_date":"02/18/2025","jurisdiction":"BEE CAVE FULL PURPOSE","housing_units":"1","issuance_method":"Permit Center","contractor_phone":"8005042337","contractor_trade":"Electrical Contractor","number_of_floors":"1","permit_type_desc":"Electrical Permit","fiscal_year_issued":"2025","permit_class_mapped":"Residential","remodel_repair_sqft":"0","contractor_full_name":"Adrian Buck","issued_in_last_30_days":"No","certificate_of_occupancy":"No","property_legal_description":"LOT 6 BLK C HOMESTEAD SEC 4 THE","electrical_valuation_remodel":"$53,552.00"},"geometry":{"type":"Point","coordinates":[-97.96037274,30.30011617]}},{"type":"Feature","properties":{"date":"2024-10-22T04:00:00.000Z","year":2024,"description":"upgrading existing service 150 amps to 200 amps\netj","metadescription":"EP. Upgrade. upgrading existing service 150 amps to 200 amps\netj. Final. 2504 SONOMA CV","address":"2504 Sonoma Cove, Austin, TX, 78738, US","link":"https://abc.austintexas.gov/web/permit/public-search-other?t_detail=1&t_selected_folderrsn=13417329","tcad_id":"0121551209","location":"    (30.31275365, -97.91782671)","day_issued":"TUESDAY","project_id":"13417329","condominium":"No","status_date":"04/21/2025","jurisdiction":"BEE CAVE ETJ","housing_units":"1","contractor_zip":"78758-____","contractor_city":"AUSTIN","issuance_method":"Permit Center","contractor_phone":"5128366951","contractor_trade":"Electrical Contractor","number_of_floors":"1","permit_type_desc":"Electrical Permit","fiscal_year_issued":"2025","permit_class_mapped":"Residential","remodel_repair_sqft":"0","contractor_address_2":"817  MC PHAU","contractor_full_name":"Trenton Wilkins","issued_in_last_30_days":"No","certificate_of_occupancy":"No","property_legal_description":"LOT 26 BLK A LAKE POINTE SEC 3 PHS 1","electrical_valuation_remodel":"$0.00"},"geometry":{"type":"Point","coordinates":[-97.91782671,30.31275365]}},{"type":"Feature","properties":{"date":"2024-08-26T04:00:00.000Z","year":2024,"description":"Disconnect/reconnect power to tie in PV component and upgrading MSP to 225 Amps. Upgrading revenue meter to 200 Amps.","metadescription":"EP. Upgrade. Disconnect/reconnect power to tie in PV component and upgrading MSP to 225 Amps. Upgrading revenue meter to 200 Amps.. Final. 11500 EMERALD FALLS DR","address":"11500 Emerald Falls Drive, Austin, TX, 78738, US","link":"https://abc.austintexas.gov/web/permit/public-search-other?t_detail=1&t_selected_folderrsn=13380224","tcad_id":"0121530137","location":"    (30.31209504, -97.91367484)","day_issued":"MONDAY","project_id":"13380224","condominium":"No","status_date":"11/21/2024","jurisdiction":"BEE CAVE ETJ","housing_units":"1","contractor_zip":"78744-____","contractor_city":"Austin","issuance_method":"Permit Center","contractor_phone":"6108745000","contractor_trade":"Electrical Contractor","number_of_floors":"1","permit_type_desc":"Electrical Permit","fiscal_year_issued":"2024","permit_class_mapped":"Residential","remodel_repair_sqft":"0","contractor_address_2":"7701  Metrop","contractor_full_name":"Mark Bedell","issued_in_last_30_days":"No","certificate_of_occupancy":"No","property_legal_description":"LOT 1 BLK D LAKE POINTE SEC 3 PHS 3","electrical_valuation_remodel":"$13,469.00"},"geometry":{"type":"Point","coordinates":[-97.91367484,30.31209504]}},{"type":"Feature","properties":{"date":"2024-05-01T04:00:00.000Z","year":2024,"description":"Kennedy - Disconnect/reconnect power to tie in PV component and upgrading MSP to 200 Amps. Upgrading revenue meter to 200 Amps","metadescription":"EP. Upgrade. Kennedy - Disconnect/reconnect power to tie in PV component and upgrading MSP to 200 Amps. Upgrading revenue meter to 200 Amps. Final. 11500 EMERALD FALLS DR","address":"11500 Emerald Falls Drive, Austin, TX, 78738, US","link":"https://abc.austintexas.gov/web/permit/public-search-other?t_detail=1&t_selected_folderrsn=13321494","tcad_id":"0121530137","location":"    (30.31209504, -97.91367484)","day_issued":"WEDNESDAY","project_id":"13321494","condominium":"No","status_date":"05/29/2024","jurisdiction":"BEE CAVE ETJ","housing_units":"1","contractor_zip":"78744-____","contractor_city":"Austin","issuance_method":"Permit Center","contractor_phone":"6108745000","contractor_trade":"Electrical Contractor","number_of_floors":"1","permit_type_desc":"Electrical Permit","fiscal_year_issued":"2024","permit_class_mapped":"Residential","remodel_repair_sqft":"0","contractor_address_2":"7701  Metrop","contractor_full_name":"Mark Bedell","issued_in_last_30_days":"No","certificate_of_occupancy":"No","property_legal_description":"LOT 1 BLK D LAKE POINTE SEC 3 PHS 3","electrical_valuation_remodel":"$13,470.00"},"geometry":{"type":"Point","coordinates":[-97.91367484,30.31209504]}},{"type":"Feature","properties":{"date":"2022-01-03T05:00:00.000Z","year":2022,"description":"Upgrading from a 200amp to a 320 amp underground service","metadescription":"EP. Upgrade. Upgrading from a 200amp to a 320 amp underground service. Final. 13801 LONE RIDER TRL","address":"13801 Lone Rider Trail, Austin, TX, 78738, US","link":"https://abc.austintexas.gov/web/permit/public-search-other?t_detail=1&t_selected_folderrsn=12849117","tcad_id":"0118770482","location":"    (30.30042247, -97.96325257)","day_issued":"MONDAY","project_id":"12849117","condominium":"No","status_date":"04/22/2022","jurisdiction":"BEE CAVE FULL PURPOSE","housing_units":"1","contractor_zip":"78611","contractor_city":"Burnet","issuance_method":"Permit Center","contractor_phone":"5127556580","contractor_trade":"Electrical Contractor","number_of_floors":"1","permit_type_desc":"Electrical Permit","fiscal_year_issued":"2022","permit_class_mapped":"Residential","remodel_repair_sqft":"0","contractor_address_1":"1409 CR 135","contractor_address_2":"BURNET TX  7","contractor_full_name":"Joshua D. Sierakowski","issued_in_last_30_days":"No","certificate_of_occupancy":"No","property_legal_description":"LOT 1 MEADOWFOX ESTATES RESUB OF LOTS 1-11 (1-D-1B)","electrical_valuation_remodel":"$1,500.00"},"geometry":{"type":"Point","coordinates":[-97.96325257,30.30042247]}},{"type":"Feature","properties":{"date":"2010-05-18T04:00:00.000Z","year":2010,"description":"Upgrading electrical service to existing unit number only","metadescription":"EP. Upgrade. Upgrading electrical service to existing unit number only. Final. 12700 HILL COUNTRY BLVD UNIT T-100","address":"12700 Hill Country Boulevard, Austin, TX, 78738, US","link":"https://abc.austintexas.gov/web/permit/public-search-other?t_detail=1&t_selected_folderrsn=10440956","tcad_id":"0121630117","location":"    (30.30862167, -97.93872994)","day_issued":"TUESDAY","project_id":"10440956","condominium":"No","status_date":"05/28/2010","jurisdiction":"BEE CAVE FULL PURPOSE","housing_units":"0","contractor_zip":"78758","contractor_city":"Austin","issuance_method":"Permit Center","contractor_phone":"5128348174","contractor_trade":"Electrical Contractor","number_of_floors":"0","permit_type_desc":"Electrical Permit","fiscal_year_issued":"2010","permit_class_mapped":"Commercial","remodel_repair_sqft":"0","contractor_address_2":"9802  Gray B","contractor_full_name":"Tim Moll","issued_in_last_30_days":"No","certificate_of_occupancy":"No","property_legal_description":"LT 1A BLK A HILL COUNTRY GALLERIA MALL SUBD & LT 26 BLK A HILL COUNTRY GALLERIA AMD LTS 1-36-8&10-26 BL A LTS 1-3&6-8 BL B & LT BL C","electrical_valuation_remodel":"$2,000.00"},"geometry":{"type":"Point","coordinates":[-97.93872994,30.30862167]}},{"type":"Feature","properties":{"date":"2006-06-23T04:00:00.000Z","year":2006,"description":"Upgrading Exst. Elec. Srv Only-Eud","metadescription":"EP. Remodel. Upgrading Exst. Elec. Srv Only-Eud. Final. 5205 AVISPA WAY","address":"5205 Avispa Way, Austin, TX, 78738, US","link":"https://abc.austintexas.gov/web/permit/public-search-other?t_detail=1&t_selected_folderrsn=4381281","tcad_id":"0118770333","location":"    (30.30950305, -97.97888776)","day_issued":"FRIDAY","project_id":"4381281","condominium":"No","status_date":"03/05/2007","jurisdiction":"BEE CAVE FULL PURPOSE","contractor_zip":"78957-22","contractor_city":"Smithville","issuance_method":"Permit Center","contractor_phone":"5123604868","contractor_trade":"Electrical Contractor","permit_type_desc":"Electrical Permit","fiscal_year_issued":"2006","permit_class_mapped":"Residential","contractor_address_1":"P.O. BOX 22","contractor_address_2":"SMITHVILLE T","contractor_full_name":"John W Summarell","issued_in_last_30_days":"No","certificate_of_occupancy":"No","property_legal_description":"LOT 17 BEE CAVES WEST TITLE CANC TO REAL ESTATE S#12308146R/L L#TXS0595409/10"},"geometry":{"type":"Point","coordinates":[-97.97888776,30.30950305]}},{"type":"Feature","properties":{"date":"2004-01-26T05:00:00.000Z","year":2004,"description":"Upgrading Existing Service Eud**See Comments**","metadescription":"EP. Remodel. Upgrading Existing Service Eud**See Comments**. Final. 3406 VANSHIRE DR","address":"3406 Vanshire Drive, Austin, TX, 78738, US","link":"https://abc.austintexas.gov/web/permit/public-search-other?t_detail=1&t_selected_folderrsn=4343390","tcad_id":"0119550304","location":"    (30.30543018, -97.92208616)","day_issued":"MONDAY","project_id":"4343390","condominium":"No","status_date":"03/05/2007","jurisdiction":"BEE CAVE FULL PURPOSE","contractor_zip":"78756","contractor_city":"AUSTIN","issuance_method":"Permit Center","contractor_phone":"5127482952","contractor_trade":"Electrical Contractor","permit_type_desc":"Electrical Permit","fiscal_year_issued":"2004","permit_class_mapped":"Residential","contractor_address_1":"5350 BURNET","contractor_address_2":"AUSTIN TX  7","contractor_full_name":"Janet Hughes","issued_in_last_30_days":"No","certificate_of_occupancy":"No","property_legal_description":"LOT 15 BLK D UPLANDS PHS 2 THE"},"geometry":{"type":"Point","coordinates":[-97.92208616,30.30543018]}},{"type":"Feature","properties":{"date":"2003-05-19T04:00:00.000Z","year":2003,"description":"Upgrading Exst. Elec Srv Only-Eud","metadescription":"EP. Remodel. Upgrading Exst. Elec Srv Only-Eud. Final. 14532 HAMILTON POOL RD","address":"14532 Hamilton Pool Road, Austin, TX, 78738, US","link":"https://abc.austintexas.gov/web/permit/public-search-other?t_detail=1&t_selected_folderrsn=4407373","tcad_id":"0118770353","location":"    (30.30738737, -97.97062534)","day_issued":"MONDAY","project_id":"4407373","condominium":"No","status_date":"03/05/2007","jurisdiction":"BEE CAVE FULL PURPOSE","contractor_zip":"78676","contractor_city":"Wimberley","issuance_method":"Permit Center","contractor_phone":"5128422233","contractor_trade":"Electrical Contractor","permit_type_desc":"Electrical Permit","fiscal_year_issued":"2003","permit_class_mapped":"Commercial","contractor_address_1":"P.O. Box 141","contractor_full_name":"Michael Oldmixon","issued_in_last_30_days":"No","certificate_of_occupancy":"No","property_legal_description":"ABS 540 SUR 523 MEDLIN H ACR 4.764"},"geometry":{"type":"Point","coordinates":[-97.97062534,30.30738737]}}]}
