{"type":"FeatureCollection","features":[{"type":"Feature","properties":{"date":"2019-06-03T04:00:00.000Z","year":2019,"description":"rebuild electrical service with  connection to mobile home. EUD.","metadescription":"EP. Repair. rebuild electrical service with  connection to mobile home. EUD.. Expired. 5207 AVISPA WAY BLDG B","address":"5207 AVISPA WAY BLDG B","link":"https://abc.austintexas.gov/web/permit/public-search-other?t_detail=1&t_selected_folderrsn=12210151","tcad_id":"0118770334","location":"    (30.30910878, -97.97943306)","day_issued":"MONDAY","project_id":"12210151","condominium":"No","status_date":"12/01/2019","jurisdiction":"BEE CAVE FULL PURPOSE","housing_units":"1","contractor_zip":"78745-____","contractor_city":"AUSTIN","issuance_method":"Permit Center","contractor_phone":"5127858656","contractor_trade":"Electrical Contractor","number_of_floors":"1","permit_type_desc":"Electrical Permit","fiscal_year_issued":"2019","permit_class_mapped":"Residential","remodel_repair_sqft":"0","contractor_address_2":"501 E STASSN","contractor_full_name":"Dosey Mitchell","issued_in_last_30_days":"No","certificate_of_occupancy":"No","property_legal_description":"LOT 18 BEE CAVES WEST S# VIN#01526 S# CERT# 83257466","electrical_valuation_remodel":"$800.00"},"geometry":{"type":"Point","coordinates":[-97.97943306,30.30910878]}},{"type":"Feature","properties":{"date":"2012-08-16T04:00:00.000Z","year":2012,"description":"temp meter loop for doublewide mobile home.","metadescription":"EP. Remodel. temp meter loop for doublewide mobile home.. Final. 3595 S FM 620 RD","address":"3595 S FM 620 RD","link":"https://abc.austintexas.gov/web/permit/public-search-other?t_detail=1&t_selected_folderrsn=10814269","tcad_id":"0125660102","location":"    (30.32139383, -97.95305904)","day_issued":"THURSDAY","project_id":"10814269","condominium":"No","status_date":"08/22/2012","jurisdiction":"BEE CAVE FULL PURPOSE","housing_units":"1","contractor_zip":"78634","contractor_city":"Hutto","issuance_method":"Permit Center","contractor_phone":"5128483975","contractor_trade":"Electrical Contractor","number_of_floors":"1","permit_type_desc":"Electrical Permit","fiscal_year_issued":"2012","permit_class_mapped":"Residential","contractor_address_1":"181 CR 135","contractor_address_2":"HUTTO TX  78","contractor_full_name":"David E. Allison","issued_in_last_30_days":"No","certificate_of_occupancy":"No","property_legal_description":"LADERA RIDGE LOT 1A","electrical_valuation_remodel":"$0.00"},"geometry":{"type":"Point","coordinates":[-97.95305904,30.32139383]}},{"type":"Feature","properties":{"date":"2009-01-08T05:00:00.000Z","year":2009,"description":"New Manufactured Home eud","metadescription":"EP. New. New Manufactured Home eud. Final. 5305 AVISPA WAY","address":"5305 AVISPA WAY","link":"https://abc.austintexas.gov/web/permit/public-search-other?t_detail=1&t_selected_folderrsn=10225410","tcad_id":"0118770336","location":"    (30.30906773, -97.98154192)","day_issued":"THURSDAY","project_id":"10225410","condominium":"No","status_date":"01/09/2009","jurisdiction":"BEE CAVE FULL PURPOSE","housing_units":"1","contractor_zip":"78738","contractor_city":"Austin","issuance_method":"Permit Center","contractor_phone":"5126325897","contractor_trade":"Electrical Contractor","number_of_floors":"1","permit_type_desc":"Electrical Permit","fiscal_year_issued":"2009","total_new_add_sqft":"1,680","permit_class_mapped":"Residential","contractor_address_2":"5304  Avispa","contractor_full_name":"Michael Martin","issued_in_last_30_days":"No","certificate_of_occupancy":"No","property_legal_description":"LOT 20 BEE CAVES WEST"},"geometry":{"type":"Point","coordinates":[-97.98154192,30.30906773]}},{"type":"Feature","properties":{"date":"2004-08-30T04:00:00.000Z","year":2004,"description":"Connect Mobile Home In The Village Of Beecaces","metadescription":"EP. Remodel. Connect Mobile Home In The Village Of Beecaces. Final. 5302 AVISPA WAY","address":"5302 AVISPA WAY","link":"https://abc.austintexas.gov/web/permit/public-search-other?t_detail=1&t_selected_folderrsn=4351852","tcad_id":"0118770509","location":"    (30.30972569, -97.97977936)","day_issued":"MONDAY","project_id":"4351852","condominium":"No","status_date":"03/02/2007","jurisdiction":"BEE CAVE FULL PURPOSE","contractor_zip":"78610","contractor_city":"Buda","issuance_method":"Permit Center","contractor_phone":"5122432700","contractor_trade":"Electrical Contractor","permit_type_desc":"Electrical Permit","fiscal_year_issued":"2004","permit_class_mapped":"Residential","contractor_address_2":"4702  FM 132","contractor_full_name":"Weldon Schmidt","issued_in_last_30_days":"No","certificate_of_occupancy":"No","property_legal_description":"LOT 25B AVISPA ADDN S# TXFLY84A672GH11 S# TXFLY84B672GH11"},"geometry":{"type":"Point","coordinates":[-97.97977936,30.30972569]}},{"type":"Feature","properties":{"date":"1996-03-27T05:00:00.000Z","year":1996,"description":"Connect Mobile Home-Service Only-Eud","metadescription":"EP. Remodel. Connect Mobile Home-Service Only-Eud. Final. 5207 AVISPA WAY","address":"5207 AVISPA WAY","link":"https://abc.austintexas.gov/web/permit/public-search-other?t_detail=1&t_selected_folderrsn=4246727","tcad_id":"0118770334","location":"    (30.30910878, -97.97943306)","day_issued":"WEDNESDAY","project_id":"4246727","condominium":"No","status_date":"05/22/2007","jurisdiction":"BEE CAVE FULL PURPOSE","housing_units":"1","issuance_method":"Permit Center","permit_type_desc":"Electrical Permit","fiscal_year_issued":"1996","permit_class_mapped":"Residential","issued_in_last_30_days":"No","certificate_of_occupancy":"No","property_legal_description":"LOT 18 BEE CAVES WEST S# VIN#01526 S# CERT# 83257466"},"geometry":{"type":"Point","coordinates":[-97.97943306,30.30910878]}},{"type":"Feature","properties":{"date":"1996-03-27T05:00:00.000Z","year":1996,"description":"Connect Mobile Home-Service Only-Eud","metadescription":"MP. Remodel. Connect Mobile Home-Service Only-Eud. Final. 5207 AVISPA WAY","address":"5207 AVISPA WAY","link":"https://abc.austintexas.gov/web/permit/public-search-other?t_detail=1&t_selected_folderrsn=3338172","tcad_id":"0118770334","location":"    (30.30910878, -97.97943306)","day_issued":"WEDNESDAY","project_id":"3338172","condominium":"No","status_date":"05/22/2007","jurisdiction":"BEE CAVE FULL PURPOSE","housing_units":"1","issuance_method":"Permit Center","permit_type_desc":"Mechanical Permit","master_permit_num":"4246727","fiscal_year_issued":"1996","permit_class_mapped":"Residential","issued_in_last_30_days":"No","certificate_of_occupancy":"No","property_legal_description":"LOT 18 BEE CAVES WEST S# VIN#01526 S# CERT# 83257466"},"geometry":{"type":"Point","coordinates":[-97.97943306,30.30910878]}},{"type":"Feature","properties":{"date":"1994-11-02T05:00:00.000Z","year":1994,"description":"Connect Mobile Home-Service Only- Eud","metadescription":"EP. Remodel. Connect Mobile Home-Service Only- Eud. Final. 5302 AVISPA WAY","address":"5302 AVISPA WAY","link":"https://abc.austintexas.gov/web/permit/public-search-other?t_detail=1&t_selected_folderrsn=4231274","tcad_id":"0118770509","location":"    (30.30972569, -97.97977936)","day_issued":"WEDNESDAY","project_id":"4231274","condominium":"No","status_date":"05/22/2007","jurisdiction":"BEE CAVE FULL PURPOSE","housing_units":"1","issuance_method":"Permit Center","permit_type_desc":"Electrical Permit","fiscal_year_issued":"1995","permit_class_mapped":"Residential","issued_in_last_30_days":"No","certificate_of_occupancy":"No","property_legal_description":"LOT 25B AVISPA ADDN S# TXFLY84A672GH11 S# TXFLY84B672GH11"},"geometry":{"type":"Point","coordinates":[-97.97977936,30.30972569]}},{"type":"Feature","properties":{"date":"1989-03-14T05:00:00.000Z","year":1989,"description":"Connect Mobile Home","metadescription":"MP. Remodel. Connect Mobile Home. Expired. 5204 CUEVA DR","address":"5204 CUEVA DR","link":"https://abc.austintexas.gov/web/permit/public-search-other?t_detail=1&t_selected_folderrsn=3435578","tcad_id":"0118770341","location":"    (30.31099645, -97.98308615)","day_issued":"TUESDAY","project_id":"3435578","condominium":"No","status_date":"06/06/2007","jurisdiction":"BEE CAVE FULL PURPOSE","housing_units":"1","issuance_method":"Permit Center","permit_type_desc":"Mechanical Permit","fiscal_year_issued":"1989","permit_class_mapped":"Residential","issued_in_last_30_days":"No","certificate_of_occupancy":"No","property_legal_description":"LOT 6 BEE CAVES WEST"},"geometry":{"type":"Point","coordinates":[-97.98308615,30.31099645]}},{"type":"Feature","properties":{"date":"1987-09-29T04:00:00.000Z","year":1987,"description":"Connect Mobile Home","metadescription":"EP. Remodel. Connect Mobile Home. Final. 5102 CUEVA DR","address":"5102 CUEVA DR","link":"https://abc.austintexas.gov/web/permit/public-search-other?t_detail=1&t_selected_folderrsn=4161836","tcad_id":"0118770351","location":"    (30.31214695, -97.98193601)","day_issued":"TUESDAY","project_id":"4161836","condominium":"No","status_date":"05/22/2007","jurisdiction":"BEE CAVE FULL PURPOSE","housing_units":"1","issuance_method":"Permit Center","permit_type_desc":"Electrical Permit","fiscal_year_issued":"1987","permit_class_mapped":"Residential","issued_in_last_30_days":"No","certificate_of_occupancy":"No","property_legal_description":"LOT 8 BEE CAVES WEST MH S#N214525A&B"},"geometry":{"type":"Point","coordinates":[-97.98193601,30.31214695]}},{"type":"Feature","properties":{"date":"1987-02-17T05:00:00.000Z","year":1987,"description":"Connect Mobile Home","metadescription":"EP. Remodel. Connect Mobile Home. Final. 5304 AVISPA WAY","address":"5304 AVISPA WAY","link":"https://abc.austintexas.gov/web/permit/public-search-other?t_detail=1&t_selected_folderrsn=4153887","tcad_id":"0118770506","location":"    (30.31025612, -97.98095826)","day_issued":"TUESDAY","project_id":"4153887","condominium":"No","status_date":"05/22/2007","jurisdiction":"BEE CAVE FULL PURPOSE","housing_units":"1","issuance_method":"Permit Center","permit_type_desc":"Electrical Permit","fiscal_year_issued":"1987","permit_class_mapped":"Residential","issued_in_last_30_days":"No","certificate_of_occupancy":"No","property_legal_description":"LOT 24 BEE CAVES WEST GDVKMS47795058A-B TITLE CANCELED TO REAL ESTATE"},"geometry":{"type":"Point","coordinates":[-97.98095826,30.31025612]}},{"type":"Feature","properties":{"date":"1987-02-17T05:00:00.000Z","year":1987,"description":"Connect Mobile Home","metadescription":"MP. Remodel. Connect Mobile Home. Final. 5304 AVISPA WAY","address":"5304 AVISPA WAY","link":"https://abc.austintexas.gov/web/permit/public-search-other?t_detail=1&t_selected_folderrsn=3251041","tcad_id":"0118770506","location":"    (30.31025612, -97.98095826)","day_issued":"TUESDAY","project_id":"3251041","condominium":"No","status_date":"05/22/2007","jurisdiction":"BEE CAVE FULL PURPOSE","housing_units":"1","issuance_method":"Permit Center","permit_type_desc":"Mechanical Permit","master_permit_num":"4153887","fiscal_year_issued":"1987","permit_class_mapped":"Residential","issued_in_last_30_days":"No","certificate_of_occupancy":"No","property_legal_description":"LOT 24 BEE CAVES WEST GDVKMS47795058A-B TITLE CANCELED TO REAL ESTATE"},"geometry":{"type":"Point","coordinates":[-97.98095826,30.31025612]}},{"type":"Feature","properties":{"date":"1986-04-14T05:00:00.000Z","year":1986,"description":"Loop For Mobile Home","metadescription":"MP. Remodel. Loop For Mobile Home. Final. 5404 CUEVA DR","address":"5404 CUEVA DR","link":"https://abc.austintexas.gov/web/permit/public-search-other?t_detail=1&t_selected_folderrsn=3240828","tcad_id":"0119760201","location":"    (30.30834128, -97.98361993)","day_issued":"MONDAY","project_id":"3240828","condominium":"No","status_date":"05/22/2007","jurisdiction":"BEE CAVE FULL PURPOSE","housing_units":"1","issuance_method":"Permit Center","permit_type_desc":"Mechanical Permit","master_permit_num":"4142249","fiscal_year_issued":"1986","permit_class_mapped":"Residential","issued_in_last_30_days":"No","certificate_of_occupancy":"No","property_legal_description":"LOT 2 BLK A GORMAN SUBD REPLAT"},"geometry":{"type":"Point","coordinates":[-97.98361993,30.30834128]}},{"type":"Feature","properties":{"date":"1986-04-14T05:00:00.000Z","year":1986,"description":"Loop For Mobile Home","metadescription":"EP. Remodel. Loop For Mobile Home. Final. 5404 CUEVA DR","address":"5404 CUEVA DR","link":"https://abc.austintexas.gov/web/permit/public-search-other?t_detail=1&t_selected_folderrsn=4142249","tcad_id":"0119760201","location":"    (30.30834128, -97.98361993)","day_issued":"MONDAY","project_id":"4142249","condominium":"No","status_date":"05/22/2007","jurisdiction":"BEE CAVE FULL PURPOSE","housing_units":"1","issuance_method":"Permit Center","permit_type_desc":"Electrical Permit","fiscal_year_issued":"1986","permit_class_mapped":"Residential","issued_in_last_30_days":"No","certificate_of_occupancy":"No","property_legal_description":"LOT 2 BLK A GORMAN SUBD REPLAT"},"geometry":{"type":"Point","coordinates":[-97.98361993,30.30834128]}},{"type":"Feature","properties":{"date":"1986-01-03T05:00:00.000Z","year":1986,"description":"Connect Mobile Home","metadescription":"EP. Remodel. Connect Mobile Home. VOID. 3544 S FM 620 RD UNIT 2","address":"3544 S FM 620 RD UNIT 2","link":"https://abc.austintexas.gov/web/permit/public-search-other?t_detail=1&t_selected_folderrsn=4137682","tcad_id":"0125680502","location":"    (30.32192556, -97.95622242)","day_issued":"FRIDAY","project_id":"4137682","condominium":"No","status_date":"04/07/2014","jurisdiction":"BEE CAVE FULL PURPOSE","housing_units":"1","issuance_method":"Permit Center","permit_type_desc":"Electrical Permit","fiscal_year_issued":"1986","permit_class_mapped":"Residential","issued_in_last_30_days":"No","certificate_of_occupancy":"No","property_legal_description":"UNT MASTER UNIT 1 MORNINGSIDE MASTER CONDOMINIUMS AMENDED PLUS 65.3 % INT IN COM AREA"},"geometry":{"type":"Point","coordinates":[-97.95622242,30.32192556]}},{"type":"Feature","properties":{"date":"1986-01-03T05:00:00.000Z","year":1986,"description":"Connect Mobile Home","metadescription":"MP. Remodel. Connect Mobile Home. VOID. 3544 S FM 620 RD UNIT 2","address":"3544 S FM 620 RD UNIT 2","link":"https://abc.austintexas.gov/web/permit/public-search-other?t_detail=1&t_selected_folderrsn=3236622","tcad_id":"0125680502","location":"    (30.32192556, -97.95622242)","day_issued":"FRIDAY","project_id":"3236622","condominium":"No","status_date":"04/07/2014","jurisdiction":"BEE CAVE FULL PURPOSE","housing_units":"1","issuance_method":"Permit Center","permit_type_desc":"Mechanical Permit","master_permit_num":"4137682","fiscal_year_issued":"1986","permit_class_mapped":"Residential","issued_in_last_30_days":"No","certificate_of_occupancy":"No","property_legal_description":"UNT MASTER UNIT 1 MORNINGSIDE MASTER CONDOMINIUMS AMENDED PLUS 65.3 % INT IN COM AREA"},"geometry":{"type":"Point","coordinates":[-97.95622242,30.32192556]}},{"type":"Feature","properties":{"date":"1984-07-16T04:00:00.000Z","year":1984,"description":"Mobile Home","metadescription":"MP. Remodel. Mobile Home. Final. 3733 S FM 620 RD","address":"3733 S FM 620 RD","link":"https://abc.austintexas.gov/web/permit/public-search-other?t_detail=1&t_selected_folderrsn=3212959","tcad_id":"0123660307","location":"    (30.31675119, -97.9490494)","day_issued":"MONDAY","project_id":"3212959","condominium":"No","status_date":"06/06/2007","jurisdiction":"BEE CAVE FULL PURPOSE","housing_units":"1","issuance_method":"Permit Center","permit_type_desc":"Mechanical Permit","master_permit_num":"4111857","fiscal_year_issued":"1984","permit_class_mapped":"Residential","issued_in_last_30_days":"No","certificate_of_occupancy":"No","property_legal_description":"LOT 2 BLK B HILL COUNTRY GALLERIA AMENDED PLAT OF LTS 1-36-8&10-26 BLK ALTS 1-3&6-8 BLK B & LOT BLK C"},"geometry":{"type":"Point","coordinates":[-97.9490494,30.31675119]}},{"type":"Feature","properties":{"date":"1984-07-16T04:00:00.000Z","year":1984,"description":"Mobile Home","metadescription":"EP. Remodel. Mobile Home. Expired. 3733 S FM 620 RD","address":"3733 S FM 620 RD","link":"https://abc.austintexas.gov/web/permit/public-search-other?t_detail=1&t_selected_folderrsn=4111857","tcad_id":"0123660307","location":"    (30.31675119, -97.9490494)","day_issued":"MONDAY","project_id":"4111857","condominium":"No","status_date":"06/06/2007","jurisdiction":"BEE CAVE FULL PURPOSE","housing_units":"1","issuance_method":"Permit Center","permit_type_desc":"Electrical Permit","fiscal_year_issued":"1984","permit_class_mapped":"Residential","issued_in_last_30_days":"No","certificate_of_occupancy":"No","property_legal_description":"LOT 2 BLK B HILL COUNTRY GALLERIA AMENDED PLAT OF LTS 1-36-8&10-26 BLK ALTS 1-3&6-8 BLK B & LOT BLK C"},"geometry":{"type":"Point","coordinates":[-97.9490494,30.31675119]}},{"type":"Feature","properties":{"date":"1984-04-18T05:00:00.000Z","year":1984,"description":"Mobile Home","metadescription":"EP. Remodel. Mobile Home. Final. 5205 AVISPA WAY","address":"5205 AVISPA WAY","link":"https://abc.austintexas.gov/web/permit/public-search-other?t_detail=1&t_selected_folderrsn=4106884","tcad_id":"0118770333","location":"    (30.30950305, -97.97888776)","day_issued":"WEDNESDAY","project_id":"4106884","condominium":"No","status_date":"05/22/2007","jurisdiction":"BEE CAVE FULL PURPOSE","housing_units":"1","issuance_method":"Permit Center","permit_type_desc":"Electrical Permit","fiscal_year_issued":"1984","permit_class_mapped":"Residential","issued_in_last_30_days":"No","certificate_of_occupancy":"No","property_legal_description":"LOT 17 BEE CAVES WEST TITLE CANC TO REAL ESTATE S#12308146R/L L#TXS0595409/10"},"geometry":{"type":"Point","coordinates":[-97.97888776,30.30950305]}},{"type":"Feature","properties":{"date":"1984-04-18T05:00:00.000Z","year":1984,"description":"Mobile Home","metadescription":"MP. Remodel. Mobile Home. Final. 5205 AVISPA WAY","address":"5205 AVISPA WAY","link":"https://abc.austintexas.gov/web/permit/public-search-other?t_detail=1&t_selected_folderrsn=3208222","tcad_id":"0118770333","location":"    (30.30950305, -97.97888776)","day_issued":"WEDNESDAY","project_id":"3208222","condominium":"No","status_date":"05/22/2007","jurisdiction":"BEE CAVE FULL PURPOSE","housing_units":"1","issuance_method":"Permit Center","permit_type_desc":"Mechanical Permit","master_permit_num":"4106884","fiscal_year_issued":"1984","permit_class_mapped":"Residential","issued_in_last_30_days":"No","certificate_of_occupancy":"No","property_legal_description":"LOT 17 BEE CAVES WEST TITLE CANC TO REAL ESTATE S#12308146R/L L#TXS0595409/10"},"geometry":{"type":"Point","coordinates":[-97.97888776,30.30950305]}},{"type":"Feature","properties":{"date":"1983-09-06T04:00:00.000Z","year":1983,"description":"Mobile Home","metadescription":"EP. Remodel. Mobile Home. VOID. 5104 AVISPA WAY","address":"5104 AVISPA WAY","link":"https://abc.austintexas.gov/web/permit/public-search-other?t_detail=1&t_selected_folderrsn=4097016","tcad_id":"0118770501","location":"    (30.31169804, -97.98100235)","day_issued":"TUESDAY","project_id":"4097016","condominium":"No","status_date":"12/29/2009","jurisdiction":"BEE CAVE FULL PURPOSE","housing_units":"1","issuance_method":"Permit Center","permit_type_desc":"Electrical Permit","fiscal_year_issued":"1983","permit_class_mapped":"Commercial","issued_in_last_30_days":"No","certificate_of_occupancy":"No","property_legal_description":"LOT 29 BEE CAVES WEST MH S#N209271"},"geometry":{"type":"Point","coordinates":[-97.98100235,30.31169804]}},{"type":"Feature","properties":{"date":"1983-09-06T04:00:00.000Z","year":1983,"description":"Mobile Home","metadescription":"MP. Remodel. Mobile Home. Final. 5104 AVISPA WAY","address":"5104 AVISPA WAY","link":"https://abc.austintexas.gov/web/permit/public-search-other?t_detail=1&t_selected_folderrsn=3198484","tcad_id":"0118770501","location":"    (30.31169804, -97.98100235)","day_issued":"TUESDAY","project_id":"3198484","condominium":"No","status_date":"06/06/2007","jurisdiction":"BEE CAVE FULL PURPOSE","housing_units":"1","issuance_method":"Permit Center","permit_type_desc":"Mechanical Permit","master_permit_num":"4097016","fiscal_year_issued":"1983","permit_class_mapped":"Commercial","issued_in_last_30_days":"No","certificate_of_occupancy":"No","property_legal_description":"LOT 29 BEE CAVES WEST MH S#N209271"},"geometry":{"type":"Point","coordinates":[-97.98100235,30.31169804]}},{"type":"Feature","properties":{"date":"1982-09-14T04:00:00.000Z","year":1982,"description":"Mobile Home","metadescription":"MP. Remodel. Mobile Home. VOID. 4025 S FM 620 RD","address":"4025 S FM 620 RD","link":"https://abc.austintexas.gov/web/permit/public-search-other?t_detail=1&t_selected_folderrsn=3183714","tcad_id":"0118670301","location":"    (30.30915885, -97.94511632)","day_issued":"TUESDAY","project_id":"3183714","condominium":"No","status_date":"03/07/2013","jurisdiction":"BEE CAVE FULL PURPOSE","housing_units":"1","issuance_method":"Permit Center","permit_type_desc":"Mechanical Permit","master_permit_num":"4082253","fiscal_year_issued":"1982","permit_class_mapped":"Residential","issued_in_last_30_days":"No","certificate_of_occupancy":"No","property_legal_description":"1.8416AC OF LOT 1 BLK A BEE CAVE AT THE GALLERIA SUBD"},"geometry":{"type":"Point","coordinates":[-97.94511632,30.30915885]}},{"type":"Feature","properties":{"date":"1982-09-14T04:00:00.000Z","year":1982,"description":"Mobile Home","metadescription":"PP. Remodel. Mobile Home. VOID. 4025 S FM 620 RD","address":"4025 S FM 620 RD","link":"https://abc.austintexas.gov/web/permit/public-search-other?t_detail=1&t_selected_folderrsn=3809437","tcad_id":"0118670301","location":"    (30.30915885, -97.94511632)","day_issued":"TUESDAY","project_id":"3809437","condominium":"No","status_date":"03/07/2013","jurisdiction":"BEE CAVE FULL PURPOSE","housing_units":"1","issuance_method":"Permit Center","permit_type_desc":"Plumbing Permit","master_permit_num":"3183714","fiscal_year_issued":"1982","permit_class_mapped":"Residential","issued_in_last_30_days":"No","certificate_of_occupancy":"No","property_legal_description":"1.8416AC OF LOT 1 BLK A BEE CAVE AT THE GALLERIA SUBD"},"geometry":{"type":"Point","coordinates":[-97.94511632,30.30915885]}},{"type":"Feature","properties":{"date":"1982-09-14T04:00:00.000Z","year":1982,"description":"Mobile Home","metadescription":"EP. Remodel. Mobile Home. Final. 4025 S FM 620 RD","address":"4025 S FM 620 RD","link":"https://abc.austintexas.gov/web/permit/public-search-other?t_detail=1&t_selected_folderrsn=4082253","tcad_id":"0118670301","location":"    (30.30915885, -97.94511632)","day_issued":"TUESDAY","project_id":"4082253","condominium":"No","status_date":"05/22/2007","jurisdiction":"BEE CAVE FULL PURPOSE","housing_units":"1","issuance_method":"Permit Center","permit_type_desc":"Electrical Permit","fiscal_year_issued":"1982","permit_class_mapped":"Residential","issued_in_last_30_days":"No","certificate_of_occupancy":"No","property_legal_description":"1.8416AC OF LOT 1 BLK A BEE CAVE AT THE GALLERIA SUBD"},"geometry":{"type":"Point","coordinates":[-97.94511632,30.30915885]}},{"type":"Feature","properties":{"date":"1982-05-14T04:00:00.000Z","year":1982,"description":"Loop For Mobile Home","metadescription":"EP. New. Loop For Mobile Home. Final. 5203 CUEVA DR","address":"5203 CUEVA DR","link":"https://abc.austintexas.gov/web/permit/public-search-other?t_detail=1&t_selected_folderrsn=4078080","tcad_id":"0118770507","location":"    (30.31057002, -97.98202832)","day_issued":"FRIDAY","project_id":"4078080","condominium":"No","status_date":"05/22/2007","jurisdiction":"BEE CAVE FULL PURPOSE","housing_units":"1","issuance_method":"Permit Center","permit_type_desc":"Electrical Permit","fiscal_year_issued":"1982","issued_in_last_30_days":"No","certificate_of_occupancy":"No","property_legal_description":"LOT 23 BEE CAVES WEST"},"geometry":{"type":"Point","coordinates":[-97.98202832,30.31057002]}},{"type":"Feature","properties":{"date":"1982-05-14T04:00:00.000Z","year":1982,"description":"Loop For Mobile Home","metadescription":"MP. New. Loop For Mobile Home. Final. 5203 CUEVA DR","address":"5203 CUEVA DR","link":"https://abc.austintexas.gov/web/permit/public-search-other?t_detail=1&t_selected_folderrsn=3179477","tcad_id":"0118770507","location":"    (30.31057002, -97.98202832)","day_issued":"FRIDAY","project_id":"3179477","condominium":"No","status_date":"05/22/2007","jurisdiction":"BEE CAVE FULL PURPOSE","housing_units":"1","issuance_method":"Permit Center","permit_type_desc":"Mechanical Permit","master_permit_num":"4078080","fiscal_year_issued":"1982","issued_in_last_30_days":"No","certificate_of_occupancy":"No","property_legal_description":"LOT 23 BEE CAVES WEST"},"geometry":{"type":"Point","coordinates":[-97.98202832,30.31057002]}},{"type":"Feature","properties":{"date":"1981-08-12T04:00:00.000Z","year":1981,"description":"Mobile Home Etj","metadescription":"EP. New. Mobile Home Etj. Final. 5308 CUEVA DR","address":"5308 CUEVA DR","link":"https://abc.austintexas.gov/web/permit/public-search-other?t_detail=1&t_selected_folderrsn=4070738","tcad_id":"0118770344","location":"    (30.30930354, -97.98315274)","day_issued":"WEDNESDAY","project_id":"4070738","condominium":"No","status_date":"05/22/2007","jurisdiction":"BEE CAVE FULL PURPOSE","housing_units":"1","issuance_method":"Permit Center","permit_type_desc":"Electrical Permit","fiscal_year_issued":"1981","issued_in_last_30_days":"No","certificate_of_occupancy":"No","property_legal_description":"LOT 3 BEE CAVES WEST"},"geometry":{"type":"Point","coordinates":[-97.98315274,30.30930354]}},{"type":"Feature","properties":{"date":"1981-08-12T04:00:00.000Z","year":1981,"description":"Mobile Home Etj","metadescription":"MP. New. Mobile Home Etj. Final. 5308 CUEVA DR","address":"5308 CUEVA DR","link":"https://abc.austintexas.gov/web/permit/public-search-other?t_detail=1&t_selected_folderrsn=3172019","tcad_id":"0118770344","location":"    (30.30930354, -97.98315274)","day_issued":"WEDNESDAY","project_id":"3172019","condominium":"No","status_date":"05/22/2007","jurisdiction":"BEE CAVE FULL PURPOSE","housing_units":"1","issuance_method":"Permit Center","permit_type_desc":"Mechanical Permit","master_permit_num":"4070738","fiscal_year_issued":"1981","issued_in_last_30_days":"No","certificate_of_occupancy":"No","property_legal_description":"LOT 3 BEE CAVES WEST"},"geometry":{"type":"Point","coordinates":[-97.98315274,30.30930354]}}]}
