{"type":"FeatureCollection","features":[{"type":"Feature","properties":{"date":null,"year":0,"description":"HVAC for new SFD","metadescription":"Mechanical. NewRes. HVAC for new SFD. Cancelled","address":"4630 France Avenue South, MN, EDINA, 55410, US","x":"-93.3296099999999","y":"44.9187200000001","value":"26200","display":"4630 FRANCE AVE S","issuedate":"2022/09/26 11:15:52+00","milestone":"Cancelled","applicantcity":"Ham Lake","applicantaddress1":"16411 Aberdeen St NE"},"geometry":{"type":"Point","coordinates":[-93.32961,44.91872]}},{"type":"Feature","properties":{"date":null,"year":0,"description":"ductwork and 2 bath fans PER ENG DRAWINGS / EXISTING EQUIPMENT","metadescription":"Mechanical. Comm-MFD. ductwork and 2 bath fans PER ENG DRAWINGS / EXISTING EQUIPMENT. Closed","address":"4502 France Avenue South, MN, EDINA, 55410, US","x":"-93.329","y":"44.92152","value":"3610","display":"4503 FRANCE AVE S","fullname":"CITY OF MINNEAPOLIS","issuedate":"2019/04/05 12:21:28+00","milestone":"Closed","completedate":"2019/04/30 09:28:08+00","applicantcity":"Blaine","applicantaddress1":"10350 Jamestown St NE"},"geometry":{"type":"Point","coordinates":[-93.329,44.92152]}}]}
