{"type":"FeatureCollection","features":[{"type":"Feature","properties":{"date":null,"year":0,"description":"Jinx Tea","metadescription":"Plumbing. ComFdBv. Jinx Tea. Closed","address":"4502 France Avenue South, MN, EDINA, 55410, US","x":"-93.329","y":"44.92152","value":"0","display":"4503 FRANCE AVE S","fullname":"CITY OF MINNEAPOLIS","issuedate":"2019/02/25 08:15:58+00","milestone":"Closed","completedate":"2019/05/16 08:30:54+00","applicantcity":"Mendota Heights","applicantaddress1":"648 2nd Ave"},"geometry":{"type":"Point","coordinates":[-93.329,44.92152]}},{"type":"Feature","properties":{"date":null,"year":0,"description":"whole house","metadescription":"Plumbing. Res. whole house. Cancelled","address":"4630 France Avenue South, MN, EDINA, 55410, US","x":"-93.3296099999999","y":"44.9187200000001","value":"0","display":"4630 FRANCE AVE S","issuedate":"2022/09/01 10:11:59+00","milestone":"Cancelled","applicantcity":"Ham Lake","applicantaddress1":"16411 ABERDEEN ST NE"},"geometry":{"type":"Point","coordinates":[-93.32961,44.91872]}}]}
