{"type":"FeatureCollection","features":[{"type":"Feature","properties":{"date":"2017-09-07T00:00:00.000Z","year":2017,"description":"No Change of use. Install new equipment (MRI) to replace existing and interior remodel (install new casework and non bearing partitions).","metadescription":"Bldg-Alter/Repair. Commercial. No Change of use. Install new equipment (MRI) to replace existing and interior remodel (install new casework and non bearing partitions).. Permit Finaled. 8700 W BEVERLY BLVD","address":"8700 W BEVERLY BLVD","ct":"2149.02","ev":"N","apc":"Central","cpa":"Wilshire","zone":"[T][Q]C2-2D-O","solar":"N","pin_nbr":"138B169   208","use_code":"13","geolocation":"POINT (-118.3805 34.07666)","status_date":"07/10/2018","permit_group":"Building","refresh_time":"06/10/2026","type_lat_lon":"ADDRESS","business_unit":"Regular Plan Check"},"geometry":{"type":"Point","coordinates":[-118.3805,34.07666]}},{"type":"Feature","properties":{"date":"2002-03-08T00:00:00.000Z","year":2002,"description":"PROPOSED CHANGE OF USE - CONVERSE BASEMENT INTO PARKING GARAGE AND ADD 448 SF. TO THIS BASEMENT PARKING LEVEL. ADD NEW ELEVATOR TO THE BLDG.","metadescription":"Bldg-Addition. Commercial. PROPOSED CHANGE OF USE - CONVERSE BASEMENT INTO PARKING GARAGE AND ADD 448 SF. TO THIS BASEMENT PARKING LEVEL. ADD NEW ELEVATOR TO THE BLDG.. Permit Expired. 980 N LA CIENEGA BLVD","address":"980 N LA CIENEGA BLVD","ct":"1944.00","ev":"N","apc":"Central","zone":"C2-1","solar":"N","pin_nbr":"144B173   190","use_code":"16","geolocation":"POINT (-118.37622 34.08897)","status_date":"03/19/2008","construction":"Type V-N Construction","permit_group":"Building","refresh_time":"06/10/2026","type_lat_lon":"ADDRESS","business_unit":"Regular Plan Check","square_footage":"448"},"geometry":{"type":"Point","coordinates":[-118.37622,34.08897]}}]}
