{"type":"FeatureCollection","features":[{"type":"Feature","properties":{"date":"2025-08-20T00:00:00.000Z","year":2025,"description":"EPLANSupplemental to permit 24010-10000-04449 to change the Fuel type from electric to gas for SFD building, update new T-24","metadescription":"Bldg-Alter/Repair. 1 or 2 Family Dwelling. EPLANSupplemental to permit 24010-10000-04449 to change the Fuel type from electric to gas for SFD building, update new T-24. PC Info Complete. 800 N LA JOLLA AVE","address":"808 North La Jolla Avenue, CA, Los Angeles, 90046, US","ct":"1944.02","ev":"N","apc":"Central","cpa":"Hollywood","zone":"R2-1XL","solar":"N","pin_nbr":"141B173   183","use_code":"1","status_date":"08/21/2025","permit_group":"Building","refresh_time":"06/10/2026","type_lat_lon":"ADDRESS","business_unit":"Plan Check at Counter"},"geometry":{"type":"Point","coordinates":[-118.36788,34.08564]}},{"type":"Feature","properties":{"date":"2025-04-24T00:00:00.000Z","year":2025,"description":"SUPPLEMENTAL TO 22016-10000-13766 FOR ADDITIONAL SCOPE OF WORK INVOLVES THE REMOVAL OF (E) FURNITURE, (E) CASEWORK, (E) CEILING TILE AND GRID AT SUB-WAIT ROOM. CONVERT SUB-WAIT ROOM TO (N) ELECTRICAL ROOM AND INSTALL NEW UPS, BYPASS AND BATTERY CABINET. RELOCATE SUB-WAIT ROOM TO (E) ADMINISTRATIVE AREA. ENCLOSE WALLS, PROVIDE (N) CASEWORK AND (N) DOOR. (N) FINISHES TO BE INSTALLED IN (N) HOLDING ROOM.","metadescription":"Bldg-Alter/Repair. Commercial. SUPPLEMENTAL TO 22016-10000-13766 FOR ADDITIONAL SCOPE OF WORK INVOLVES THE REMOVAL OF (E) FURNITURE, (E) CASEWORK, (E) CEILING TILE AND GRID AT SUB-WAIT ROOM. CONVERT SUB-WAIT ROOM TO (N) ELECTRICAL ROOM AND INSTALL NEW UPS, BYPASS AND BATTERY CABINET. RELOCATE SUB-WAIT ROOM TO (E) ADMINISTRATIVE AREA. ENCLOSE WALLS, PROVIDE (N) CASEWORK AND (N) DOOR. (N) FINISHES TO BE INSTALLED IN (N) HOLDING ROOM.. Permit Finaled. 110 N GEORGE BURNS ROAD","address":"110 George Burns Road, CA, Los Angeles, 90048, US","ct":"2149.02","ev":"N","apc":"Central","cpa":"Wilshire","zone":"[T][Q]C2-2D-O","solar":"N","pin_nbr":"138B169   247","use_code":"23","status_date":"10/20/2025","permit_group":"Building","refresh_time":"06/10/2026","type_lat_lon":"ADDRESS","business_unit":"Regular Plan Check"},"geometry":{"type":"Point","coordinates":[-118.38149,34.07564]}},{"type":"Feature","properties":{"date":"2024-12-03T00:00:00.000Z","year":2024,"description":"Supplemental permit for 24016-10000-10192 to capture  electric, mechanical and plumbing fees.No submital fee permit, dept. error.","metadescription":"Bldg-Alter/Repair. 1 or 2 Family Dwelling. Supplemental permit for 24016-10000-10192 to capture  electric, mechanical and plumbing fees.No submital fee permit, dept. error.. Permit Finaled. 446 N CROFT AVE","address":"444 North Croft Avenue, CA, Los Angeles, 90048, US","ct":"1945.00","ev":"N","apc":"Central","cpa":"Wilshire","zone":"R1V3-O","solar":"N","pin_nbr":"141B173  1223","use_code":"1","status_date":"05/21/2025","permit_group":"Building","refresh_time":"06/10/2026","type_lat_lon":"ADDRESS","business_unit":"Plan Check at Counter"},"geometry":{"type":"Point","coordinates":[-118.37408,34.07947]}},{"type":"Feature","properties":{"date":"2024-11-27T00:00:00.000Z","year":2024,"description":"NEW 2-STORY (43'-0\"x75'-6\"), 2763 SQFT SINGLE FAMILY DWELLING W/ATTACHED ADU (999 SQFT) AND ATTACHED 2-CAR GARAGE (368 SQFT) ALL ELECTRIC BUILDING, W/NFPA 13D SPRINKLERS THROUGHOUT","metadescription":"Bldg-New. 1 or 2 Family Dwelling. NEW 2-STORY (43'-0\"x75'-6\"), 2763 SQFT SINGLE FAMILY DWELLING W/ATTACHED ADU (999 SQFT) AND ATTACHED 2-CAR GARAGE (368 SQFT) ALL ELECTRIC BUILDING, W/NFPA 13D SPRINKLERS THROUGHOUT. CofO Issued. 405-405 1/2 N FLORES ST","address":"405 North Flores Street, CA, Los Angeles, 90048, US","ct":"1945.00","ev":"N","apc":"Central","cpa":"Wilshire","zone":"R1V3","solar":"N","height":"25.08","pin_nbr":"138B173    61","use_code":"1","adu_changed":"1","status_date":"04/03/2026","construction":"Type V-B Construction","permit_group":"Building","refresh_time":"06/10/2026","type_lat_lon":"ADDRESS","business_unit":"Regular Plan Check","square_footage":"2757"},"geometry":{"type":"Point","coordinates":[-118.3712,34.07835]}},{"type":"Feature","properties":{"date":"2024-06-21T00:00:00.000Z","year":2024,"description":"INTERIOR TI TO DEMOLITION OF EXISTING RETAIL SPACE AND INSTALLATION OF NEW INTERIOR BUILDOUT (NO CHANGE OF USE) PLUMBING, ELECTRICAL, AND HVAC UNDER SEPARATE PERMIT.","metadescription":"Bldg-Alter/Repair. Commercial. INTERIOR TI TO DEMOLITION OF EXISTING RETAIL SPACE AND INSTALLATION OF NEW INTERIOR BUILDOUT (NO CHANGE OF USE) PLUMBING, ELECTRICAL, AND HVAC UNDER SEPARATE PERMIT.. Permit Finaled. 8405 W MELROSE PL","address":"8405 Melrose Place, CA, West Hollywood, 90069, US","ct":"1944.02","ev":"N","apc":"Central","cpa":"Hollywood","zone":"C4-1XL","solar":"N","pin_nbr":"141B173   440","use_code":"16","status_date":"08/27/2024","permit_group":"Building","refresh_time":"06/10/2026","type_lat_lon":"ADDRESS","business_unit":"Plan Check at Counter"},"geometry":{"type":"Point","coordinates":[-118.37338,34.08377]}},{"type":"Feature","properties":{"date":"2024-06-20T00:00:00.000Z","year":2024,"description":"***SUPPLEMENTAL TO 24016-30000-11020*** TO REVISE FLOOR PLAN.  REMOVE THE CLOSET DOOR AND CREATE AN OPEN SPACE FOR ELECTRICAL PANEL ACESS, UPDATE THE TITLE 24 REPORT PER CURRENT FIELD CONDITIONS AND TO OMIT THREE CORNER POSTS ON STRUCTURAL PLANS.","metadescription":"Bldg-Alter/Repair. 1 or 2 Family Dwelling. ***SUPPLEMENTAL TO 24016-30000-11020*** TO REVISE FLOOR PLAN.  REMOVE THE CLOSET DOOR AND CREATE AN OPEN SPACE FOR ELECTRICAL PANEL ACESS, UPDATE THE TITLE 24 REPORT PER CURRENT FIELD CONDITIONS AND TO OMIT THREE CORNER POSTS ON STRUCTURAL PLANS.. Permit Finaled. 629 1/2 N HARPER AVE","address":"637 North Harper Avenue, CA, Los Angeles, 90048, US","ct":"1944.02","ev":"N","apc":"Central","cpa":"Hollywood","zone":"R1V3","solar":"N","pin_nbr":"141B173   662","use_code":"1","status_date":"10/09/2024","permit_group":"Building","refresh_time":"06/10/2026","type_lat_lon":"PIN","business_unit":"Plan Check at Counter"},"geometry":{"type":"Point","coordinates":[-118.36940157,34.08249781]}},{"type":"Feature","properties":{"date":"2023-03-10T00:00:00.000Z","year":2023,"description":"DEMO OF EXISTING 3 STORY APARTMENT BUILDING, CLEAR LOT****Code Enforcement Bureau has issued an order. This parcel iseligible for issuance of a 30 day time limit permit (includingBuilding, Electrical, HVAC and Plumbing) with a work descriptionas follows. \"COMPLY WITH DEPARTMENT ORDER effective date12/20/2022. PERMIT WILL EXPIRE 30 DAYS FROM ISSUANCE DATE\". Allpermits shall be for the same time period limitation. Ifadditional assistance is needed, please call Inspector EDMUND LUMat (213)252-3959 of CONTRACT NUISANCE ABATEMENT.  CEIS CaseNumber is 975105.(Created: IMSV7 / 12-14-22)*****","metadescription":"Bldg-Demolition. Apartment. DEMO OF EXISTING 3 STORY APARTMENT BUILDING, CLEAR LOT****Code Enforcement Bureau has issued an order. This parcel iseligible for issuance of a 30 day time limit permit (includingBuilding, Electrical, HVAC and Plumbing) with a work descriptionas follows. \"COMPLY WITH DEPARTMENT ORDER effective date12/20/2022. PERMIT WILL EXPIRE 30 DAYS FROM ISSUANCE DATE\". Allpermits shall be for the same time period limitation. Ifadditional assistance is needed, please call Inspector EDMUND LUMat (213)252-3959 of CONTRACT NUISANCE ABATEMENT.  CEIS CaseNumber is 975105.(Created: IMSV7 / 12-14-22)*****. Permit Finaled. 1004 N ALFRED ST 1-7","address":"1-7, 1004 North Alfred Street, CA, West Hollywood, 90069, US","ct":"1944.02","ev":"N","apc":"Central","cpa":"Hollywood","zone":"[Q]R4-1","solar":"N","pin_nbr":"144B173   176","use_code":"5","status_date":"05/02/2023","permit_group":"Building","refresh_time":"06/10/2026","type_lat_lon":"ADDRESS","business_unit":"Plan Check at Counter"},"geometry":{"type":"Point","coordinates":[-118.37515,34.08902]}},{"type":"Feature","properties":{"date":"2023-03-10T00:00:00.000Z","year":2023,"description":"DEMOLITION OF EXISTING 1 STORY APARTMENT BUILDING, CLEAR LOT****Code Enforcement Bureau has issued an order. This parcel iseligible for issuance of a 30 day time limit permit (includingBuilding, Electrical, HVAC and Plumbing) with a work descriptionas follows. \"COMPLY WITH DEPARTMENT ORDER effective date12/20/2022. PERMIT WILL EXPIRE 30 DAYS FROM ISSUANCE DATE\". Allpermits shall be for the same time period limitation. Ifadditional assistance is needed, please call Inspector EDMUND LUMat (213)252-3959 of CONTRACT NUISANCE ABATEMENT.  CEIS CaseNumber is 975009.(Created: IMSV7 / 12-14-22)*****","metadescription":"Bldg-Demolition. 1 or 2 Family Dwelling. DEMOLITION OF EXISTING 1 STORY APARTMENT BUILDING, CLEAR LOT****Code Enforcement Bureau has issued an order. This parcel iseligible for issuance of a 30 day time limit permit (includingBuilding, Electrical, HVAC and Plumbing) with a work descriptionas follows. \"COMPLY WITH DEPARTMENT ORDER effective date12/20/2022. PERMIT WILL EXPIRE 30 DAYS FROM ISSUANCE DATE\". Allpermits shall be for the same time period limitation. Ifadditional assistance is needed, please call Inspector EDMUND LUMat (213)252-3959 of CONTRACT NUISANCE ABATEMENT.  CEIS CaseNumber is 975009.(Created: IMSV7 / 12-14-22)*****. Permit Finaled. 1002 N ALFRED ST","address":"1002 North Alfred Street, CA, West Hollywood, 90069, US","ct":"1944.02","ev":"N","apc":"Central","cpa":"Hollywood","zone":"[Q]R4-1","solar":"N","pin_nbr":"144B173   188","use_code":"5","status_date":"05/02/2023","permit_group":"Building","refresh_time":"06/10/2026","type_lat_lon":"ADDRESS","business_unit":"Plan Check at Counter"},"geometry":{"type":"Point","coordinates":[-118.37515,34.08898]}},{"type":"Feature","properties":{"date":"2023-02-17T00:00:00.000Z","year":2023,"description":"CHANGE OF USE FROM RETAIL TO SALON. MINOR TENANT IMPROVEMENT OF NEW SALON - ADDITIONAL NEW WALLS, RELOCATION OF RESTROOM, NEW MILLWORK.(SIGNAGE, ELECTRICAL, PLUMBING, MECHANICAL ARE UNDER SEPARATE PERMIT)","metadescription":"Bldg-Alter/Repair. Commercial. CHANGE OF USE FROM RETAIL TO SALON. MINOR TENANT IMPROVEMENT OF NEW SALON - ADDITIONAL NEW WALLS, RELOCATION OF RESTROOM, NEW MILLWORK.(SIGNAGE, ELECTRICAL, PLUMBING, MECHANICAL ARE UNDER SEPARATE PERMIT). CofO Issued. 120 S ROBERTSON BLVD","address":"120 South Robertson Boulevard, CA, Los Angeles, 90048, US","ct":"2149.02","ev":"N","apc":"Central","cpa":"Wilshire","zone":"[Q]C2-1VL-O","solar":"N","pin_nbr":"138B169   422","use_code":"16","status_date":"09/25/2023","construction":"Type V-B Construction","permit_group":"Building","refresh_time":"06/10/2026","type_lat_lon":"ADDRESS","business_unit":"Expanded Counter Plan Check","square_footage":"0"},"geometry":{"type":"Point","coordinates":[-118.3836,34.07466]}},{"type":"Feature","properties":{"date":"2020-03-18T00:00:00.000Z","year":2020,"description":"SUPPLEMENTAL PERMIT TO REVISE WORK DESCRIPTION TO STATE \"EXTERNALLY ILLUM WALL SIGN (10'X1'4\")\". ELECTRICAL WORK UNDER SEPARATE PERMIT.","metadescription":"Sign. Onsite. SUPPLEMENTAL PERMIT TO REVISE WORK DESCRIPTION TO STATE \"EXTERNALLY ILLUM WALL SIGN (10'X1'4\")\". ELECTRICAL WORK UNDER SEPARATE PERMIT.. Permit Finaled. 936 N LA CIENEGA BLVD","address":"936 North La Cienega Boulevard, CA, West Hollywood, 90069, US","ct":"1944.02","ev":"N","apc":"Central","cpa":"Hollywood","zone":"C4-1VL","solar":"N","pin_nbr":"144B173   286","use_code":"19","status_date":"05/07/2020","permit_group":"Building","refresh_time":"06/10/2026","type_lat_lon":"ADDRESS","business_unit":"Plan Check at Counter"},"geometry":{"type":"Point","coordinates":[-118.37624,34.08792]}},{"type":"Feature","properties":{"date":"2019-04-25T00:00:00.000Z","year":2019,"description":"Kitchen/bathroom remodel for residential buildings (no structural changes).  Combined with Electrical and Plumbing.\"COMPLY WITH DEPARTMENT ORDER effective date11/17/2016. PERMIT WILL EXPIRE 30 DAYS FROM ISSUANCE DATE\".","metadescription":"Bldg-Alter/Repair. 1 or 2 Family Dwelling. Kitchen/bathroom remodel for residential buildings (no structural changes).  Combined with Electrical and Plumbing.\"COMPLY WITH DEPARTMENT ORDER effective date11/17/2016. PERMIT WILL EXPIRE 30 DAYS FROM ISSUANCE DATE\".. Permit Finaled. 1329 N OGDEN DR","address":"1325 North Ogden Drive, CA, Los Angeles, 90046, US","ct":"1898.00","ev":"N","apc":"Central","cpa":"Hollywood","zone":"R1-1-HPOZ","solar":"N","pin_nbr":"147B177  1385","use_code":"1","geolocation":"POINT (-118.35939 34.09525)","status_date":"07/17/2019","permit_group":"Building","refresh_time":"06/10/2026","type_lat_lon":"ADDRESS","business_unit":"Express Permit"},"geometry":{"type":"Point","coordinates":[-118.35939,34.09525]}},{"type":"Feature","properties":{"date":"2018-09-24T00:00:00.000Z","year":2018,"description":"CREATE AN ELECTRICAL ALCOVE WITHIN EXISTING WALLS PER ENGINEERING. \"COMPLY WITH DEPARTMENT ORDER effective date 09/18/2018. PERMIT WILL EXPIRE 30 DAYS FROM ISSUANCE DATE\"","metadescription":"Bldg-Alter/Repair. Commercial. CREATE AN ELECTRICAL ALCOVE WITHIN EXISTING WALLS PER ENGINEERING. \"COMPLY WITH DEPARTMENT ORDER effective date 09/18/2018. PERMIT WILL EXPIRE 30 DAYS FROM ISSUANCE DATE\". Permit Finaled. 8428 W MELROSE PL","address":"8428 Melrose Place, CA, West Hollywood, 90069, US","ct":"1944.02","ev":"N","apc":"Central","cpa":"Hollywood","zone":"C4-1XL","solar":"N","pin_nbr":"141B173   505","use_code":"16","geolocation":"POINT (-118.37435 34.08342)","status_date":"10/09/2019","permit_group":"Building","refresh_time":"06/10/2026","type_lat_lon":"ADDRESS","business_unit":"Plan Check at Counter"},"geometry":{"type":"Point","coordinates":[-118.37435,34.08342]}},{"type":"Feature","properties":{"date":"2018-05-14T00:00:00.000Z","year":2018,"description":"BATHROOM REMODEL COMBINED WITH ELECTRICAL, PLUMBING, AND HVAC FOR RESIDENTIAL BUILDINGS (NO STRUCTURAL CHANGES).KITCHEN REMODEL COMBINED WITH ELECTRICAL, PLUMBING, AND HVAC FOR RESIDENTIAL BUILDINGS (NO STRUCTURAL CHANGES).","metadescription":"Bldg-Alter/Repair. 1 or 2 Family Dwelling. BATHROOM REMODEL COMBINED WITH ELECTRICAL, PLUMBING, AND HVAC FOR RESIDENTIAL BUILDINGS (NO STRUCTURAL CHANGES).KITCHEN REMODEL COMBINED WITH ELECTRICAL, PLUMBING, AND HVAC FOR RESIDENTIAL BUILDINGS (NO STRUCTURAL CHANGES).. Permit Expired. 8268 W WILLOUGHBY AVE","address":"8268 Willoughby Avenue, CA, Los Angeles, 90046, US","ct":"1944.02","ev":"N","apc":"Central","cpa":"Hollywood","zone":"[Q]R3-1","solar":"N","pin_nbr":"144B173   399","use_code":"1","geolocation":"POINT (-118.36973 34.08699)","status_date":"04/17/2025","permit_group":"Building","refresh_time":"06/10/2026","type_lat_lon":"ADDRESS","business_unit":"Express Permit"},"geometry":{"type":"Point","coordinates":[-118.36973,34.08699]}},{"type":"Feature","properties":{"date":"2018-05-03T00:00:00.000Z","year":2018,"description":"Re-plaster existing swimming pool (a separate express mechanical permit  for new skimmer(s) and a separate express electrical permit for new pool luminaire is required, when applicable, except for one or two-family dwellings).","metadescription":"Nonbldg-Alter/Repair. 1 or 2 Family Dwelling. Re-plaster existing swimming pool (a separate express mechanical permit  for new skimmer(s) and a separate express electrical permit for new pool luminaire is required, when applicable, except for one or two-family dwellings).. Permit Finaled. 531 N LA JOLLA AVE","address":"529 North La Jolla Avenue, CA, Los Angeles, 90048, US","ct":"1944.02","ev":"N","apc":"Central","cpa":"Hollywood","zone":"R1V3","solar":"N","pin_nbr":"141B173   943","use_code":"20","geolocation":"POINT (-118.36819 34.08095)","status_date":"07/20/2018","permit_group":"Building","refresh_time":"06/10/2026","type_lat_lon":"ADDRESS","business_unit":"Express Permit"},"geometry":{"type":"Point","coordinates":[-118.36819,34.08095]}},{"type":"Feature","properties":{"date":"2017-11-29T00:00:00.000Z","year":2017,"description":"Supplemental to 17016-10000-26517 to include electrical, hvac, and plumbing to permit.","metadescription":"Bldg-Alter/Repair. 1 or 2 Family Dwelling. Supplemental to 17016-10000-26517 to include electrical, hvac, and plumbing to permit.. Permit Finaled. 952 1/2 N CRESCENT HEIGHTS BLVD","address":"952 1/2 North Crescent Heights Boulevard, CA, Los Angeles, 90046, US","ct":"1944.01","ev":"N","apc":"Central","cpa":"Hollywood","zone":"R1-1","solar":"N","pin_nbr":"144B177   292","use_code":"1","geolocation":"POINT (-118.36578 34.08856)","status_date":"05/23/2018","permit_group":"Building","refresh_time":"06/10/2026","type_lat_lon":"ADDRESS","business_unit":"Plan Check at Counter"},"geometry":{"type":"Point","coordinates":[-118.36578,34.08856]}},{"type":"Feature","properties":{"date":"2017-11-14T00:00:00.000Z","year":2017,"description":"Re-plaster existing swimming pool (a separate express mechanical permit  for new skimmer(s) and a separate express electrical permit for new pool luminaire is required, when applicable, except for one or two-family dwellings).","metadescription":"Nonbldg-Alter/Repair. 1 or 2 Family Dwelling. Re-plaster existing swimming pool (a separate express mechanical permit  for new skimmer(s) and a separate express electrical permit for new pool luminaire is required, when applicable, except for one or two-family dwellings).. Permit Finaled. 830 N ORLANDO AVE","address":"830 North Orlando Avenue, CA, West Hollywood, 90069, US","ct":"1944.02","ev":"N","apc":"Central","cpa":"Hollywood","zone":"R1-1","solar":"N","pin_nbr":"141B173    78","use_code":"20","geolocation":"POINT (-118.37303 34.08622)","status_date":"12/28/2017","permit_group":"Building","refresh_time":"06/10/2026","type_lat_lon":"ADDRESS","business_unit":"Express Permit"},"geometry":{"type":"Point","coordinates":[-118.37303,34.08622]}},{"type":"Feature","properties":{"date":"2017-10-16T00:00:00.000Z","year":2017,"description":"KITCHEN AND BATHROOM REMODEL COMBINED WITH ELECTRICAL & PLUMBING  (FOR RESIDENTIAL BUILDINGS; NO STRUCTURAL CHANGES).","metadescription":"Bldg-Alter/Repair. 1 or 2 Family Dwelling. KITCHEN AND BATHROOM REMODEL COMBINED WITH ELECTRICAL & PLUMBING  (FOR RESIDENTIAL BUILDINGS; NO STRUCTURAL CHANGES).. Permit Finaled. 1027 N ORLANDO AVE","address":"1023 North Orlando Avenue, CA, West Hollywood, 90069, US","ct":"1944.02","ev":"N","apc":"Central","cpa":"Hollywood","zone":"R1-1","solar":"N","pin_nbr":"144B173   131","use_code":"1","geolocation":"POINT (-118.3733 34.08957)","status_date":"03/20/2018","permit_group":"Building","refresh_time":"06/10/2026","type_lat_lon":"ADDRESS","business_unit":"Express Permit"},"geometry":{"type":"Point","coordinates":[-118.3733,34.08957]}},{"type":"Feature","properties":{"date":"2017-03-15T00:00:00.000Z","year":2017,"description":"KITCHEN REMODEL COMBINED WITH ELECTRICAL, PLUMBING, AND HVAC FOR RESIDENTIAL BUILDINGS (NO STRUCTURAL CHANGES).  BATHROOM REMODEL COMBINED WITH ELECTRICAL, PLUMBING, AND HVAC FOR RESIDENTIAL BUILDINGS (NO STRUCTURAL CHANGES).","metadescription":"Bldg-Alter/Repair. 1 or 2 Family Dwelling. KITCHEN REMODEL COMBINED WITH ELECTRICAL, PLUMBING, AND HVAC FOR RESIDENTIAL BUILDINGS (NO STRUCTURAL CHANGES).  BATHROOM REMODEL COMBINED WITH ELECTRICAL, PLUMBING, AND HVAC FOR RESIDENTIAL BUILDINGS (NO STRUCTURAL CHANGES).. Permit Finaled. 1328 N ORANGE GROVE AVE","address":"1328 North Orange Grove Avenue, CA, Los Angeles, 90046, US","ct":"1898.00","ev":"N","apc":"Central","cpa":"Hollywood","zone":"R1-1-HPOZ","solar":"N","pin_nbr":"147B177  1384","use_code":"1","geolocation":"POINT (-118.36022 34.09526)","status_date":"05/01/2021","permit_group":"Building","refresh_time":"06/10/2026","type_lat_lon":"ADDRESS","business_unit":"Express Permit"},"geometry":{"type":"Point","coordinates":[-118.36022,34.09526]}},{"type":"Feature","properties":{"date":"2016-11-23T00:00:00.000Z","year":2016,"description":"BATHROOM REMODEL COMBINED WITH ELECTRICAL AND PLUMBING  (FOR RESIDENTIAL BUILDINGS; NO STRUCTURAL CHANGES).","metadescription":"Bldg-Alter/Repair. 1 or 2 Family Dwelling. BATHROOM REMODEL COMBINED WITH ELECTRICAL AND PLUMBING  (FOR RESIDENTIAL BUILDINGS; NO STRUCTURAL CHANGES).. Permit Finaled. 410 N HARPER AVE","address":"404 North Harper Avenue, CA, Los Angeles, 90048, US","ct":"1945.00","ev":"N","apc":"Central","cpa":"Wilshire","zone":"R2-1","solar":"N","pin_nbr":"138B173    26","use_code":"1","geolocation":"POINT (-118.36883 34.07841)","status_date":"04/26/2017","permit_group":"Building","refresh_time":"06/10/2026","type_lat_lon":"ADDRESS","business_unit":"Express Permit"},"geometry":{"type":"Point","coordinates":[-118.36883,34.07841]}},{"type":"Feature","properties":{"date":"2016-09-09T00:00:00.000Z","year":2016,"description":"Replace drywall related to electrical work. Permit 2 of 2","metadescription":"Bldg-Alter/Repair. Apartment. Replace drywall related to electrical work. Permit 2 of 2. Permit Finaled. 750 N KINGS ROAD 221","address":"1-72, 750 North Kings Road, CA, West Hollywood, 90069, US","ct":"1944.02","ev":"N","apc":"Central","cpa":"Hollywood","zone":"[Q]R3-1","solar":"N","pin_nbr":"141B173   222","use_code":"35","geolocation":"POINT (-118.37159 34.08469)","status_date":"05/17/2017","permit_group":"Building","refresh_time":"06/10/2026","type_lat_lon":"ADDRESS","business_unit":"Express Permit"},"geometry":{"type":"Point","coordinates":[-118.37159,34.08469]}},{"type":"Feature","properties":{"date":"2016-07-06T00:00:00.000Z","year":2016,"description":"bathroom remodel for residential buildings (no structural changes). Replace drywall (no new walls added) for single family dwellings and duplexes only. Plumbing and Electrical included","metadescription":"Bldg-Alter/Repair. 1 or 2 Family Dwelling. bathroom remodel for residential buildings (no structural changes). Replace drywall (no new walls added) for single family dwellings and duplexes only. Plumbing and Electrical included. Permit Expired. 715 N ALFRED ST","address":"715 North Alfred Street, CA, West Hollywood, 90069, US","ct":"1944.02","ev":"N","apc":"Central","cpa":"Hollywood","zone":"[Q]R3-1","solar":"N","pin_nbr":"141B173   381","use_code":"1","geolocation":"POINT (-118.37548 34.08414)","status_date":"08/10/2018","permit_group":"Building","refresh_time":"06/10/2026","type_lat_lon":"ADDRESS","business_unit":"Express Permit"},"geometry":{"type":"Point","coordinates":[-118.37548,34.08414]}},{"type":"Feature","properties":{"date":"2015-08-31T00:00:00.000Z","year":2015,"description":"2 BATHROOMS AND KITCHEN REMODEL COMBINED WITH ELECTRICAL, PLUMBING, AND HVAC FOR RESIDENTIAL BUILDINGS (NO STRUCTURAL CHANGES).","metadescription":"Bldg-Alter/Repair. 1 or 2 Family Dwelling. 2 BATHROOMS AND KITCHEN REMODEL COMBINED WITH ELECTRICAL, PLUMBING, AND HVAC FOR RESIDENTIAL BUILDINGS (NO STRUCTURAL CHANGES).. Permit Finaled. 543 N HARPER AVE","address":"541 North Harper Avenue, CA, Los Angeles, 90048, US","ct":"1944.02","ev":"N","apc":"Central","cpa":"Hollywood","zone":"R1-1","solar":"N","pin_nbr":"141B173   859","use_code":"1","geolocation":"POINT (-118.36918 34.08137)","status_date":"12/18/2015","permit_group":"Building","refresh_time":"06/10/2026","type_lat_lon":"ADDRESS","business_unit":"Express Permit"},"geometry":{"type":"Point","coordinates":[-118.36918,34.08137]}},{"type":"Feature","properties":{"date":"2015-07-14T00:00:00.000Z","year":2015,"description":"Kitchen/bathroom remodel for residential buildings (no structural changes).  Replace drywall (no new walls added) for single family dwellings and duplexes only. Restucco for single family dwellings and duplexes only. INCLUDES PLUMBING AND ELECTRICAL  **SEE APP COMMENTS**","metadescription":"Bldg-Alter/Repair. 1 or 2 Family Dwelling. Kitchen/bathroom remodel for residential buildings (no structural changes).  Replace drywall (no new walls added) for single family dwellings and duplexes only. Restucco for single family dwellings and duplexes only. INCLUDES PLUMBING AND ELECTRICAL  **SEE APP COMMENTS**. Permit Expired. 1042 N ORLANDO AVE","address":"1042 North Orlando Avenue, CA, West Hollywood, 90069, US","ct":"1944.02","ev":"N","apc":"Central","cpa":"Hollywood","zone":"R1-1","solar":"N","pin_nbr":"144B173   111","use_code":"1","geolocation":"POINT (-118.37304 34.09003)","status_date":"08/08/2017","permit_group":"Building","refresh_time":"06/10/2026","type_lat_lon":"ADDRESS","business_unit":"Express Permit"},"geometry":{"type":"Point","coordinates":[-118.37304,34.09003]}},{"type":"Feature","properties":{"date":"2014-09-25T00:00:00.000Z","year":2014,"description":"BATHROOM REMODEL COMBINED WITH ELECTRICAL, PLUMBING FOR RESIDENTIAL BUILDINGS (NO STRUCTURAL CHANGES).  REPLACE DRYWALL (NO NEW WALLS ADDED) FOR RESIDENTIAL BUILDINGS ONLY.","metadescription":"Bldg-Alter/Repair. 1 or 2 Family Dwelling. BATHROOM REMODEL COMBINED WITH ELECTRICAL, PLUMBING FOR RESIDENTIAL BUILDINGS (NO STRUCTURAL CHANGES).  REPLACE DRYWALL (NO NEW WALLS ADDED) FOR RESIDENTIAL BUILDINGS ONLY.. Permit Finaled. 854 N HARPER AVE","address":"854 North Harper Avenue, CA, Los Angeles, 90046, US","ct":"1944.02","ev":"N","apc":"Central","cpa":"Hollywood","zone":"R2-1XL","solar":"N","pin_nbr":"144B173   396","use_code":"2","geolocation":"POINT (-118.36895 34.0869)","status_date":"08/06/2018","permit_group":"Building","refresh_time":"06/10/2026","type_lat_lon":"ADDRESS","business_unit":"Express Permit"},"geometry":{"type":"Point","coordinates":[-118.36895,34.0869]}},{"type":"Feature","properties":{"date":"2014-09-10T00:00:00.000Z","year":2014,"description":"BATHROOM REMODEL COMBINED WITH ELECTRICAL, PLUMBING, AND HVAC FOR RESIDENTIAL BUILDINGS (NO STRUCTURAL CHANGES).","metadescription":"Bldg-Alter/Repair. 1 or 2 Family Dwelling. BATHROOM REMODEL COMBINED WITH ELECTRICAL, PLUMBING, AND HVAC FOR RESIDENTIAL BUILDINGS (NO STRUCTURAL CHANGES).. Permit Finaled. 454 N CROFT AVE","address":"454 North Croft Avenue, CA, Los Angeles, 90048, US","ct":"1945.00","ev":"N","apc":"Central","cpa":"Wilshire","zone":"R1-1-O","solar":"N","pin_nbr":"141B173  1198","use_code":"1","geolocation":"POINT (-118.37408 34.0797)","status_date":"06/01/2015","permit_group":"Building","refresh_time":"06/10/2026","type_lat_lon":"ADDRESS","business_unit":"Express Permit"},"geometry":{"type":"Point","coordinates":[-118.37408,34.0797]}},{"type":"Feature","properties":{"date":"2014-04-10T00:00:00.000Z","year":2014,"description":"KITCHEN AND BATHROOM REMODEL COMBINED WITH ELECTRICAL, PLUMBING AND HVAC (FOR RESIDENTIAL BUILDINGS; NO STRUCTURAL CHANGES).","metadescription":"Bldg-Alter/Repair. 1 or 2 Family Dwelling. KITCHEN AND BATHROOM REMODEL COMBINED WITH ELECTRICAL, PLUMBING AND HVAC (FOR RESIDENTIAL BUILDINGS; NO STRUCTURAL CHANGES).. Permit Finaled. 1324 N GENESEE AVE","address":"1318 North Genesee Avenue, CA, Los Angeles, 90046, US","ct":"1898.00","ev":"N","apc":"Central","cpa":"Hollywood","zone":"R1-1-HPOZ","solar":"N","pin_nbr":"147B177  1406","use_code":"1","geolocation":"POINT (-118.35804 34.0951)","status_date":"10/22/2014","permit_group":"Building","refresh_time":"06/10/2026","type_lat_lon":"ADDRESS","business_unit":"Express Permit"},"geometry":{"type":"Point","coordinates":[-118.35804,34.0951]}},{"type":"Feature","properties":{"date":"2014-03-26T00:00:00.000Z","year":2014,"description":"KITCHEN AND BATHROOM REMODEL COMBINED WITH ELECTRICAL, PLUMBING AND HVAC (FOR RESIDENTIAL BUILDINGS; NO STRUCTURAL CHANGES). REPLACE DRYWALL (NO NEW WALLS ADDED) SPECIFIC LOCATION: BATHROOM.","metadescription":"Bldg-Alter/Repair. 1 or 2 Family Dwelling. KITCHEN AND BATHROOM REMODEL COMBINED WITH ELECTRICAL, PLUMBING AND HVAC (FOR RESIDENTIAL BUILDINGS; NO STRUCTURAL CHANGES). REPLACE DRYWALL (NO NEW WALLS ADDED) SPECIFIC LOCATION: BATHROOM.. Permit Finaled. 412 N FLORES ST","address":"420 North Flores Street, CA, Los Angeles, 90048, US","ct":"1945.00","ev":"N","apc":"Central","cpa":"Wilshire","zone":"R1-1","solar":"N","pin_nbr":"141B173  1402","use_code":"1","geolocation":"POINT (-118.37094 34.07863)","status_date":"08/06/2014","permit_group":"Building","refresh_time":"06/10/2026","type_lat_lon":"ADDRESS","business_unit":"Express Permit"},"geometry":{"type":"Point","coordinates":[-118.37094,34.07863]}},{"type":"Feature","properties":{"date":"2014-01-08T00:00:00.000Z","year":2014,"description":"(EARLY START DEMO) FOR (E) RETAIL.  Removal of drywall and electrical fixtures.","metadescription":"Bldg-Alter/Repair. Commercial. (EARLY START DEMO) FOR (E) RETAIL.  Removal of drywall and electrical fixtures.. Permit Finaled. 651-653 N LA CIENEGA BLVD","address":"651 North La Cienega Boulevard, CA, West Hollywood, 90069, US","ct":"1944.02","ev":"N","apc":"Central","cpa":"Hollywood","zone":"[Q]C4-2D","solar":"N","pin_nbr":"141B173   496","use_code":"16","geolocation":"POINT (-118.37676 34.08342)","status_date":"09/02/2014","permit_group":"Building","refresh_time":"06/10/2026","type_lat_lon":"ADDRESS","business_unit":"Plan Check at Counter"},"geometry":{"type":"Point","coordinates":[-118.37676,34.08342]}},{"type":"Feature","properties":{"date":"2013-07-05T00:00:00.000Z","year":2013,"description":"3.5 BATHROOM REMODEL COMBINED WITH ELECTRICAL AND PLUMBING  (FOR RESIDENTIAL BUILDINGS; NO STRUCTURAL CHANGES).","metadescription":"Bldg-Alter/Repair. 1 or 2 Family Dwelling. 3.5 BATHROOM REMODEL COMBINED WITH ELECTRICAL AND PLUMBING  (FOR RESIDENTIAL BUILDINGS; NO STRUCTURAL CHANGES).. Permit Finaled. 363 N ORLANDO AVE","address":"363 North Orlando Avenue, CA, Los Angeles, 90048, US","ct":"1945.00","ev":"N","apc":"Central","cpa":"Wilshire","zone":"R1-1-O","solar":"N","pin_nbr":"138B173   127","use_code":"1","geolocation":"POINT (-118.37328 34.0778)","status_date":"09/13/2013","permit_group":"Building","refresh_time":"06/10/2026","type_lat_lon":"ADDRESS","business_unit":"Express Permit"},"geometry":{"type":"Point","coordinates":[-118.37328,34.0778]}},{"type":"Feature","properties":{"date":"2013-04-26T00:00:00.000Z","year":2013,"description":"CHANGE WINDOW AND RELOCATE ELECTRIC PANEL","metadescription":"Bldg-Alter/Repair. 1 or 2 Family Dwelling. CHANGE WINDOW AND RELOCATE ELECTRIC PANEL. Permit Finaled. 469 N SWEETZER AVE","address":"465 North Sweetzer Avenue, CA, Los Angeles, 90048, US","ct":"1945.00","ev":"N","apc":"Central","cpa":"Wilshire","zone":"R1-1","solar":"N","pin_nbr":"141B173  1125","use_code":"1","geolocation":"POINT (-118.37026 34.07998)","status_date":"05/23/2013","permit_group":"Building","refresh_time":"06/10/2026","type_lat_lon":"ADDRESS","business_unit":"Plan Check at Counter"},"geometry":{"type":"Point","coordinates":[-118.37026,34.07998]}},{"type":"Feature","properties":{"date":"2013-03-27T00:00:00.000Z","year":2013,"description":"SUPPLEMENTAL TO PERMIT #12020-10000-00688 FOR REVISIONS TO APPROVED PLAN FOR RECONSTRUCT SIDEWALKS, STREET TREES & LANDSCAPING ON PRIVATE STREETS; CONSTRUCT DECORATIVE CROSSWALKS ON PRIVATE STREETS; INSTALL WATER FOUNTAIN, PRIVATE STREET LIGHTS, SITE LIGHTING; STRUCTURAL DESIGN FOR LIGHT POLES, WATER FOUNTAIN & UNDERGROUND CONCRET PAD FOR UTILITY VAULT; INCLUDES METHANE MITIGATION & ELECTRICAL FOR FOUNTAIN & SITE LIGHTING.","metadescription":"Bldg-Alter/Repair. Commercial. SUPPLEMENTAL TO PERMIT #12020-10000-00688 FOR REVISIONS TO APPROVED PLAN FOR RECONSTRUCT SIDEWALKS, STREET TREES & LANDSCAPING ON PRIVATE STREETS; CONSTRUCT DECORATIVE CROSSWALKS ON PRIVATE STREETS; INSTALL WATER FOUNTAIN, PRIVATE STREET LIGHTS, SITE LIGHTING; STRUCTURAL DESIGN FOR LIGHT POLES, WATER FOUNTAIN & UNDERGROUND CONCRET PAD FOR UTILITY VAULT; INCLUDES METHANE MITIGATION & ELECTRICAL FOR FOUNTAIN & SITE LIGHTING.. Permit Finaled. 8705 W GRACIE ALLEN DR","address":"8705 Gracie Allen Drive, CA, Los Angeles, 90048, US","ct":"2149.02","ev":"N","apc":"Central","cpa":"Wilshire","zone":"[T][Q]C2-2D-O","solar":"N","pin_nbr":"138B169   876","use_code":"23","geolocation":"POINT (-118.37997518 34.0758212)","status_date":"08/30/2013","permit_group":"Building","refresh_time":"06/10/2026","type_lat_lon":"PIN","business_unit":"Regular Plan Check"},"geometry":{"type":"Point","coordinates":[-118.37997518,34.0758212]}},{"type":"Feature","properties":{"date":"2013-01-24T00:00:00.000Z","year":2013,"description":"RECONSTRUCT SIDEWALKS, STREET TREES & LANDSCAPING ON PRIVATE STREETS; CONSTRUCT DECORATIVE CROSSWALKS ON PRIVATE STREETS; INSTALL WATER FOUNTAIN, PRIVATE STREET LIGHTS, SITE LIGHTING; STRUCTURAL DESIGN FOR LIGHT POLES, WATER FOUNTAIN & UNDERGROUND CONCRET PAD FOR UTILITY VAULT; INCLUDES METHANE MITIGATION & ELECTRICAL FOR FOUNTAIN & SITE LIGHTING.","metadescription":"Nonbldg-New. Commercial. RECONSTRUCT SIDEWALKS, STREET TREES & LANDSCAPING ON PRIVATE STREETS; CONSTRUCT DECORATIVE CROSSWALKS ON PRIVATE STREETS; INSTALL WATER FOUNTAIN, PRIVATE STREET LIGHTS, SITE LIGHTING; STRUCTURAL DESIGN FOR LIGHT POLES, WATER FOUNTAIN & UNDERGROUND CONCRET PAD FOR UTILITY VAULT; INCLUDES METHANE MITIGATION & ELECTRICAL FOR FOUNTAIN & SITE LIGHTING.. Permit Finaled. 8705 W GRACIE ALLEN DR","address":"8705 Gracie Allen Drive, CA, Los Angeles, 90048, US","ct":"2149.02","ev":"N","apc":"Central","cpa":"Wilshire","zone":"[T][Q]C2-2D-O","solar":"N","pin_nbr":"138B169   876","use_code":"23","geolocation":"POINT (-118.37997518 34.0758212)","status_date":"08/30/2013","permit_group":"Building","refresh_time":"06/10/2026","type_lat_lon":"PIN","business_unit":"Regular Plan Check"},"geometry":{"type":"Point","coordinates":[-118.37997518,34.0758212]}},{"type":"Feature","properties":{"date":"2013-01-23T00:00:00.000Z","year":2013,"description":"KITCHEN AND (2) BATHROOM REMODEL COMBINED WITH ELECTRICAL AND  PLUMBING (FOR RESIDENTIAL BUILDINGS; NO STRUCTURAL CHANGES). REPLACE DRYWALL (NO NEW WALLS ADDED) SPECIFIC LOCATION: KITCHE & BATHROOMS.","metadescription":"Bldg-Alter/Repair. 1 or 2 Family Dwelling. KITCHEN AND (2) BATHROOM REMODEL COMBINED WITH ELECTRICAL AND  PLUMBING (FOR RESIDENTIAL BUILDINGS; NO STRUCTURAL CHANGES). REPLACE DRYWALL (NO NEW WALLS ADDED) SPECIFIC LOCATION: KITCHE & BATHROOMS.. Permit Finaled. 927 N EDINBURGH AVE","address":"925 North Edinburgh Avenue, CA, Los Angeles, 90046, US","ct":"1944.00","ev":"N","apc":"Central","cpa":"Hollywood","zone":"R1-1","solar":"N","pin_nbr":"144B177   338","use_code":"1","geolocation":"POINT (-118.36391 34.08801)","status_date":"04/29/2013","permit_group":"Building","refresh_time":"06/10/2026","type_lat_lon":"ADDRESS","business_unit":"Express Permit"},"geometry":{"type":"Point","coordinates":[-118.36391,34.08801]}},{"type":"Feature","properties":{"date":"2012-12-14T00:00:00.000Z","year":2012,"description":"Replace (2) doors and kitchen cabinets to an (E) 2 bedroom, 2 baths, unit A @ Front.  Replace (3) doors and kitchen cabinets @ Rear, Unit B , an (E) 3 bedroom, 2 1/2 baths *****Related electrical and plumbing included****","metadescription":"Bldg-Alter/Repair. 1 or 2 Family Dwelling. Replace (2) doors and kitchen cabinets to an (E) 2 bedroom, 2 baths, unit A @ Front.  Replace (3) doors and kitchen cabinets @ Rear, Unit B , an (E) 3 bedroom, 2 1/2 baths *****Related electrical and plumbing included****. Permit Finaled. 1348 N DETROIT ST A & B","address":"1352 North Detroit Street, CA, Los Angeles, 90046, US","ct":"1899.02","ev":"N","apc":"Central","cpa":"Hollywood","zone":"R3-1","solar":"N","pin_nbr":"147B181  1007","use_code":"2","geolocation":"POINT (-118.34505 34.09578)","status_date":"03/26/2013","permit_group":"Building","refresh_time":"06/10/2026","type_lat_lon":"ADDRESS","business_unit":"Express Permit"},"geometry":{"type":"Point","coordinates":[-118.34505,34.09578]}},{"type":"Feature","properties":{"date":"2012-10-30T00:00:00.000Z","year":2012,"description":"Create baja in existing pool per La city standard plan #268. Upgrade pool for electrical and plumbing.","metadescription":"Swimming-Pool/Spa. 1 or 2 Family Dwelling. Create baja in existing pool per La city standard plan #268. Upgrade pool for electrical and plumbing.. CofO Issued. 834 N HARPER AVE","address":"840 North Harper Avenue, CA, Los Angeles, 90046, US","ct":"1944.00","ev":"N","apc":"Central","cpa":"Hollywood","zone":"R2-1XL","solar":"N","pin_nbr":"141B173    74","use_code":"20","geolocation":"POINT (-118.36895 34.08645)","status_date":"02/01/2013","permit_group":"Building","refresh_time":"06/10/2026","type_lat_lon":"ADDRESS","business_unit":"Plan Check at Counter"},"geometry":{"type":"Point","coordinates":[-118.36895,34.08645]}},{"type":"Feature","properties":{"date":"2012-10-24T00:00:00.000Z","year":2012,"description":"PROPOSED 2-STORY SINGLE FAMILY DWELLING W/ ATTACHED GARAGE.RELATED ELECTRICAL, HVAC AND PLUMBING","metadescription":"Bldg-New. 1 or 2 Family Dwelling. PROPOSED 2-STORY SINGLE FAMILY DWELLING W/ ATTACHED GARAGE.RELATED ELECTRICAL, HVAC AND PLUMBING. CofO Issued. 446 N ORLANDO AVE","address":"454 North Orlando Avenue, CA, Los Angeles, 90048, US","ct":"1945.00","ev":"N","apc":"Central","cpa":"Wilshire","zone":"R1-1-O","solar":"N","height":"25.5","pin_nbr":"141B173  1231","use_code":"1","geolocation":"POINT (-118.37302 34.07956)","status_date":"08/15/2013","construction":"Type V-B Construction","permit_group":"Building","refresh_time":"06/10/2026","type_lat_lon":"ADDRESS","business_unit":"Regular Plan Check","square_footage":"3134"},"geometry":{"type":"Point","coordinates":[-118.37302,34.07956]}},{"type":"Feature","properties":{"date":"2012-06-20T00:00:00.000Z","year":2012,"description":"New drywall: in living room, dining room, kitchen and bathroom (no new walls added) Kitchen and bathroom remodel combined with plumbing, hvac and electrical  for residential buildings (no structural changes). Valuation to be verified by the field inspector.","metadescription":"Bldg-Alter/Repair. 1 or 2 Family Dwelling. New drywall: in living room, dining room, kitchen and bathroom (no new walls added) Kitchen and bathroom remodel combined with plumbing, hvac and electrical  for residential buildings (no structural changes). Valuation to be verified by the field inspector.. Permit Finaled. 430 N KINGS ROAD","address":"430 North Kings Road, CA, Los Angeles, 90048, US","ct":"1945.00","ev":"N","apc":"Central","cpa":"Wilshire","zone":"R1-1","solar":"N","pin_nbr":"141B173  1328","use_code":"1","geolocation":"POINT (-118.37199 34.07903)","status_date":"10/24/2012","permit_group":"Building","refresh_time":"06/10/2026","type_lat_lon":"ADDRESS","business_unit":"Express Permit"},"geometry":{"type":"Point","coordinates":[-118.37199,34.07903]}},{"type":"Feature","properties":{"date":"2011-09-08T00:00:00.000Z","year":2011,"description":"KITCHEN AND BATHROOM REMODEL COMBINED WITH ELECTRICAL, PLUMBING AND HVAC (FOR RESIDENTIAL BUILDINGS; NO STRUCTURAL CHANGES). REPLACE DRYWALL (NO NEW WALLS ADDED) SPECIFIC LOCATION: KITCHEN AND BATHROOM","metadescription":"Bldg-Alter/Repair. 1 or 2 Family Dwelling. KITCHEN AND BATHROOM REMODEL COMBINED WITH ELECTRICAL, PLUMBING AND HVAC (FOR RESIDENTIAL BUILDINGS; NO STRUCTURAL CHANGES). REPLACE DRYWALL (NO NEW WALLS ADDED) SPECIFIC LOCATION: KITCHEN AND BATHROOM. Permit Finaled. 1329 N SPAULDING AVE","address":"1325 North Spaulding Avenue, CA, Los Angeles, 90046, US","ct":"1898.00","ev":"N","apc":"Central","cpa":"Hollywood","zone":"R1-1-HPOZ","solar":"N","pin_nbr":"147B177  1390","use_code":"1","geolocation":"POINT (-118.35721 34.09523)","status_date":"11/26/2012","permit_group":"Building","refresh_time":"06/10/2026","type_lat_lon":"ADDRESS","business_unit":"Express Permit"},"geometry":{"type":"Point","coordinates":[-118.35721,34.09523]}},{"type":"Feature","properties":{"date":"2011-09-01T00:00:00.000Z","year":2011,"description":"2 BATHROOM REMODEL COMBINED WITH ELECTRICAL, PLUMBING AND HVAC (FOR RESIDENTIAL BUILDINGS; NO STRUCTURAL CHANGES).","metadescription":"Bldg-Alter/Repair. 1 or 2 Family Dwelling. 2 BATHROOM REMODEL COMBINED WITH ELECTRICAL, PLUMBING AND HVAC (FOR RESIDENTIAL BUILDINGS; NO STRUCTURAL CHANGES).. Permit Finaled. 8215 W CLINTON ST","address":"8215 Clinton Street, CA, Los Angeles, 90048, US","ct":"1944.00","ev":"N","apc":"Central","cpa":"Hollywood","zone":"R1-1","solar":"N","pin_nbr":"141B173   817","use_code":"1","geolocation":"POINT (-118.36856 34.08162)","status_date":"12/31/2012","permit_group":"Building","refresh_time":"06/10/2026","type_lat_lon":"ADDRESS","business_unit":"Express Permit"},"geometry":{"type":"Point","coordinates":[-118.36856,34.08162]}},{"type":"Feature","properties":{"date":"2010-11-15T00:00:00.000Z","year":2010,"description":"SUPPLEMENTAL REF TO PCIS # 10047-30000-00431, TO INCORPORATE AN ELECTRIC CAR GATE AS PART OF POOL ENCLOSURE.","metadescription":"Swimming-Pool/Spa. 1 or 2 Family Dwelling. SUPPLEMENTAL REF TO PCIS # 10047-30000-00431, TO INCORPORATE AN ELECTRIC CAR GATE AS PART OF POOL ENCLOSURE.. Permit Finaled. 823 N ORLANDO AVE","address":"823 North Orlando Avenue, CA, West Hollywood, 90069, US","ct":"1944.00","ev":"N","apc":"Central","cpa":"Hollywood","zone":"R1-1","solar":"N","pin_nbr":"141B173   118","use_code":"20","geolocation":"POINT (-118.37329 34.0861)","status_date":"11/16/2010","permit_group":"Building","refresh_time":"06/10/2026","type_lat_lon":"ADDRESS","business_unit":"Plan Check at Counter"},"geometry":{"type":"Point","coordinates":[-118.37329,34.0861]}},{"type":"Feature","properties":{"date":"2010-09-24T00:00:00.000Z","year":2010,"description":"IN-FILL REAR WINDOW AND INSTALL NEW 6'X 6'8 FRENCH DOORS NEXT TO IT, ALL WORK PER TYPE 5 STD; UGRADE ELECTRIC PANEL TO 200 AMP; RELOCATE AND REPLACE WATER HEATER; NEW ELECTRIC OUTLETS.----INSPECTOR VERIFY PERMIT VALUATION.","metadescription":"Bldg-Alter/Repair. 1 or 2 Family Dwelling. IN-FILL REAR WINDOW AND INSTALL NEW 6'X 6'8 FRENCH DOORS NEXT TO IT, ALL WORK PER TYPE 5 STD; UGRADE ELECTRIC PANEL TO 200 AMP; RELOCATE AND REPLACE WATER HEATER; NEW ELECTRIC OUTLETS.----INSPECTOR VERIFY PERMIT VALUATION.. Permit Finaled. 327 N ORLANDO AVE","address":"327 North Orlando Avenue, CA, Los Angeles, 90048, US","ct":"1945.00","ev":"N","apc":"Central","cpa":"Wilshire","zone":"R1-1-O","solar":"N","pin_nbr":"138B173   313","use_code":"1","geolocation":"POINT (-118.37328 34.07684)","status_date":"09/24/2013","permit_group":"Building","refresh_time":"06/10/2026","type_lat_lon":"ADDRESS","business_unit":"Plan Check at Counter"},"geometry":{"type":"Point","coordinates":[-118.37328,34.07684]}},{"type":"Feature","properties":{"date":"2010-08-06T00:00:00.000Z","year":2010,"description":"KITCHEN & BATHROOM REMODEL COMBINED WITH ELECTRICALAND  PLUMBING  (FOR RESIDENTIAL BUILDINGS; NO STRUCTURAL CHANGES).","metadescription":"Bldg-Alter/Repair. 1 or 2 Family Dwelling. KITCHEN & BATHROOM REMODEL COMBINED WITH ELECTRICALAND  PLUMBING  (FOR RESIDENTIAL BUILDINGS; NO STRUCTURAL CHANGES).. Permit Finaled. 445 N ALFRED ST","address":"445 North Alfred Street, CA, Los Angeles, 90048, US","ct":"1945.00","ev":"N","apc":"Central","cpa":"Wilshire","zone":"R2-1-O","solar":"N","pin_nbr":"141B173  1256","use_code":"1","geolocation":"POINT (-118.37542 34.07943)","status_date":"08/29/2012","permit_group":"Building","refresh_time":"06/10/2026","type_lat_lon":"ADDRESS","business_unit":"Express Permit"},"geometry":{"type":"Point","coordinates":[-118.37542,34.07943]}},{"type":"Feature","properties":{"date":"2010-06-15T00:00:00.000Z","year":2010,"description":"Proposed 10' 3\" x 11' one story addition to existing one story single family dwelling to create entry foyer w/LA city approved skylight.  Work to comply with type V construction (related electrical).  **SEE COMMENTS**","metadescription":"Bldg-Addition. 1 or 2 Family Dwelling. Proposed 10' 3\" x 11' one story addition to existing one story single family dwelling to create entry foyer w/LA city approved skylight.  Work to comply with type V construction (related electrical).  **SEE COMMENTS**. CofO Issued. 927 N CRESCENT HEIGHTS BLVD","address":"927 North Crescent Heights Boulevard, CA, Los Angeles, 90046, US","ct":"1944.00","ev":"N","apc":"Central","cpa":"Hollywood","zone":"R1-1","solar":"N","pin_nbr":"144B177   349","use_code":"1","geolocation":"POINT (-118.36604 34.08798)","status_date":"12/22/2010","construction":"Type V-B Construction","permit_group":"Building","refresh_time":"06/10/2026","type_lat_lon":"ADDRESS","business_unit":"Plan Check at Counter","square_footage":"0"},"geometry":{"type":"Point","coordinates":[-118.36604,34.08798]}},{"type":"Feature","properties":{"date":"2010-03-25T00:00:00.000Z","year":2010,"description":"COMPLETE WORK STARTED THROUGH PERMIT #07014-30000-05281. WORK IS 75% COMPLETE. INCLUDES ELECTRICAL & HVAC.","metadescription":"Bldg-Alter/Repair. 1 or 2 Family Dwelling. COMPLETE WORK STARTED THROUGH PERMIT #07014-30000-05281. WORK IS 75% COMPLETE. INCLUDES ELECTRICAL & HVAC.. Permit Finaled. 844-846 N LA JOLLA AVE","address":"844 North La Jolla Avenue, CA, Los Angeles, 90046, US","ct":"1944.00","ev":"N","apc":"Central","cpa":"Hollywood","zone":"R2-1XL","solar":"N","pin_nbr":"141B173    34","use_code":"7","geolocation":"POINT (-118.36789 34.08664)","status_date":"12/20/2012","permit_group":"Building","refresh_time":"06/10/2026","type_lat_lon":"ADDRESS","business_unit":"Express Permit"},"geometry":{"type":"Point","coordinates":[-118.36789,34.08664]}},{"type":"Feature","properties":{"date":"2010-03-12T00:00:00.000Z","year":2010,"description":"KITCHEN REMODEL COMBINED WITH ELECTRICAL, PLUMBING AND HVAC (FOR RESIDENTIAL BUILDINGS; NO STRUCTURAL CHANGES).","metadescription":"Bldg-Alter/Repair. 1 or 2 Family Dwelling. KITCHEN REMODEL COMBINED WITH ELECTRICAL, PLUMBING AND HVAC (FOR RESIDENTIAL BUILDINGS; NO STRUCTURAL CHANGES).. Permit Finaled. 454 N CROFT AVE","address":"454 North Croft Avenue, CA, Los Angeles, 90048, US","ct":"1945.00","ev":"N","apc":"Central","cpa":"Wilshire","zone":"R1-1-O","solar":"N","pin_nbr":"141B173  1198","use_code":"1","geolocation":"POINT (-118.37408 34.0797)","status_date":"12/07/2010","permit_group":"Building","refresh_time":"06/10/2026","type_lat_lon":"ADDRESS","business_unit":"Express Permit"},"geometry":{"type":"Point","coordinates":[-118.37408,34.0797]}},{"type":"Feature","properties":{"date":"2009-09-29T00:00:00.000Z","year":2009,"description":"REPAIR FIRE DAMAGE TO THE HALLWAY EXTERIOR WALLS AND ELECTRIC CABINET HEADER/DOORS OF EXISTING RETAIL.  DAMAGE LESS THAN 10%","metadescription":"Bldg-Alter/Repair. Commercial. REPAIR FIRE DAMAGE TO THE HALLWAY EXTERIOR WALLS AND ELECTRIC CABINET HEADER/DOORS OF EXISTING RETAIL.  DAMAGE LESS THAN 10%. Permit Finaled. 438 N LA CIENEGA BLVD","address":"438 North La Cienega Boulevard, CA, Los Angeles, 90048, US","ct":"1945.00","ev":"N","apc":"Central","cpa":"Wilshire","zone":"C2-1VL-O","solar":"N","pin_nbr":"141B173  1284","use_code":"13","geolocation":"POINT (-118.37636 34.07921)","status_date":"01/06/2010","permit_group":"Building","refresh_time":"06/10/2026","type_lat_lon":"ADDRESS","business_unit":"Plan Check at Counter"},"geometry":{"type":"Point","coordinates":[-118.37636,34.07921]}},{"type":"Feature","properties":{"date":"2009-04-07T00:00:00.000Z","year":2009,"description":"PROPOSED CONCRETE PAD FOR ELECTRICAL EQUIPMENT IN THE EXISITING OPEN SPACE (NOT IN REQD. PARKING AREA)","metadescription":"Nonbldg-New. Commercial. PROPOSED CONCRETE PAD FOR ELECTRICAL EQUIPMENT IN THE EXISITING OPEN SPACE (NOT IN REQD. PARKING AREA). Permit Finaled. 8700 W BEVERLY BLVD","address":"8702 Beverly Boulevard, CA, Los Angeles, 90048, US","ct":"2149.00","ev":"N","apc":"Central","cpa":"Wilshire","zone":"[Q]C2-2D-O","solar":"N","pin_nbr":"138B169   208","use_code":"23","geolocation":"POINT (-118.3805 34.07666)","status_date":"11/12/2013","construction":"Type V-B Construction","permit_group":"Building","refresh_time":"06/10/2026","type_lat_lon":"ADDRESS","business_unit":"Plan Check at Counter"},"geometry":{"type":"Point","coordinates":[-118.3805,34.07666]}},{"type":"Feature","properties":{"date":"2008-08-27T00:00:00.000Z","year":2008,"description":"USE OF LAND: EQUIPMENT PAD FOR NEW ELECTRICAL UNITS ADJACENT TO  PARKING AREA. NO  CHANGE IN PARKING.","metadescription":"Nonbldg-New. Commercial. USE OF LAND: EQUIPMENT PAD FOR NEW ELECTRICAL UNITS ADJACENT TO  PARKING AREA. NO  CHANGE IN PARKING.. Permit Finaled. 706 N LA CIENEGA BLVD","address":"706 La Cienega Boulevard, CA, West Hollywood, 90069, US","ct":"1944.00","ev":"N","apc":"Central","cpa":"Hollywood","zone":"C4-1XL","solar":"N","pin_nbr":"141B173   431","use_code":"61","geolocation":"POINT (-118.37636 34.08391)","status_date":"04/30/2009","permit_group":"Building","refresh_time":"06/10/2026","type_lat_lon":"ADDRESS","business_unit":"Plan Check at Counter","square_footage":"0"},"geometry":{"type":"Point","coordinates":[-118.37636,34.08391]}},{"type":"Feature","properties":{"date":"2008-08-05T00:00:00.000Z","year":2008,"description":"SUPPLEMENTAL TO MOVE TOP OF THE SIGN APPROX 2' EAST TO CLEAR 10' FROM [DWP] ELECTRICAL LINES.  NO CHANGE IN SIZE OR ORIENTATION.","metadescription":"Sign. Onsite. SUPPLEMENTAL TO MOVE TOP OF THE SIGN APPROX 2' EAST TO CLEAR 10' FROM [DWP] ELECTRICAL LINES.  NO CHANGE IN SIZE OR ORIENTATION.. Permit Finaled. 980 N LA CIENEGA BLVD","address":"980 North La Cienega Boulevard, CA, West Hollywood, 90069, US","ct":"1944.00","ev":"N","apc":"Central","cpa":"Hollywood","zone":"C2-1","solar":"N","pin_nbr":"144B173   190","use_code":"19","geolocation":"POINT (-118.37622 34.08897)","status_date":"09/24/2008","permit_group":"Building","refresh_time":"06/10/2026","type_lat_lon":"ADDRESS","business_unit":"Plan Check at Counter"},"geometry":{"type":"Point","coordinates":[-118.37622,34.08897]}},{"type":"Feature","properties":{"date":"2008-05-01T00:00:00.000Z","year":2008,"description":"BATHROOM REMODEL COMBINED WITH ELECTRICAL AND PLUMBING (FOR RESIDENTIAL BUILDINGS; NO STRUCTURAL CHANGES)","metadescription":"Bldg-Alter/Repair. 1 or 2 Family Dwelling. BATHROOM REMODEL COMBINED WITH ELECTRICAL AND PLUMBING (FOR RESIDENTIAL BUILDINGS; NO STRUCTURAL CHANGES). Permit Finaled. 1335 N OGDEN DR","address":"1339 North Ogden Drive, CA, Los Angeles, 90046, US","ct":"1898.00","ev":"N","apc":"Central","cpa":"Hollywood","zone":"R1-1-HPOZ","solar":"N","pin_nbr":"147B177  1362","use_code":"1","geolocation":"POINT (-118.35939 34.09539)","status_date":"07/23/2008","permit_group":"Building","refresh_time":"06/10/2026","type_lat_lon":"ADDRESS","business_unit":"Express Permit"},"geometry":{"type":"Point","coordinates":[-118.35939,34.09539]}},{"type":"Feature","properties":{"date":"2008-03-27T00:00:00.000Z","year":2008,"description":"Change electrical meter from 70 AMP to 100 AMP for off-site sign permitted under 97048-10000-01588. NO FEE DEPARTMENT ERROR. (Fee collected under permit no. 08041-30000-05614)","metadescription":"Sign. Offsite. Change electrical meter from 70 AMP to 100 AMP for off-site sign permitted under 97048-10000-01588. NO FEE DEPARTMENT ERROR. (Fee collected under permit no. 08041-30000-05614). Permit Finaled. 8379-8379 1/2 W MELROSE AVE","address":"8379 Melrose Avenue, CA, West Hollywood, 90069, US","ct":"1942.00, 1944.00","ev":"N","hl":"YES","apc":"Central","cpa":"Hollywood","zone":"C4-1XL, R1-1","solar":"N","pin_nbr":"151-5A175 269","use_code":"19","geolocation":"POINT (-118.37279 34.08378)","status_date":"04/01/2008","permit_group":"Building","refresh_time":"06/10/2026","type_lat_lon":"ADDRESS","business_unit":"Express Permit"},"geometry":{"type":"Point","coordinates":[-118.37279,34.08378]}},{"type":"Feature","properties":{"date":"2008-03-14T00:00:00.000Z","year":2008,"description":"INSTALL FRENCH DOOR IN  EXISTING WINDOW OPENING (DUAL GLASS) IN BEDROOM; NEW HEADERS IN EXISTING BEDROOM  WINDOW OPENINGS (4), ; REPLACE  DRY ROT STUDS (LESS THAN 10%)  AND PLASTER , MINOR ELECTRICAL WORK.  ADD VOLUNTARY  PLYWOOD SHEAR WALLS  AND EXTUCCO ONE EXTERIOR WALL OF BEDROOM.","metadescription":"Bldg-Alter/Repair. 1 or 2 Family Dwelling. INSTALL FRENCH DOOR IN  EXISTING WINDOW OPENING (DUAL GLASS) IN BEDROOM; NEW HEADERS IN EXISTING BEDROOM  WINDOW OPENINGS (4), ; REPLACE  DRY ROT STUDS (LESS THAN 10%)  AND PLASTER , MINOR ELECTRICAL WORK.  ADD VOLUNTARY  PLYWOOD SHEAR WALLS  AND EXTUCCO ONE EXTERIOR WALL OF BEDROOM.. Permit Expired. 1009 N ORLANDO AVE","address":"1003 North Orlando Avenue, CA, West Hollywood, 90069, US","ct":"1944.00","ev":"N","apc":"Central","cpa":"Hollywood","zone":"R1-1","solar":"N","pin_nbr":"144B173   168","use_code":"1","geolocation":"POINT (-118.3733 34.08908)","status_date":"06/15/2010","permit_group":"Building","refresh_time":"06/10/2026","type_lat_lon":"ADDRESS","business_unit":"Plan Check at Counter"},"geometry":{"type":"Point","coordinates":[-118.3733,34.08908]}},{"type":"Feature","properties":{"date":"2007-08-06T00:00:00.000Z","year":2007,"description":"CHANGE OUT 5 WINDOWS  (SAME SIZE AND LOCATION).  DUAL GLAZING, LABELED AND CERTIFIED BY NATIONAL FENESTRATION RATING COUNCIL (NFRC), IS REQUIRED FOR DOORS AND WINDOWS REPLACED IN ALL RESIDENTIAL BUILDINGS, THREE STORIES OR LESS, PER SECTION 152(B) OF TITLE 24.  RESIDENTIAL KITCHEN REMODEL COMBINED WITH ELECTRICAL, PLUMBING  - REPAIR/REPLACE ONLY.  NO CHANGES IN WALLS OR OPENINGS.  DRYWALL/PLASTER PATCH AND PAINT.","metadescription":"Bldg-Alter/Repair. 1 or 2 Family Dwelling. CHANGE OUT 5 WINDOWS  (SAME SIZE AND LOCATION).  DUAL GLAZING, LABELED AND CERTIFIED BY NATIONAL FENESTRATION RATING COUNCIL (NFRC), IS REQUIRED FOR DOORS AND WINDOWS REPLACED IN ALL RESIDENTIAL BUILDINGS, THREE STORIES OR LESS, PER SECTION 152(B) OF TITLE 24.  RESIDENTIAL KITCHEN REMODEL COMBINED WITH ELECTRICAL, PLUMBING  - REPAIR/REPLACE ONLY.  NO CHANGES IN WALLS OR OPENINGS.  DRYWALL/PLASTER PATCH AND PAINT.. Permit Finaled. 539 N HARPER AVE","address":"539 North Harper Avenue, CA, Los Angeles, 90048, US","ct":"1944.00","ev":"N","apc":"Central","cpa":"Hollywood","zone":"R1-1","solar":"N","pin_nbr":"141B173   895","use_code":"2","geolocation":"POINT (-118.36918 34.08117)","status_date":"10/01/2007","permit_group":"Building","refresh_time":"06/10/2026","type_lat_lon":"ADDRESS","business_unit":"Express Permit"},"geometry":{"type":"Point","coordinates":[-118.36918,34.08117]}},{"type":"Feature","properties":{"date":"2007-06-27T00:00:00.000Z","year":2007,"description":"CHANGE OUT 2 WINDOWS AND 1 DOOR ( SAME SIZE AND LOCATION). RE-STUCCO/ SANDBLAST BACKWALL. RESIDENTIAL KITCHEN AND BATHROOM REMODEL. REPAIR/REPLACE ONLY. NO CHANGES IN WALLS OR OPENINGS. COMBINED WITH ELECTRICAL AND PLUMBING. REPLACE (DRY ROT,","metadescription":"Bldg-Alter/Repair. 1 or 2 Family Dwelling. CHANGE OUT 2 WINDOWS AND 1 DOOR ( SAME SIZE AND LOCATION). RE-STUCCO/ SANDBLAST BACKWALL. RESIDENTIAL KITCHEN AND BATHROOM REMODEL. REPAIR/REPLACE ONLY. NO CHANGES IN WALLS OR OPENINGS. COMBINED WITH ELECTRICAL AND PLUMBING. REPLACE (DRY ROT,. Permit Finaled. 812 N HARPER AVE","address":"818 North Harper Avenue, CA, Los Angeles, 90046, US","ct":"1944.00","ev":"N","apc":"Central","cpa":"Hollywood","zone":"R2-1XL","solar":"N","pin_nbr":"141B173   147","use_code":"1","geolocation":"POINT (-118.36895 34.0859)","status_date":"09/07/2007","permit_group":"Building","refresh_time":"06/10/2026","type_lat_lon":"ADDRESS","business_unit":"Express Permit"},"geometry":{"type":"Point","coordinates":[-118.36895,34.0859]}},{"type":"Feature","properties":{"date":"2007-04-16T00:00:00.000Z","year":2007,"description":"RESIDENTAL KITCHEN AND BATHROOM REMODEL COMBINED WITH ELECTRICAL, PLUMBING AND HVAC  - REPAIR/REPLACE ONLY.  NO CHANGES IN WALLS OR OPENINGS.  DRYWALL/ PLASTER PATCH AND PAINT.","metadescription":"Bldg-Alter/Repair. 1 or 2 Family Dwelling. RESIDENTAL KITCHEN AND BATHROOM REMODEL COMBINED WITH ELECTRICAL, PLUMBING AND HVAC  - REPAIR/REPLACE ONLY.  NO CHANGES IN WALLS OR OPENINGS.  DRYWALL/ PLASTER PATCH AND PAINT.. Permit Expired. 419 N KINGS ROAD","address":"419 North Kings Road, CA, Los Angeles, 90048, US","ct":"1945.00","ev":"N","apc":"Central","cpa":"Wilshire","zone":"R1-1-O","solar":"N","pin_nbr":"141B173  1380","use_code":"1","geolocation":"POINT (-118.37227 34.07876)","status_date":"11/24/2009","permit_group":"Building","refresh_time":"06/10/2026","type_lat_lon":"ADDRESS","business_unit":"Express Permit"},"geometry":{"type":"Point","coordinates":[-118.37227,34.07876]}},{"type":"Feature","properties":{"date":"2006-05-31T00:00:00.000Z","year":2006,"description":"EARLY START PRMIT - DEMO INTERIOR FINISHES.  REMOVE LIGHTING, ELECTRICAL DISTRIBUTION, DUCTWORK, AND NON-BEARING PARTITIONS.  (BATHROOM TO REMAIN)","metadescription":"Bldg-Alter/Repair. Commercial. EARLY START PRMIT - DEMO INTERIOR FINISHES.  REMOVE LIGHTING, ELECTRICAL DISTRIBUTION, DUCTWORK, AND NON-BEARING PARTITIONS.  (BATHROOM TO REMAIN). Permit Expired. 8448 W MELROSE PL","address":"8448 Melrose Place, CA, West Hollywood, 90069, US","ct":"1944.00","ev":"N","apc":"Central","cpa":"Hollywood","zone":"C4-1XL","solar":"N","pin_nbr":"141B173   510","use_code":"13","geolocation":"POINT (-118.37491 34.0834)","status_date":"09/29/2008","permit_group":"Building","refresh_time":"06/10/2026","type_lat_lon":"ADDRESS","business_unit":"Plan Check at Counter"},"geometry":{"type":"Point","coordinates":[-118.37491,34.0834]}},{"type":"Feature","properties":{"date":"2006-02-07T00:00:00.000Z","year":2006,"description":"RESIDENTIAL KITCHEN REMODEL - REPAIR/REPLACE ONLY.  NO CHANGES IN WALLS OR OPENINGS; COMBINED WITH ELECTRICAL, PLUMBING & HVAC; DRYWALL/PLASTER, PATCH & PAINT.","metadescription":"Bldg-Alter/Repair. 1 or 2 Family Dwelling. RESIDENTIAL KITCHEN REMODEL - REPAIR/REPLACE ONLY.  NO CHANGES IN WALLS OR OPENINGS; COMBINED WITH ELECTRICAL, PLUMBING & HVAC; DRYWALL/PLASTER, PATCH & PAINT.. Permit Finaled. 8155 W WARING AVE","address":"8155 Waring Avenue, CA, Los Angeles, 90046, US","ct":"1944.00","ev":"N","apc":"Central","cpa":"Hollywood","zone":"R2-1XL","solar":"N","pin_nbr":"141B173   182","use_code":"1","geolocation":"POINT (-118.36744 34.08554)","status_date":"04/05/2006","permit_group":"Building","refresh_time":"06/10/2026","type_lat_lon":"ADDRESS","business_unit":"Express Permit"},"geometry":{"type":"Point","coordinates":[-118.36744,34.08554]}},{"type":"Feature","properties":{"date":"2006-01-23T00:00:00.000Z","year":2006,"description":"RESIDENTIAL KITCHEN REMODEL-REPAIR/REPLACE ONLY. NO CHANGES IN WALLS OR OPENINGS. COMBINED WITH ELECTRICAL AND PLUMBING.  RESIDENTIAL BATHROOM REMODEL-REPAIR/REPLACE ONLY. NO CHANGES IN WALLS OR OPENINGS. COMBINED WITH ELECTRICAL AND PLUMBING.","metadescription":"Bldg-Alter/Repair. Apartment. RESIDENTIAL KITCHEN REMODEL-REPAIR/REPLACE ONLY. NO CHANGES IN WALLS OR OPENINGS. COMBINED WITH ELECTRICAL AND PLUMBING.  RESIDENTIAL BATHROOM REMODEL-REPAIR/REPLACE ONLY. NO CHANGES IN WALLS OR OPENINGS. COMBINED WITH ELECTRICAL AND PLUMBING.. Permit Finaled. 1304 N ALTA VISTA BLVD","address":"1304 North Alta Vista Boulevard, CA, Los Angeles, 90046, US","ct":"1899.02","ev":"N","apc":"Central","cpa":"Hollywood","zone":"R3-1XL","solar":"N","pin_nbr":"144B181   128","use_code":"5","geolocation":"POINT (-118.34703 34.09457)","status_date":"11/28/2006","permit_group":"Building","refresh_time":"06/10/2026","type_lat_lon":"ADDRESS","business_unit":"Express Permit"},"geometry":{"type":"Point","coordinates":[-118.34703,34.09457]}},{"type":"Feature","properties":{"date":"2005-12-05T00:00:00.000Z","year":2005,"description":"INSTALL DRYWALL.  REMODEL KITCHEN AND BATHROOM - REPLACE CABINETS, COUNTERTOPS, VANITY AND FLOORING.  INCLUDE RELATED PLUMBING AND ELECTRICAL.  NO STRUCTURAL CHANGES.  VALUATION TO BE VERIFIED BY THE FIELD INSPECTOR.","metadescription":"Bldg-Alter/Repair. 1 or 2 Family Dwelling. INSTALL DRYWALL.  REMODEL KITCHEN AND BATHROOM - REPLACE CABINETS, COUNTERTOPS, VANITY AND FLOORING.  INCLUDE RELATED PLUMBING AND ELECTRICAL.  NO STRUCTURAL CHANGES.  VALUATION TO BE VERIFIED BY THE FIELD INSPECTOR.. Permit Expired. 1339 N OGDEN DR","address":"1339 North Ogden Drive, CA, Los Angeles, 90046, US","ct":"1898.00","ev":"N","apc":"Central","cpa":"Hollywood","zone":"R1-1-HPOZ","solar":"N","pin_nbr":"147B177  1339","use_code":"1","geolocation":"POINT (-118.35939 34.09553)","status_date":"10/05/2011","permit_group":"Building","refresh_time":"06/10/2026","type_lat_lon":"ADDRESS","business_unit":"Express Permit"},"geometry":{"type":"Point","coordinates":[-118.35939,34.09553]}},{"type":"Feature","properties":{"date":"2005-08-05T00:00:00.000Z","year":2005,"description":"RESIDENTIAL KITCHEN & BATHROOM REMODEL - REPAIR/REPLACE ONLY.  NO CHANGES IN WALLS OR OPENINGS;  COMBINED WITH ELECTRICAL & PLUMBING; DRYWALL/PLASTER, PATCH & PAINT.","metadescription":"Bldg-Alter/Repair. 1 or 2 Family Dwelling. RESIDENTIAL KITCHEN & BATHROOM REMODEL - REPAIR/REPLACE ONLY.  NO CHANGES IN WALLS OR OPENINGS;  COMBINED WITH ELECTRICAL & PLUMBING; DRYWALL/PLASTER, PATCH & PAINT.. Permit Finaled. 506 N LA JOLLA AVE","address":"506 North La Jolla Avenue, CA, Los Angeles, 90048, US","ct":"1944.00","ev":"N","apc":"Central","cpa":"Hollywood","zone":"R1-1","solar":"N","pin_nbr":"141B173  1079","use_code":"1","geolocation":"POINT (-118.36785 34.08037)","status_date":"12/14/2005","permit_group":"Building","refresh_time":"06/10/2026","type_lat_lon":"ADDRESS","business_unit":"Express Permit"},"geometry":{"type":"Point","coordinates":[-118.36785,34.08037]}},{"type":"Feature","properties":{"date":"2005-07-18T00:00:00.000Z","year":2005,"description":"CHANGE OUT 8 WINDOWS (SAME SIZE AND LOCATION).  RE-STUCCO/SANDBLAST ENTIRE BUILDING.  RESIDENTIAL BATHROOM REMODEL-REPAIR.  COMBINED WITH ELECTRICAL, PLUMBING AND HVAC.  DRYWALL/PLASTER PATCH AND PAINT.","metadescription":"Bldg-Alter/Repair. 1 or 2 Family Dwelling. CHANGE OUT 8 WINDOWS (SAME SIZE AND LOCATION).  RE-STUCCO/SANDBLAST ENTIRE BUILDING.  RESIDENTIAL BATHROOM REMODEL-REPAIR.  COMBINED WITH ELECTRICAL, PLUMBING AND HVAC.  DRYWALL/PLASTER PATCH AND PAINT.. Permit Finaled. 465 N LA JOLLA AVE","address":"459 North La Jolla Avenue, CA, Los Angeles, 90048, US","ct":"1945.00","ev":"N","apc":"Central","cpa":"Wilshire","zone":"R1-1","solar":"N","pin_nbr":"141B173  1121","use_code":"1","geolocation":"POINT (-118.36811 34.07992)","status_date":"05/16/2006","permit_group":"Building","refresh_time":"06/10/2026","type_lat_lon":"ADDRESS","business_unit":"Express Permit"},"geometry":{"type":"Point","coordinates":[-118.36811,34.07992]}},{"type":"Feature","properties":{"date":"2005-01-18T00:00:00.000Z","year":2005,"description":"SUPP. PERMIT TO PERMIT # 01014-10000-06147 TO COMPLETE WORK STARTED UNDER PERMIT # 01014-10000-06147. 95% COMPLETED PER INSPECTORS REPORT. COMBINED WITH ELECTRICAL, PLUMBING AND HVAC.","metadescription":"Bldg-Alter/Repair. 1 or 2 Family Dwelling. SUPP. PERMIT TO PERMIT # 01014-10000-06147 TO COMPLETE WORK STARTED UNDER PERMIT # 01014-10000-06147. 95% COMPLETED PER INSPECTORS REPORT. COMBINED WITH ELECTRICAL, PLUMBING AND HVAC.. Permit Finaled. 410 N ALFRED ST","address":"410 North Alfred Street, CA, Los Angeles, 90048, US","ct":"1945.00","ev":"N","apc":"Central","zone":"R2-1-O","solar":"N","pin_nbr":"138B173    41","use_code":"1","geolocation":"POINT (-118.37516 34.07837)","status_date":"01/26/2005","permit_group":"Building","refresh_time":"06/10/2026","type_lat_lon":"ADDRESS","business_unit":"Express Permit"},"geometry":{"type":"Point","coordinates":[-118.37516,34.07837]}},{"type":"Feature","properties":{"date":"2004-11-03T00:00:00.000Z","year":2004,"description":"CHANGE OUT 11 WINDOWS (SAME SIZE AND LOCATION). RESIDENTIAL KITCHEN REMODEL-REPAIR/REPLACE ONLY. NO CHANGES IN WALLS OR OPENINGS. COMBINED WITH ELECTRICAL, PLUMBING AND HVAC. DRYWALL/PLASTER PATCH AND PAINT.","metadescription":"Bldg-Alter/Repair. 1 or 2 Family Dwelling. CHANGE OUT 11 WINDOWS (SAME SIZE AND LOCATION). RESIDENTIAL KITCHEN REMODEL-REPAIR/REPLACE ONLY. NO CHANGES IN WALLS OR OPENINGS. COMBINED WITH ELECTRICAL, PLUMBING AND HVAC. DRYWALL/PLASTER PATCH AND PAINT.. Permit Finaled. 937 N LAUREL AVE","address":"937 North Laurel Avenue, CA, Los Angeles, 90046, US","ct":"1944.00","ev":"N","apc":"Central","cpa":"Hollywood","zone":"R1-1","solar":"N","pin_nbr":"144B177   320","use_code":"1","geolocation":"POINT (-118.36497 34.08826)","status_date":"02/17/2005","permit_group":"Building","refresh_time":"06/10/2026","type_lat_lon":"ADDRESS","business_unit":"Express Permit"},"geometry":{"type":"Point","coordinates":[-118.36497,34.08826]}},{"type":"Feature","properties":{"date":"2003-08-20T00:00:00.000Z","year":2003,"description":"REMOVE (E) NOOK  8'-0\"X 13'-0\"(104 SQ.FT)  & ADD 2'-9\"X 33'-3\" (91.4 SQ.FT)  AND 15'-0\"X 25'-6\"(382.5 SQ.FT)  ADDITION  TO EXPAND KITCHEN & MASTER BEDROOM & ADD PORCH AT REAR OF HOUSE .  INTERIOR REMODEL TO CREATE  3/4 BATH. NET  FLOOR AREA OF ADDITION  IS 369.9 SQ.FT  AS PER BUILDING  CODE DEFINITION. RELATED ELECTRICAL , PLUMBING & HVAC WORK.","metadescription":"Bldg-Addition. 1 or 2 Family Dwelling. REMOVE (E) NOOK  8'-0\"X 13'-0\"(104 SQ.FT)  & ADD 2'-9\"X 33'-3\" (91.4 SQ.FT)  AND 15'-0\"X 25'-6\"(382.5 SQ.FT)  ADDITION  TO EXPAND KITCHEN & MASTER BEDROOM & ADD PORCH AT REAR OF HOUSE .  INTERIOR REMODEL TO CREATE  3/4 BATH. NET  FLOOR AREA OF ADDITION  IS 369.9 SQ.FT  AS PER BUILDING  CODE DEFINITION. RELATED ELECTRICAL , PLUMBING & HVAC WORK.. Permit Finaled. 1350 N ORANGE GROVE AVE","address":"1350 North Orange Grove Avenue, CA, Los Angeles, 90046, US","ct":"1898.00","ev":"N","apc":"Central","cpa":"Hollywood","zone":"R1-1-HPOZ","solar":"N","pin_nbr":"147B177  1294","use_code":"1","geolocation":"POINT (-118.36019 34.09584)","status_date":"04/06/2004","construction":"Type V-N Construction","permit_group":"Building","refresh_time":"06/10/2026","type_lat_lon":"ADDRESS","business_unit":"Plan Check at Counter","square_footage":"369.9"},"geometry":{"type":"Point","coordinates":[-118.36019,34.09584]}},{"type":"Feature","properties":{"date":"2002-09-24T00:00:00.000Z","year":2002,"description":"Repair damage to roof & ceiling framing. Combined electrical & mechanical.","metadescription":"Bldg-Alter/Repair. 1 or 2 Family Dwelling. Repair damage to roof & ceiling framing. Combined electrical & mechanical.. Permit Expired. 911 N ALFRED ST","address":"911 North Alfred Street, CA, West Hollywood, 90069, US","ct":"1944.00","ev":"N","apc":"Central","zone":"R3-1","solar":"N","pin_nbr":"144B173   348","use_code":"1","geolocation":"POINT (-118.37541 34.08737)","status_date":"03/05/2025","permit_group":"Building","refresh_time":"06/10/2026","type_lat_lon":"ADDRESS","business_unit":"Plan Check at Counter"},"geometry":{"type":"Point","coordinates":[-118.37541,34.08737]}},{"type":"Feature","properties":{"date":"2002-04-30T00:00:00.000Z","year":2002,"description":"RESIDENTIAL KITCHEN AND BATHROOM REMODEL - REPAIR/REPLACE ONLY.  NO CHANGES IN WALLS OR OPENINGS.  ELECTRICAL AND PLUMBING COMBINED","metadescription":"Bldg-Alter/Repair. 1 or 2 Family Dwelling. RESIDENTIAL KITCHEN AND BATHROOM REMODEL - REPAIR/REPLACE ONLY.  NO CHANGES IN WALLS OR OPENINGS.  ELECTRICAL AND PLUMBING COMBINED. Permit Finaled. 415 N FLORES ST","address":"415 North Flores Street, CA, Los Angeles, 90048, US","ct":"1945.00","ev":"N","apc":"Central","zone":"R1-1","solar":"N","pin_nbr":"141B173  1403","use_code":"1","geolocation":"POINT (-118.37126 34.07853)","status_date":"10/01/2002","permit_group":"Building","refresh_time":"06/10/2026","type_lat_lon":"ADDRESS","business_unit":"Express Permit"},"geometry":{"type":"Point","coordinates":[-118.37126,34.07853]}},{"type":"Feature","properties":{"date":"2002-03-21T00:00:00.000Z","year":2002,"description":"INTERIOR REMODELING @ BEDROOMS AND KITCHEN PER TYPE V SHEET. PLUMBING, ELECTRICAL AND HEATING UPGRADE","metadescription":"Bldg-Alter/Repair. 1 or 2 Family Dwelling. INTERIOR REMODELING @ BEDROOMS AND KITCHEN PER TYPE V SHEET. PLUMBING, ELECTRICAL AND HEATING UPGRADE. Permit Finaled. 1347 N FORMOSA AVE","address":"1347 North Formosa Avenue, CA, Los Angeles, 90046, US","ct":"1899.02","ev":"N","apc":"Central","zone":"R3-1","solar":"N","pin_nbr":"147B181  1013","use_code":"2","geolocation":"POINT (-118.34635 34.09568)","status_date":"11/26/2002","permit_group":"Building","refresh_time":"06/10/2026","type_lat_lon":"ADDRESS","business_unit":"Plan Check at Counter"},"geometry":{"type":"Point","coordinates":[-118.34635,34.09568]}},{"type":"Feature","properties":{"date":"2001-11-01T00:00:00.000Z","year":2001,"description":"REROOF - REMOVE & REPLACE TILE (LESS THAN 6 PSF), CHANGE PLYWOOD WHERE NEEDED, 1/2\" CDX PLYWOOD, DRYWALL REPAIR, RESTUCCO, BATHROOM AND KITCHEN REMODEL - INCLUDING ELECTRICAL & PLUMBING. INVESTIGATION FEE WAIVED PER INSPECTOR (JOE GRAS) #213-485-3306.","metadescription":"Bldg-Alter/Repair. 1 or 2 Family Dwelling. REROOF - REMOVE & REPLACE TILE (LESS THAN 6 PSF), CHANGE PLYWOOD WHERE NEEDED, 1/2\" CDX PLYWOOD, DRYWALL REPAIR, RESTUCCO, BATHROOM AND KITCHEN REMODEL - INCLUDING ELECTRICAL & PLUMBING. INVESTIGATION FEE WAIVED PER INSPECTOR (JOE GRAS) #213-485-3306.. Permit Finaled. 356 N SWEETZER AVE","address":"356 North Sweetzer Avenue, CA, Los Angeles, 90048, US","ct":"1945.00","ev":"N","apc":"Central","zone":"R1-1","solar":"N","pin_nbr":"138B173   147","use_code":"1","geolocation":"POINT (-118.36988 34.07768)","status_date":"04/03/2002","permit_group":"Building","refresh_time":"06/10/2026","type_lat_lon":"ADDRESS","business_unit":"Express Permit"},"geometry":{"type":"Point","coordinates":[-118.36988,34.07768]}},{"type":"Feature","properties":{"date":"2001-10-16T00:00:00.000Z","year":2001,"description":"New 18'6\" x 20'0\" garage. include electric.","metadescription":"Bldg-New. 1 or 2 Family Dwelling. New 18'6\" x 20'0\" garage. include electric.. Permit Expired. 819 N KILKEA DR","address":"815 North Kilkea Drive, CA, Los Angeles, 90046, US","ct":"1944.00","ev":"N","apc":"Central","zone":"R2-1XL","solar":"N","height":"11","pin_nbr":"141B173   124","use_code":"7","geolocation":"POINT (-118.36708 34.08596)","status_date":"06/25/2007","construction":"Type V-N Construction","permit_group":"Building","refresh_time":"06/10/2026","type_lat_lon":"ADDRESS","business_unit":"Plan Check at Counter"},"geometry":{"type":"Point","coordinates":[-118.36708,34.08596]}},{"type":"Feature","properties":{"date":"2001-05-07T00:00:00.000Z","year":2001,"description":"kitchen & bathroom remodel - repair/replace only. no changes in walls or openings. combined with electrical, plumbing, hvac","metadescription":"Bldg-Alter/Repair. 1 or 2 Family Dwelling. kitchen & bathroom remodel - repair/replace only. no changes in walls or openings. combined with electrical, plumbing, hvac. Permit Finaled. 458 N ORLANDO AVE","address":"458 North Orlando Avenue, CA, Los Angeles, 90048, US","ct":"1945.00","ev":"N","apc":"Central","zone":"R1-1-O","solar":"N","pin_nbr":"141B173  1184","use_code":"1","geolocation":"POINT (-118.37302 34.07981)","status_date":"07/17/2001","permit_group":"Building","refresh_time":"06/10/2026","type_lat_lon":"ADDRESS","business_unit":"Express Permit"},"geometry":{"type":"Point","coordinates":[-118.37302,34.07981]}},{"type":"Feature","properties":{"date":"2001-04-04T00:00:00.000Z","year":2001,"description":"REPAIR GARAGE ROOF FRAMING APPOX. 400 S.F & REROOF. RELATED ELECTRICAL WORK.","metadescription":"Bldg-Alter/Repair. 1 or 2 Family Dwelling. REPAIR GARAGE ROOF FRAMING APPOX. 400 S.F & REROOF. RELATED ELECTRICAL WORK.. Permit Finaled. 424 N CROFT AVE","address":"430 North Croft Avenue, CA, Los Angeles, 90048, US","ct":"1945.00","ev":"N","apc":"Central","zone":"R1-1-O","solar":"N","pin_nbr":"141B173  1358","use_code":"7","geolocation":"POINT (-118.37407 34.07889)","status_date":"04/12/2001","permit_group":"Building","refresh_time":"06/10/2026","type_lat_lon":"ADDRESS","business_unit":"Plan Check at Counter"},"geometry":{"type":"Point","coordinates":[-118.37407,34.07889]}},{"type":"Feature","properties":{"date":"2001-03-30T00:00:00.000Z","year":2001,"description":"KITCHEN & BATH REMODEL- CHANGE OUT COUNTER TOPS, TILE, CABINETS, & VANITY. MINOR PLUMBING & ELECTRICAL, CHANGE OUT DISHWASHER, SINKS, TOILETS. ELECTRICAL, ADD GFI'S, LIGHTING FIXTURES, OUTLETS & PLUGS.","metadescription":"Bldg-Alter/Repair. 1 or 2 Family Dwelling. KITCHEN & BATH REMODEL- CHANGE OUT COUNTER TOPS, TILE, CABINETS, & VANITY. MINOR PLUMBING & ELECTRICAL, CHANGE OUT DISHWASHER, SINKS, TOILETS. ELECTRICAL, ADD GFI'S, LIGHTING FIXTURES, OUTLETS & PLUGS.. Permit Finaled. 446 N SWEETZER AVE","address":"450 North Sweetzer Avenue, CA, Los Angeles, 90048, US","ct":"1945.00","ev":"N","apc":"Central","zone":"R1-1","solar":"N","pin_nbr":"141B173  1220","use_code":"1","geolocation":"POINT (-118.36988 34.07958)","status_date":"08/03/2001","permit_group":"Building","refresh_time":"06/10/2026","type_lat_lon":"ADDRESS","business_unit":"Express Permit"},"geometry":{"type":"Point","coordinates":[-118.36988,34.07958]}},{"type":"Feature","properties":{"date":"2000-09-20T00:00:00.000Z","year":2000,"description":"change out 1 window and 1 door(same size and location) restucco over existing. bathroom remodel - repair/replace only. no changes in wall s or openings. combined electrical.","metadescription":"Bldg-Alter/Repair. 1 or 2 Family Dwelling. change out 1 window and 1 door(same size and location) restucco over existing. bathroom remodel - repair/replace only. no changes in wall s or openings. combined electrical.. Permit Finaled. 440 N KINGS ROAD","address":"440 North Kings Road, CA, Los Angeles, 90048, US","ct":"1945.00","ev":"N","apc":"Central","zone":"Currently Not Available","solar":"N","pin_nbr":"141B173  1274","use_code":"1","geolocation":"POINT (-118.37199 34.07931)","status_date":"06/12/2008","permit_group":"Building","refresh_time":"06/10/2026","type_lat_lon":"ADDRESS","business_unit":"Express Permit"},"geometry":{"type":"Point","coordinates":[-118.37199,34.07931]}},{"type":"Feature","properties":{"date":"2000-09-20T00:00:00.000Z","year":2000,"description":"Remove existing window and replace with sliding french doors. Existing openingto remain. Changeout 3 windows at same location and same size. Remove three interior door and maintain openings. Re-do electrical wirering and new outlets. Complete kitchen remodel.","metadescription":"Bldg-Alter/Repair. 1 or 2 Family Dwelling. Remove existing window and replace with sliding french doors. Existing openingto remain. Changeout 3 windows at same location and same size. Remove three interior door and maintain openings. Re-do electrical wirering and new outlets. Complete kitchen remodel.. Permit Finaled. 411 N FLORES ST","address":"405 North Flores Street, CA, Los Angeles, 90048, US","ct":"1945.00","ev":"N","apc":"Central","zone":"Currently Not Available","solar":"N","pin_nbr":"138B173    33","use_code":"1","geolocation":"POINT (-118.3712 34.07838)","status_date":"06/03/2008","permit_group":"Building","refresh_time":"06/10/2026","type_lat_lon":"ADDRESS","business_unit":"Plan Check at Counter"},"geometry":{"type":"Point","coordinates":[-118.3712,34.07838]}},{"type":"Feature","properties":{"date":"2000-09-15T00:00:00.000Z","year":2000,"description":"REPAIR (E) ONE CAR GARAGE (12'X20') W/ ATTACHED TRELLIS(9'X20'). WORK INCLUDES NEW ROOF FRAMING & THREE EXTERIOR WALLS & TRELLIS FRAMING WITH FOUNDATIONS. ADD TWO SKYLIGHTS. RELATED PLUMBING WORK FOR EXISTING SINK & ELECTRICAL. CONSTRUCTIO PER TYPE V SHEET.","metadescription":"Bldg-Alter/Repair. 1 or 2 Family Dwelling. REPAIR (E) ONE CAR GARAGE (12'X20') W/ ATTACHED TRELLIS(9'X20'). WORK INCLUDES NEW ROOF FRAMING & THREE EXTERIOR WALLS & TRELLIS FRAMING WITH FOUNDATIONS. ADD TWO SKYLIGHTS. RELATED PLUMBING WORK FOR EXISTING SINK & ELECTRICAL. CONSTRUCTIO PER TYPE V SHEET.. Permit Finaled. 1343 N ORANGE GROVE AVE","address":"1343 North Orange Grove Avenue, CA, Los Angeles, 90046, US","ct":"1898.00","ev":"N","apc":"Central","zone":"Currently Not Available, R1-1, HPOZ","solar":"N","pin_nbr":"147B177  1331","use_code":"7","geolocation":"POINT (-118.36054 34.09565)","status_date":"08/03/2001","permit_group":"Building","refresh_time":"06/10/2026","type_lat_lon":"ADDRESS","business_unit":"Plan Check at Counter"},"geometry":{"type":"Point","coordinates":[-118.36054,34.09565]}},{"type":"Feature","properties":{"date":"2000-07-18T00:00:00.000Z","year":2000,"description":"Interior Remodel @ 2nd flr unit (Reinforce ceiling and roof rafters) add skylight @ lvg rm, remove wall between lvg & dinning rm remodel kitchen & bath, combined electrical & plumbing","metadescription":"Bldg-Alter/Repair. 1 or 2 Family Dwelling. Interior Remodel @ 2nd flr unit (Reinforce ceiling and roof rafters) add skylight @ lvg rm, remove wall between lvg & dinning rm remodel kitchen & bath, combined electrical & plumbing. Permit Finaled. 7175 W FOUNTAIN AVE","address":"7175 West Fountain Avenue, CA, Los Angeles, 90046, US","ct":"1899.02","ev":"N","apc":"Central","zone":"R3-1","solar":"N","pin_nbr":"144B181   129","use_code":"2","geolocation":"POINT (-118.34576 34.09446)","status_date":"03/13/2002","permit_group":"Building","refresh_time":"06/10/2026","type_lat_lon":"ADDRESS","business_unit":"Plan Check at Counter"},"geometry":{"type":"Point","coordinates":[-118.34576,34.09446]}},{"type":"Feature","properties":{"date":"2000-06-22T00:00:00.000Z","year":2000,"description":"COMBINE 2 SFD'S INTO ONE SFD. (1206 SF ADDITION) Convert attached garage into habitable area (400sf). Total floor area of new SFD 4750sf Include electric, plumbing & heat.","metadescription":"Bldg-Alter/Repair. 1 or 2 Family Dwelling. COMBINE 2 SFD'S INTO ONE SFD. (1206 SF ADDITION) Convert attached garage into habitable area (400sf). Total floor area of new SFD 4750sf Include electric, plumbing & heat.. Permit Finaled. 911 N ALFRED ST","address":"911 North Alfred Street, CA, West Hollywood, 90069, US","ct":"1944.00","ev":"N","apc":"Central","zone":"R3-1","solar":"N","pin_nbr":"144B173   367","use_code":"1","geolocation":"POINT (-118.37541 34.08737)","status_date":"05/14/2001","construction":"Type V-N Construction","permit_group":"Building","refresh_time":"06/10/2026","type_lat_lon":"ADDRESS","business_unit":"Regular Plan Check","square_footage":"1606"},"geometry":{"type":"Point","coordinates":[-118.37541,34.08737]}},{"type":"Feature","properties":{"date":"2000-06-01T00:00:00.000Z","year":2000,"description":"PROPOSED INTERIOR REMODEL W/IN EXISTING SFD. REFRAME PORTIONS OF ROOF AND ADD AT REAR OF EXISTING SFD. RELATED ELECTRICAL AND PLUMBING","metadescription":"Bldg-Addition. 1 or 2 Family Dwelling. PROPOSED INTERIOR REMODEL W/IN EXISTING SFD. REFRAME PORTIONS OF ROOF AND ADD AT REAR OF EXISTING SFD. RELATED ELECTRICAL AND PLUMBING. Permit Finaled. 1308 N OGDEN DR","address":"1308 North Ogden Drive, CA, Los Angeles, 90046, US","ct":"1898.00","ev":"N","apc":"Central","zone":"R1-1","solar":"N","pin_nbr":"144B177    67","use_code":"1","geolocation":"POINT (-118.35913 34.0948)","status_date":"08/21/2001","construction":"Type V-N Construction","permit_group":"Building","refresh_time":"06/10/2026","type_lat_lon":"ADDRESS","business_unit":"Plan Check at Counter","square_footage":"121"},"geometry":{"type":"Point","coordinates":[-118.35913,34.0948]}},{"type":"Feature","properties":{"date":"2000-02-03T00:00:00.000Z","year":2000,"description":"Remodel 2 Bedrms,add/remove interior walls,add Bathrm within (E)space, (N)beam/posts.Replace1exterior french door &3 interior doors. Comb.Electrical/plumbing","metadescription":"Bldg-Alter/Repair. 1 or 2 Family Dwelling. Remodel 2 Bedrms,add/remove interior walls,add Bathrm within (E)space, (N)beam/posts.Replace1exterior french door &3 interior doors. Comb.Electrical/plumbing. Permit Finaled. 410 N CROFT AVE","address":"410 North Croft Avenue, CA, Los Angeles, 90048, US","ct":"1945.00","ev":"N","apc":"Central","zone":"R1-1","solar":"N","pin_nbr":"138B173    39","use_code":"1","geolocation":"POINT (-118.37407 34.07837)","status_date":"05/21/2001","construction":"Type V-N Construction","permit_group":"Building","refresh_time":"06/10/2026","type_lat_lon":"ADDRESS","business_unit":"Plan Check at Counter"},"geometry":{"type":"Point","coordinates":[-118.37407,34.07837]}},{"type":"Feature","properties":{"date":"1999-11-23T00:00:00.000Z","year":1999,"description":"ADD 7X4 TO BUILD INTERIOR STAIRWAY TO CONNECT (E)SFD AT 2ND FLR TO (E) FIRST FLR 1/2 BATH AREA ADJACENT TO GARAGE--SEE COMMENTS. REMODEL 1ST FLR TO INCORPORATE THIS AREA AS PART OF (E)DWELLING. INSTALL RELATED ELECTRICAL & HVAC.","metadescription":"Bldg-Alter/Repair. 1 or 2 Family Dwelling. ADD 7X4 TO BUILD INTERIOR STAIRWAY TO CONNECT (E)SFD AT 2ND FLR TO (E) FIRST FLR 1/2 BATH AREA ADJACENT TO GARAGE--SEE COMMENTS. REMODEL 1ST FLR TO INCORPORATE THIS AREA AS PART OF (E)DWELLING. INSTALL RELATED ELECTRICAL & HVAC.. Permit Finaled. 8264 W OAKWOOD AVE","address":"8264 West Oakwood Avenue, CA, Los Angeles, 90048, US","ct":"1945.00","ev":"N","apc":"Central","zone":"R1-1","solar":"N","pin_nbr":"138B173    91","use_code":"1","geolocation":"POINT (-118.36952 34.07806)","status_date":"03/02/2000","permit_group":"Building","refresh_time":"06/10/2026","type_lat_lon":"ADDRESS","business_unit":"Appointment Plan Check","square_footage":"1697"},"geometry":{"type":"Point","coordinates":[-118.36952,34.07806]}},{"type":"Feature","properties":{"date":"1999-10-04T00:00:00.000Z","year":1999,"description":"13' x 15' ADDITION OF MASTER BED IN REAR OF (E) SFD DETAILS PER TYPE V SHHET, CONVERT EXISTING BEDROOM TO BATHROOM RELATED ELECTRICAL, HVAC AND PLUMBING","metadescription":"Bldg-Addition. 1 or 2 Family Dwelling. 13' x 15' ADDITION OF MASTER BED IN REAR OF (E) SFD DETAILS PER TYPE V SHHET, CONVERT EXISTING BEDROOM TO BATHROOM RELATED ELECTRICAL, HVAC AND PLUMBING. Permit Finaled. 1315 N ORANGE GROVE AVE","address":"1315 North Orange Grove Avenue, CA, Los Angeles, 90046, US","ct":"1898.00","ev":"N","apc":"Central","zone":"R1-1, HPOZ","solar":"N","pin_nbr":"144B177    40","use_code":"1","geolocation":"POINT (-118.36052 34.0949)","status_date":"05/02/2003","construction":"Type V-N Construction","permit_group":"Building","refresh_time":"06/10/2026","type_lat_lon":"ADDRESS","business_unit":"Plan Check at Counter","square_footage":"195"},"geometry":{"type":"Point","coordinates":[-118.36052,34.0949]}},{"type":"Feature","properties":{"date":"1999-08-16T00:00:00.000Z","year":1999,"description":"Add bedroom& bathroom@ rear of(E) SDF(26.75'x18.25',irr.228 s.f.); add breakfast area &entry in the front(18'x12',irr.209.0s.f.)total addition:437s.f.Interior remodel:add/remove interior walls,(N)post/ftg ; relocate Bathrm within (E) space.Electrical/plumbing/HVAC","metadescription":"Bldg-Addition. 1 or 2 Family Dwelling. Add bedroom& bathroom@ rear of(E) SDF(26.75'x18.25',irr.228 s.f.); add breakfast area &entry in the front(18'x12',irr.209.0s.f.)total addition:437s.f.Interior remodel:add/remove interior walls,(N)post/ftg ; relocate Bathrm within (E) space.Electrical/plumbing/HVAC. Permit Finaled. 316 N ORLANDO AVE","address":"316 North Orlando Avenue, CA, Los Angeles, 90048, US","ct":"1945.00","ev":"N","apc":"Central","zone":"R1-1, O","solar":"N","pin_nbr":"138B173   364","use_code":"1","geolocation":"POINT (-118.37301 34.07666)","status_date":"03/19/2001","construction":"Type V-N Construction","permit_group":"Building","refresh_time":"06/10/2026","type_lat_lon":"ADDRESS","business_unit":"Plan Check at Counter","square_footage":"437"},"geometry":{"type":"Point","coordinates":[-118.37301,34.07666]}},{"type":"Feature","properties":{"date":"1999-06-24T00:00:00.000Z","year":1999,"description":"add storage room to existing garage approx 65 sqft. (6'-6\" x 10') related electrical","metadescription":"Bldg-Addition. 1 or 2 Family Dwelling. add storage room to existing garage approx 65 sqft. (6'-6\" x 10') related electrical. Permit Closed. 915 N ORLANDO AVE","address":"915 North Orlando Avenue, CA, West Hollywood, 90069, US","ct":"1944.00","ev":"N","apc":"Central","zone":"R1-1","solar":"N","pin_nbr":"144B173   331","use_code":"1","geolocation":"POINT (-118.3733 34.08745)","status_date":"11/05/1999","permit_group":"Building","refresh_time":"06/10/2026","type_lat_lon":"ADDRESS","business_unit":"Plan Check at Counter"},"geometry":{"type":"Point","coordinates":[-118.3733,34.08745]}},{"type":"Feature","properties":{"date":"1999-01-29T00:00:00.000Z","year":1999,"description":"REFURBISH THE LIVING ROOM AND KITCHEN IN UNIT 539 REPLACE DRYWALL, ELECTRICAL, PLUMBING, 2 WINDOWS AND PATCH STUCCO","metadescription":"Bldg-Alter/Repair. 1 or 2 Family Dwelling. REFURBISH THE LIVING ROOM AND KITCHEN IN UNIT 539 REPLACE DRYWALL, ELECTRICAL, PLUMBING, 2 WINDOWS AND PATCH STUCCO. Permit Expired. 539-541 N HARPER AVE","address":"539 North Harper Avenue, CA, Los Angeles, 90048, US","ct":"1944.00","ev":"N","apc":"Central","solar":"N","pin_nbr":"141B173   895","use_code":"2","geolocation":"POINT (-118.36918 34.08117)","status_date":"01/08/2007","permit_group":"Building","refresh_time":"06/10/2026","type_lat_lon":"ADDRESS","business_unit":"Express Permit"},"geometry":{"type":"Point","coordinates":[-118.36918,34.08117]}},{"type":"Feature","properties":{"date":"1999-01-28T00:00:00.000Z","year":1999,"description":"Convert 2 SFD'S into Duplex,connect two structures by expanding/ remodeling bedroom @527 La Jolla St.& adding service porch (8.75'x28.17',irr.213.6 s.f.) Electrical/plumbing EQ.emrgency gas shut-off valves to be installed on all gas fuel lines","metadescription":"Bldg-Addition. 1 or 2 Family Dwelling. Convert 2 SFD'S into Duplex,connect two structures by expanding/ remodeling bedroom @527 La Jolla St.& adding service porch (8.75'x28.17',irr.213.6 s.f.) Electrical/plumbing EQ.emrgency gas shut-off valves to be installed on all gas fuel lines. CofO Issued. 527-529 N LA JOLLA AVE","address":"527 North La Jolla Avenue, CA, Los Angeles, 90048, US","ct":"1944.00","ev":"N","apc":"Central","zone":"R1-1","solar":"N","height":"13","pin_nbr":"141B173   969","use_code":"2","geolocation":"POINT (-118.36813 34.08085)","status_date":"12/15/2008","construction":"Type V-N Construction","permit_group":"Building","refresh_time":"06/10/2026","type_lat_lon":"ADDRESS","business_unit":"Plan Check at Counter","square_footage":"213.6"},"geometry":{"type":"Point","coordinates":[-118.36813,34.08085]}},{"type":"Feature","properties":{"date":"1998-11-24T00:00:00.000Z","year":1998,"description":"GENERAL REHAB, REPLACE 3 DOORS (SAME SIZE), & REMODEL BATHROOMS, INCLUDING PLUMBING & ELECTRIC WORK","metadescription":"Bldg-Alter/Repair. 1 or 2 Family Dwelling. GENERAL REHAB, REPLACE 3 DOORS (SAME SIZE), & REMODEL BATHROOMS, INCLUDING PLUMBING & ELECTRIC WORK. Permit Closed. 1337 N ORANGE GROVE AVE","address":"1333 North Orange Grove Avenue, CA, Los Angeles, 90046, US","ct":"1898.00","ev":"N","apc":"Central","solar":"N","pin_nbr":"147B177  1348","use_code":"1","geolocation":"POINT (-118.36055 34.09551)","status_date":"10/29/1999","permit_group":"Building","refresh_time":"06/10/2026","type_lat_lon":"ADDRESS","business_unit":"Express Permit"},"geometry":{"type":"Point","coordinates":[-118.36055,34.09551]}},{"type":"Feature","properties":{"date":"1998-11-04T00:00:00.000Z","year":1998,"description":"NEW 20' X 24' GARAGE W/ LAUNDRY AREA RELATED ELECTRICAL, PLUMBING","metadescription":"Bldg-New. 1 or 2 Family Dwelling. NEW 20' X 24' GARAGE W/ LAUNDRY AREA RELATED ELECTRICAL, PLUMBING. Permit Finaled. 1325 N OGDEN DR","address":"1319 North Ogden Drive, CA, Los Angeles, 90046, US","ct":"1898.00","ev":"N","apc":"Central","zone":"R1-1, HPOZ","solar":"N","pin_nbr":"147B177  1402","use_code":"7","geolocation":"POINT (-118.35939 34.09511)","status_date":"10/02/2003","construction":"Type V-N Construction","permit_group":"Building","refresh_time":"06/10/2026","type_lat_lon":"ADDRESS","business_unit":"Plan Check at Counter","square_footage":"480"},"geometry":{"type":"Point","coordinates":[-118.35939,34.09511]}},{"type":"Feature","properties":{"date":"1998-07-02T00:00:00.000Z","year":1998,"description":"REBUILD FIRE DAMAGED RECREATION ROOM ON EXISTING FTGS/SLAB RELATED ELECTRICAL, HVAC AND PLUMBING","metadescription":"Bldg-Alter/Repair. 1 or 2 Family Dwelling. REBUILD FIRE DAMAGED RECREATION ROOM ON EXISTING FTGS/SLAB RELATED ELECTRICAL, HVAC AND PLUMBING. Permit Finaled. 435 N FLORES ST","address":"435 North Flores Street, CA, Los Angeles, 90048, US","ct":"1945.00","ev":"N","apc":"Central","zone":"R1-1","solar":"N","pin_nbr":"141B173  1300","use_code":"7","geolocation":"POINT (-118.3712 34.07917)","status_date":"01/03/2005","construction":"Type V-N Construction","permit_group":"Building","refresh_time":"06/10/2026","type_lat_lon":"ADDRESS","business_unit":"Plan Check at Counter","square_footage":"476"},"geometry":{"type":"Point","coordinates":[-118.3712,34.07917]}},{"type":"Feature","properties":{"date":"1998-07-02T00:00:00.000Z","year":1998,"description":"Kitchen and bathroom remodel (cabinets, tile, flooring, plumbing/ electrical.","metadescription":"Bldg-Alter/Repair. 1 or 2 Family Dwelling. Kitchen and bathroom remodel (cabinets, tile, flooring, plumbing/ electrical.. Permit Closed. 858 N OGDEN DR","address":"858 North Ogden Drive, CA, Los Angeles, 90046, US","ct":"1920.00","ev":"N","apc":"Central","zone":"R2-1XL","solar":"N","pin_nbr":"144B177   489","use_code":"1","geolocation":"POINT (-118.35935 34.08698)","status_date":"08/09/1999","permit_group":"Building","refresh_time":"06/10/2026","type_lat_lon":"ADDRESS","business_unit":"Express Permit"},"geometry":{"type":"Point","coordinates":[-118.35935,34.08698]}},{"type":"Feature","properties":{"date":"1998-05-26T00:00:00.000Z","year":1998,"description":"remodel kitchen; remove one non-bearing wall; relocate electric panel","metadescription":"Bldg-Alter/Repair. 1 or 2 Family Dwelling. remodel kitchen; remove one non-bearing wall; relocate electric panel. Permit Closed. 853 N OGDEN DR","address":"851 North Ogden Drive, CA, Los Angeles, 90046, US","ct":"1920.00","ev":"N","apc":"Central","solar":"N","pin_nbr":"144B177   523","use_code":"1","geolocation":"POINT (-118.3596 34.08695)","status_date":"08/09/1999","permit_group":"Building","refresh_time":"06/10/2026","type_lat_lon":"ADDRESS","business_unit":"Plan Check at Counter"},"geometry":{"type":"Point","coordinates":[-118.3596,34.08695]}},{"type":"Feature","properties":{"date":"1998-05-14T00:00:00.000Z","year":1998,"description":"ALTERATIONS TO BATHROOMS, FINISHES, WOODWORK AND ELECTRICAL....INTERIOR REMODEL.","metadescription":"Bldg-Alter/Repair. 1 or 2 Family Dwelling. ALTERATIONS TO BATHROOMS, FINISHES, WOODWORK AND ELECTRICAL....INTERIOR REMODEL.. Permit Expired. 1329 N GENESSEE AVE","address":"1329 North Genesee Avenue, CA, Los Angeles, 90046, US","ct":"1898.00","ev":"N","apc":"Central","solar":"N","pin_nbr":"147B177  1388","use_code":"1","geolocation":"POINT (-118.35849143 34.0952989)","status_date":"01/01/2007","construction":"Type V-N Construction","permit_group":"Building","refresh_time":"06/10/2026","type_lat_lon":"PIN","business_unit":"Plan Check at Counter"},"geometry":{"type":"Point","coordinates":[-118.35849143,34.0952989]}},{"type":"Feature","properties":{"date":"1998-03-06T00:00:00.000Z","year":1998,"description":"IN KITCHEN - ADD ELECTRICAL CIRCUITS, REPLACE PLASTER ON WALLS WITH DRYWALL - NEW CABINETS, REPLACE ROTTEN WOOD STUDS WITH NEW.","metadescription":"Bldg-Alter/Repair. 1 or 2 Family Dwelling. IN KITCHEN - ADD ELECTRICAL CIRCUITS, REPLACE PLASTER ON WALLS WITH DRYWALL - NEW CABINETS, REPLACE ROTTEN WOOD STUDS WITH NEW.. Permit Closed. 1343 N ORANGE GROVE AVE","address":"1343 North Orange Grove Avenue, CA, Los Angeles, 90046, US","ct":"1898.00","ev":"N","apc":"Central","zone":"R1-1, HPOZ","solar":"N","pin_nbr":"147B177  1331","use_code":"1","geolocation":"POINT (-118.36054 34.09565)","status_date":"12/10/2008","permit_group":"Building","refresh_time":"06/10/2026","type_lat_lon":"ADDRESS","business_unit":"Express Permit"},"geometry":{"type":"Point","coordinates":[-118.36054,34.09565]}},{"type":"Feature","properties":{"date":"1998-02-19T00:00:00.000Z","year":1998,"description":"REPAIR FIRE DAMAGED ROOF AND KITCHEN. T/O EXISTING ROOF, INSTALL 1/2\" CDX PLYWOOD AND CLASS \"A\" COMP SHINGLES - 15SQS. REPLACE HVAC SYSTEM, REPAIR ELECTRICAL.","metadescription":"Bldg-Alter/Repair. 1 or 2 Family Dwelling. REPAIR FIRE DAMAGED ROOF AND KITCHEN. T/O EXISTING ROOF, INSTALL 1/2\" CDX PLYWOOD AND CLASS \"A\" COMP SHINGLES - 15SQS. REPLACE HVAC SYSTEM, REPAIR ELECTRICAL.. Permit Finaled. 1310 N SPAULDING AVE","address":"1310 North Spaulding Avenue, CA, Los Angeles, 90046, US","ct":"1898.00","ev":"N","apc":"Central","zone":"R1-1, HPOZ","solar":"N","pin_nbr":"144B177    24","use_code":"1","geolocation":"POINT (-118.35695 34.09474)","status_date":"11/29/1999","permit_group":"Building","refresh_time":"06/10/2026","type_lat_lon":"ADDRESS","business_unit":"Plan Check at Counter"},"geometry":{"type":"Point","coordinates":[-118.35695,34.09474]}},{"type":"Feature","properties":{"date":"1997-12-24T00:00:00.000Z","year":1997,"description":"ENLARGE LIVING ROOM 4'7\"X14' AND CLOSET AT REAR 21\"X9'7\". NEW ELECTRICAL. VOLUNTARY SEISMIC RETROFIT PER CITY STANDARD PLAN #1.","metadescription":"Bldg-Addition. 1 or 2 Family Dwelling. ENLARGE LIVING ROOM 4'7\"X14' AND CLOSET AT REAR 21\"X9'7\". NEW ELECTRICAL. VOLUNTARY SEISMIC RETROFIT PER CITY STANDARD PLAN #1.. Permit Closed. 464 N SWEETZER AVE","address":"464 North Sweetzer Avenue, CA, Los Angeles, 90048, US","ct":"1945.00","ev":"N","apc":"Central","zone":"R1-1","solar":"N","pin_nbr":"141B173  1124","use_code":"1","geolocation":"POINT (-118.36988 34.07998)","status_date":"08/03/1999","construction":"Type V-N Construction","permit_group":"Building","refresh_time":"06/10/2026","type_lat_lon":"ADDRESS","business_unit":"Plan Check at Counter","square_footage":"80"},"geometry":{"type":"Point","coordinates":[-118.36988,34.07998]}},{"type":"Feature","properties":{"date":"1997-10-16T00:00:00.000Z","year":1997,"description":"ADD TRELLIS COVERED PATIO AT REAR OF (E) SFD ( 15' X 31', irr., 400.0 S.F.) SECURE WALLS TO FT'GS PER L.A. CITY STD DETAIL, ADD PLYWOOD TO CRIPPLE WALLS. ELECTRICAL.","metadescription":"Bldg-Addition. 1 or 2 Family Dwelling. ADD TRELLIS COVERED PATIO AT REAR OF (E) SFD ( 15' X 31', irr., 400.0 S.F.) SECURE WALLS TO FT'GS PER L.A. CITY STD DETAIL, ADD PLYWOOD TO CRIPPLE WALLS. ELECTRICAL.. Permit Finaled. 911 N LAUREL AVE","address":"911 North Laurel Avenue, CA, Los Angeles, 90046, US","ct":"1944.00","ev":"N","apc":"Central","zone":"R1-1","solar":"N","height":"16","pin_nbr":"144B177   417","use_code":"1","geolocation":"POINT (-118.36497 34.0875)","status_date":"11/20/2006","construction":"Type V-N Construction","permit_group":"Building","refresh_time":"06/10/2026","type_lat_lon":"ADDRESS","business_unit":"Plan Check at Counter","square_footage":"400"},"geometry":{"type":"Point","coordinates":[-118.36497,34.0875]}},{"type":"Feature","properties":{"date":"1997-08-01T00:00:00.000Z","year":1997,"description":"Repair/replace old ceilings with drywall and insulation,new electrical wiring, new plumbing, new kitchen cabinets, stove/oven & sink, bath sink, bath tub, shower.","metadescription":"Bldg-Alter/Repair. 1 or 2 Family Dwelling. Repair/replace old ceilings with drywall and insulation,new electrical wiring, new plumbing, new kitchen cabinets, stove/oven & sink, bath sink, bath tub, shower.. Permit Finaled. 435 N FLORES ST","address":"435 North Flores Street, CA, Los Angeles, 90048, US","ct":"1945.00","ev":"N","apc":"Central","zone":"R1-1","solar":"N","pin_nbr":"141B173  1300","use_code":"1","geolocation":"POINT (-118.3712 34.07917)","status_date":"02/15/2008","permit_group":"Building","refresh_time":"06/10/2026","type_lat_lon":"ADDRESS","business_unit":"Express Permit"},"geometry":{"type":"Point","coordinates":[-118.3712,34.07917]}},{"type":"Feature","properties":{"date":"1997-05-28T00:00:00.000Z","year":1997,"description":"Add plumbing Heating ,electrical and cabinets to work under 97LA63176 and stamp plans. See Insp \"not approved\" notice N109438 dated 5/21/97 Investigation fee is due","metadescription":"Bldg-Alter/Repair. Commercial. Add plumbing Heating ,electrical and cabinets to work under 97LA63176 and stamp plans. See Insp \"not approved\" notice N109438 dated 5/21/97 Investigation fee is due. Permit Closed. 8316 W MELROSE AVE","address":"8316 Melrose Avenue, CA, West Hollywood, 90069, US","ct":"1944.00","ev":"N","apc":"Central","solar":"N","pin_nbr":"141B173   484","use_code":"13","geolocation":"POINT (-118.37091914 34.0833917)","status_date":"01/24/2000","permit_group":"Building","refresh_time":"06/10/2026","type_lat_lon":"PIN","business_unit":"Express Permit"},"geometry":{"type":"Point","coordinates":[-118.37091914,34.0833917]}},{"type":"Feature","properties":{"date":"1997-05-23T00:00:00.000Z","year":1997,"description":"Add family room, bedroom, bathroom,W.I. closet, service porch, extend kitchen (25'x35', irr.763sq.ft.); extend living room&bedroom (10'x12', irr. 89sq.ft.) total addition 852sq. ft. Replace 10 windows & 8 doors; add insulation, complete interior remodel. Restructure roof. Electrical/ plumbing/HVAC","metadescription":"Bldg-Addition. 1 or 2 Family Dwelling. Add family room, bedroom, bathroom,W.I. closet, service porch, extend kitchen (25'x35', irr.763sq.ft.); extend living room&bedroom (10'x12', irr. 89sq.ft.) total addition 852sq. ft. Replace 10 windows & 8 doors; add insulation, complete interior remodel. Restructure roof. Electrical/ plumbing/HVAC. Permit Closed. 453 N ALFRED ST","address":"1-4, 459 North Alfred Street, CA, Los Angeles, 90048, US","ct":"1945.00","ev":"N","apc":"Central","zone":"R2-1, O","solar":"N","pin_nbr":"141B173  1206","use_code":"1","geolocation":"POINT (-118.3754 34.07969)","status_date":"07/19/1999","permit_group":"Building","refresh_time":"06/10/2026","type_lat_lon":"ADDRESS","business_unit":"Plan Check at Counter"},"geometry":{"type":"Point","coordinates":[-118.3754,34.07969]}},{"type":"Feature","properties":{"date":"1997-05-20T00:00:00.000Z","year":1997,"description":"add bathrm to master bedrm (8'x18' irr = 140m SF), convert existing ba thrm to closet, remodel master bedrm -- including electrical/plumbing.","metadescription":"Bldg-Addition. 1 or 2 Family Dwelling. add bathrm to master bedrm (8'x18' irr = 140m SF), convert existing ba thrm to closet, remodel master bedrm -- including electrical/plumbing.. Permit Finaled. 441 N ORLANDO AVE","address":"441 North Orlando Avenue, CA, Los Angeles, 90048, US","ct":"1945.00","ev":"N","apc":"Central","zone":"R1-1","solar":"N","pin_nbr":"141B173  1277","use_code":"1","geolocation":"POINT (-118.37329 34.0793)","status_date":"04/10/2000","permit_group":"Building","refresh_time":"06/10/2026","type_lat_lon":"ADDRESS","business_unit":"Plan Check at Counter"},"geometry":{"type":"Point","coordinates":[-118.37329,34.0793]}},{"type":"Feature","properties":{"date":"1996-09-26T00:00:00.000Z","year":1996,"description":"Addition: Add 10 ft x 19 ft. to existing garage for storage use. Add electrical work , no plumbing .","metadescription":"Bldg-Addition. 1 or 2 Family Dwelling. Addition: Add 10 ft x 19 ft. to existing garage for storage use. Add electrical work , no plumbing .. Permit Finaled. 453 N FLORES ST","address":"453 North Flores Street, CA, Los Angeles, 90048, US","ct":"1945.00","ev":"N","apc":"Central","solar":"N","pin_nbr":"141B173  1202","geolocation":"POINT (-118.3712 34.0797)","status_date":"06/21/2000","permit_group":"Building","refresh_time":"06/10/2026","type_lat_lon":"ADDRESS","business_unit":"Plan Check at Counter"},"geometry":{"type":"Point","coordinates":[-118.3712,34.0797]}}]}
