{"type":"FeatureCollection","features":[{"type":"Feature","properties":{"date":"2026-04-15T00:00:00.000Z","year":2026,"description":"ePlan: New elevator within (E) SFD. No change to existing footprint, no additional floor area, no change to exterior.","metadescription":"Bldg-Alter/Repair. 1 or 2 Family Dwelling. ePlan: New elevator within (E) SFD. No change to existing footprint, no additional floor area, no change to exterior.. Issued. 347 N ALFRED ST","address":"347 North Alfred Street, CA, Los Angeles, 90048, US","ct":"1945.00","ev":"N","apc":"Central","cpa":"Wilshire","zone":"R2-1-O","solar":"N","pin_nbr":"138B173   211","use_code":"1","status_date":"04/15/2026","permit_group":"Building","refresh_time":"06/10/2026","type_lat_lon":"ADDRESS","business_unit":"Plan Check at Counter"},"geometry":{"type":"Point","coordinates":[-118.3755,34.07746]}},{"type":"Feature","properties":{"date":"2024-11-19T00:00:00.000Z","year":2024,"description":"EPLAN Zoning Check for parking. Elevator addition to the existing hospital. TI at plaza level to add 56 beds under OSHPD jurisdiction.","metadescription":"Bldg-Alter/Repair. Commercial. EPLAN Zoning Check for parking. Elevator addition to the existing hospital. TI at plaza level to add 56 beds under OSHPD jurisdiction.. Issued. 8750 W GRACIE ALLEN DR","address":"8750 Gracie Allen Drive, CA, Los Angeles, 90048, US","ct":"2149.02","ev":"N","apc":"Central","cpa":"Wilshire","zone":"[T][Q]C2-2D-O","solar":"N","pin_nbr":"138B169   247","use_code":"10","status_date":"11/19/2024","construction":"Type I-A Construction","permit_group":"Building","refresh_time":"06/10/2026","type_lat_lon":"ADDRESS","business_unit":"Regular Plan Check","square_footage":"-419.03"},"geometry":{"type":"Point","coordinates":[-118.38129,34.07547]}},{"type":"Feature","properties":{"date":"2024-06-25T00:00:00.000Z","year":2024,"description":"SUPPLEMENTAL PERMIT TO PERMIT 22014-10000-06394: FIRST FLOOR TWO CHANGES:- THE STORAGE DOOR IS EXISTING TO REMAIN .-WALL BETWEEN THE STORAGE AND ELEVATOR UTILITY ROOM IS EXISTING TO REMAIN","metadescription":"Bldg-Alter/Repair. Commercial. SUPPLEMENTAL PERMIT TO PERMIT 22014-10000-06394: FIRST FLOOR TWO CHANGES:- THE STORAGE DOOR IS EXISTING TO REMAIN .-WALL BETWEEN THE STORAGE AND ELEVATOR UTILITY ROOM IS EXISTING TO REMAIN. Permit Finaled. 921 N LA CIENEGA BLVD","address":"923 North La Cienega Boulevard, CA, West Hollywood, 90069, US","ct":"1944.02","ev":"N","apc":"Central","cpa":"Hollywood","zone":"C4-1VL","solar":"N","pin_nbr":"144B173   325","use_code":"4","status_date":"04/07/2025","permit_group":"Building","refresh_time":"06/10/2026","type_lat_lon":"ADDRESS","business_unit":"Plan Check at Counter"},"geometry":{"type":"Point","coordinates":[-118.37658,34.08754]}},{"type":"Feature","properties":{"date":"2019-11-15T00:00:00.000Z","year":2019,"description":"RECONFIGURE GROUND FLOOR TO DIVIDE RETAIL INTO 2 TENANT SPACES, CREATE NEW ELEVATOR LOBBY AND WITH FACADE REMODELING.  ALL WORKS ARE PER DESIGN","metadescription":"Bldg-Alter/Repair. Commercial. RECONFIGURE GROUND FLOOR TO DIVIDE RETAIL INTO 2 TENANT SPACES, CREATE NEW ELEVATOR LOBBY AND WITH FACADE REMODELING.  ALL WORKS ARE PER DESIGN. Issued. 807-809 N LA CIENEGA BLVD","address":"807 North La Cienega Boulevard, CA, West Hollywood, 90069, US","ct":"1944.02","ev":"N","apc":"Central","cpa":"Hollywood","zone":"C4-1VL","solar":"N","pin_nbr":"141B173   195","use_code":"16","geolocation":"POINT (-118.37673 34.08546)","status_date":"11/15/2019","permit_group":"Building","refresh_time":"06/10/2026","type_lat_lon":"ADDRESS","business_unit":"Expanded Counter Plan Check"},"geometry":{"type":"Point","coordinates":[-118.37673,34.08546]}},{"type":"Feature","properties":{"date":"2019-07-11T00:00:00.000Z","year":2019,"description":"Supplemental to 17010-20000-04439 to revise floor plans for elevator access to roof","metadescription":"Bldg-Alter/Repair. 1 or 2 Family Dwelling. Supplemental to 17010-20000-04439 to revise floor plans for elevator access to roof. Permit Finaled. 515 N HARPER AVE","address":"515 North Harper Avenue, CA, Los Angeles, 90048, US","ct":"1944.02","ev":"N","apc":"Central","cpa":"Hollywood","zone":"R1V3","solar":"N","pin_nbr":"141B173  1034","use_code":"1","geolocation":"POINT (-118.36918 34.08059)","status_date":"05/07/2021","permit_group":"Building","refresh_time":"06/10/2026","type_lat_lon":"ADDRESS","business_unit":"Plan Check at Counter"},"geometry":{"type":"Point","coordinates":[-118.36918,34.08059]}},{"type":"Feature","properties":{"date":"2018-11-20T00:00:00.000Z","year":2018,"description":"REMOVE ONE ELEVATOR/LIFT FOR 2ND FLOOR USE. ADD WALL AND INFILL 2ND FLOOR OPENING. ONE REAR ELEVATOR TO REMAIN. BUILDING SHALL BE USED FOR ONE TENANT USE ONLY, NOT FOR MULTIPLE TENANTS PER CERTIFICATE OF OCCUPANCY.","metadescription":"Bldg-Alter/Repair. Commercial. REMOVE ONE ELEVATOR/LIFT FOR 2ND FLOOR USE. ADD WALL AND INFILL 2ND FLOOR OPENING. ONE REAR ELEVATOR TO REMAIN. BUILDING SHALL BE USED FOR ONE TENANT USE ONLY, NOT FOR MULTIPLE TENANTS PER CERTIFICATE OF OCCUPANCY.. Permit Finaled. 8472 W MELROSE PL","address":"8472 Melrose Place, CA, West Hollywood, 90069, US","ct":"1944.02","ev":"N","apc":"Central","cpa":"Hollywood","zone":"C4-1XL","solar":"N","pin_nbr":"141B173   515","use_code":"16","geolocation":"POINT (-118.37568 34.0834)","status_date":"08/28/2019","permit_group":"Building","refresh_time":"06/10/2026","type_lat_lon":"ADDRESS","business_unit":"Plan Check at Counter"},"geometry":{"type":"Point","coordinates":[-118.37568,34.0834]}},{"type":"Feature","properties":{"date":"2018-10-03T00:00:00.000Z","year":2018,"description":"SUPPLEMENTAL PERMIT FOR 17014-20000-01472 TO REVISE & REPLACE STOREFRONT, ADD (N) ELEVATOR, RELOCATE ADA BATHROOM, RELOCATE STAIRS & REVISIONS TO FLOOR/STRUCTURAL PLANS","metadescription":"Bldg-Alter/Repair. Commercial. SUPPLEMENTAL PERMIT FOR 17014-20000-01472 TO REVISE & REPLACE STOREFRONT, ADD (N) ELEVATOR, RELOCATE ADA BATHROOM, RELOCATE STAIRS & REVISIONS TO FLOOR/STRUCTURAL PLANS. Permit Finaled. 8479 W MELROSE PL","address":"8479 Melrose Place, CA, West Hollywood, 90069, US","ct":"1944.02","ev":"N","apc":"Central","cpa":"Hollywood","zone":"C4-1XL","solar":"N","pin_nbr":"141B173   428","use_code":"16","geolocation":"POINT (-118.376 34.08373)","status_date":"05/21/2019","permit_group":"Building","refresh_time":"06/10/2026","type_lat_lon":"ADDRESS","business_unit":"Plan Check at Counter"},"geometry":{"type":"Point","coordinates":[-118.376,34.08373]}},{"type":"Feature","properties":{"date":"2017-06-02T00:00:00.000Z","year":2017,"description":"T.I. to include relocate interior stairs & add elevator shaft.Add  7' x 20' 2nd floor balcony under (e) roof @ front.New 1st floor handicap restroom.","metadescription":"Bldg-Alter/Repair. Commercial. T.I. to include relocate interior stairs & add elevator shaft.Add  7' x 20' 2nd floor balcony under (e) roof @ front.New 1st floor handicap restroom.. Permit Finaled. 8472 W MELROSE PL","address":"8472 Melrose Place, CA, West Hollywood, 90069, US","ct":"1944.02","ev":"N","apc":"Central","cpa":"Hollywood","zone":"C4-1XL","solar":"N","pin_nbr":"141B173   515","use_code":"16","geolocation":"POINT (-118.37568 34.0834)","status_date":"12/26/2017","permit_group":"Building","refresh_time":"06/10/2026","type_lat_lon":"ADDRESS","business_unit":"Expanded Counter Plan Check","square_footage":"0"},"geometry":{"type":"Point","coordinates":[-118.37568,34.0834]}},{"type":"Feature","properties":{"date":"2014-03-21T00:00:00.000Z","year":2014,"description":"SUPPLEMENTAL-TO PCIS 08010-10002-01847 for internal configuration including modifying drive ramp slopes and elevations, remove elevator room.  Reconfigure restroom leasing office, community room, gym and conference room.  Relocate mail room and reconfigure.  Add patio outside community room and gym.  Reconfig residential units on level nos 1, 2, 3, 4 and 5.   Reconfig elevator shafts.  Add window wahsing tie-offs around building.","metadescription":"Bldg-Alter/Repair. Commercial. SUPPLEMENTAL-TO PCIS 08010-10002-01847 for internal configuration including modifying drive ramp slopes and elevations, remove elevator room.  Reconfigure restroom leasing office, community room, gym and conference room.  Relocate mail room and reconfigure.  Add patio outside community room and gym.  Reconfig residential units on level nos 1, 2, 3, 4 and 5.   Reconfig elevator shafts.  Add window wahsing tie-offs around building.. Permit Finaled. 375 N LA CIENEGA BLVD 1-125","address":"1-125, 375 North La Cienega Boulevard, CA, Los Angeles, 90048, US","ct":"1945.00","ev":"N","apc":"Central","cpa":"Wilshire","zone":"C2-1VL-O, [Q]P-1VL-O","solar":"N","height":"56","pin_nbr":"141B173  1756","use_code":"5","geolocation":"POINT (-118.37692 34.07806)","status_date":"12/22/2014","construction":"Type V-A Construction","permit_group":"Building","refresh_time":"06/10/2026","type_lat_lon":"ADDRESS","business_unit":"Regular Plan Check","square_footage":"110270"},"geometry":{"type":"Point","coordinates":[-118.37692,34.07806]}},{"type":"Feature","properties":{"date":"2013-12-02T00:00:00.000Z","year":2013,"description":"***SUPPLEMENTAL TO 13016-10000-04129 TO INCREASE THE CURB HEIGHT SUPPORTING THE CURTIN WALL IN THE ELEVATOR SHAFT AREA AND REINFORCEMENT FOR A REMOVABLE PANEL AREA. ***","metadescription":"Bldg-Alter/Repair. Commercial. ***SUPPLEMENTAL TO 13016-10000-04129 TO INCREASE THE CURB HEIGHT SUPPORTING THE CURTIN WALL IN THE ELEVATOR SHAFT AREA AND REINFORCEMENT FOR A REMOVABLE PANEL AREA. ***. Issued. 110 N GEORGE BURNS ROAD BASEMENT","address":"110 George Burns Road, CA, Los Angeles, 90048, US","ct":"2149.02","ev":"N","apc":"Central","cpa":"Wilshire","zone":"[T][Q]C2-2D-O","solar":"N","pin_nbr":"138B169   247","use_code":"23","geolocation":"POINT (-118.38149 34.07564)","status_date":"12/02/2013","permit_group":"Building","refresh_time":"06/10/2026","type_lat_lon":"ADDRESS","business_unit":"Plan Check at Counter"},"geometry":{"type":"Point","coordinates":[-118.38149,34.07564]}},{"type":"Feature","properties":{"date":"2013-06-14T00:00:00.000Z","year":2013,"description":"RENOVATE & CONVERT EXISTING BASEMENT LEVEL INTERIOR SPACE INTO LABORATORY EQUIPMENT ROOMS;  ADD TWO-STOP ELEVATOR;  4,480 SF TI","metadescription":"Bldg-Alter/Repair. Commercial. RENOVATE & CONVERT EXISTING BASEMENT LEVEL INTERIOR SPACE INTO LABORATORY EQUIPMENT ROOMS;  ADD TWO-STOP ELEVATOR;  4,480 SF TI. Issued. 110 N GEORGE BURNS ROAD BASEMENT","address":"110 George Burns Road, CA, Los Angeles, 90048, US","ct":"2149.02","ev":"N","apc":"Central","cpa":"Wilshire","zone":"[T][Q]C2-2D-O","solar":"N","pin_nbr":"138B169   247","use_code":"23","geolocation":"POINT (-118.38149 34.07564)","status_date":"06/14/2013","permit_group":"Building","refresh_time":"06/10/2026","type_lat_lon":"ADDRESS","business_unit":"Regular Plan Check"},"geometry":{"type":"Point","coordinates":[-118.38149,34.07564]}},{"type":"Feature","properties":{"date":"2012-09-26T00:00:00.000Z","year":2012,"description":"Supplemental to permit #08010-10000-01847 to change the portion of first floor USE from residential community room, business center and portion of exercise room to retail spaces and to create a mixed-use commercial and residential building. Change existing shaft to new elevator for commercial customer to parking garage, Change existing residential parking layout to accommodate 32 commercial required parking spaces.","metadescription":"Bldg-Alter/Repair. Commercial. Supplemental to permit #08010-10000-01847 to change the portion of first floor USE from residential community room, business center and portion of exercise room to retail spaces and to create a mixed-use commercial and residential building. Change existing shaft to new elevator for commercial customer to parking garage, Change existing residential parking layout to accommodate 32 commercial required parking spaces.. Permit Finaled. 375 N LA CIENEGA BLVD 1-125","address":"1-125, 375 North La Cienega Boulevard, CA, Los Angeles, 90048, US","ct":"1945.00","ev":"N","apc":"Central","cpa":"Wilshire","zone":"C2-1VL-O","solar":"N","height":"56","pin_nbr":"138B173    80","use_code":"5","geolocation":"POINT (-118.37692 34.07806)","status_date":"12/22/2014","construction":"Type V-A Construction","permit_group":"Building","refresh_time":"06/10/2026","type_lat_lon":"ADDRESS","business_unit":"Regular Plan Check","square_footage":"110270"},"geometry":{"type":"Point","coordinates":[-118.37692,34.07806]}},{"type":"Feature","properties":{"date":"2008-11-07T00:00:00.000Z","year":2008,"description":"BLDG B:  SUPPLEMENTAL PERMIT TO 07016-20000-07415. PUT IN NEW FOUNDATION AND SLAB. EXTERIOR WALLS TO REMAIN.  <NEW ELEVATOR TOWER NOT A PART OF THIS PLAN CHECK>","metadescription":"Bldg-Alter/Repair. Commercial. BLDG B:  SUPPLEMENTAL PERMIT TO 07016-20000-07415. PUT IN NEW FOUNDATION AND SLAB. EXTERIOR WALLS TO REMAIN.  <NEW ELEVATOR TOWER NOT A PART OF THIS PLAN CHECK>. Permit Finaled. 8450 W MELROSE PL Bldg. B","address":"8448 Melrose Place, CA, West Hollywood, 90069, US","ct":"1944.00","ev":"N","apc":"Central","cpa":"Hollywood","zone":"C4-1XL","solar":"N","pin_nbr":"141B173   510","use_code":"16","geolocation":"POINT (-118.37496954 34.08335599)","status_date":"04/16/2009","permit_group":"Building","refresh_time":"06/10/2026","type_lat_lon":"PIN","business_unit":"Regular Plan Check"},"geometry":{"type":"Point","coordinates":[-118.37496954,34.08335599]}},{"type":"Feature","properties":{"date":"2008-11-07T00:00:00.000Z","year":2008,"description":"BLDG A:  SUPPLEMENTAL PERMIT TO 07016-20000-06917. PUT IN NEW FOUNDATION AND SLAB. EXTERIOR WALLS TO REMAIN. <NEW ELEVATOR TOWER NOT A PART OF THIS PLAN CHECK>","metadescription":"Bldg-Alter/Repair. Commercial. BLDG A:  SUPPLEMENTAL PERMIT TO 07016-20000-06917. PUT IN NEW FOUNDATION AND SLAB. EXTERIOR WALLS TO REMAIN. <NEW ELEVATOR TOWER NOT A PART OF THIS PLAN CHECK>. Permit Finaled. 8448 W MELROSE PL Bldg A","address":"8448 Melrose Place, CA, West Hollywood, 90069, US","ct":"1944.00","ev":"N","apc":"Central","cpa":"Hollywood","zone":"C4-1XL","solar":"N","pin_nbr":"141B173   510","use_code":"16","geolocation":"POINT (-118.37491 34.0834)","status_date":"04/16/2009","permit_group":"Building","refresh_time":"06/10/2026","type_lat_lon":"ADDRESS","business_unit":"Regular Plan Check"},"geometry":{"type":"Point","coordinates":[-118.37491,34.0834]}},{"type":"Feature","properties":{"date":"2007-10-30T00:00:00.000Z","year":2007,"description":"SUPPLEMENTAL PERMIT TO 07016-30000-04655. UPGRADE ELEVATOR TO COMPLY WITH DISABLE ACCESS REQUIREMENT.","metadescription":"Bldg-Alter/Repair. Commercial. SUPPLEMENTAL PERMIT TO 07016-30000-04655. UPGRADE ELEVATOR TO COMPLY WITH DISABLE ACCESS REQUIREMENT.. Permit Finaled. 760 N LA CIENEGA BLVD","address":"752 North La Cienega Boulevard, CA, West Hollywood, 90069, US","ct":"1944.00","ev":"N","apc":"Central","cpa":"Hollywood","zone":"C4-1VL","solar":"N","pin_nbr":"141B173   232","use_code":"13","geolocation":"POINT (-118.37632 34.08513)","status_date":"07/21/2009","permit_group":"Building","refresh_time":"06/10/2026","type_lat_lon":"ADDRESS","business_unit":"Plan Check at Counter"},"geometry":{"type":"Point","coordinates":[-118.37632,34.08513]}},{"type":"Feature","properties":{"date":"2007-04-17T00:00:00.000Z","year":2007,"description":"SUPPLEMENTAL PLAN CHECK REF TO PCIS # 06016-30000-05473, STRUCTURAL STEEL CHANGES DUE TO NEW ELEVATOR SHAFT. NO CHANGE IN PLOT PLAN","metadescription":"Bldg-Alter/Repair. Commercial. SUPPLEMENTAL PLAN CHECK REF TO PCIS # 06016-30000-05473, STRUCTURAL STEEL CHANGES DUE TO NEW ELEVATOR SHAFT. NO CHANGE IN PLOT PLAN. Permit Finaled. 8320 W MELROSE AVE","address":"8320 Melrose Avenue, CA, West Hollywood, 90069, US","ct":"1944.00","ev":"N","apc":"Central","cpa":"Hollywood","zone":"C4-1XL","solar":"N","pin_nbr":"141B173   485","use_code":"13","geolocation":"POINT (-118.37106779 34.0833936)","status_date":"06/10/2009","permit_group":"Building","refresh_time":"06/10/2026","type_lat_lon":"PIN","business_unit":"Regular Plan Check"},"geometry":{"type":"Point","coordinates":[-118.37106779,34.0833936]}},{"type":"Feature","properties":{"date":"2007-01-19T00:00:00.000Z","year":2007,"description":"ADDENDUM TO PLANS APPROVED UNDER PERMIT# 06016-30000-05473. ADD ROOF DECK WITH TWO NEW STAIRS AND ELEVATOR ACCESS.","metadescription":"Bldg-Alter/Repair. Commercial. ADDENDUM TO PLANS APPROVED UNDER PERMIT# 06016-30000-05473. ADD ROOF DECK WITH TWO NEW STAIRS AND ELEVATOR ACCESS.. Permit Finaled. 8320 W MELROSE AVE","address":"8320 Melrose Avenue, CA, West Hollywood, 90069, US","ct":"1944.00","ev":"N","apc":"Central","cpa":"Hollywood","zone":"C4-1XL","solar":"N","pin_nbr":"141B173   485","use_code":"13","geolocation":"POINT (-118.37106779 34.0833936)","status_date":"06/10/2009","construction":"Type V-N Construction","permit_group":"Building","refresh_time":"06/10/2026","type_lat_lon":"PIN","business_unit":"Regular Plan Check"},"geometry":{"type":"Point","coordinates":[-118.37106779,34.0833936]}},{"type":"Feature","properties":{"date":"2006-08-31T00:00:00.000Z","year":2006,"description":"CONVERT EXISTING RECYCLE ROOM TO ELEVATOR MACHINE ROOM [RELOCATE RECYCLE ROOM TO OUTSIDE RECYCLE AREA]","metadescription":"Bldg-Alter/Repair. Commercial. CONVERT EXISTING RECYCLE ROOM TO ELEVATOR MACHINE ROOM [RELOCATE RECYCLE ROOM TO OUTSIDE RECYCLE AREA]. Permit Finaled. 7278-7290 W SUNSET BLVD","address":"1-14, 7288 West Sunset Boulevard, CA, Los Angeles, 90046, US","ct":"1899.02","ev":"N","apc":"Central","cpa":"Hollywood","zone":"[Q]C2-1","solar":"N","pin_nbr":"147B181   667","use_code":"16","geolocation":"POINT (-118.34903696 34.0976905)","status_date":"12/19/2006","construction":"Type V-N Construction","permit_group":"Building","refresh_time":"06/10/2026","type_lat_lon":"PIN","business_unit":"Plan Check at Counter","square_footage":"0"},"geometry":{"type":"Point","coordinates":[-118.34903696,34.0976905]}},{"type":"Feature","properties":{"date":"2002-03-08T00:00:00.000Z","year":2002,"description":"PROPOSED CHANGE OF USE - CONVERSE BASEMENT INTO PARKING GARAGE AND ADD 448 SF. TO THIS BASEMENT PARKING LEVEL. ADD NEW ELEVATOR TO THE BLDG.","metadescription":"Bldg-Addition. Commercial. PROPOSED CHANGE OF USE - CONVERSE BASEMENT INTO PARKING GARAGE AND ADD 448 SF. TO THIS BASEMENT PARKING LEVEL. ADD NEW ELEVATOR TO THE BLDG.. Permit Expired. 980 N LA CIENEGA BLVD","address":"980 North La Cienega Boulevard, CA, West Hollywood, 90069, US","ct":"1944.00","ev":"N","apc":"Central","zone":"C2-1","solar":"N","pin_nbr":"144B173   190","use_code":"16","geolocation":"POINT (-118.37622 34.08897)","status_date":"03/19/2008","construction":"Type V-N Construction","permit_group":"Building","refresh_time":"06/10/2026","type_lat_lon":"ADDRESS","business_unit":"Regular Plan Check","square_footage":"448"},"geometry":{"type":"Point","coordinates":[-118.37622,34.08897]}},{"type":"Feature","properties":{"date":"1999-10-18T00:00:00.000Z","year":1999,"description":"TENANT IMPROVEMENT ON 2ND FLOOR IN EXISTING MEDICAL OFFICE BLDG, 36000 SF; NEW ELEVATOR ADDITION.","metadescription":"Bldg-Alter/Repair. Commercial. TENANT IMPROVEMENT ON 2ND FLOOR IN EXISTING MEDICAL OFFICE BLDG, 36000 SF; NEW ELEVATOR ADDITION.. Permit Finaled. 8723 ALDEN DR","address":"8723 Alden Drive, CA, Los Angeles, 90048, US","ct":"2149.00","ev":"N","apc":"Central","zone":"[T][Q]C2-2D-O","solar":"N","pin_nbr":"138B169   245","use_code":"13","geolocation":"POINT (-118.38228869 34.07590261)","status_date":"05/17/2002","construction":"Type V-1HR Construction","permit_group":"Building","refresh_time":"06/10/2026","type_lat_lon":"PIN","business_unit":"Regular Plan Check","square_footage":"354"},"geometry":{"type":"Point","coordinates":[-118.38228869,34.07590261]}},{"type":"Feature","properties":{"date":"1998-08-19T00:00:00.000Z","year":1998,"description":"T.I. - & ALTER LOWER EXISTING ROOF /DECK, NEW ELEVATOR & NEW ENTRY CANPOY WHERE GARAGE IS BEING REMOVED. (ADDITION)","metadescription":"Bldg-Addition. Commercial. T.I. - & ALTER LOWER EXISTING ROOF /DECK, NEW ELEVATOR & NEW ENTRY CANPOY WHERE GARAGE IS BEING REMOVED. (ADDITION). Permit Finaled. 921 N LA CIENEGA BLVD","address":"923 North La Cienega Boulevard, CA, West Hollywood, 90069, US","ct":"1944.00","ev":"N","apc":"Central","zone":"C4-1VL","solar":"N","pin_nbr":"144B173   325","use_code":"5","geolocation":"POINT (-118.37658 34.08754)","status_date":"04/02/2001","construction":"Type V-N Construction","permit_group":"Building","refresh_time":"06/10/2026","type_lat_lon":"ADDRESS","business_unit":"Regular Plan Check","square_footage":"72"},"geometry":{"type":"Point","coordinates":[-118.37658,34.08754]}},{"type":"Feature","properties":{"date":"1998-08-19T00:00:00.000Z","year":1998,"description":"T.I. - & ALTER LOWER EXISTING ROOF /DECK, NEW ELEVATOR & NEW ENTRY CANPOY WHERE GARAGE IS BEING REMOVED. (ADDITION) - THIS IS REISSUNCE PERMIT FOR 98014-10000-03867 TO COLLECT CORRECT FEES.","metadescription":"Bldg-Addition. Commercial. T.I. - & ALTER LOWER EXISTING ROOF /DECK, NEW ELEVATOR & NEW ENTRY CANPOY WHERE GARAGE IS BEING REMOVED. (ADDITION) - THIS IS REISSUNCE PERMIT FOR 98014-10000-03867 TO COLLECT CORRECT FEES.. Permit Finaled. 921 N LA CIENEGA BLVD","address":"923 North La Cienega Boulevard, CA, West Hollywood, 90069, US","ct":"1944.00","ev":"N","apc":"Central","zone":"C4-1VL","solar":"N","pin_nbr":"144B173   325","use_code":"1","geolocation":"POINT (-118.37658 34.08754)","status_date":"11/09/2000","permit_group":"Building","refresh_time":"06/10/2026","type_lat_lon":"ADDRESS","business_unit":"Regular Plan Check"},"geometry":{"type":"Point","coordinates":[-118.37658,34.08754]}},{"type":"Feature","properties":{"date":"1997-09-18T00:00:00.000Z","year":1997,"description":"T.I. INTERIOR NONSTRUCTURAL. New wall finishing and new drywall ceili ng at elevator lobby of Parking garage level P-1.","metadescription":"Bldg-Alter/Repair. Commercial. T.I. INTERIOR NONSTRUCTURAL. New wall finishing and new drywall ceili ng at elevator lobby of Parking garage level P-1.. Permit Finaled. 120 N ROBERTSON BLVD","address":"120 North Robertson Boulevard, CA, Los Angeles, 90048, US","ct":"2149.00","ev":"N","apc":"Central","zone":"C2-1VL, Q, O","solar":"N","pin_nbr":"138B169   244","use_code":"13","geolocation":"POINT (-118.38356 34.07585)","status_date":"07/29/1999","permit_group":"Building","refresh_time":"06/10/2026","type_lat_lon":"ADDRESS","business_unit":"Plan Check at Counter"},"geometry":{"type":"Point","coordinates":[-118.38356,34.07585]}},{"type":"Feature","properties":{"date":"1997-08-04T00:00:00.000Z","year":1997,"description":"Remove portion of the Cedars-Sinai Medical Center and repair elevator lobby and exterior wall (Total floor area : - 97000square ft.) Zoning review only for OSHPD project","metadescription":"Bldg-Alter/Repair. Commercial. Remove portion of the Cedars-Sinai Medical Center and repair elevator lobby and exterior wall (Total floor area : - 97000square ft.) Zoning review only for OSHPD project. Permit Closed. 8700 W BEVERLY BLVD","address":"8702 Beverly Boulevard, CA, Los Angeles, 90048, US","ct":"2149.00","ev":"N","apc":"Central","zone":"C2-2, T, Q, D","solar":"N","pin_nbr":"138B169   208","use_code":"10","geolocation":"POINT (-118.3805 34.07666)","status_date":"10/10/1998","permit_group":"Building","refresh_time":"06/10/2026","type_lat_lon":"ADDRESS","business_unit":"Plan Check at Counter"},"geometry":{"type":"Point","coordinates":[-118.3805,34.07666]}},{"type":"Feature","properties":{"date":"1997-07-24T00:00:00.000Z","year":1997,"description":"T.I. freight elevator corridor upgrade 350 sq ft, 1st Flr","metadescription":"Bldg-Alter/Repair. Commercial. T.I. freight elevator corridor upgrade 350 sq ft, 1st Flr. Permit Finaled. 120 N ROBERTSON BLVD","address":"120 North Robertson Boulevard, CA, Los Angeles, 90048, US","ct":"2149.00","ev":"N","apc":"Central","zone":"[Q]C2-1VL-O","solar":"N","pin_nbr":"138B169   244","use_code":"13","geolocation":"POINT (-118.38356 34.07585)","status_date":"08/16/1999","permit_group":"Building","refresh_time":"06/10/2026","type_lat_lon":"ADDRESS","business_unit":"Plan Check at Counter"},"geometry":{"type":"Point","coordinates":[-118.38356,34.07585]}}]}
