{"type":"FeatureCollection","features":[{"type":"Feature","properties":{"date":"2024-04-17T00:00:00.000Z","year":2024,"description":"(N) Retaining Wall + Block Wall: 111.2' long x 8' max height( upto 3.5' retaining ht.),  and 6' ht. x 112' longblock wall.1 OF 2","metadescription":"Nonbldg-New. Apartment. (N) Retaining Wall + Block Wall: 111.2' long x 8' max height( upto 3.5' retaining ht.),  and 6' ht. x 112' longblock wall.1 OF 2. Issued. 1000 N EDINBURGH AVE","address":"1000 N EDINBURGH AVE","ct":"1944.01","ev":"N","apc":"Central","cpa":"Hollywood","zone":"R4-1","solar":"N","height":"6","pin_nbr":"144B177   275","use_code":"23","status_date":"04/17/2024","permit_group":"Building","refresh_time":"06/10/2026","type_lat_lon":"ADDRESS","business_unit":"Regular Plan Check"},"geometry":{"type":"Point","coordinates":[-118.36365,34.08892]}},{"type":"Feature","properties":{"date":"2015-12-04T00:00:00.000Z","year":2015,"description":"(N) retaining wall  ON PILES.  length  =150 '  height varies  1'   to 11 '","metadescription":"Nonbldg-New. 1 or 2 Family Dwelling. (N) retaining wall  ON PILES.  length  =150 '  height varies  1'   to 11 '. Permit Expired. 8210 W ROXBURY ROAD","address":"8210 W ROXBURY ROAD","ct":"1942.00","ev":"N","hl":"YES","apc":"Central","cpa":"Hollywood","zone":"R1-1","solar":"N","height":"11","pin_nbr":"147B173   764","use_code":"23","geolocation":"POINT (-118.36907 34.09779)","status_date":"01/08/2018","permit_group":"Building","refresh_time":"06/10/2026","type_lat_lon":"ADDRESS","business_unit":"Regular Plan Check"},"geometry":{"type":"Point","coordinates":[-118.36907,34.09779]}}]}
