{"type":"FeatureCollection","features":[{"type":"Feature","properties":{"date":"2002-12-19T00:00:00.000Z","year":2002,"description":"TEMPORARY SHORING WITH TIE BACKS for a proposed cooling TOWER issued under permit #01010-10000-02833 adjacent to an existing parking structure.","metadescription":"Nonbldg-New. Commercial. TEMPORARY SHORING WITH TIE BACKS for a proposed cooling TOWER issued under permit #01010-10000-02833 adjacent to an existing parking structure.. Permit Expired. 8700 W BEVERLY BLVD","address":"8700 W BEVERLY BLVD","ct":"2149.00","ev":"N","apc":"Central","zone":"[T][Q]C2-2D-O","solar":"N","pin_nbr":"138B169   208","use_code":"23","geolocation":"POINT (-118.3805 34.07666)","status_date":"03/31/2008","permit_group":"Building","refresh_time":"06/10/2026","type_lat_lon":"ADDRESS","business_unit":"Regular Plan Check"},"geometry":{"type":"Point","coordinates":[-118.3805,34.07666]}},{"type":"Feature","properties":{"date":"2002-10-03T00:00:00.000Z","year":2002,"description":"TEMPORARY SHORING for a proposed coolingTOWER issued under permit #01010-10000-02833 adjacent to an existing parking structure.  REMOVAL OF (E) STORAGE VAULT and (e) fuel oil tanks prior to the construction of the cooling tower.","metadescription":"Nonbldg-New. Commercial. TEMPORARY SHORING for a proposed coolingTOWER issued under permit #01010-10000-02833 adjacent to an existing parking structure.  REMOVAL OF (E) STORAGE VAULT and (e) fuel oil tanks prior to the construction of the cooling tower.. Permit Expired. 8700 W BEVERLY BLVD","address":"8700 W BEVERLY BLVD","ct":"2149.00","ev":"N","apc":"Central","zone":"[T][Q]C2-2D-O","solar":"N","pin_nbr":"138B169   208","use_code":"23","geolocation":"POINT (-118.3805 34.07666)","status_date":"03/24/2008","permit_group":"Building","refresh_time":"06/10/2026","type_lat_lon":"ADDRESS","business_unit":"Regular Plan Check"},"geometry":{"type":"Point","coordinates":[-118.3805,34.07666]}},{"type":"Feature","properties":{"date":"1999-11-04T00:00:00.000Z","year":1999,"description":"TEMPORARY SHORING-Imaging building","metadescription":"Nonbldg-New. Commercial. TEMPORARY SHORING-Imaging building. Permit Finaled. 8700 W BEVERLY BLVD","address":"8700 W BEVERLY BLVD","ct":"2149.00","ev":"N","apc":"Central","zone":"C2-2D(T)(Q)-0","solar":"N","pin_nbr":"138B169   208","use_code":"23","geolocation":"POINT (-118.3805 34.07666)","status_date":"05/30/2000","permit_group":"Building","refresh_time":"06/10/2026","type_lat_lon":"ADDRESS","business_unit":"Regular Plan Check"},"geometry":{"type":"Point","coordinates":[-118.3805,34.07666]}},{"type":"Feature","properties":{"date":"1998-07-20T00:00:00.000Z","year":1998,"description":"SHORING FOR BASEMENT DEMOLITION. (OFFICE SUPERSTRUCTURE DEMOLISHED 1996).","metadescription":"Nonbldg-New. Commercial. SHORING FOR BASEMENT DEMOLITION. (OFFICE SUPERSTRUCTURE DEMOLISHED 1996).. Permit Finaled. 8700 W BEVERLY BLVD","address":"8700 W BEVERLY BLVD","ct":"2149.00","ev":"N","apc":"Central","zone":"C2-2, T, Q, D, O","solar":"N","pin_nbr":"138B169   208","use_code":"23","geolocation":"POINT (-118.3805 34.07666)","status_date":"12/23/1998","permit_group":"Building","refresh_time":"06/10/2026","type_lat_lon":"ADDRESS","business_unit":"Appointment Plan Check"},"geometry":{"type":"Point","coordinates":[-118.3805,34.07666]}}]}
