{"type":"FeatureCollection","features":[{"type":"Feature","properties":{"date":"2024-02-16T00:00:00.000Z","year":2024,"description":"(ePlan) ZONING CHECK FOR PARKING OF EXISTING HOSPITAL ONLY. REMOVING (5) EXISTING STANDARD PARKING STALLS AND CONVERT (1) EXISTING STANDARD PARKING SPACE TO ADA PARKING SPACE. <CONVERT PART OF AN EXISTING PARKING AREA TO NEW STORAGE ROOMS - UNDER OSHPD REVIEW>","metadescription":"Bldg-Alter/Repair. Commercial. (ePlan) ZONING CHECK FOR PARKING OF EXISTING HOSPITAL ONLY. REMOVING (5) EXISTING STANDARD PARKING STALLS AND CONVERT (1) EXISTING STANDARD PARKING SPACE TO ADA PARKING SPACE. <CONVERT PART OF AN EXISTING PARKING AREA TO NEW STORAGE ROOMS - UNDER OSHPD REVIEW>. Issued. 8700 W BEVERLY BLVD","address":"8700 W BEVERLY BLVD","ct":"2149.02","ev":"N","apc":"Central","cpa":"Wilshire","zone":"[T][Q]C2-2D-O","solar":"N","pin_nbr":"138B169   210","use_code":"10","status_date":"02/16/2024","permit_group":"Building","refresh_time":"06/10/2026","type_lat_lon":"ADDRESS","business_unit":"Regular Plan Check","square_footage":"0"},"geometry":{"type":"Point","coordinates":[-118.3805,34.07666]}},{"type":"Feature","properties":{"date":"2024-02-16T00:00:00.000Z","year":2024,"description":"Zoning check for interior renovation (13,726 sf) of existing hospital's emergency department (OSHPD), Interior renovation & renovation of the exterior facade, Remove parking stalls and relocate ADA stalls to add to Emergency Dept. area, No change in building footprint","metadescription":"Bldg-Addition. Commercial. Zoning check for interior renovation (13,726 sf) of existing hospital's emergency department (OSHPD), Interior renovation & renovation of the exterior facade, Remove parking stalls and relocate ADA stalls to add to Emergency Dept. area, No change in building footprint. Issued. 8700 W BEVERLY BLVD","address":"8700 W BEVERLY BLVD","ct":"2149.02","ev":"N","apc":"Central","cpa":"Wilshire","zone":"[T][Q]C2-2D-O","solar":"N","pin_nbr":"138B169   208","use_code":"10","status_date":"02/16/2024","construction":"Type I-B Construction","permit_group":"Building","refresh_time":"06/10/2026","type_lat_lon":"ADDRESS","business_unit":"Regular Plan Check","square_footage":"13577"},"geometry":{"type":"Point","coordinates":[-118.3805,34.07666]}},{"type":"Feature","properties":{"date":"2020-10-28T00:00:00.000Z","year":2020,"description":"eplan. A door replacement for Cedars-Sinai Medical Center - North Patient Tower at 8700 Beverly Boulevard, Los Angeles, CA 90048 that is under the jurisdiction of OSHPD including the accessibility of the new door. OSHPD requires exterior modifications to be approved by local agency having jurisdiction for zoning/planning issues only.","metadescription":"Bldg-Alter/Repair. Commercial. eplan. A door replacement for Cedars-Sinai Medical Center - North Patient Tower at 8700 Beverly Boulevard, Los Angeles, CA 90048 that is under the jurisdiction of OSHPD including the accessibility of the new door. OSHPD requires exterior modifications to be approved by local agency having jurisdiction for zoning/planning issues only.. Permit Expired. 8700 W BEVERLY BLVD","address":"8700 W BEVERLY BLVD","ct":"2149.02","ev":"N","apc":"Central","cpa":"Wilshire","zone":"[T][Q]C2-2D-O","solar":"N","pin_nbr":"138B169   208","use_code":"10","status_date":"04/07/2026","permit_group":"Building","refresh_time":"06/10/2026","type_lat_lon":"ADDRESS","business_unit":"Plan Check at Counter"},"geometry":{"type":"Point","coordinates":[-118.3805,34.07666]}},{"type":"Feature","properties":{"date":"2020-09-10T00:00:00.000Z","year":2020,"description":"ZONING CHECK FOR PARKING REVISION. NEW AIR HANDLER UNIT INSTALLATION AT SURFACE PARKING OF AN EXISTING HOSPITAL WILL BE CHECKED BY OSHPDUNIT TO DISPLCAE 8 ( NON REQUIRED) STANDARDS STALLS","metadescription":"Bldg-Alter/Repair. Commercial. ZONING CHECK FOR PARKING REVISION. NEW AIR HANDLER UNIT INSTALLATION AT SURFACE PARKING OF AN EXISTING HOSPITAL WILL BE CHECKED BY OSHPDUNIT TO DISPLCAE 8 ( NON REQUIRED) STANDARDS STALLS. Issued. 8700 W BEVERLY BLVD","address":"8700 W BEVERLY BLVD","ct":"2149.02","ev":"N","apc":"Central","cpa":"Wilshire","zone":"[T][Q]C2-2D-O","solar":"N","pin_nbr":"138B169   208","use_code":"10","status_date":"09/10/2020","construction":"Type I-B Construction","permit_group":"Building","refresh_time":"06/10/2026","type_lat_lon":"ADDRESS","business_unit":"Regular Plan Check"},"geometry":{"type":"Point","coordinates":[-118.3805,34.07666]}},{"type":"Feature","properties":{"date":"2003-05-16T00:00:00.000Z","year":2003,"description":"180 BED HOSPITAL BUILD'G, A REPLACEMENT BUILD'G FOR THE SCHUMAN BROWN BUILD'G DESTROYED BY THE NORTHRIDGE EARTHQUAKE.  THE NEW REPLACEMENT BUILD'G IS PERMITTED BY OSHPD WHICH REQUIRES THE CITY OF L. A. TO PERMIT THE ZONING & SITE WORK 5 FEET OUTSIDE THE BUILDING FOOT PRINT.","metadescription":"Bldg-New. Commercial. 180 BED HOSPITAL BUILD'G, A REPLACEMENT BUILD'G FOR THE SCHUMAN BROWN BUILD'G DESTROYED BY THE NORTHRIDGE EARTHQUAKE.  THE NEW REPLACEMENT BUILD'G IS PERMITTED BY OSHPD WHICH REQUIRES THE CITY OF L. A. TO PERMIT THE ZONING & SITE WORK 5 FEET OUTSIDE THE BUILDING FOOT PRINT.. Permit Expired. 8700 W BEVERLY BLVD","address":"8700 W BEVERLY BLVD","ct":"2149.00","ev":"N","apc":"Central","zone":"[T][Q]C2-2D-O","solar":"N","height":"156","pin_nbr":"138B169   208","use_code":"10","geolocation":"POINT (-118.3805 34.07666)","status_date":"03/26/2007","construction":"Type I-F.R. Construction","permit_group":"Building","refresh_time":"06/10/2026","type_lat_lon":"ADDRESS","business_unit":"Regular Plan Check","square_footage":"172212"},"geometry":{"type":"Point","coordinates":[-118.3805,34.07666]}},{"type":"Feature","properties":{"date":"2001-12-11T00:00:00.000Z","year":2001,"description":"New central plant building for Cedar Sinai Hospital (This plan submittal is for zoning plan check only). Valuation is 10% of the construction cost.","metadescription":"Bldg-New. Commercial. New central plant building for Cedar Sinai Hospital (This plan submittal is for zoning plan check only). Valuation is 10% of the construction cost.. Permit Finaled. 8700 W BEVERLY BLVD central-plant","address":"8700 W BEVERLY BLVD central-plant","ct":"2149.00","ev":"N","apc":"Central","zone":"[T][Q]C2-2D-O","solar":"N","pin_nbr":"138B169   210","use_code":"23","geolocation":"POINT (-118.3805 34.07666)","status_date":"07/30/2004","construction":"Type I-F.R. Construction","permit_group":"Building","refresh_time":"06/10/2026","type_lat_lon":"ADDRESS","business_unit":"Regular Plan Check","square_footage":"17000"},"geometry":{"type":"Point","coordinates":[-118.3805,34.07666]}},{"type":"Feature","properties":{"date":"2001-06-12T00:00:00.000Z","year":2001,"description":"ZONING CHECK FOR THE PROPOSED EQUIPMENT COVER ON THE ROOF OF THE HOSPITAL.","metadescription":"Bldg-Alter/Repair. Commercial. ZONING CHECK FOR THE PROPOSED EQUIPMENT COVER ON THE ROOF OF THE HOSPITAL.. Permit Expired. 8700 W BEVERLY BLVD","address":"8700 W BEVERLY BLVD","ct":"2149.00","ev":"N","apc":"Central","zone":"[T][Q]C2-2D-O","solar":"N","pin_nbr":"138B169   208","use_code":"10","geolocation":"POINT (-118.3805 34.07666)","status_date":"03/12/2007","permit_group":"Building","refresh_time":"06/10/2026","type_lat_lon":"ADDRESS","business_unit":"Plan Check at Counter"},"geometry":{"type":"Point","coordinates":[-118.3805,34.07666]}},{"type":"Feature","properties":{"date":"2000-10-03T00:00:00.000Z","year":2000,"description":"USE OF LAND PERMIT - ZONING CODE REVIEW ONLY: Zoning Check for location of a Structure Enclosuring (E) Tanks adjacent to (E) Hospital Parking Structure @ Sherbourne Dr. See Application Comments.","metadescription":"Nonbldg-New. Commercial. USE OF LAND PERMIT - ZONING CODE REVIEW ONLY: Zoning Check for location of a Structure Enclosuring (E) Tanks adjacent to (E) Hospital Parking Structure @ Sherbourne Dr. See Application Comments.. Permit Expired. 8700 W BEVERLY BLVD","address":"8700 W BEVERLY BLVD","ct":"2149.00","ev":"N","apc":"Central","zone":"[T][Q]C2-2D-O","solar":"N","pin_nbr":"138B169   208","use_code":"61","geolocation":"POINT (-118.3805 34.07666)","status_date":"02/12/2007","permit_group":"Building","refresh_time":"06/10/2026","type_lat_lon":"ADDRESS","business_unit":"Regular Plan Check"},"geometry":{"type":"Point","coordinates":[-118.3805,34.07666]}},{"type":"Feature","properties":{"date":"2000-03-16T00:00:00.000Z","year":2000,"description":"Plan check and inspection of construction plans for conformance to City zoning laws and methane gas control systems","metadescription":"Bldg-Alter/Repair. Commercial. Plan check and inspection of construction plans for conformance to City zoning laws and methane gas control systems. Permit Finaled. 8700 W BEVERLY BLVD","address":"8700 W BEVERLY BLVD","ct":"2149.00","ev":"N","apc":"Central","zone":"[T] [Q] C2-2D-O","solar":"N","pin_nbr":"138B169   208","use_code":"10","geolocation":"POINT (-118.3805 34.07666)","status_date":"04/03/2001","permit_group":"Building","refresh_time":"06/10/2026","type_lat_lon":"ADDRESS","business_unit":"Regular Plan Check"},"geometry":{"type":"Point","coordinates":[-118.3805,34.07666]}},{"type":"Feature","properties":{"date":"1997-08-04T00:00:00.000Z","year":1997,"description":"Remove portion of the Cedars-Sinai Medical Center and repair elevator lobby and exterior wall (Total floor area : - 97000square ft.) Zoning review only for OSHPD project","metadescription":"Bldg-Alter/Repair. Commercial. Remove portion of the Cedars-Sinai Medical Center and repair elevator lobby and exterior wall (Total floor area : - 97000square ft.) Zoning review only for OSHPD project. Permit Closed. 8700 W BEVERLY BLVD","address":"8700 W BEVERLY BLVD","ct":"2149.00","ev":"N","apc":"Central","zone":"C2-2, T, Q, D","solar":"N","pin_nbr":"138B169   208","use_code":"10","geolocation":"POINT (-118.3805 34.07666)","status_date":"10/10/1998","permit_group":"Building","refresh_time":"06/10/2026","type_lat_lon":"ADDRESS","business_unit":"Plan Check at Counter"},"geometry":{"type":"Point","coordinates":[-118.3805,34.07666]}}]}
