{"type":"FeatureCollection","features":[{"type":"Feature","properties":{"date":"2025-10-21T00:00:00.000Z","year":2025,"description":"DDS 2019 CBRC: AA ORD L CONCOURSE. INTERIOR RENOVATION, LIMITED RELOCATION OF CONCESSIONS PROGRAM, UPDATED BUILDING SYSTEMS, RECONFIGURATION OF 3 BOARDING GATES, AND THE ADDITION OF ONE EGRESS STAIR. NO WORK ON JETBRIDGES AT GATES L1A AND L10A BEFORE ISSUANCE OF PERMIT 101072775. (OCCUPANCY TYPE A-3 CONSTRUCTION TYPE 1A) CDA PROJECT NUMBER H1185.19-00. CONSULTANT REVIEWER: V3 COMPANIES","metadescription":"PERMIT - RENOVATION/ALTERATION. DDS 2019 CBRC: AA ORD L CONCOURSE. INTERIOR RENOVATION, LIMITED RELOCATION OF CONCESSIONS PROGRAM, UPDATED BUILDING SYSTEMS, RECONFIGURATION OF 3 BOARDING GATES, AND THE ADDITION OF ONE EGRESS STAIR. NO WORK ON JETBRIDGES AT GATES L1A AND L10A BEFORE ISSUANCE OF PERMIT 101072775. (OCCUPANCY TYPE A-3 CONSTRUCTION TYPE 1A) CDA PROJECT NUMBER H1185.19-00. CONSULTANT REVIEWER: V3 COMPANIES. ACTIVE. 11601","address":"300 East TOUHY Avenue, DES PLAINES, IL, DES PLAINES, 60018, US","location":"POINT (-87.91442843927 42.008536400869)","pin_list":"1208100006","review_type":"DIRECT DEVELOPER SERVICES","street_name":"TOUHY AVE","xcoordinate":"1098098.5774643964","ycoordinate":"1945979.209781826","subtotal_paid":"$52,050.88","community_area":"76","contact_1_city":"CHICAGO","contact_1_name":"AMERICN AIRLINES","contact_1_type":"OWNER","contact_2_city":"CHICAGO","contact_2_name":"EMERY, ROBERT G","contact_2_type":"ARCHITECT","contact_3_city":"ELK GROVE VILLAGE","contact_3_name":"HARTMANN ELECTRIC COMPANY, INC","contact_3_type":"CONTRACTOR-ELECTRICAL","contact_4_city":"CHICAGO","contact_4_name":"BUILDING PERMITS","contact_4_type":"EXPEDITOR","contact_5_city":"CHICAGO","contact_5_name":"F.H. PASCHEN, S.N. NIELSEN & ASSOCIATES, LLC.","contact_5_type":"CONTRACTOR-GENERAL CONTRACTOR","contact_6_city":"CICERO","contact_6_name":"ALL MASONRY CONST. CO. INC","contact_6_type":"MASONRY CONTRACTOR","contact_7_city":"MARKHAM","contact_7_name":"REYES GROUP LTD","contact_7_type":"MASONRY CONTRACTOR","contact_8_city":"LAKE IN THE HILLS","contact_8_name":"ABITUA PLUMBING, INC.","contact_8_type":"CONTRACTOR-PLUMBER/PLUMBING","contact_9_city":"ADDISON","contact_9_name":"CT MECHANICAL LLC","contact_9_type":"CONTRACTOR-REFRIGERATION","other_fee_paid":"$0.00","contact_10_city":"ADDISON","contact_10_name":"CT MECHANICAL LLC","contact_10_type":"CONTRACTOR-VENTILATION","contact_1_state":"IL","contact_2_state":"IL","contact_3_state":"IL","contact_4_state":"IL","contact_5_state":"IL","contact_6_state":"IL","contact_7_state":"IL","contact_8_state":"IL","contact_9_state":"IL","processing_time":"75","subtotal_unpaid":"$0.00","subtotal_waived":"$0.00","zoning_fee_paid":"$1,750.00","contact_10_state":"IL","other_fee_unpaid":"$0.00","other_fee_waived":"$0.00","permit_milestone":"INSPECTIONS (CERTIFICATE OF OCCUPANCY REQUIRED)","street_direction":"W","building_fee_paid":"$50,300.88","contact_1_zipcode":"60666","contact_2_zipcode":"60625-4409","contact_3_zipcode":"60007-","contact_4_zipcode":"60603-","contact_5_zipcode":"60656-","contact_6_zipcode":"60804","contact_7_zipcode":"60426","contact_8_zipcode":"60156-","contact_9_zipcode":"60101","zoning_fee_unpaid":"$0.00","zoning_fee_waived":"$0.00","contact_10_zipcode":"60101","other_fee_subtotal":"$0","building_fee_unpaid":"$0.00","building_fee_waived":"$0.00","zoning_fee_subtotal":"$1,750","building_fee_subtotal":"$50,300.88"},"geometry":{"type":"Point","coordinates":[-87.914428439,42.008536401]}},{"type":"Feature","properties":{"date":"2025-01-29T00:00:00.000Z","year":2025,"description":"SECOND REVISION PERMIT FOLLOWS FIRST PERMIT REVISION NUMBER 101038071, THIS IS THE SECOND REVISION REVISION PERMIT TO THE ORIGINAL PERMIT NUMBER 100987429, TO REVISE THE SINGLE LINE DIAGRAM TO INCLUDE AN ADDITIONAL PV AC DISCONNECT AND ADD TO ELECTRICAL SHEETS FOR EQUIPMENT ELEVATIONS.  THE SECOND DISCONNECT IS REFLECTED ON SHEETS E1.0 AND E2.0, AND THE EQUIPMENT ELEVATIONS ARE NEW ON SHEETS E3.0 AND E3.1.  THE TOTAL SYSTEM AREA REMAINS THE SAME.  WITHIN THE TOTAL SYSTEM AREA, APPROXIMATELY 18 SQUARE FEET OF AREA IS CHANGING DUE TO THE ADDITIONAL DISCONNECT.  THE FOLLOW SHEETS HAVE CHANGED AS WELL TO ACCURATELY INCORPORATE THE DISCONNECT IN THE PLANS:  SHEETS E0.0 (COVER PAGE) , E5.0 (LABELING) AND E6.0 (GROUNDING).  NO STRUCTURAL CHANGES.","metadescription":"PERMIT - RENOVATION/ALTERATION. SECOND REVISION PERMIT FOLLOWS FIRST PERMIT REVISION NUMBER 101038071, THIS IS THE SECOND REVISION REVISION PERMIT TO THE ORIGINAL PERMIT NUMBER 100987429, TO REVISE THE SINGLE LINE DIAGRAM TO INCLUDE AN ADDITIONAL PV AC DISCONNECT AND ADD TO ELECTRICAL SHEETS FOR EQUIPMENT ELEVATIONS.  THE SECOND DISCONNECT IS REFLECTED ON SHEETS E1.0 AND E2.0, AND THE EQUIPMENT ELEVATIONS ARE NEW ON SHEETS E3.0 AND E3.1.  THE TOTAL SYSTEM AREA REMAINS THE SAME.  WITHIN THE TOTAL SYSTEM AREA, APPROXIMATELY 18 SQUARE FEET OF AREA IS CHANGING DUE TO THE ADDITIONAL DISCONNECT.  THE FOLLOW SHEETS HAVE CHANGED AS WELL TO ACCURATELY INCORPORATE THE DISCONNECT IN THE PLANS:  SHEETS E0.0 (COVER PAGE) , E5.0 (LABELING) AND E6.0 (GROUNDING).  NO STRUCTURAL CHANGES.. SUSPENDED. 11601","address":"300 East TOUHY Avenue, DES PLAINES, IL, DES PLAINES, 60018, US","location":"POINT (-87.91442843927 42.008536400869)","pin_list":"0932100012","review_type":"STANDARD PLAN REVIEW","street_name":"TOUHY AVE","xcoordinate":"1098098.5774643964","ycoordinate":"1945979.209781826","subtotal_paid":"$925.00","community_area":"76","contact_1_city":"ANNAPOLIS","contact_1_name":"DAVID ROSE","contact_1_type":"OWNER OCCUPIED","contact_2_city":"NAPERVILLE","contact_2_name":"WROBEL, CHRISTINE A","contact_2_type":"STRUCTURAL ENGINEER","contact_3_city":"LAKE IN THE HILLS","contact_3_name":"ADAM KAY","contact_3_type":"CONTRACTOR-ELECTRICAL","contact_4_city":"CHICAGO","contact_4_name":"VERDE SOLUTIONS LLC","contact_4_type":"CONTRACTOR-GENERAL CONTRACTOR","other_fee_paid":"$0.00","contact_1_state":"MD","contact_2_state":"IL","contact_3_state":"IL","contact_4_state":"IL","processing_time":"64","subtotal_unpaid":"$0.00","subtotal_waived":"$0.00","zoning_fee_paid":"$75.00","other_fee_unpaid":"$0.00","other_fee_waived":"$0.00","permit_milestone":"INSPECTIONS","street_direction":"W","building_fee_paid":"$850.00","contact_1_zipcode":"21401","contact_2_zipcode":"60563","contact_3_zipcode":"60156-","contact_4_zipcode":"60614-2900","zoning_fee_unpaid":"$0.00","zoning_fee_waived":"$0.00","other_fee_subtotal":"$0","building_fee_unpaid":"$0.00","building_fee_waived":"$0.00","zoning_fee_subtotal":"$75","building_fee_subtotal":"$850"},"geometry":{"type":"Point","coordinates":[-87.914428439,42.008536401]}},{"type":"Feature","properties":{"date":"2023-06-21T00:00:00.000Z","year":2023,"description":"WORK TO BE DONE AT T5. INSTALL 2-CAT 6 DATA CABLES TO 8 CDA CONFERENCE ROOM LOCATIONS, 16 CABLES TOTAL, BETWEEN COMM.RM. E11 AND THE NEW EAST ADDITION CONFERENCE ROOMS. CABLES TO BE INSTALLED IN EXISTING CABLE TRAY AND NEW CONDUITS INSTALLED BY OTHERS","metadescription":"PERMIT – EXPRESS PERMIT PROGRAM. Electrical Work. WORK TO BE DONE AT T5. INSTALL 2-CAT 6 DATA CABLES TO 8 CDA CONFERENCE ROOM LOCATIONS, 16 CABLES TOTAL, BETWEEN COMM.RM. E11 AND THE NEW EAST ADDITION CONFERENCE ROOMS. CABLES TO BE INSTALLED IN EXISTING CABLE TRAY AND NEW CONDUITS INSTALLED BY OTHERS. COMPLETE. 11601","address":"300 East TOUHY Avenue, DES PLAINES, IL, DES PLAINES, 60018, US","location":"POINT (-87.91442843927 42.008536400869)","review_type":"EXPRESS PERMIT PROGRAM","street_name":"TOUHY AVE","xcoordinate":"1098098.5774643964","ycoordinate":"1945979.209781826","subtotal_paid":"$75.00","community_area":"76","contact_1_city":"GURNEE","contact_1_name":"ISO COMMUNICATIONS, INC.","contact_1_type":"ELECTRICAL CONTRACTOR","contact_2_city":"GURNEE","contact_2_name":"SOBOTA JOSEPH S","contact_2_type":"APPLICANT","contact_3_city":"GURNEE","contact_3_name":"ISO COMMUNICATIONS, INC.","contact_3_type":"APPLICANT","other_fee_paid":"$0.00","contact_1_state":"IL","contact_2_state":"IL","contact_3_state":"IL","processing_time":"0","subtotal_unpaid":"$0.00","subtotal_waived":"$0.00","zoning_fee_paid":"$0.00","other_fee_unpaid":"$0.00","other_fee_waived":"$0.00","permit_milestone":"COMPLETE","street_direction":"W","building_fee_paid":"$75.00","contact_1_zipcode":"60031","contact_2_zipcode":"60031","contact_3_zipcode":"60031","zoning_fee_unpaid":"$0.00","zoning_fee_waived":"$0.00","other_fee_subtotal":"$0","building_fee_unpaid":"$0.00","building_fee_waived":"$0.00","zoning_fee_subtotal":"$0","building_fee_subtotal":"$75"},"geometry":{"type":"Point","coordinates":[-87.914428439,42.008536401]}},{"type":"Feature","properties":{"date":"2023-02-21T00:00:00.000Z","year":2023,"description":"DEMO AND MAKE SAFE ELECTRICAL EQUIPMENT IN THE WAY OF NEW CONSTRUCTION FOR THE AMERICAN AIRLINES L CONCOURSE SINGER 2 GATE ADDITION.","metadescription":"PERMIT – EXPRESS PERMIT PROGRAM. Electrical Work. DEMO AND MAKE SAFE ELECTRICAL EQUIPMENT IN THE WAY OF NEW CONSTRUCTION FOR THE AMERICAN AIRLINES L CONCOURSE SINGER 2 GATE ADDITION.. COMPLETE. 11601","address":"300 East TOUHY Avenue, DES PLAINES, IL, DES PLAINES, 60018, US","location":"POINT (-87.91442843927 42.008536400869)","review_type":"EXPRESS PERMIT PROGRAM","street_name":"TOUHY AVE","xcoordinate":"1098098.5774643964","ycoordinate":"1945979.209781826","subtotal_paid":"$75.00","community_area":"76","contact_1_city":"ELK GROVE VILLAGE","contact_1_name":"HARTMANN ELECTRIC COMPANY, INC","contact_1_type":"ELECTRICAL CONTRACTOR","contact_2_city":"ELK GROVE VILLAGE","contact_2_name":"HARTMANN JOHN","contact_2_type":"APPLICANT","contact_3_city":"ELK GROVE VILLAGE","contact_3_name":"HARTMANN ELECTRIC COMPANY, INC","contact_3_type":"APPLICANT","other_fee_paid":"$0.00","contact_1_state":"IL","contact_2_state":"IL","contact_3_state":"IL","processing_time":"0","subtotal_unpaid":"$0.00","subtotal_waived":"$0.00","zoning_fee_paid":"$0.00","other_fee_unpaid":"$0.00","other_fee_waived":"$0.00","permit_milestone":"COMPLETE","street_direction":"W","building_fee_paid":"$75.00","contact_1_zipcode":"60007","contact_2_zipcode":"60007","contact_3_zipcode":"60007","zoning_fee_unpaid":"$0.00","zoning_fee_waived":"$0.00","other_fee_subtotal":"$0","building_fee_unpaid":"$0.00","building_fee_waived":"$0.00","zoning_fee_subtotal":"$0","building_fee_subtotal":"$75"},"geometry":{"type":"Point","coordinates":[-87.914428439,42.008536401]}},{"type":"Feature","properties":{"date":"2023-01-20T00:00:00.000Z","year":2023,"description":"DDS PRE-2019 CODE: PHASE 2 AA ORD CONCOURSE  L3-GATE EXPANSION. SUPERSTRUCTURE, ARCHITECTURE,MECHANICAL, ELECTRICAL, PLUMBING, & FIREPROTECTION BUILD OUT. AMERICAN AIRLINES ADDITION OF NEW GATES (TO PHASE-1, EXISTING 5 GATES ADDITION IN 2017), APPROX.17,182 SF AT L STINGER, 2-STORYBUILDING, ADJACENT TO TERMINAL 3 AT O'HARE INTERNATIONAL AIRPORT, AS PER PLANS.CDA PROJECT NUMBER H1215.19-03. CONSULTANT REVIEWER: V3 COMPANIES OF IL","metadescription":"PERMIT - RENOVATION/ALTERATION. DDS PRE-2019 CODE: PHASE 2 AA ORD CONCOURSE  L3-GATE EXPANSION. SUPERSTRUCTURE, ARCHITECTURE,MECHANICAL, ELECTRICAL, PLUMBING, & FIREPROTECTION BUILD OUT. AMERICAN AIRLINES ADDITION OF NEW GATES (TO PHASE-1, EXISTING 5 GATES ADDITION IN 2017), APPROX.17,182 SF AT L STINGER, 2-STORYBUILDING, ADJACENT TO TERMINAL 3 AT O'HARE INTERNATIONAL AIRPORT, AS PER PLANS.CDA PROJECT NUMBER H1215.19-03. CONSULTANT REVIEWER: V3 COMPANIES OF IL. COMPLETE. 11601","address":"300 East TOUHY Avenue, DES PLAINES, IL, DES PLAINES, 60018, US","location":"POINT (-87.91442843927 42.008536400869)","pin_list":"1208100006","review_type":"DIRECT DEVELOPER SERVICES","street_name":"TOUHY AVE","xcoordinate":"1098098.5774643964","ycoordinate":"1945979.209781826","subtotal_paid":"$13,133.32","community_area":"76","contact_1_city":"CHICAGO","contact_1_name":"AMERICAN AIRLINES","contact_1_type":"OWNER","contact_2_city":"CHICAGO","contact_2_name":"EMERY, ROBERT G","contact_2_type":"ARCHITECT","contact_3_city":"ELK GROVE VILLAGE","contact_3_name":"HARTMANN ELECTRIC COMPANY, INC","contact_3_type":"CONTRACTOR-ELECTRICAL","contact_4_city":"CHICAGO","contact_4_name":"BUILDING PERMITS","contact_4_type":"EXPEDITOR","contact_5_city":"CHICAGO","contact_5_name":"F.H. PASCHEN, S.N. NIELSEN & ASSOCIATES, LLC.","contact_5_type":"CONTRACTOR-GENERAL CONTRACTOR","contact_6_city":"CHICAGO","contact_6_name":"ALLEN PRESTON CONCRETE","contact_6_type":"MASONRY CONTRACTOR","contact_7_city":"LAKE IN THE HILLS","contact_7_name":"ABITUA PLUMBING, INC.","contact_7_type":"CONTRACTOR-PLUMBER/PLUMBING","contact_8_city":"FRANKLIN PARK","contact_8_name":"HILL MECHANICAL GROUP","contact_8_type":"CONTRACTOR-REFRIGERATION","contact_9_city":"ADDISON","contact_9_name":"CT MECHANICAL, LLC","contact_9_type":"CONTRACTOR-VENTILATION","other_fee_paid":"$0.00","contact_1_state":"IL","contact_2_state":"IL","contact_3_state":"IL","contact_4_state":"IL","contact_5_state":"IL","contact_6_state":"IL","contact_7_state":"IL","contact_8_state":"IL","contact_9_state":"IL","processing_time":"51","subtotal_unpaid":"$0.00","subtotal_waived":"$0.00","zoning_fee_paid":"$75.00","other_fee_unpaid":"$0.00","other_fee_waived":"$0.00","permit_milestone":"CERTIFICATE OF OCCUPANCY ISSUED","street_direction":"W","building_fee_paid":"$13,058.32","contact_1_zipcode":"60666","contact_2_zipcode":"60625-4409","contact_3_zipcode":"60007-","contact_4_zipcode":"60603-","contact_5_zipcode":"60656-","contact_6_zipcode":"60619-","contact_7_zipcode":"60156-","contact_8_zipcode":"60131-","contact_9_zipcode":"60101","zoning_fee_unpaid":"$0.00","zoning_fee_waived":"$0.00","other_fee_subtotal":"$0","building_fee_unpaid":"$0.00","building_fee_waived":"$0.00","zoning_fee_subtotal":"$75","building_fee_subtotal":"$13,058.32"},"geometry":{"type":"Point","coordinates":[-87.914428439,42.008536401]}},{"type":"Feature","properties":{"date":"2023-01-19T00:00:00.000Z","year":2023,"description":"DDS 2019 CODE:PHASE 2 AA ORD CONCOURSE L 3-GATE EXPANSION PROJECT.REMOVAL AND NEW ADDITION OF ACCESSIBLE EXTERIOR ENTRANCE RAMP AND EXTERIOR STAIR. APPROX. 500 SF AT AT&T 3-STORY BUILDING, ADJACENT TO TERMINAL 3 AND CONCOURSE L 20-24 GATES AT O'HARE INTERNATIONAL AIRPORT, AS PER PLANS.CDA PROJECT NUMBER H1215.19 CONSULTANT REVIEWER: V3 COMPANIES OF IL","metadescription":"PERMIT - RENOVATION/ALTERATION. DDS 2019 CODE:PHASE 2 AA ORD CONCOURSE L 3-GATE EXPANSION PROJECT.REMOVAL AND NEW ADDITION OF ACCESSIBLE EXTERIOR ENTRANCE RAMP AND EXTERIOR STAIR. APPROX. 500 SF AT AT&T 3-STORY BUILDING, ADJACENT TO TERMINAL 3 AND CONCOURSE L 20-24 GATES AT O'HARE INTERNATIONAL AIRPORT, AS PER PLANS.CDA PROJECT NUMBER H1215.19 CONSULTANT REVIEWER: V3 COMPANIES OF IL. COMPLETE. 11601","address":"300 East TOUHY Avenue, DES PLAINES, IL, DES PLAINES, 60018, US","location":"POINT (-87.91442843927 42.008536400869)","pin_list":"1208100006","review_type":"DIRECT DEVELOPER SERVICES","street_name":"TOUHY AVE","xcoordinate":"1098098.5774643964","ycoordinate":"1945979.209781826","subtotal_paid":"$1,675.00","community_area":"76","contact_1_city":"CHICAGO","contact_1_name":"AMERICAN AIRLINES - RON RADUKE","contact_1_type":"OWNER","contact_2_city":"CHICAGO","contact_2_name":"EMERY, ROBERT G","contact_2_type":"ARCHITECT","contact_3_city":"CHICAGO","contact_3_name":"BUILDING PERMITS","contact_3_type":"EXPEDITOR","contact_4_city":"CHICAGO","contact_4_name":"F.H. PASCHEN, S.N. NIELSEN & ASSOCIATES, LLC.","contact_4_type":"CONTRACTOR-GENERAL CONTRACTOR","other_fee_paid":"$0.00","contact_1_state":"IL","contact_2_state":"IL","contact_3_state":"IL","contact_4_state":"IL","processing_time":"58","subtotal_unpaid":"$0.00","subtotal_waived":"$0.00","zoning_fee_paid":"$75.00","other_fee_unpaid":"$0.00","other_fee_waived":"$0.00","permit_milestone":"COMPLETE","street_direction":"W","building_fee_paid":"$1,600.00","contact_1_zipcode":"60666","contact_2_zipcode":"60625-4409","contact_3_zipcode":"60603-","contact_4_zipcode":"60656-","zoning_fee_unpaid":"$0.00","zoning_fee_waived":"$0.00","other_fee_subtotal":"$0","building_fee_unpaid":"$0.00","building_fee_waived":"$0.00","zoning_fee_subtotal":"$75","building_fee_subtotal":"$1,600"},"geometry":{"type":"Point","coordinates":[-87.914428439,42.008536401]}},{"type":"Feature","properties":{"date":"2022-07-20T00:00:00.000Z","year":2022,"description":"DDS PRE-2019 CODE: PHASE 2 AA ORD CONCOURSE  L 3-GATE EXPANSION, PERMIT FOR DEEP FOUNDATION INCLUDING CAISSONS INSTALLATION  FOR  PROPOSED AMERICAN AIRLINES ADDITION OF NEW 3 GATES (TO PHASE-1, EXISTING 5 GATES ADDITION IN 2017), APPROX. 11,365 SF AT L STINGER, 2-STORY BUILDING, ADJACENT TO TERMINAL 3 AT O'HARE INTERNATIONAL AIRPORT, AS PER PLANS. CDA PROJECT NUMBER H1215.19-02. CONSULTANT REVIEWER: V3 COMPANIES","metadescription":"PERMIT - NEW CONSTRUCTION. DDS PRE-2019 CODE: PHASE 2 AA ORD CONCOURSE  L 3-GATE EXPANSION, PERMIT FOR DEEP FOUNDATION INCLUDING CAISSONS INSTALLATION  FOR  PROPOSED AMERICAN AIRLINES ADDITION OF NEW 3 GATES (TO PHASE-1, EXISTING 5 GATES ADDITION IN 2017), APPROX. 11,365 SF AT L STINGER, 2-STORY BUILDING, ADJACENT TO TERMINAL 3 AT O'HARE INTERNATIONAL AIRPORT, AS PER PLANS. CDA PROJECT NUMBER H1215.19-02. CONSULTANT REVIEWER: V3 COMPANIES. COMPLETE. 11601","address":"300 East TOUHY Avenue, DES PLAINES, IL, DES PLAINES, 60018, US","location":"POINT (-87.91442843927 42.008536400869)","pin_list":"1208100006","review_type":"DIRECT DEVELOPER SERVICES","street_name":"TOUHY AVE","xcoordinate":"1098098.5774643964","ycoordinate":"1945979.209781826","subtotal_paid":"$6,075.00","community_area":"76","contact_1_city":"CHICAGO","contact_1_name":"AMERICAN AIRLINES - RON RADUKE","contact_1_type":"OWNER","contact_2_city":"CHICAGO","contact_2_name":"EMERY, ROBERT G","contact_2_type":"ARCHITECT","contact_3_city":"CHICAGO","contact_3_name":"BUILDING PERMITS","contact_3_type":"EXPEDITOR","contact_4_city":"CHICAGO","contact_4_name":"F.H. PASCHEN, S.N. NIELSEN & ASSOCIATES, LLC.","contact_4_type":"CONTRACTOR-GENERAL CONTRACTOR","contact_5_city":"CHICAGO","contact_5_name":"ALLEN PRESTON CONCRETE","contact_5_type":"MASONRY CONTRACTOR","other_fee_paid":"$0.00","contact_1_state":"IL","contact_2_state":"IL","contact_3_state":"IL","contact_4_state":"IL","contact_5_state":"IL","processing_time":"182","subtotal_unpaid":"$0.00","subtotal_waived":"$0.00","zoning_fee_paid":"$75.00","other_fee_unpaid":"$0.00","other_fee_waived":"$0.00","permit_milestone":"COMPLETE","street_direction":"W","building_fee_paid":"$6,000.00","contact_1_zipcode":"60666","contact_2_zipcode":"60625-4409","contact_3_zipcode":"60603-","contact_4_zipcode":"60656-","contact_5_zipcode":"60619-","zoning_fee_unpaid":"$0.00","zoning_fee_waived":"$0.00","other_fee_subtotal":"$0","building_fee_unpaid":"$0.00","building_fee_waived":"$0.00","zoning_fee_subtotal":"$75","building_fee_subtotal":"$6,000"},"geometry":{"type":"Point","coordinates":[-87.914428439,42.008536401]}},{"type":"Feature","properties":{"date":"2021-04-28T00:00:00.000Z","year":2021,"description":"EXISTING PANEL DOESN'T HAVE SPACE FOR ADDITIONAL CIRCUITS, I HAVE TO ADD A SUB PANEL 100AMS.","metadescription":"PERMIT – EXPRESS PERMIT PROGRAM. Electrical Work. EXISTING PANEL DOESN'T HAVE SPACE FOR ADDITIONAL CIRCUITS, I HAVE TO ADD A SUB PANEL 100AMS.. COMPLETE. 11601","address":"300 East TOUHY Avenue, DES PLAINES, IL, DES PLAINES, 60018, US","location":"POINT (-87.91442843927 42.008536400869)","review_type":"EXPRESS PERMIT PROGRAM","street_name":"TOUHY AVE","xcoordinate":"1098098.5774643964","ycoordinate":"1945979.209781826","subtotal_paid":"$150.00","community_area":"76","contact_1_city":"BRIDGEVIEW","contact_1_name":"FERIK ELECTRICAL SERVICE,INC.","contact_1_type":"ELECTRICAL CONTRACTOR","contact_2_city":"BRIDGEVIEW","contact_2_name":"FERIK ELECTRICAL SERVICE INC","contact_2_type":"APPLICANT","contact_3_city":"BRIDGEVIEW","contact_3_name":"BOBAK FRANCISZEK","contact_3_type":"APPLICANT","other_fee_paid":"$0.00","contact_1_state":"IL","contact_2_state":"IL","contact_3_state":"IL","processing_time":"0","subtotal_unpaid":"$0.00","subtotal_waived":"$0.00","zoning_fee_paid":"$0.00","other_fee_unpaid":"$0.00","other_fee_waived":"$0.00","permit_milestone":"COMPLETE","street_direction":"W","building_fee_paid":"$150.00","contact_1_zipcode":"60455","contact_2_zipcode":"60455","contact_3_zipcode":"60455","zoning_fee_unpaid":"$0.00","zoning_fee_waived":"$0.00","other_fee_subtotal":"$0","building_fee_unpaid":"$0.00","building_fee_waived":"$0.00","zoning_fee_subtotal":"$0","building_fee_subtotal":"$150"},"geometry":{"type":"Point","coordinates":[-87.914428439,42.008536401]}},{"type":"Feature","properties":{"date":"2020-11-12T00:00:00.000Z","year":2020,"description":"REMODELING OF 2,470 SQUARE FEET OFFICE AREA. ADDITION OF ONE OFFICE AND CONSTRUCTION OF NEW BREAKROOM WITH NEW CABINETS AND SINK. INCLUDES RECONFIGURATION OF MECHANICAL SYSTEM AND ADDITION OF EXHAUST FAN. RECONFIGURE AND ADDITION OF LIGHTING. RECONFIGURE AND ADDITION OF GENERAL PURPOSE OUTLETS.","metadescription":"PERMIT - RENOVATION/ALTERATION. REMODELING OF 2,470 SQUARE FEET OFFICE AREA. ADDITION OF ONE OFFICE AND CONSTRUCTION OF NEW BREAKROOM WITH NEW CABINETS AND SINK. INCLUDES RECONFIGURATION OF MECHANICAL SYSTEM AND ADDITION OF EXHAUST FAN. RECONFIGURE AND ADDITION OF LIGHTING. RECONFIGURE AND ADDITION OF GENERAL PURPOSE OUTLETS.. COMPLETE. 11601","address":"300 East TOUHY Avenue, DES PLAINES, IL, DES PLAINES, 60018, US","location":"POINT (-87.91442843927 42.008536400869)","pin_list":"1208100006","review_type":"SELF CERT","street_name":"TOUHY AVE","xcoordinate":"1098098.5774643964","ycoordinate":"1945979.209781826","subtotal_paid":"$927.15","community_area":"76","contact_1_city":"ITASCA","contact_1_name":"SCHULTZ, RICHARD J","contact_1_type":"SELF CERT ARCHITECT","contact_2_city":"ADDISON","contact_2_name":"K.L. ELECTRIC COMPANY, INC.","contact_2_type":"CONTRACTOR-ELECTRICAL","contact_3_city":"SCHILLER PARK","contact_3_name":"MR MAINTENANCE, INC","contact_3_type":"CONTRACTOR-GENERAL CONTRACTOR","contact_4_city":"ANNAPOLIS","contact_4_name":"MARIANNA LOURDERMAN","contact_4_type":"OWNER","contact_5_city":"MONTGOMERY","contact_5_name":"MVP PLUMBING CORP","contact_5_type":"CONTRACTOR-PLUMBER/PLUMBING","contact_6_city":"BUFFALO GROVE","contact_6_name":"EMCOR SERVICES TEAM MECH","contact_6_type":"CONTRACTOR-VENTILATION","other_fee_paid":"$0.00","contact_1_state":"IL","contact_2_state":"IL","contact_3_state":"IL","contact_4_state":"MD","contact_5_state":"IL","contact_6_state":"IL","processing_time":"0","subtotal_unpaid":"$0.00","subtotal_waived":"$0.00","zoning_fee_paid":"$75.00","other_fee_unpaid":"$0.00","other_fee_waived":"$0.00","permit_milestone":"COMPLETE","street_direction":"W","building_fee_paid":"$852.15","contact_1_zipcode":"60143-","contact_2_zipcode":"60101","contact_3_zipcode":"60176","contact_4_zipcode":"21401","contact_5_zipcode":"60538-","contact_6_zipcode":"60089-","zoning_fee_unpaid":"$0.00","zoning_fee_waived":"$0.00","other_fee_subtotal":"$0","building_fee_unpaid":"$0.00","building_fee_waived":"$0.00","zoning_fee_subtotal":"$75","building_fee_subtotal":"$852.15"},"geometry":{"type":"Point","coordinates":[-87.914428439,42.008536401]}},{"type":"Feature","properties":{"date":"2019-09-20T00:00:00.000Z","year":2019,"description":"INTERIOR REMODELING WITHIN AIRCRAFT HANGAR CURRENTLY UNDER CONSTRUCTION (PERMIT REFERENCE 100801652).  USE OCCUPANCY AS AIRCRAFT HANGAR H-2 STORAGE MODERATE HAZARD REMAINS AS OCCUPANCY USE.  REMODELING INCLUDES INTERIOR ADDITION OF RESOURCE/WORK ROOM, ENLARGEMENT OF ELECTRICAL ROOM, RELOCATION OF IT ROOM, OPENING REWORK AT BUILDING CONNECTOR, UTILITY PIT RELOCATIONS, ADDITIONAL ELECTRICAL PANELS FOR FUTURE USE AND RELATED MEPFP COORDINATION. AFFECTED BUILD-OUT AREA IS APPROXIMATELY 1800SF INCLUDING RESOURCE/WORK ROOM, ELECTRICAL ROOM AND IT ROOM.","metadescription":"PERMIT - RENOVATION/ALTERATION. INTERIOR REMODELING WITHIN AIRCRAFT HANGAR CURRENTLY UNDER CONSTRUCTION (PERMIT REFERENCE 100801652).  USE OCCUPANCY AS AIRCRAFT HANGAR H-2 STORAGE MODERATE HAZARD REMAINS AS OCCUPANCY USE.  REMODELING INCLUDES INTERIOR ADDITION OF RESOURCE/WORK ROOM, ENLARGEMENT OF ELECTRICAL ROOM, RELOCATION OF IT ROOM, OPENING REWORK AT BUILDING CONNECTOR, UTILITY PIT RELOCATIONS, ADDITIONAL ELECTRICAL PANELS FOR FUTURE USE AND RELATED MEPFP COORDINATION. AFFECTED BUILD-OUT AREA IS APPROXIMATELY 1800SF INCLUDING RESOURCE/WORK ROOM, ELECTRICAL ROOM AND IT ROOM.. COMPLETE. 11601","address":"300 East TOUHY Avenue, DES PLAINES, IL, DES PLAINES, 60018, US","location":"POINT (-87.91442843927 42.008536400869)","pin_list":"1208100006","review_type":"STANDARD PLAN REVIEW","street_name":"TOUHY AVE","xcoordinate":"1098098.5774643964","ycoordinate":"1945979.209781826","subtotal_paid":"$3,075.00","community_area":"76","contact_1_city":"CHICAGO","contact_1_name":"ADAM REYNOLDS","contact_1_type":"OWNER","contact_2_city":"GLENCOE","contact_2_name":"KRIEGER, PAUL J","contact_2_type":"ARCHITECT","contact_3_city":"BLOOMINGDALE","contact_3_name":"CONNELLY ELECTRIC CO.","contact_3_type":"CONTRACTOR-ELECTRICAL","contact_4_city":"PHOENIX","contact_4_name":"HUNT CONSTRUCTION GROUP INC","contact_4_type":"CONTRACTOR-GENERAL CONTRACTOR","contact_5_city":"LYNWOOD","contact_5_name":"LARMCO COMPANY, INC","contact_5_type":"MASONRY CONTRACTOR","contact_6_city":"FRANKLIN PARK","contact_6_name":"HILL MECHANICAL CORP.","contact_6_type":"CONTRACTOR-PLUMBER/PLUMBING","contact_7_city":"ELK GROVE VILLAGE","contact_7_name":"EDWARDS ENGINEERING INC","contact_7_type":"CONTRACTOR-REFRIGERATION","contact_8_city":"ELK GROVE VILLAGE","contact_8_name":"EDWARDS ENGINEERING INC","contact_8_type":"CONTRACTOR-VENTILATION","other_fee_paid":"$0.00","contact_1_state":"IL","contact_2_state":"IL","contact_3_state":"IL","contact_4_state":"AZ","contact_5_state":"IL","contact_6_state":"IL","contact_7_state":"IL","contact_8_state":"IL","processing_time":"3","subtotal_unpaid":"$0.00","subtotal_waived":"$0.00","zoning_fee_paid":"$75.00","other_fee_unpaid":"$0.00","other_fee_waived":"$0.00","permit_milestone":"COMPLETE","street_direction":"W","building_fee_paid":"$3,000.00","contact_1_zipcode":"60606","contact_2_zipcode":"60022-","contact_3_zipcode":"60108","contact_4_zipcode":"85020","contact_5_zipcode":"60411","contact_6_zipcode":"60131","contact_7_zipcode":"60007","contact_8_zipcode":"60007","zoning_fee_unpaid":"$0.00","zoning_fee_waived":"$0.00","other_fee_subtotal":"$0","building_fee_unpaid":"$0.00","building_fee_waived":"$0.00","zoning_fee_subtotal":"$75","building_fee_subtotal":"$3,000"},"geometry":{"type":"Point","coordinates":[-87.914428439,42.008536401]}},{"type":"Feature","properties":{"date":"2018-05-21T00:00:00.000Z","year":2018,"description":"SELF CERT;CONSTRUCT A ONE STORY ALUMINUM AND GLASS STOREFRONT ADDITION TO THE EXISTING ONE STORY AIRPORT CANTEEN. NO CHANGE TO CURRENT F MERCANTILE OCCUPANCY/USE. PER PLANS.","metadescription":"PERMIT - RENOVATION/ALTERATION. SELF CERT;CONSTRUCT A ONE STORY ALUMINUM AND GLASS STOREFRONT ADDITION TO THE EXISTING ONE STORY AIRPORT CANTEEN. NO CHANGE TO CURRENT F MERCANTILE OCCUPANCY/USE. PER PLANS.. COMPLETE. 11601","address":"300 East TOUHY Avenue, DES PLAINES, IL, DES PLAINES, 60018, US","location":"POINT (-87.91442843927 42.008536400869)","pin_list":"0000000000","review_type":"SELF CERT","street_name":"TOUHY AVE","xcoordinate":"1098098.5774643964","ycoordinate":"1945979.209781826","subtotal_paid":"$827.00","community_area":"76","contact_1_city":"CHICAGO","contact_1_name":"VILLANUEVA, ALLEN M","contact_1_type":"SELF CERT ARCHITECT","contact_2_city":"CHICAGO","contact_2_name":"GARZA ELECTRICAL, INC.","contact_2_type":"CONTRACTOR-ELECTRICAL","contact_3_city":"CHICAGO","contact_3_name":"PMJ ENTERPRISES, INC.","contact_3_type":"CONTRACTOR-GENERAL CONTRACTOR","contact_4_city":"CHICAGO","contact_4_name":"PMJ ENTERPRISES INC","contact_4_type":"MASONRY CONTRACTOR","contact_5_city":"CHICAGO","contact_5_name":"EFIE SPYROPOULOS","contact_5_type":"OWNER OCCUPIED","contact_6_city":"ELK GROVE VILLAGE","contact_6_name":"JADE MECH SERVICES","contact_6_type":"CONTRACTOR-VENTILATION","other_fee_paid":"$2.00","contact_1_state":"IL","contact_2_state":"IL","contact_3_state":"IL","contact_4_state":"IL","contact_5_state":"IL","contact_6_state":"IL","processing_time":"0","subtotal_unpaid":"$0.00","subtotal_waived":"$0.00","zoning_fee_paid":"$75.00","other_fee_unpaid":"$0.00","other_fee_waived":"$0.00","permit_milestone":"COMPLETE","street_direction":"W","building_fee_paid":"$750.00","contact_1_zipcode":"60614-","contact_2_zipcode":"60643-","contact_3_zipcode":"60651","contact_4_zipcode":"60642-","contact_5_zipcode":"60646","contact_6_zipcode":"60007-","zoning_fee_unpaid":"$0.00","zoning_fee_waived":"$0.00","other_fee_subtotal":"$2","building_fee_unpaid":"$0.00","building_fee_waived":"$0.00","zoning_fee_subtotal":"$75","building_fee_subtotal":"$750"},"geometry":{"type":"Point","coordinates":[-87.914428439,42.008536401]}},{"type":"Feature","properties":{"date":"2018-02-02T00:00:00.000Z","year":2018,"description":"REVISION TO PERMIT #100678025, SUPERSTRUCTURE AND BUILD OUT OF AA NEW 5 GATE ADDITION AT STINGER L ADJACENT TO T3 ORD. SCOPE OF WORK TO INCLUDE BUILD OUT OF PEDESTRIAN BRIDGE SHELL SPACE, AS PER PLANS. APPROX. 960 SF. NO REVISIONS OR WORK TO ADA DESIGN","metadescription":"PERMIT - NEW CONSTRUCTION. REVISION TO PERMIT #100678025, SUPERSTRUCTURE AND BUILD OUT OF AA NEW 5 GATE ADDITION AT STINGER L ADJACENT TO T3 ORD. SCOPE OF WORK TO INCLUDE BUILD OUT OF PEDESTRIAN BRIDGE SHELL SPACE, AS PER PLANS. APPROX. 960 SF. NO REVISIONS OR WORK TO ADA DESIGN. COMPLETE. 11601","address":"300 East TOUHY Avenue, DES PLAINES, IL, DES PLAINES, 60018, US","location":"POINT (-87.91442843927 42.008536400869)","pin_list":"1208100006","review_type":"STANDARD PLAN REVIEW","street_name":"TOUHY AVE","xcoordinate":"1098098.5774643964","ycoordinate":"1945979.209781826","subtotal_paid":"$1,575.00","community_area":"76","contact_1_city":"CHICAGO","contact_1_name":"RON LADUKE","contact_1_type":"OWNER OCCUPIED","contact_2_city":"DALLAS","contact_2_name":"MURPHY JOHN BERNARD","contact_2_type":"ARCHITECT","contact_3_city":"ELK GROVE VILLAGE","contact_3_name":"HARTMANN ELECTRIC COMPANY, INC","contact_3_type":"CONTRACTOR-ELECTRICAL","contact_4_city":"CHICAGO","contact_4_name":"F.H. PASCHEN, S.N. NIELSEN & ASSOCIATES, LLC.","contact_4_type":"CONTRACTOR-GENERAL CONTRACTOR","contact_5_city":"ORLAND PARK","contact_5_name":"F.H. PASCHEN","contact_5_type":"MASONRY CONTRACTOR","contact_6_city":"FRANKLIN PARK","contact_6_name":"HILL MECHANICAL","contact_6_type":"CONTRACTOR-REFRIGERATION","contact_7_city":"FRANKLIN PARK","contact_7_name":"HILL MECHANICAL","contact_7_type":"CONTRACTOR-VENTILATION","other_fee_paid":"$0.00","contact_1_state":"IL","contact_2_state":"TX","contact_3_state":"IL","contact_4_state":"IL","contact_5_state":"IL","contact_6_state":"IL","contact_7_state":"IL","processing_time":"21","subtotal_unpaid":"$0.00","subtotal_waived":"$0.00","zoning_fee_paid":"$75.00","other_fee_unpaid":"$0.00","other_fee_waived":"$0.00","permit_milestone":"COMPLETE","street_direction":"W","building_fee_paid":"$1,500.00","contact_1_zipcode":"60666","contact_2_zipcode":"75202-","contact_3_zipcode":"60007-","contact_4_zipcode":"60656-","contact_5_zipcode":"60467","contact_6_zipcode":"60621-","contact_7_zipcode":"60621-","zoning_fee_unpaid":"$0.00","zoning_fee_waived":"$0.00","other_fee_subtotal":"$0","building_fee_unpaid":"$0.00","building_fee_waived":"$0.00","zoning_fee_subtotal":"$75","building_fee_subtotal":"$1,500"},"geometry":{"type":"Point","coordinates":[-87.914428439,42.008536401]}},{"type":"Feature","properties":{"date":"2017-08-08T00:00:00.000Z","year":2017,"description":"REPLACEMENT OF THE EXISTING 6 EMERGENCY/STANDBY GENERATORS FOR O'HARE INTERNATIONAL AIRPORT. THE PROJECT WILL CONSTRUCT TWO NEW BUILDINGS, ONE TO HOUSE THE NEW EMERGENCY AND STANDBY GENERATORS AND ONE TO HOUSE THE ASSOCIATED PARALLELING SWITCHGEAR. PROJECT INCLUDES THE NEW BUILDINGS, GENERATORS, AND PARALLELING SWITCHGEAR. ALL EXISTING AUTOMATIC TRANSFER SWITCHES ASSOCIATED WITH THE EMERGENCY AND STANDBY POWER SYSTEM LOCATED THROUGHOUT THE TERMINAL AREAS AND HILTON HOTEL. IN ADDITION NEW AUTOMATIC TRANSFER SWITCHES AND DISTRIBUTION IN THE TERMINAL AREAS AND HILTON HOTEL SHALL BE PROVIDED FOR LOADS TO BE ADDED TO THE NEW EMERGENCY AND STANDBY SYSTEM AS INDICATED ON THE DRAWINGS. ALSO, THE EXISTING RING TUNNEL FEEDER SERVING TERMINALS 2, 3, AND THE HILTON SHALL BE REPLACED. ALL PERTINENT AND COLLATERAL WORK INCLUDING BUT NOT LIMITED TO NEW LOAD PICKUP AND SHED CONTROLS, AND SUPPORT EQUIPMENT FOR THE NEW BUILDINGS.","metadescription":"PERMIT - RENOVATION/ALTERATION. REPLACEMENT OF THE EXISTING 6 EMERGENCY/STANDBY GENERATORS FOR O'HARE INTERNATIONAL AIRPORT. THE PROJECT WILL CONSTRUCT TWO NEW BUILDINGS, ONE TO HOUSE THE NEW EMERGENCY AND STANDBY GENERATORS AND ONE TO HOUSE THE ASSOCIATED PARALLELING SWITCHGEAR. PROJECT INCLUDES THE NEW BUILDINGS, GENERATORS, AND PARALLELING SWITCHGEAR. ALL EXISTING AUTOMATIC TRANSFER SWITCHES ASSOCIATED WITH THE EMERGENCY AND STANDBY POWER SYSTEM LOCATED THROUGHOUT THE TERMINAL AREAS AND HILTON HOTEL. IN ADDITION NEW AUTOMATIC TRANSFER SWITCHES AND DISTRIBUTION IN THE TERMINAL AREAS AND HILTON HOTEL SHALL BE PROVIDED FOR LOADS TO BE ADDED TO THE NEW EMERGENCY AND STANDBY SYSTEM AS INDICATED ON THE DRAWINGS. ALSO, THE EXISTING RING TUNNEL FEEDER SERVING TERMINALS 2, 3, AND THE HILTON SHALL BE REPLACED. ALL PERTINENT AND COLLATERAL WORK INCLUDING BUT NOT LIMITED TO NEW LOAD PICKUP AND SHED CONTROLS, AND SUPPORT EQUIPMENT FOR THE NEW BUILDINGS.. COMPLETE. 11601","address":"300 East TOUHY Avenue, DES PLAINES, IL, DES PLAINES, 60018, US","location":"POINT (-87.91442843927 42.008536400869)","pin_list":"1208100006","review_type":"TRADITIONAL DEVELOPER SERVICES","street_name":"TOUHY AVE","xcoordinate":"1098098.5774643964","ycoordinate":"1945979.209781826","subtotal_paid":"$2,554.00","community_area":"76","contact_1_city":"CHICAGO","contact_1_name":"DEPARTMENT OF AVIATION","contact_1_type":"OWNER","contact_2_city":"EVANSTON","contact_2_name":"ROBERTSON, JOHN H","contact_2_type":"ARCHITECT","contact_3_city":"ELK GROVE VILLAGE","contact_3_name":"BROADWAY ELECTRIC, INC.","contact_3_type":"CONTRACTOR-ELECTRICAL","contact_4_city":"MOUNT PROSPECT","contact_4_name":"BROADWAY ELECTRIC INC.","contact_4_type":"CONTRACTOR-GENERAL CONTRACTOR","contact_5_city":"MUNDELEIN","contact_5_name":"MIDWEST MASONRY, INC.","contact_5_type":"MASONRY CONTRACTOR","contact_6_city":"FOX LAKE","contact_6_name":"MECHANICAL, INC.","contact_6_type":"CONTRACTOR-PLUMBER/PLUMBING","contact_7_city":"FREEPORT","contact_7_name":"MECHANICAL, INC","contact_7_type":"CONTRACTOR-REFRIGERATION","contact_8_city":"FREEPORT","contact_8_name":"MECHANICAL, INC","contact_8_type":"CONTRACTOR-VENTILATION","other_fee_paid":"$0.00","contact_1_state":"IL","contact_2_state":"IL","contact_3_state":"IL","contact_4_state":"IL","contact_5_state":"IL","contact_6_state":"IL","contact_7_state":"IL","contact_8_state":"IL","processing_time":"0","subtotal_unpaid":"$0.00","subtotal_waived":"$0.00","zoning_fee_paid":"$75.00","other_fee_unpaid":"$0.00","other_fee_waived":"$0.00","permit_milestone":"COMPLETE","street_direction":"W","building_fee_paid":"$2,479.00","contact_1_zipcode":"60666-","contact_2_zipcode":"60203-1517","contact_3_zipcode":"60007-1904","contact_4_zipcode":"60056","contact_5_zipcode":"60060","contact_6_zipcode":"60020-","contact_7_zipcode":"61032-","contact_8_zipcode":"61032-","zoning_fee_unpaid":"$0.00","zoning_fee_waived":"$0.00","other_fee_subtotal":"$0","building_fee_unpaid":"$0.00","building_fee_waived":"$0.00","zoning_fee_subtotal":"$75","building_fee_subtotal":"$2,479"},"geometry":{"type":"Point","coordinates":[-87.914428439,42.008536401]}},{"type":"Feature","properties":{"date":"2017-08-02T00:00:00.000Z","year":2017,"description":"O'HARE AIRPORT, EFIEE'S CANTEEN, CVHA BUILDING #524, TAXI AND LIMO STAGING LOT, O'HARE AIRPORT, PROJECT # TH3075-00   INCREASE ELECTRIC CAPACITY BY ADDING 1 NEW 45KVA T-FORMER FOR 1 NEW 150A 120/208V 3 PH PANEL, WITH 2 NEW 60A 3PH CIRCUITS FOR ADDITIONAL COOKING EQUIPMENT.  1 EXISTING METER.","metadescription":"PERMIT – EXPRESS PERMIT PROGRAM. Electrical Work. O'HARE AIRPORT, EFIEE'S CANTEEN, CVHA BUILDING #524, TAXI AND LIMO STAGING LOT, O'HARE AIRPORT, PROJECT # TH3075-00   INCREASE ELECTRIC CAPACITY BY ADDING 1 NEW 45KVA T-FORMER FOR 1 NEW 150A 120/208V 3 PH PANEL, WITH 2 NEW 60A 3PH CIRCUITS FOR ADDITIONAL COOKING EQUIPMENT.  1 EXISTING METER.. COMPLETE. 11601","address":"300 East TOUHY Avenue, DES PLAINES, IL, DES PLAINES, 60018, US","location":"POINT (-87.91442843927 42.008536400869)","review_type":"EXPRESS PERMIT PROGRAM","street_name":"TOUHY AVE","xcoordinate":"1098098.5774643964","ycoordinate":"1945979.209781826","subtotal_paid":"$225.00","community_area":"76","contact_1_city":"ARLINGTON HEIGHTS","contact_1_name":"G VLAHOS ELECTRIC INC.","contact_1_type":"ELECTRICAL CONTRACTOR","contact_2_city":"CHICAGO","contact_2_name":"CHRONIS JIM","contact_2_type":"TENANT","contact_3_city":"ARLINGTON HEIGHTS","contact_3_name":"VLAHOS GUS","contact_3_type":"APPLICANT","contact_4_city":"ARLINGTON HEIGHTS","contact_4_name":"G VLAHOS ELECTRIC INC.","contact_4_type":"APPLICANT","other_fee_paid":"$0.00","contact_1_state":"IL","contact_2_state":"IL","contact_3_state":"IL","contact_4_state":"IL","processing_time":"0","subtotal_unpaid":"$0.00","subtotal_waived":"$0.00","zoning_fee_paid":"$0.00","other_fee_unpaid":"$0.00","other_fee_waived":"$0.00","permit_milestone":"COMPLETE","street_direction":"W","building_fee_paid":"$225.00","contact_1_zipcode":"60004","contact_2_zipcode":"60646","contact_3_zipcode":"60004","contact_4_zipcode":"60004","zoning_fee_unpaid":"$0.00","zoning_fee_waived":"$0.00","other_fee_subtotal":"$0","building_fee_unpaid":"$0.00","building_fee_waived":"$0.00","zoning_fee_subtotal":"$0","building_fee_subtotal":"$225"},"geometry":{"type":"Point","coordinates":[-87.914428439,42.008536401]}},{"type":"Feature","properties":{"date":"2017-01-18T00:00:00.000Z","year":2017,"description":"SUPERSTRUCTURE, ARCHITECTURE, MECHANICAL, ELECTRICAL, PLUMBING, & FIRE PROTECTION BUILD OUT IN THIS PERMIT APPLICATION.FUTURE AMERICAN AIRLINES NEW 5 GATE ADDITION, APPROX 49540 SQ. FT. AT STINGER L (2 STORY BUILDING), ADJACENT TO TERMINAL 3 AT O'HARE INTERNATIONAL AIRPORT. CDA PROJECT NUMBER: TH1422.16-00","metadescription":"PERMIT - NEW CONSTRUCTION. SUPERSTRUCTURE, ARCHITECTURE, MECHANICAL, ELECTRICAL, PLUMBING, & FIRE PROTECTION BUILD OUT IN THIS PERMIT APPLICATION.FUTURE AMERICAN AIRLINES NEW 5 GATE ADDITION, APPROX 49540 SQ. FT. AT STINGER L (2 STORY BUILDING), ADJACENT TO TERMINAL 3 AT O'HARE INTERNATIONAL AIRPORT. CDA PROJECT NUMBER: TH1422.16-00. COMPLETE. 11601","address":"300 East TOUHY Avenue, DES PLAINES, IL, DES PLAINES, 60018, US","location":"POINT (-87.91442843927 42.008536400869)","pin_list":"1208100006","review_type":"STANDARD PLAN REVIEW","street_name":"TOUHY AVE","xcoordinate":"1098098.5774643964","ycoordinate":"1945979.209781826","subtotal_paid":"$35,248.40","community_area":"76","contact_1_city":"CHICAGO","contact_1_name":"RON LADUKE","contact_1_type":"OWNER OCCUPIED","contact_2_city":"DALLAS","contact_2_name":"MURPHY JOHN BERNARD","contact_2_type":"ARCHITECT","contact_3_city":"ELK GROVE VILLAGE","contact_3_name":"HARTMANN ELECTRIC COMPANY, INC","contact_3_type":"CONTRACTOR-ELECTRICAL","contact_4_city":"CHICAGO","contact_4_name":"F.H. PASCHEN, S.N. NIELSEN & ASSOCIATES, LLC.","contact_4_type":"CONTRACTOR-GENERAL CONTRACTOR","contact_5_city":"ORLAND PARK","contact_5_name":"F.H. PASCHEN","contact_5_type":"MASONRY CONTRACTOR","contact_6_city":"LAKE IN THE HILLS","contact_6_name":"ABITUA PLUMBING, INC.","contact_6_type":"CONTRACTOR-PLUMBER/PLUMBING","contact_7_city":"FRANKLIN PARK","contact_7_name":"HILL MECHANICAL GROUP","contact_7_type":"CONTRACTOR-REFRIGERATION","contact_8_city":"FRANKLIN PARK","contact_8_name":"HILL MECHANICAL GROUP","contact_8_type":"CONTRACTOR-VENTILATION","other_fee_paid":"$0.00","contact_1_state":"IL","contact_2_state":"TX","contact_3_state":"IL","contact_4_state":"IL","contact_5_state":"IL","contact_6_state":"IL","contact_7_state":"IL","contact_8_state":"IL","processing_time":"0","subtotal_unpaid":"$0.00","subtotal_waived":"$0.00","zoning_fee_paid":"$75.00","other_fee_unpaid":"$0.00","other_fee_waived":"$0.00","permit_milestone":"CERTIFICATE OF OCCUPANCY ISSUED","street_direction":"W","building_fee_paid":"$35,173.40","contact_1_zipcode":"60666","contact_2_zipcode":"75202-","contact_3_zipcode":"60007-","contact_4_zipcode":"60656-","contact_5_zipcode":"60467","contact_6_zipcode":"60156-","contact_7_zipcode":"60131-","contact_8_zipcode":"60131-","zoning_fee_unpaid":"$0.00","zoning_fee_waived":"$0.00","other_fee_subtotal":"$0","building_fee_unpaid":"$0.00","building_fee_waived":"$0.00","zoning_fee_subtotal":"$75","building_fee_subtotal":"$35,173.4"},"geometry":{"type":"Point","coordinates":[-87.914428439,42.008536401]}},{"type":"Feature","properties":{"date":"2016-10-14T00:00:00.000Z","year":2016,"description":"FOUNDATIONS ONLY FOR THIS PERMIT APPLICATION. FUTURE AMERICAN AIRLINES NEW 5 GATE ADDITION, APPROX 49540 SQ. FT. AT STINGER L (2 STORY BUILDING), ADJACENT TO TERMINAL 3 AT O'HARE INTERNATIONAL AIRPORT.CDA PROJECT NUMBER: TH1422.16-01","metadescription":"PERMIT - NEW CONSTRUCTION. FOUNDATIONS ONLY FOR THIS PERMIT APPLICATION. FUTURE AMERICAN AIRLINES NEW 5 GATE ADDITION, APPROX 49540 SQ. FT. AT STINGER L (2 STORY BUILDING), ADJACENT TO TERMINAL 3 AT O'HARE INTERNATIONAL AIRPORT.CDA PROJECT NUMBER: TH1422.16-01. COMPLETE. 11601","address":"300 East TOUHY Avenue, DES PLAINES, IL, DES PLAINES, 60018, US","location":"POINT (-87.91442843927 42.008536400869)","pin_list":"1208100006","review_type":"STANDARD PLAN REVIEW","street_name":"TOUHY AVE","xcoordinate":"1098098.5774643964","ycoordinate":"1945979.209781826","subtotal_paid":"$13,949.00","community_area":"76","contact_1_city":"CHICAGO","contact_1_name":"RON LADUKE","contact_1_type":"OWNER OCCUPIED","contact_2_city":"DALLAS","contact_2_name":"MURPHY JOHN BERNARD","contact_2_type":"ARCHITECT","contact_3_city":"CHICAGO","contact_3_name":"F.H. PASCHEN, S.N. NIELSEN & ASSOCIATES, LLC.","contact_3_type":"CONTRACTOR-GENERAL CONTRACTOR","contact_4_city":"ORLAND PARK","contact_4_name":"F.H. PASCHEN","contact_4_type":"MASONRY CONTRACTOR","other_fee_paid":"$0.00","contact_1_state":"IL","contact_2_state":"TX","contact_3_state":"IL","contact_4_state":"IL","processing_time":"0","subtotal_unpaid":"$0.00","subtotal_waived":"$0.00","zoning_fee_paid":"$75.00","other_fee_unpaid":"$0.00","other_fee_waived":"$0.00","permit_milestone":"COMPLETE","street_direction":"W","building_fee_paid":"$13,874.00","contact_1_zipcode":"60666","contact_2_zipcode":"75202-","contact_3_zipcode":"60656-","contact_4_zipcode":"60467","zoning_fee_unpaid":"$0.00","zoning_fee_waived":"$0.00","other_fee_subtotal":"$0","building_fee_unpaid":"$0.00","building_fee_waived":"$0.00","zoning_fee_subtotal":"$75","building_fee_subtotal":"$13,874"},"geometry":{"type":"Point","coordinates":[-87.914428439,42.008536401]}},{"type":"Feature","properties":{"date":"2016-05-11T00:00:00.000Z","year":2016,"description":"ADDITION TO ATS STORAGE AND MAINTENANCE FACILITY - 11601 WEST TOUHY AVENUE - BUILDING 522","metadescription":"PERMIT - RENOVATION/ALTERATION. ADDITION TO ATS STORAGE AND MAINTENANCE FACILITY - 11601 WEST TOUHY AVENUE - BUILDING 522. COMPLETE. 11601","address":"300 East TOUHY Avenue, DES PLAINES, IL, DES PLAINES, 60018, US","location":"POINT (-87.91442843927 42.008536400869)","pin_list":"1204101004","review_type":"TRADITIONAL DEVELOPER SERVICES","street_name":"TOUHY AVE","xcoordinate":"1098098.5774643964","ycoordinate":"1945979.209781826","subtotal_paid":"$4,028.57","community_area":"76","contact_1_city":"CHICAGO","contact_1_name":"CITY OF CHGO DEPT OF AVIATION","contact_1_type":"OWNER","contact_2_city":"FAIR LAWN","contact_2_name":"STEEN, DOUGLAS S","contact_2_type":"ARCHITECT","contact_3_city":"LIBERTYVILLE","contact_3_name":"ALDRIDGE ELECTRIC INC","contact_3_type":"CONTRACTOR-ELECTRICAL","contact_4_city":"CHARLOTTE","contact_4_name":"PARSONS TRANSPORTATION GROUP INC","contact_4_type":"CONTRACTOR-GENERAL CONTRACTOR","contact_5_city":"LOCKPORT","contact_5_name":"ARAIZA CORPORATION","contact_5_type":"MASONRY CONTRACTOR","contact_6_city":"DOWNERS GROVE","contact_6_name":"CROUCH-SERANKO MASONRY LLC","contact_6_type":"MASONRY CONTRACTOR","contact_7_city":"FRANKLIN PARK","contact_7_name":"R. CARROZZA PLUMBING CO","contact_7_type":"CONTRACTOR-PLUMBER/PLUMBING","contact_8_city":"DES PLAINES","contact_8_name":"AUTUMN CONSTRUCTION SERVICES,","contact_8_type":"CONTRACTOR-REFRIGERATION","contact_9_city":"DES PLAINES","contact_9_name":"AUTUMN CONSTRUCTION SERVICES,","contact_9_type":"CONTRACTOR-VENTILATION","other_fee_paid":"$0.00","contact_1_state":"IL","contact_2_state":"NJ","contact_3_state":"IL","contact_4_state":"NC","contact_5_state":"IL","contact_6_state":"IL","contact_7_state":"IL","contact_8_state":"IL","contact_9_state":"IL","processing_time":"0","subtotal_unpaid":"$0.00","subtotal_waived":"$0.00","zoning_fee_paid":"$75.00","other_fee_unpaid":"$0.00","other_fee_waived":"$0.00","permit_milestone":"CERTIFICATE OF OCCUPANCY ISSUED","street_direction":"W","building_fee_paid":"$3,953.57","contact_1_zipcode":"60666-","contact_2_zipcode":"07410-3622","contact_3_zipcode":"60048-9504","contact_4_zipcode":"28203","contact_5_zipcode":"60441","contact_6_zipcode":"60516","contact_7_zipcode":"60131","contact_8_zipcode":"60018-","contact_9_zipcode":"60018-","zoning_fee_unpaid":"$0.00","zoning_fee_waived":"$0.00","other_fee_subtotal":"$0","building_fee_unpaid":"$0.00","building_fee_waived":"$0.00","zoning_fee_subtotal":"$75","building_fee_subtotal":"$3,953.57"},"geometry":{"type":"Point","coordinates":[-87.914428439,42.008536401]}},{"type":"Feature","properties":{"date":"2016-05-10T00:00:00.000Z","year":2016,"description":"REMOVAL OF EXISITNG STAIR CONNECTING LOWER AND UPPER LEVEL OF CONCOURSE B. COMPOSITE SLAB INFILL IN OPENING TO BE ADDED. ADDITIONALLY, SMALL SLAB DEMO FOR NEW HVAC RETURN DUCT AND SELECT HVAC WORK.","metadescription":"PERMIT - RENOVATION/ALTERATION. REMOVAL OF EXISITNG STAIR CONNECTING LOWER AND UPPER LEVEL OF CONCOURSE B. COMPOSITE SLAB INFILL IN OPENING TO BE ADDED. ADDITIONALLY, SMALL SLAB DEMO FOR NEW HVAC RETURN DUCT AND SELECT HVAC WORK.. COMPLETE. 11601","address":"300 East TOUHY Avenue, DES PLAINES, IL, DES PLAINES, 60018, US","location":"POINT (-87.91442843927 42.008536400869)","pin_list":"1208100006","review_type":"SELF CERT","street_name":"TOUHY AVE","xcoordinate":"1098098.5774643964","ycoordinate":"1945979.209781826","subtotal_paid":"$605.37","community_area":"0","contact_1_city":"CHICAGO","contact_1_name":"FUJIKAWA, TOMOO T","contact_1_type":"SELF CERT ARCHITECT","contact_2_city":"ELK GROVE VILLAGE","contact_2_name":"HARTMANN ELECTRIC COMPANY, INC","contact_2_type":"CONTRACTOR-ELECTRICAL","contact_3_city":"CHICAGO","contact_3_name":"CONSTRUCTION SERVICE ASSOCIATE","contact_3_type":"EXPEDITOR","contact_4_city":"NORTHLAKE","contact_4_name":"ROSSI CONTRACTORS, INC","contact_4_type":"CONTRACTOR-GENERAL CONTRACTOR","contact_5_city":"CHICAGO","contact_5_name":"UNITED AIRLINES","contact_5_type":"OWNER OCCUPIED","contact_6_city":"CHICAGO","contact_6_name":"COMMERCIAL HEATING & AIR","contact_6_type":"CONTRACTOR-VENTILATION","other_fee_paid":"$0.00","contact_1_state":"IL","contact_2_state":"IL","contact_3_state":"IL","contact_4_state":"IL","contact_5_state":"IL","contact_6_state":"IL","processing_time":"4","subtotal_unpaid":"$0.00","subtotal_waived":"$0.00","zoning_fee_paid":"$75.00","other_fee_unpaid":"$0.00","other_fee_waived":"$0.00","permit_milestone":"COMPLETE","street_direction":"W","building_fee_paid":"$530.37","contact_1_zipcode":"60601-","contact_2_zipcode":"60007-","contact_3_zipcode":"60602-","contact_4_zipcode":"60164","contact_5_zipcode":"60606","contact_6_zipcode":"60612-","zoning_fee_unpaid":"$0.00","zoning_fee_waived":"$0.00","other_fee_subtotal":"$0","building_fee_unpaid":"$0.00","building_fee_waived":"$0.00","zoning_fee_subtotal":"$75","building_fee_subtotal":"$530.37"},"geometry":{"type":"Point","coordinates":[-87.914428439,42.008536401]}},{"type":"Feature","properties":{"date":"2015-11-17T00:00:00.000Z","year":2015,"description":"FURNISH ADDITIONAL DATA AT L-3 SUPPORT SPACE FOR SPIRIT AIRLINES.","metadescription":"PERMIT – EXPRESS PERMIT PROGRAM. Electrical Work. FURNISH ADDITIONAL DATA AT L-3 SUPPORT SPACE FOR SPIRIT AIRLINES.. COMPLETE. 11601","address":"300 East TOUHY Avenue, DES PLAINES, IL, DES PLAINES, 60018, US","location":"POINT (-87.91442843927 42.008536400869)","review_type":"EXPRESS PERMIT PROGRAM","street_name":"TOUHY AVE","xcoordinate":"1098098.5774643964","ycoordinate":"1945979.209781826","subtotal_paid":"$50.00","community_area":"76","contact_1_city":"ELK GROVE VILLAGE","contact_1_name":"HARTMANN ELECTRIC COMPANY, INC","contact_1_type":"ELECTRICAL CONTRACTOR","contact_2_city":"ELK GROVE VILLAGE","contact_2_name":"HARTMANN ELECTRIC COMPANY, INC","contact_2_type":"APPLICANT","contact_3_city":"DES PLAINES","contact_3_name":"PALM JAMES J","contact_3_type":"APPLICANT","other_fee_paid":"$0.00","contact_1_state":"IL","contact_2_state":"IL","contact_3_state":"IL","processing_time":"0","subtotal_unpaid":"$0.00","subtotal_waived":"$0.00","zoning_fee_paid":"$0.00","other_fee_unpaid":"$0.00","other_fee_waived":"$0.00","permit_milestone":"COMPLETE","street_direction":"W","building_fee_paid":"$50.00","contact_1_zipcode":"60007","contact_2_zipcode":"60007","contact_3_zipcode":"60016","zoning_fee_unpaid":"$0.00","zoning_fee_waived":"$0.00","other_fee_subtotal":"$0","building_fee_unpaid":"$0.00","building_fee_waived":"$0.00","zoning_fee_subtotal":"$0","building_fee_subtotal":"$50"},"geometry":{"type":"Point","coordinates":[-87.914428439,42.008536401]}},{"type":"Feature","properties":{"date":"2015-11-04T00:00:00.000Z","year":2015,"description":"MECHANICAL RENOVATIONS OF EXISTING BAGGAGE HANDLING AREA AT O'HARE TERMINAL 3. TO INCLUDE REPLACING EXISTING AIR HANDLING UNIT WITH NEW AND ADDITION OF AIR HANDLING UNIT FOR PROPER CIRCULATION OF AIR","metadescription":"PERMIT - RENOVATION/ALTERATION. MECHANICAL RENOVATIONS OF EXISTING BAGGAGE HANDLING AREA AT O'HARE TERMINAL 3. TO INCLUDE REPLACING EXISTING AIR HANDLING UNIT WITH NEW AND ADDITION OF AIR HANDLING UNIT FOR PROPER CIRCULATION OF AIR. COMPLETE. 11601","address":"300 East TOUHY Avenue, DES PLAINES, IL, DES PLAINES, 60018, US","location":"POINT (-87.91442843927 42.008536400869)","pin_list":"1208100006","review_type":"STANDARD PLAN REVIEW","street_name":"TOUHY AVE","xcoordinate":"1098098.5774643964","ycoordinate":"1945979.209781826","subtotal_paid":"$62,925.00","community_area":"76","contact_1_city":"CHICAGO","contact_1_name":"CHICAGO DEPARTMENT OF AVIATION, CDA","contact_1_type":"OWNER OCCUPIED","contact_2_city":"CHICAGO","contact_2_name":"JAKALSKI, JEFREY D","contact_2_type":"ARCHITECT","contact_3_city":"SCHAUMBURG","contact_3_name":"AMERICAN ELECTRIC CONSTRUCTION","contact_3_type":"CONTRACTOR-ELECTRICAL","contact_4_city":"CHICAGO","contact_4_name":"BURNHAM NATIONWIDE, INC.","contact_4_type":"EXPEDITOR","contact_5_city":"NORTHBROOK","contact_5_name":"F.E. MORAN INC","contact_5_type":"CONTRACTOR-GENERAL CONTRACTOR","contact_6_city":"FRANKFORT","contact_6_name":"AMALGAMATED SERVICES INC","contact_6_type":"CONTRACTOR-PLUMBER/PLUMBING","contact_7_city":"NORTHBROOK","contact_7_name":"F.E. MORAN INC","contact_7_type":"CONTRACTOR-REFRIGERATION","contact_8_city":"CHICAGO","contact_8_name":"COMMERCIAL HEATING & AIR","contact_8_type":"CONTRACTOR-VENTILATION","other_fee_paid":"$0.00","contact_1_state":"IL","contact_2_state":"IL","contact_3_state":"IL","contact_4_state":"IL","contact_5_state":"IL","contact_6_state":"IL","contact_7_state":"IL","contact_8_state":"IL","processing_time":"36","subtotal_unpaid":"$0.00","subtotal_waived":"$0.00","zoning_fee_paid":"$75.00","other_fee_unpaid":"$0.00","other_fee_waived":"$0.00","permit_milestone":"COMPLETE","street_direction":"W","building_fee_paid":"$62,850.00","contact_1_zipcode":"60666","contact_2_zipcode":"60601","contact_3_zipcode":"60193-","contact_4_zipcode":"60602-","contact_5_zipcode":"60062-","contact_6_zipcode":"60423","contact_7_zipcode":"60062-","contact_8_zipcode":"60612-","zoning_fee_unpaid":"$0.00","zoning_fee_waived":"$0.00","other_fee_subtotal":"$0","building_fee_unpaid":"$0.00","building_fee_waived":"$0.00","zoning_fee_subtotal":"$75","building_fee_subtotal":"$62,850"},"geometry":{"type":"Point","coordinates":[-87.914428439,42.008536401]}},{"type":"Feature","properties":{"date":"2015-04-16T00:00:00.000Z","year":2015,"description":"REMOVAL, RELOCATION, AND INSTALLATION OF 2 GATE DOORS AT TERMINAL 2 AT O'HARE, ADDITIONALLY RELOCATING GIDS, PODIUMS, AND CHARGING STATIONS.","metadescription":"PERMIT - RENOVATION/ALTERATION. REMOVAL, RELOCATION, AND INSTALLATION OF 2 GATE DOORS AT TERMINAL 2 AT O'HARE, ADDITIONALLY RELOCATING GIDS, PODIUMS, AND CHARGING STATIONS.. COMPLETE. 11601","address":"300 East TOUHY Avenue, DES PLAINES, IL, DES PLAINES, 60018, US","location":"POINT (-87.91442843927 42.008536400869)","pin_list":"1208100006","review_type":"STANDARD PLAN REVIEW","street_name":"TOUHY AVE","xcoordinate":"1098098.5774643964","ycoordinate":"1945979.209781826","subtotal_paid":"$1,606.64","community_area":"76","contact_1_city":"ATLANTA","contact_1_name":"CLIFTON BLACK","contact_1_type":"OWNER OCCUPIED","contact_2_city":"WESTERN SPRINGS","contact_2_name":"GOBEL, GREGORY J","contact_2_type":"ARCHITECT","contact_3_city":"ELK GROVE VILLAGE","contact_3_name":"HARTMANN ELECTRIC COMPANY, INC","contact_3_type":"CONTRACTOR-ELECTRICAL","contact_4_city":"CHICAGO","contact_4_name":"CONSTRUCTION SERVICE ASSOCIATE","contact_4_type":"EXPEDITOR","contact_5_city":"HAMPSHIRE","contact_5_name":"NORTHWEST CONTRACTORS, INC","contact_5_type":"CONTRACTOR-GENERAL CONTRACTOR","other_fee_paid":"$0.00","contact_1_state":"GA","contact_2_state":"IL","contact_3_state":"IL","contact_4_state":"IL","contact_5_state":"IL","processing_time":"7","subtotal_unpaid":"$0.00","subtotal_waived":"$0.00","zoning_fee_paid":"$75.00","other_fee_unpaid":"$0.00","other_fee_waived":"$0.00","permit_milestone":"COMPLETE","street_direction":"W","building_fee_paid":"$1,531.64","contact_1_zipcode":"30320","contact_2_zipcode":"60558-","contact_3_zipcode":"60007-","contact_4_zipcode":"60602-","contact_5_zipcode":"60120-","zoning_fee_unpaid":"$0.00","zoning_fee_waived":"$0.00","other_fee_subtotal":"$0","building_fee_unpaid":"$0.00","building_fee_waived":"$0.00","zoning_fee_subtotal":"$75","building_fee_subtotal":"$1,531.64"},"geometry":{"type":"Point","coordinates":[-87.914428439,42.008536401]}},{"type":"Feature","properties":{"date":"2014-12-03T00:00:00.000Z","year":2014,"description":"INSTALL 96 STRAND SINGLE MODE FIBER TO COMM ROOM AL-528,PL-300 AND PL-301. INSTALL 48 STRAND SINGLE MODE FIBER TO COMM ROOM AL-503, AL-520, AL-661, AL-669, AL-682, UL-583, UL-604, LL-562 AND LL-204. REPLACE EXISTING CAT 5 CABLE WITH NEW CAT 6 CABLE FOR THE BOARDING GATE READERS AT GATES M1 THRU M21. INSTALL NEW CAT 6 CABLE TO 4 NEW AP LOCATIONS IN THE BAGROOM AND 8 NEW LOCATIONS IN THE TICKET COUNTER AREA. ADD 1 ADDITIONAL CAT 6 CABLE TO THE GATE PODIUMS AT GATES M5,M6,M7,M8,M9,M10,M11,M12,M13,M15,M16,M17 AND M19. REPLACE EXISTING CAT 5 CABLE WITH NEW CAT 6 CABLE AT 11 EXTERIOR AP LOCATIONS AT GATES M1, M3, M5, M7, M8, M9 M12, M13, M16, M18 AND M20 ALL CABLE TO BE INSTALLED IN EXISTING CONDUITS AND CABLE TRAYS.","metadescription":"PERMIT – EXPRESS PERMIT PROGRAM. Electrical Work. INSTALL 96 STRAND SINGLE MODE FIBER TO COMM ROOM AL-528,PL-300 AND PL-301. INSTALL 48 STRAND SINGLE MODE FIBER TO COMM ROOM AL-503, AL-520, AL-661, AL-669, AL-682, UL-583, UL-604, LL-562 AND LL-204. REPLACE EXISTING CAT 5 CABLE WITH NEW CAT 6 CABLE FOR THE BOARDING GATE READERS AT GATES M1 THRU M21. INSTALL NEW CAT 6 CABLE TO 4 NEW AP LOCATIONS IN THE BAGROOM AND 8 NEW LOCATIONS IN THE TICKET COUNTER AREA. ADD 1 ADDITIONAL CAT 6 CABLE TO THE GATE PODIUMS AT GATES M5,M6,M7,M8,M9,M10,M11,M12,M13,M15,M16,M17 AND M19. REPLACE EXISTING CAT 5 CABLE WITH NEW CAT 6 CABLE AT 11 EXTERIOR AP LOCATIONS AT GATES M1, M3, M5, M7, M8, M9 M12, M13, M16, M18 AND M20 ALL CABLE TO BE INSTALLED IN EXISTING CONDUITS AND CABLE TRAYS.. COMPLETE. 11601","address":"300 East TOUHY Avenue, DES PLAINES, IL, DES PLAINES, 60018, US","location":"POINT (-87.91442843927 42.008536400869)","review_type":"EXPRESS PERMIT PROGRAM","street_name":"TOUHY AVE","xcoordinate":"1098098.5774643964","ycoordinate":"1945979.209781826","subtotal_paid":"$200.00","community_area":"76","contact_1_city":"GURNEE","contact_1_name":"ISO COMMUNICATIONS, INC.","contact_1_type":"ELECTRICAL CONTRACTOR","contact_2_city":"GURNEE","contact_2_name":"SOBOTA JOSEPH S","contact_2_type":"APPLICANT","contact_3_city":"GURNEE","contact_3_name":"ISO COMMUNICATIONS, INC.","contact_3_type":"APPLICANT","other_fee_paid":"$0.00","contact_1_state":"IL","contact_2_state":"IL","contact_3_state":"IL","processing_time":"0","subtotal_unpaid":"$0.00","subtotal_waived":"$0.00","zoning_fee_paid":"$0.00","other_fee_unpaid":"$0.00","other_fee_waived":"$0.00","permit_milestone":"COMPLETE","street_direction":"W","building_fee_paid":"$200.00","contact_1_zipcode":"60031","contact_2_zipcode":"60031","contact_3_zipcode":"60031","zoning_fee_unpaid":"$0.00","zoning_fee_waived":"$0.00","other_fee_subtotal":"$0","building_fee_unpaid":"$0.00","building_fee_waived":"$0.00","zoning_fee_subtotal":"$0","building_fee_subtotal":"$200"},"geometry":{"type":"Point","coordinates":[-87.914428439,42.008536401]}},{"type":"Feature","properties":{"date":"2014-10-03T00:00:00.000Z","year":2014,"description":"ADDITION OF NEW OR RE-USED LOADING BRIDGES AND FIXED WALKWAYS AND NEW HOLDROOM AT GATE E1A.","metadescription":"PERMIT - NEW CONSTRUCTION. ADDITION OF NEW OR RE-USED LOADING BRIDGES AND FIXED WALKWAYS AND NEW HOLDROOM AT GATE E1A.. COMPLETE. 11601","address":"300 East TOUHY Avenue, DES PLAINES, IL, DES PLAINES, 60018, US","location":"POINT (-87.91442843927 42.008536400869)","pin_list":"1202100006","review_type":"STANDARD PLAN REVIEW","street_name":"TOUHY AVE","xcoordinate":"1098098.5774643964","ycoordinate":"1945979.209781826","subtotal_paid":"$724.65","community_area":"76","contact_1_city":"CHICAGO","contact_1_name":"UNITED AIRLINES","contact_1_type":"OWNER OCCUPIED","contact_2_city":"CHICAGO","contact_2_name":"FRISCH, MARK J","contact_2_type":"ARCHITECT","contact_3_city":"ELK GROVE VILLAGE","contact_3_name":"HARTMANN ELECTRIC COMPANY, INC","contact_3_type":"CONTRACTOR-ELECTRICAL","contact_4_city":"CHICAGO","contact_4_name":"BURNHAM NATIONWIDE, INC.","contact_4_type":"EXPEDITOR","contact_5_city":"NORTHLAKE","contact_5_name":"ROSSI CONTRACTORS, INC","contact_5_type":"CONTRACTOR-GENERAL CONTRACTOR","other_fee_paid":"$0.00","contact_1_state":"IL","contact_2_state":"IL","contact_3_state":"IL","contact_4_state":"IL","contact_5_state":"IL","processing_time":"2","subtotal_unpaid":"$0.00","subtotal_waived":"$0.00","zoning_fee_paid":"$75.00","other_fee_unpaid":"$0.00","other_fee_waived":"$0.00","permit_milestone":"COMPLETE","street_direction":"W","building_fee_paid":"$649.65","contact_1_zipcode":"60666","contact_2_zipcode":"60611-","contact_3_zipcode":"60007-","contact_4_zipcode":"60602-","contact_5_zipcode":"60164","zoning_fee_unpaid":"$0.00","zoning_fee_waived":"$0.00","other_fee_subtotal":"$0","building_fee_unpaid":"$0.00","building_fee_waived":"$0.00","zoning_fee_subtotal":"$75","building_fee_subtotal":"$649.65"},"geometry":{"type":"Point","coordinates":[-87.914428439,42.008536401]}},{"type":"Feature","properties":{"date":"2014-03-18T00:00:00.000Z","year":2014,"description":"LUFTHANSA CARGO OFFICE ADDITION TO EXISTING CARGO FACILITYINTERIOR RESTROOM RENOVATIONS, ALTERATIONS AND ELEVATOR UPGRADE.AS PER PLANS**CERTIFIED CORRECTIONS- - SUBJECT TO FIELD INSPECTIONS & AUDIT **","metadescription":"PERMIT - RENOVATION/ALTERATION. LUFTHANSA CARGO OFFICE ADDITION TO EXISTING CARGO FACILITYINTERIOR RESTROOM RENOVATIONS, ALTERATIONS AND ELEVATOR UPGRADE.AS PER PLANS**CERTIFIED CORRECTIONS- - SUBJECT TO FIELD INSPECTIONS & AUDIT **. COMPLETE. 11601","address":"300 East TOUHY Avenue, DES PLAINES, IL, DES PLAINES, 60018, US","location":"POINT (-87.91442843927 42.008536400869)","pin_list":"1208100006","review_type":"STANDARD PLAN REVIEW","street_name":"TOUHY AVE","xcoordinate":"1098098.5774643964","ycoordinate":"1945979.209781826","subtotal_paid":"$3,597.76","community_area":"76","contact_1_city":"CHICAGO","contact_1_name":"YILMAZ OEDER","contact_1_type":"OWNER OCCUPIED","contact_2_city":"CHICAGO","contact_2_name":"FUNKE, JEFFREY N","contact_2_type":"ARCHITECT","contact_3_city":"KENOSHA","contact_3_name":"LETECH INC.","contact_3_type":"CONTRACTOR-ELECTRICAL","contact_4_city":"SOUTH ELGIN","contact_4_name":"MONTEMAYOR CONSTRUCTION, INC.","contact_4_type":"CONTRACTOR-GENERAL CONTRACTOR","contact_5_city":"ELGIN","contact_5_name":"ALRIGHT CONCRETE CO.","contact_5_type":"MASONRY CONTRACTOR","contact_6_city":"ST CHARLES","contact_6_name":"PRAIRIE PIPING INC.","contact_6_type":"CONTRACTOR-PLUMBER/PLUMBING","contact_7_city":"SCHAUMBURG","contact_7_name":"J&B MECHANICAL, INC.","contact_7_type":"CONTRACTOR-REFRIGERATION","contact_8_city":"SCHAUMBURG","contact_8_name":"J&B MECHANICAL, INC.","contact_8_type":"CONTRACTOR-VENTILATION","other_fee_paid":"$0.00","contact_1_state":"IL","contact_2_state":"IL","contact_3_state":"WI","contact_4_state":"IL","contact_5_state":"IL","contact_6_state":"IL","contact_7_state":"IL","contact_8_state":"IL","processing_time":"97","subtotal_unpaid":"$0.00","subtotal_waived":"$0.00","zoning_fee_paid":"$75.00","other_fee_unpaid":"$0.00","other_fee_waived":"$0.00","permit_milestone":"COMPLETE","street_direction":"W","building_fee_paid":"$3,522.76","contact_1_zipcode":"60666","contact_2_zipcode":"60611","contact_3_zipcode":"53144-","contact_4_zipcode":"60177-","contact_5_zipcode":"60124","contact_6_zipcode":"60175","contact_7_zipcode":"60172-","contact_8_zipcode":"60172-","zoning_fee_unpaid":"$0.00","zoning_fee_waived":"$0.00","other_fee_subtotal":"$0","building_fee_unpaid":"$0.00","building_fee_waived":"$0.00","zoning_fee_subtotal":"$75","building_fee_subtotal":"$3,522.76"},"geometry":{"type":"Point","coordinates":[-87.914428439,42.008536401]}},{"type":"Feature","properties":{"date":"2013-07-25T00:00:00.000Z","year":2013,"description":"ADDITION TO EXISTING CANOPY AT FEDEX FACILITY AT O'HARE AIRPORT AS PER PLANS.","metadescription":"PERMIT - RENOVATION/ALTERATION. ADDITION TO EXISTING CANOPY AT FEDEX FACILITY AT O'HARE AIRPORT AS PER PLANS.. COMPLETE. 11601","address":"300 East TOUHY Avenue, DES PLAINES, IL, DES PLAINES, 60018, US","location":"POINT (-87.91442843927 42.008536400869)","pin_list":"1208100006","review_type":"STANDARD PLAN REVIEW","street_name":"TOUHY AVE","xcoordinate":"1098098.5774643964","ycoordinate":"1945979.209781826","subtotal_paid":"$636.68","community_area":"76","contact_1_city":"MEMPHIS","contact_1_name":"FEDERAL EXPRESS CORPORATION","contact_1_type":"OWNER OCCUPIED","contact_2_city":"DOWNERS GROVE","contact_2_name":"RUHDE, JEFFREY A","contact_2_type":"STRUCTURAL ENGINEER","contact_3_city":"ALSIP","contact_3_name":"T.A. ELECTRICAL CONTR. INC","contact_3_type":"CONTRACTOR-ELECTRICAL","contact_4_city":"CHICAGO","contact_4_name":"BURNHAM NATIONWIDE, INC.","contact_4_type":"EXPEDITOR","contact_5_city":"CHICAGO","contact_5_name":"BROWN & MOMEN, INCORPORATED","contact_5_type":"CONTRACTOR-GENERAL CONTRACTOR","contact_6_city":"CHICAGO","contact_6_name":"BRANDENBURGER PLUMBING, INC.","contact_6_type":"CONTRACTOR-PLUMBER/PLUMBING","other_fee_paid":"$0.00","contact_1_state":"TN","contact_2_state":"IL","contact_3_state":"IL","contact_4_state":"IL","contact_5_state":"IL","contact_6_state":"IL","processing_time":"24","subtotal_unpaid":"$0.00","subtotal_waived":"$0.00","zoning_fee_paid":"$75.00","other_fee_unpaid":"$0.00","other_fee_waived":"$0.00","permit_milestone":"COMPLETE","street_direction":"W","building_fee_paid":"$561.68","contact_1_zipcode":"38125","contact_2_zipcode":"60515-","contact_3_zipcode":"60803","contact_4_zipcode":"60602-","contact_5_zipcode":"60615-","contact_6_zipcode":"60655","zoning_fee_unpaid":"$0.00","zoning_fee_waived":"$0.00","other_fee_subtotal":"$0","building_fee_unpaid":"$0.00","building_fee_waived":"$0.00","zoning_fee_subtotal":"$75","building_fee_subtotal":"$561.68"},"geometry":{"type":"Point","coordinates":[-87.914428439,42.008536401]}},{"type":"Feature","properties":{"date":"2013-04-11T00:00:00.000Z","year":2013,"description":"EXTEND EXISTING CIRCUITS FOR ADDITIONAL COUNTER AT THE WEST END OF AREA B","metadescription":"PERMIT – EXPRESS PERMIT PROGRAM. Electrical Work. EXTEND EXISTING CIRCUITS FOR ADDITIONAL COUNTER AT THE WEST END OF AREA B. COMPLETE. 11601","address":"300 East TOUHY Avenue, DES PLAINES, IL, DES PLAINES, 60018, US","location":"POINT (-87.91442843927 42.008536400869)","review_type":"EXPRESS PERMIT PROGRAM","street_name":"TOUHY AVE","xcoordinate":"1098098.5774643964","ycoordinate":"1945979.209781826","subtotal_paid":"$50.00","community_area":"76","contact_1_city":"ELK GROVE VILLAGE","contact_1_name":"HARTMANN ELECTRIC COMPANY, INC","contact_1_type":"ELECTRICAL CONTRACTOR","contact_2_city":"DES PLAINES","contact_2_name":"PALM JAMES J","contact_2_type":"APPLICANT","contact_3_city":"ELK GROVE VILLAGE","contact_3_name":"HARTMANN ELECTRIC COMPANY, INC","contact_3_type":"APPLICANT","other_fee_paid":"$0.00","contact_1_state":"IL","contact_2_state":"IL","contact_3_state":"IL","processing_time":"0","subtotal_unpaid":"$0.00","subtotal_waived":"$0.00","zoning_fee_paid":"$0.00","other_fee_unpaid":"$0.00","other_fee_waived":"$0.00","permit_milestone":"COMPLETE","street_direction":"W","building_fee_paid":"$50.00","contact_1_zipcode":"60007","contact_2_zipcode":"60016","contact_3_zipcode":"60007","zoning_fee_unpaid":"$0.00","zoning_fee_waived":"$0.00","other_fee_subtotal":"$0","building_fee_unpaid":"$0.00","building_fee_waived":"$0.00","zoning_fee_subtotal":"$0","building_fee_subtotal":"$50"},"geometry":{"type":"Point","coordinates":[-87.914428439,42.008536401]}},{"type":"Feature","properties":{"date":"2012-11-20T00:00:00.000Z","year":2012,"description":"ADDITION TO EXISTING TERMINAL / EXPANSION OF MEMBERS ONLY CLUB / INTERIOR ALTERATIONS / FOR AMERICAN AIRLINES / AS PER PLANS","metadescription":"PERMIT - RENOVATION/ALTERATION. ADDITION TO EXISTING TERMINAL / EXPANSION OF MEMBERS ONLY CLUB / INTERIOR ALTERATIONS / FOR AMERICAN AIRLINES / AS PER PLANS. COMPLETE. 11601","address":"300 East TOUHY Avenue, DES PLAINES, IL, DES PLAINES, 60018, US","location":"POINT (-87.91442843927 42.008536400869)","pin_list":"1208100006","review_type":"STANDARD PLAN REVIEW","street_name":"TOUHY AVE","xcoordinate":"1098098.5774643964","ycoordinate":"1945979.209781826","subtotal_paid":"$4,942.50","community_area":"76","contact_1_city":"CHICAGO","contact_1_name":"AMERICAN AIRLINES","contact_1_type":"OWNER OCCUPIED","contact_2_city":"CHICAGO","contact_2_name":"ILEKIS, ALPHONSE A","contact_2_type":"ARCHITECT","contact_3_city":"CHICAGO","contact_3_name":"REX ELECT. & TECHNOLOGIES LLC","contact_3_type":"CONTRACTOR-ELECTRICAL","contact_4_city":"CHICAGO","contact_4_name":"PHASE 1 CONSULTING INC.","contact_4_type":"EXPEDITOR","contact_5_city":"CHICAGO","contact_5_name":"JAMES MCHUGH CONSTRUCTION CO","contact_5_type":"CONTRACTOR-GENERAL CONTRACTOR","contact_6_city":"CHICAGO","contact_6_name":"COMMERCIAL HTG & AIR COND.","contact_6_type":"CONTRACTOR-PLUMBER/PLUMBING","contact_7_city":"NILES","contact_7_name":"MIDWESCO","contact_7_type":"CONTRACTOR-VENTILATION","other_fee_paid":"$0.00","contact_1_state":"IL","contact_2_state":"IL","contact_3_state":"IL","contact_4_state":"IL","contact_5_state":"IL","contact_6_state":"IL","contact_7_state":"IL","processing_time":"56","subtotal_unpaid":"$0.00","subtotal_waived":"$0.00","zoning_fee_paid":"$75.00","other_fee_unpaid":"$0.00","other_fee_waived":"$0.00","permit_milestone":"CERTIFICATE OF OCCUPANCY ISSUED","street_direction":"W","building_fee_paid":"$4,867.50","contact_1_zipcode":"60666","contact_2_zipcode":"60606","contact_3_zipcode":"60606-","contact_4_zipcode":"60606-","contact_5_zipcode":"60616-","contact_6_zipcode":"60612-","contact_7_zipcode":"60714-","zoning_fee_unpaid":"$0.00","zoning_fee_waived":"$0.00","other_fee_subtotal":"$0","building_fee_unpaid":"$0.00","building_fee_waived":"$0.00","zoning_fee_subtotal":"$75","building_fee_subtotal":"$4,867.5"},"geometry":{"type":"Point","coordinates":[-87.914428439,42.008536401]}},{"type":"Feature","properties":{"date":"2012-11-02T00:00:00.000Z","year":2012,"description":"ADD ADDITIONAL RECEPTACLES TO EXISTING CIRCUITRY IN MCDONALDS RETAURANT IN APEX H/K OF THE T3 TERMINAL OF OHARE AIRPORT, FOR THE INSTALLATION OF NEW MONITORS.","metadescription":"PERMIT – EXPRESS PERMIT PROGRAM. Electrical Work. ADD ADDITIONAL RECEPTACLES TO EXISTING CIRCUITRY IN MCDONALDS RETAURANT IN APEX H/K OF THE T3 TERMINAL OF OHARE AIRPORT, FOR THE INSTALLATION OF NEW MONITORS.. COMPLETE. 11601","address":"300 East TOUHY Avenue, DES PLAINES, IL, DES PLAINES, 60018, US","location":"POINT (-87.91442843927 42.008536400869)","review_type":"EXPRESS PERMIT PROGRAM","street_name":"TOUHY AVE","xcoordinate":"1098098.5774643964","ycoordinate":"1945979.209781826","subtotal_paid":"$50.00","community_area":"76","contact_1_city":"BENSENVILLE","contact_1_name":"THE RIGHT APPROACH","contact_1_type":"ELECTRICAL CONTRACTOR","contact_2_city":"BENSENVILLE","contact_2_name":"THE RIGHT APPROACH","contact_2_type":"APPLICANT","contact_3_city":"BENSENVILLE","contact_3_name":"BENN TIMOTHY E","contact_3_type":"APPLICANT","other_fee_paid":"$0.00","contact_1_state":"IL","contact_2_state":"IL","contact_3_state":"IL","processing_time":"0","subtotal_unpaid":"$0.00","subtotal_waived":"$0.00","zoning_fee_paid":"$0.00","other_fee_unpaid":"$0.00","other_fee_waived":"$0.00","permit_milestone":"COMPLETE","street_direction":"W","building_fee_paid":"$50.00","contact_1_zipcode":"60106","contact_2_zipcode":"60106","contact_3_zipcode":"60106","zoning_fee_unpaid":"$0.00","zoning_fee_waived":"$0.00","other_fee_subtotal":"$0","building_fee_unpaid":"$0.00","building_fee_waived":"$0.00","zoning_fee_subtotal":"$0","building_fee_subtotal":"$50"},"geometry":{"type":"Point","coordinates":[-87.914428439,42.008536401]}},{"type":"Feature","properties":{"date":"2011-07-29T00:00:00.000Z","year":2011,"description":"ADDITION AND ALTERATION TO ACCOMODATE NEW BAGGAGE HANDLING SYSTEM FOR UNITED AIRLINES AT O'HARE INERNATIONAL AIRPORT.","metadescription":"PERMIT - RENOVATION/ALTERATION. ADDITION AND ALTERATION TO ACCOMODATE NEW BAGGAGE HANDLING SYSTEM FOR UNITED AIRLINES AT O'HARE INERNATIONAL AIRPORT.. COMPLETE. 11601","address":"300 East TOUHY Avenue, DES PLAINES, IL, DES PLAINES, 60018, US","location":"POINT (-87.91442843927 42.008536400869)","pin_list":"1208100006","review_type":"STANDARD PLAN REVIEW","street_name":"TOUHY AVE","xcoordinate":"1098098.5774643964","ycoordinate":"1945979.209781826","subtotal_paid":"$24,671.51","community_area":"76","contact_1_city":"CHICAGO","contact_1_name":"YOSHIDA JAMES M","contact_1_type":"ARCHITECT","contact_2_city":"ELK GROVE VILLAGE","contact_2_name":"HARTMANN ELECTRIC COMPANY, INC","contact_2_type":"CONTRACTOR-ELECTRICAL","contact_3_city":"NEW YORK","contact_3_name":"LENDLEASE (US) CONSTRUCTION INC.","contact_3_type":"CONTRACTOR-GENERAL CONTRACTOR","contact_4_city":"OLYMPIA FIELDS","contact_4_name":"F&B CONSTRUCTION SERVICES, INC","contact_4_type":"MASONRY CONTRACTOR","contact_5_city":"ORLAND PARK","contact_5_name":"F.H. PASCHEN","contact_5_type":"MASONRY CONTRACTOR","contact_6_city":"CHICAGO","contact_6_name":"PLUMBING SYSTEMS, INC.","contact_6_type":"CONTRACTOR-PLUMBER/PLUMBING","contact_7_city":"FREEPORT","contact_7_name":"MECHANICAL, INC","contact_7_type":"CONTRACTOR-VENTILATION","contact_8_city":"CHICAGO","contact_8_name":"NATHAN LOPP","contact_8_type":"OWNER","other_fee_paid":"$0.00","contact_1_state":"IL","contact_2_state":"IL","contact_3_state":"NY","contact_4_state":"IL","contact_5_state":"IL","contact_6_state":"IL","contact_7_state":"IL","contact_8_state":"IL","processing_time":"255","subtotal_unpaid":"$0.00","subtotal_waived":"$0.00","zoning_fee_paid":"$75.00","other_fee_unpaid":"$0.00","other_fee_waived":"$0.00","permit_milestone":"CERTIFICATE OF OCCUPANCY ISSUED","street_direction":"W","building_fee_paid":"$24,596.51","contact_1_zipcode":"60603","contact_2_zipcode":"60007-","contact_3_zipcode":"10022","contact_4_zipcode":"60461","contact_5_zipcode":"60467","contact_6_zipcode":"60623-","contact_7_zipcode":"61032-","contact_8_zipcode":"60601","zoning_fee_unpaid":"$0.00","zoning_fee_waived":"$0.00","other_fee_subtotal":"$0","building_fee_unpaid":"$0.00","building_fee_waived":"$0.00","zoning_fee_subtotal":"$75","building_fee_subtotal":"$24,596.51"},"geometry":{"type":"Point","coordinates":[-87.914428439,42.008536401]}},{"type":"Feature","properties":{"date":"2011-01-04T00:00:00.000Z","year":2011,"description":"RE:  BERGHOFF CAFE, O'HARE UNITED TERMINAL 1, C CONCOURSE, GATE 25    DISCONNECT EXISTING KITCHEN EQUIPMENT AND RE-CONNECT NEW EQUIPMENT INSTALLED.  ALL EXISTING CIRCUITS TO BE REUSED WITH THE ADDITION OF (2) 20-AMP, 120V CIRCUITS.","metadescription":"PERMIT – EXPRESS PERMIT PROGRAM. Electrical Work. RE:  BERGHOFF CAFE, O'HARE UNITED TERMINAL 1, C CONCOURSE, GATE 25    DISCONNECT EXISTING KITCHEN EQUIPMENT AND RE-CONNECT NEW EQUIPMENT INSTALLED.  ALL EXISTING CIRCUITS TO BE REUSED WITH THE ADDITION OF (2) 20-AMP, 120V CIRCUITS.. COMPLETE. 11601","address":"300 East TOUHY Avenue, DES PLAINES, IL, DES PLAINES, 60018, US","location":"POINT (-87.91442843927 42.008536400869)","review_type":"EXPRESS PERMIT PROGRAM","street_name":"TOUHY AVE","xcoordinate":"1098098.5774643964","ycoordinate":"1945979.209781826","subtotal_paid":"$150.00","community_area":"76","contact_1_city":"BARTLETT","contact_1_name":"VOX ELECTRIC COMPANY","contact_1_type":"ELECTRICAL CONTRACTOR","contact_2_city":"BARTLETT","contact_2_name":"VOX ELECTRIC COMPANY","contact_2_type":"APPLICANT","contact_3_city":"BARTLETT","contact_3_name":"VIVACQUA AURELIO","contact_3_type":"APPLICANT","other_fee_paid":"$0.00","contact_1_state":"IL","contact_2_state":"IL","contact_3_state":"IL","processing_time":"13","subtotal_unpaid":"$0.00","subtotal_waived":"$0.00","zoning_fee_paid":"$0.00","other_fee_unpaid":"$0.00","other_fee_waived":"$0.00","permit_milestone":"COMPLETE","street_direction":"W","building_fee_paid":"$150.00","contact_1_zipcode":"60103","contact_2_zipcode":"60103","contact_3_zipcode":"60103","zoning_fee_unpaid":"$0.00","zoning_fee_waived":"$0.00","other_fee_subtotal":"$0","building_fee_unpaid":"$0.00","building_fee_waived":"$0.00","zoning_fee_subtotal":"$0","building_fee_subtotal":"$150"},"geometry":{"type":"Point","coordinates":[-87.914428439,42.008536401]}},{"type":"Feature","properties":{"date":"2010-10-27T00:00:00.000Z","year":2010,"description":"REPLACEMENT OF THREE AIR HANDLING UNITS  & FOUR EXHAUST FANS WITH THE ADDITION OF TWO NEW DOORS IN EXIST WALLS PLUS TEMPORARY HVAC DURING CONSTRUCTION AT CONCOURSE H/K AT O'HARE AIRPORT","metadescription":"PERMIT - RENOVATION/ALTERATION. REPLACEMENT OF THREE AIR HANDLING UNITS  & FOUR EXHAUST FANS WITH THE ADDITION OF TWO NEW DOORS IN EXIST WALLS PLUS TEMPORARY HVAC DURING CONSTRUCTION AT CONCOURSE H/K AT O'HARE AIRPORT. COMPLETE. 11601","address":"300 East TOUHY Avenue, DES PLAINES, IL, DES PLAINES, 60018, US","location":"POINT (-87.91442843927 42.008536400869)","pin_list":"1208100006","review_type":"TRADITIONAL DEVELOPER SERVICES","street_name":"TOUHY AVE","xcoordinate":"1098098.5774643964","ycoordinate":"1945979.209781826","subtotal_paid":"$831.15","community_area":"76","contact_1_city":"CHICAGO","contact_1_name":"DEPARTMENT OF AVIATION","contact_1_type":"OWNER","contact_2_city":"CHICAGO","contact_2_name":"ILEKIS, ALPHONSE A","contact_2_type":"ARCHITECT","contact_3_city":"FRANKLIN PARK","contact_3_name":"DIVANE BROS. ELECTRIC CO.","contact_3_type":"CONTRACTOR-ELECTRICAL","contact_4_city":"WILLOWBROOK","contact_4_name":"KHB GROUP, LLC.","contact_4_type":"CONTRACTOR-GENERAL CONTRACTOR","contact_5_city":"LANSING","contact_5_name":"MECCON INDUSTRIES, INC.","contact_5_type":"PLUMBING CONTRACTOR","contact_6_city":"LOMBARD","contact_6_name":"MIDWEST MECH. GROUP","contact_6_type":"CONTRACTOR-REFRIGERATION","contact_7_city":"LOMBARD","contact_7_name":"MIDWEST MECH. GROUP","contact_7_type":"CONTRACTOR-VENTILATION","other_fee_paid":"$0.00","contact_1_state":"IL","contact_2_state":"IL","contact_3_state":"IL","contact_4_state":"IL","contact_5_state":"IL","contact_6_state":"IL","contact_7_state":"IL","processing_time":"0","subtotal_unpaid":"$0.00","subtotal_waived":"$0.00","zoning_fee_paid":"$75.00","other_fee_unpaid":"$0.00","other_fee_waived":"$0.00","permit_milestone":"COMPLETE","street_direction":"W","building_fee_paid":"$756.15","contact_1_zipcode":"60666-","contact_2_zipcode":"60606","contact_3_zipcode":"60131-","contact_4_zipcode":"60527","contact_5_zipcode":"60438-","contact_6_zipcode":"60148-","contact_7_zipcode":"60148-","zoning_fee_unpaid":"$0.00","zoning_fee_waived":"$0.00","other_fee_subtotal":"$0","building_fee_unpaid":"$0.00","building_fee_waived":"$0.00","zoning_fee_subtotal":"$75","building_fee_subtotal":"$756.15"},"geometry":{"type":"Point","coordinates":[-87.914428439,42.008536401]}},{"type":"Feature","properties":{"date":"2009-09-03T00:00:00.000Z","year":2009,"description":"VARIOUS SECURITY SYSTEMS UPGRADES AT O'HARE AIRPORT: ADDITION OF SECURITY CAMERAS AND EMPLOYEE ACCESS CONTROLS.","metadescription":"PERMIT – EXPRESS PERMIT PROGRAM. Electrical Work. VARIOUS SECURITY SYSTEMS UPGRADES AT O'HARE AIRPORT: ADDITION OF SECURITY CAMERAS AND EMPLOYEE ACCESS CONTROLS.. COMPLETE. 11601","address":"300 East TOUHY Avenue, DES PLAINES, IL, DES PLAINES, 60018, US","location":"POINT (-87.91442843927 42.008536400869)","review_type":"EXPRESS PERMIT PROGRAM","street_name":"TOUHY AVE","xcoordinate":"1098098.5774643964","ycoordinate":"1945979.209781826","subtotal_paid":"$50.00","community_area":"76","contact_1_city":"FRANKLIN PARK","contact_1_name":"DIVANE BROS. ELECTRIC CO.","contact_1_type":"ELECTRICAL CONTRACTOR","contact_2_city":"NAPERVILLE","contact_2_name":"DIVANE, IV DANIEL J","contact_2_type":"APPLICANT","contact_3_city":"FRANKLIN PARK","contact_3_name":"DIVANE BROS. ELECTRIC CO.","contact_3_type":"APPLICANT","other_fee_paid":"$0.00","contact_1_state":"IL","contact_2_state":"IL","contact_3_state":"IL","processing_time":"0","subtotal_unpaid":"$0.00","subtotal_waived":"$0.00","zoning_fee_paid":"$0.00","other_fee_unpaid":"$0.00","other_fee_waived":"$0.00","permit_milestone":"COMPLETE","street_direction":"W","building_fee_paid":"$50.00","contact_1_zipcode":"60131","contact_2_zipcode":"60565","contact_3_zipcode":"60131","zoning_fee_unpaid":"$0.00","zoning_fee_waived":"$0.00","other_fee_subtotal":"$0","building_fee_unpaid":"$0.00","building_fee_waived":"$0.00","zoning_fee_subtotal":"$0","building_fee_subtotal":"$50"},"geometry":{"type":"Point","coordinates":[-87.914428439,42.008536401]}},{"type":"Feature","properties":{"date":"2008-08-15T00:00:00.000Z","year":2008,"description":"INTERIOR REMODELING FOR ADDITIONAL FIRE STATION AT O'HARE FIELD (AS PER PLANS).","metadescription":"PERMIT - RENOVATION/ALTERATION. INTERIOR REMODELING FOR ADDITIONAL FIRE STATION AT O'HARE FIELD (AS PER PLANS).. COMPLETE. 11601","address":"300 East TOUHY Avenue, DES PLAINES, IL, DES PLAINES, 60018, US","location":"POINT (-87.91442843927 42.008536400869)","pin_list":"1208100006","review_type":"TRADITIONAL DEVELOPER SERVICES","street_name":"TOUHY AVE","xcoordinate":"1098098.5774643964","ycoordinate":"1945979.209781826","subtotal_paid":"$705.00","community_area":"76","contact_1_city":"CHICAGO","contact_1_name":"O'HARE MODERNIZATION PROGRAM","contact_1_type":"OWNER","contact_2_city":"CHICAGO","contact_2_name":"MULLER, JACOB J","contact_2_type":"ARCHITECT","contact_3_city":"ELKGROVE VILLAGE","contact_3_name":"PAGODA ELECTRIC, INC.","contact_3_type":"CONTRACTOR-ELECTRICAL","contact_4_city":"CHICAGO","contact_4_name":"FH PASCHEN, SN NIELSEN INC","contact_4_type":"CONTRACTOR-GENERAL CONTRACTOR","contact_5_city":"CHICAGO","contact_5_name":"F&B CONSTRUCTION SERVICES, INC","contact_5_type":"MASON - CONCRETE ONLY","contact_6_city":"CALUMET CITY","contact_6_name":"PL15580-ROBERT A.  SMITH","contact_6_type":"CONTRACTOR-PLUMBER/PLUMBING","contact_7_city":"HILLSIDE","contact_7_name":"ADMIRAL HEATING VENT","contact_7_type":"CONTRACTOR-REFRIGERATION","contact_8_city":"HILLSIDE","contact_8_name":"ADMIRAL HEATING VENT","contact_8_type":"CONTRACTOR-VENTILATION","other_fee_paid":"$0.00","contact_1_state":"IL","contact_2_state":"IL","contact_3_state":"IL","contact_4_state":"IL","contact_5_state":"IL","contact_6_state":"IL","contact_7_state":"IL","contact_8_state":"IL","processing_time":"1","subtotal_unpaid":"$0.00","subtotal_waived":"$0.00","zoning_fee_paid":"$75.00","other_fee_unpaid":"$0.00","other_fee_waived":"$0.00","permit_milestone":"CERTIFICATE OF OCCUPANCY ISSUED","street_direction":"W","building_fee_paid":"$630.00","contact_1_zipcode":"60666-","contact_2_zipcode":"60642","contact_3_zipcode":"60007","contact_4_zipcode":"60656","contact_5_zipcode":"60619-","contact_6_zipcode":"60409-","contact_7_zipcode":"60162-","contact_8_zipcode":"60162-","zoning_fee_unpaid":"$0.00","zoning_fee_waived":"$0.00","other_fee_subtotal":"$0","building_fee_unpaid":"$0.00","building_fee_waived":"$0.00","zoning_fee_subtotal":"$75","building_fee_subtotal":"$630"},"geometry":{"type":"Point","coordinates":[-87.914428439,42.008536401]}},{"type":"Feature","properties":{"date":"2007-11-08T00:00:00.000Z","year":2007,"description":"OIA '11601 W TOUHY - O'HARE AIRPO' REVISON TO PERMIT. O'HARE TERMINAL 1 SOUTH ADDITION. ALTERATIONS TO SECURITY CHECKPOINT AND BAGGAGE HANDLING OPERATIONS.","metadescription":"PERMIT - RENOVATION/ALTERATION. OIA '11601 W TOUHY - O'HARE AIRPO' REVISON TO PERMIT. O'HARE TERMINAL 1 SOUTH ADDITION. ALTERATIONS TO SECURITY CHECKPOINT AND BAGGAGE HANDLING OPERATIONS.. COMPLETE. 11601","address":"300 East TOUHY Avenue, DES PLAINES, IL, DES PLAINES, 60018, US","location":"POINT (-87.91442843927 42.008536400869)","review_type":"TRADITIONAL DEVELOPER SERVICES","street_name":"TOUHY AVE","xcoordinate":"1098098.5774643964","ycoordinate":"1945979.209781826","subtotal_paid":"$185.00","contact_1_name":"CITY OF CHICAGO","contact_1_type":"OWNER","contact_2_city":"CHICAGO","contact_2_name":"FRISCH, MARK J","contact_2_type":"ARCHITECT","contact_3_city":"ELK GROVE VILLAGE","contact_3_name":"HARTMANN ELECTRIC COMPANY, INC","contact_3_type":"CONTRACTOR-ELECTRICAL","contact_4_city":"AVENTURA","contact_4_name":"CASTLEROCK BUILDERS &","contact_4_type":"CONTRACTOR-GENERAL CONTRACTOR","contact_5_city":"MARKHAM","contact_5_name":"CASTLE CONSTRUCTION","contact_5_type":"MASON - CONCRETE ONLY","contact_6_city":"LANSING","contact_6_name":"PL9499-ROBERT E. CURRAN","contact_6_type":"CONTRACTOR-PLUMBER/PLUMBING","contact_7_city":"CHICAGO","contact_7_name":"MID CITY HTG AND AIR","contact_7_type":"CONTRACTOR-VENTILATION","other_fee_paid":"$0.00","contact_2_state":"IL","contact_3_state":"IL","contact_4_state":"FL","contact_5_state":"IL","contact_6_state":"IL","contact_7_state":"IL","processing_time":"0","subtotal_unpaid":"$0.00","subtotal_waived":"$0.00","zoning_fee_paid":"$75.00","other_fee_unpaid":"$0.00","other_fee_waived":"$0.00","permit_milestone":"COMPLETE","street_direction":"W","building_fee_paid":"$110.00","contact_1_zipcode":"60666-","contact_2_zipcode":"60611-","contact_3_zipcode":"60007-","contact_4_zipcode":"33160","contact_5_zipcode":"60426-5618","contact_6_zipcode":"60438-","contact_7_zipcode":"60620-","zoning_fee_unpaid":"$0.00","zoning_fee_waived":"$0.00","other_fee_subtotal":"$0","building_fee_unpaid":"$0.00","building_fee_waived":"$0.00","zoning_fee_subtotal":"$75","building_fee_subtotal":"$110"},"geometry":{"type":"Point","coordinates":[-87.914428439,42.008536401]}},{"type":"Feature","properties":{"date":"2007-10-18T00:00:00.000Z","year":2007,"description":"ADDITION OF FOUR PASSENGER LOADING BRIDGE EQUIPMENT AND THREE FIXED SECTION EQUIPMENT AND FOUNDATIONS FOR THREE FUTURE PASSENGER LOADING BRIDGES.","metadescription":"PERMIT - RENOVATION/ALTERATION. ADDITION OF FOUR PASSENGER LOADING BRIDGE EQUIPMENT AND THREE FIXED SECTION EQUIPMENT AND FOUNDATIONS FOR THREE FUTURE PASSENGER LOADING BRIDGES.. COMPLETE. 11601","address":"300 East TOUHY Avenue, DES PLAINES, IL, DES PLAINES, 60018, US","location":"POINT (-87.91442843927 42.008536400869)","review_type":"STANDARD PLAN REVIEW","street_name":"TOUHY AVE","xcoordinate":"1098098.5774643964","ycoordinate":"1945979.209781826","subtotal_paid":"$14,285.00","contact_1_city":"CHICAGO","contact_1_name":"CHUCK MCCOY","contact_1_type":"OWNER OCCUPIED","contact_2_city":"CHICAGO","contact_2_name":"KOKKINO EVANGEL","contact_2_type":"ARCHITECT","contact_3_city":"ELK GROVE VILLAGE","contact_3_name":"HARTMANN ELECTRIC COMPANY, INC","contact_3_type":"CONTRACTOR-ELECTRICAL","contact_4_city":"NEW YORK","contact_4_name":"LENDLEASE (US) CONSTRUCTION INC.","contact_4_type":"CONTRACTOR-GENERAL CONTRACTOR","other_fee_paid":"$0.00","contact_1_state":"IL","contact_2_state":"IL","contact_3_state":"IL","contact_4_state":"NY","processing_time":"51","subtotal_unpaid":"$0.00","subtotal_waived":"$0.00","zoning_fee_paid":"$75.00","other_fee_unpaid":"$0.00","other_fee_waived":"$0.00","permit_milestone":"COMPLETE","street_direction":"W","building_fee_paid":"$14,210.00","contact_1_zipcode":"60666","contact_2_zipcode":"60603","contact_3_zipcode":"60007-","contact_4_zipcode":"10022","zoning_fee_unpaid":"$0.00","zoning_fee_waived":"$0.00","other_fee_subtotal":"$0","building_fee_unpaid":"$0.00","building_fee_waived":"$0.00","zoning_fee_subtotal":"$75","building_fee_subtotal":"$14,210"},"geometry":{"type":"Point","coordinates":[-87.914428439,42.008536401]}}]}
