{"type":"FeatureCollection","features":[{"type":"Feature","properties":{"date":"2024-05-31T00:00:00.000Z","year":2024,"description":"INSTALL LOW VOLTAGE SYSTEM AT T5 PARKING GARAGE","metadescription":"PERMIT – EXPRESS PERMIT PROGRAM. Electrical Work. INSTALL LOW VOLTAGE SYSTEM AT T5 PARKING GARAGE. COMPLETE. 11600","address":"300 East TOUHY Avenue, DES PLAINES, IL, DES PLAINES, 60018, US","location":"POINT (-87.914435848315 42.008755864398)","review_type":"EXPRESS PERMIT PROGRAM","street_name":"TOUHY AVE","xcoordinate":"1098096.17254257","ycoordinate":"1946059.1736258494","subtotal_paid":"$300.00","community_area":"0","contact_1_city":"NEW LENOX","contact_1_name":"SONOMA ELECTRICAL SERVICES","contact_1_type":"ELECTRICAL CONTRACTOR","contact_2_city":"NEW LENOX","contact_2_name":"SONOMA ELECTRICAL SERVICES INC","contact_2_type":"APPLICANT","contact_3_city":"ARLINGTON HEIGHTS","contact_3_name":"MCHUGH MARTIN","contact_3_type":"APPLICANT","other_fee_paid":"$0.00","contact_1_state":"IL","contact_2_state":"IL","contact_3_state":"IL","processing_time":"0","subtotal_unpaid":"$0.00","subtotal_waived":"$0.00","zoning_fee_paid":"$0.00","other_fee_unpaid":"$0.00","other_fee_waived":"$0.00","permit_milestone":"COMPLETE","street_direction":"W","building_fee_paid":"$300.00","contact_1_zipcode":"60451","contact_2_zipcode":"60451","contact_3_zipcode":"60005","zoning_fee_unpaid":"$0.00","zoning_fee_waived":"$0.00","other_fee_subtotal":"$0","building_fee_unpaid":"$0.00","building_fee_waived":"$0.00","zoning_fee_subtotal":"$0","building_fee_subtotal":"$300"},"geometry":{"type":"Point","coordinates":[-87.914435848,42.008755864]}},{"type":"Feature","properties":{"date":"2022-05-13T00:00:00.000Z","year":2022,"description":"2019 SPR CBC (2) NEW 1 STORY PREFABRICATED STEEL FRAME GARAGES. CONSTRUCTION TYPE IIB (UNPROTECTED). USE CLASSIFICATION S-1","metadescription":"PERMIT - NEW CONSTRUCTION. 2019 SPR CBC (2) NEW 1 STORY PREFABRICATED STEEL FRAME GARAGES. CONSTRUCTION TYPE IIB (UNPROTECTED). USE CLASSIFICATION S-1. COMPLETE. 11601","address":"300 East TOUHY Avenue, DES PLAINES, IL, DES PLAINES, 60018, US","location":"POINT (-87.91442843927 42.008536400869)","pin_list":"1208100006","review_type":"STANDARD PLAN REVIEW","street_name":"TOUHY AVE","xcoordinate":"1098098.5774643964","ycoordinate":"1945979.209781826","subtotal_paid":"$575.00","community_area":"76","contact_1_city":"CHICAGO","contact_1_name":"(COMED) JAMES P. DONOVAN","contact_1_type":"OWNER","contact_2_city":"CHICAGO","contact_2_name":"LIVANU, EDUARD","contact_2_type":"ARCHITECT","contact_3_city":"NEW LENOX","contact_3_name":"SONOMA ELECTRICAL SERVICES","contact_3_type":"CONTRACTOR-ELECTRICAL","contact_4_city":"CHICAGO","contact_4_name":"BUILDING PERMITS","contact_4_type":"EXPEDITOR","contact_5_city":"JACKSONVILLE","contact_5_name":"COAST TO COAST CARPORTS OF ILLINOIS INC","contact_5_type":"CONTRACTOR-GENERAL CONTRACTOR","other_fee_paid":"$0.00","contact_1_state":"IL","contact_2_state":"IL","contact_3_state":"IL","contact_4_state":"IL","contact_5_state":"IL","processing_time":"0","subtotal_unpaid":"$0.00","subtotal_waived":"$0.00","zoning_fee_paid":"$75.00","other_fee_unpaid":"$0.00","other_fee_waived":"$0.00","permit_milestone":"COMPLETE","street_direction":"W","building_fee_paid":"$500.00","contact_1_zipcode":"60618","contact_2_zipcode":"60659","contact_3_zipcode":"60451-","contact_4_zipcode":"60603-","contact_5_zipcode":"62650","zoning_fee_unpaid":"$0.00","zoning_fee_waived":"$0.00","other_fee_subtotal":"$0","building_fee_unpaid":"$0.00","building_fee_waived":"$0.00","zoning_fee_subtotal":"$75","building_fee_subtotal":"$500"},"geometry":{"type":"Point","coordinates":[-87.914428439,42.008536401]}},{"type":"Feature","properties":{"date":"2022-04-21T00:00:00.000Z","year":2022,"description":"BUILD-OUT PROJECT TOTALS 132,394 SQUARE FEET. 111,664 SQUARE FEET OF WAREHOUSE AND 20,730 SQUARE FEET OF OFFICE. BUILD-OUT OF 111,664 SQUARE FEET OF WAREHOUSE AREA INCLUDES 2,196 SQUARE FEET OF COOLER AND 3,485 SQUARE FEET OF GSE SHOP AREA. 10,496 SQUARE FEET OF OFFICE TO BE BUILT OUT ON GROUND FLOOR AND 10,234 SQUARE FEET OF OFFICE ON THE MEZZANINE. OFFICE AREA IS (E) BUSINESS OCCUPANCY, WAREHOUSE IS (H-2) STORAGE MODERATE HAZARD AND GSE SHOP IS (H-3) GARAGE.","metadescription":"PERMIT - NEW CONSTRUCTION. BUILD-OUT PROJECT TOTALS 132,394 SQUARE FEET. 111,664 SQUARE FEET OF WAREHOUSE AND 20,730 SQUARE FEET OF OFFICE. BUILD-OUT OF 111,664 SQUARE FEET OF WAREHOUSE AREA INCLUDES 2,196 SQUARE FEET OF COOLER AND 3,485 SQUARE FEET OF GSE SHOP AREA. 10,496 SQUARE FEET OF OFFICE TO BE BUILT OUT ON GROUND FLOOR AND 10,234 SQUARE FEET OF OFFICE ON THE MEZZANINE. OFFICE AREA IS (E) BUSINESS OCCUPANCY, WAREHOUSE IS (H-2) STORAGE MODERATE HAZARD AND GSE SHOP IS (H-3) GARAGE.. COMPLETE. 11601","address":"300 East TOUHY Avenue, DES PLAINES, IL, DES PLAINES, 60018, US","location":"POINT (-87.91442843927 42.008536400869)","pin_list":"0932100012","review_type":"STANDARD PLAN REVIEW","street_name":"TOUHY AVE","xcoordinate":"1098098.5774643964","ycoordinate":"1945979.209781826","subtotal_paid":"$24,898.88","community_area":"76","contact_1_city":"ANNAPOLIS","contact_1_name":"ALEX BRODSKY","contact_1_type":"OWNER","contact_2_city":"ITASCA","contact_2_name":"SCHULTZ, RICHARD J","contact_2_type":"ARCHITECT","contact_3_city":"NAPERVILLE","contact_3_name":"PACE SYSTEMS, INC.","contact_3_type":"CONTRACTOR-ELECTRICAL","contact_4_city":"CHICAGO","contact_4_name":"THE BOWA GROUP INC","contact_4_type":"CONTRACTOR-GENERAL CONTRACTOR","contact_5_city":"CARY","contact_5_name":"SHERMAN MECHANICAL, INC.","contact_5_type":"CONTRACTOR-PLUMBER/PLUMBING","contact_6_city":"OAK FOREST","contact_6_name":"S MECHANICAL","contact_6_type":"CONTRACTOR-REFRIGERATION","contact_7_city":"OAK FOREST","contact_7_name":"S MECHANICAL","contact_7_type":"CONTRACTOR-VENTILATION","other_fee_paid":"$0.00","contact_1_state":"MD","contact_2_state":"IL","contact_3_state":"IL","contact_4_state":"IL","contact_5_state":"IL","contact_6_state":"IL","contact_7_state":"IL","processing_time":"105","subtotal_unpaid":"$0.00","subtotal_waived":"$0.00","zoning_fee_paid":"$75.00","other_fee_unpaid":"$0.00","other_fee_waived":"$0.00","permit_milestone":"CERTIFICATE OF OCCUPANCY ISSUED","street_direction":"W","building_fee_paid":"$24,823.88","contact_1_zipcode":"21401","contact_2_zipcode":"60143-","contact_3_zipcode":"60563-","contact_4_zipcode":"60649","contact_5_zipcode":"60013-1891","contact_6_zipcode":"60452","contact_7_zipcode":"60452","zoning_fee_unpaid":"$0.00","zoning_fee_waived":"$0.00","other_fee_subtotal":"$0","building_fee_unpaid":"$0.00","building_fee_waived":"$0.00","zoning_fee_subtotal":"$75","building_fee_subtotal":"$24,823.88"},"geometry":{"type":"Point","coordinates":[-87.914428439,42.008536401]}},{"type":"Feature","properties":{"date":"2022-03-09T00:00:00.000Z","year":2022,"description":"REPLACE HOIST ROPES ON PARKING GARAGE CARS 13 & 17, 2000LBS CAPACITY, 7 FLOORS SUBJECT TO CITY OF CHICAGO DEPT. OF BUILDINGS ELEVATOR BUREAU INSPECTION.","metadescription":"PERMIT - ELEVATOR EQUIPMENT. REPLACE HOIST ROPES ON PARKING GARAGE CARS 13 & 17, 2000LBS CAPACITY, 7 FLOORS SUBJECT TO CITY OF CHICAGO DEPT. OF BUILDINGS ELEVATOR BUREAU INSPECTION.. 11601","address":"300 East TOUHY Avenue, DES PLAINES, IL, DES PLAINES, 60018, US","location":"POINT (-87.91442843927 42.008536400869)","pin_list":"1208100006","review_type":"CONVEYANCE DEVICE PERMIT","street_name":"TOUHY AVE","xcoordinate":"1098098.5774643964","ycoordinate":"1945979.209781826","subtotal_paid":"$300.00","community_area":"76","contact_1_city":"CHICAGO","contact_1_name":"SCHINDLER ELEVATOR CORPORATION","contact_1_type":"CONTRACTOR-ELEVATOR","contact_2_city":"CHGO","contact_2_name":"DEPT. OF AVIATION","contact_2_type":"OWNER","other_fee_paid":"$0.00","contact_1_state":"IL","contact_2_state":"IL","processing_time":"0","subtotal_unpaid":"$0.00","subtotal_waived":"$0.00","zoning_fee_paid":"$0.00","other_fee_unpaid":"$0.00","other_fee_waived":"$0.00","street_direction":"W","building_fee_paid":"$300.00","contact_1_zipcode":"60606-","contact_2_zipcode":"60666-","zoning_fee_unpaid":"$0.00","zoning_fee_waived":"$0.00","other_fee_subtotal":"$0","building_fee_unpaid":"$0.00","building_fee_waived":"$0.00","zoning_fee_subtotal":"$0","building_fee_subtotal":"$300"},"geometry":{"type":"Point","coordinates":[-87.914428439,42.008536401]}},{"type":"Feature","properties":{"date":"2020-10-28T00:00:00.000Z","year":2020,"description":"REPLACE HOIST ROPES ON ONE (1) 3500LB.CAP, 7-FLOOR GEARED TRACTION PASSENGER ELEVATOR # ESP11 IN THE PARKING GARAGE. PURSUANT TO THE SCOPE OF WORK SUBMITTED. EV005048","metadescription":"PERMIT - ELEVATOR EQUIPMENT. REPLACE HOIST ROPES ON ONE (1) 3500LB.CAP, 7-FLOOR GEARED TRACTION PASSENGER ELEVATOR # ESP11 IN THE PARKING GARAGE. PURSUANT TO THE SCOPE OF WORK SUBMITTED. EV005048. 11601","address":"300 East TOUHY Avenue, DES PLAINES, IL, DES PLAINES, 60018, US","location":"POINT (-87.91442843927 42.008536400869)","pin_list":"1208100006","review_type":"CONVEYANCE DEVICE PERMIT","street_name":"TOUHY AVE","xcoordinate":"1098098.5774643964","ycoordinate":"1945979.209781826","subtotal_paid":"$255.00","community_area":"76","contact_1_city":"CHICAGO","contact_1_name":"SCHINDLER ELEVATOR CORPORATION","contact_1_type":"CONTRACTOR-ELEVATOR","contact_2_city":"CHICAGO","contact_2_name":"CHICAGO DEPARTMENT OF AVIATION","contact_2_type":"OWNER","other_fee_paid":"$0.00","contact_1_state":"IL","contact_2_state":"IL","processing_time":"0","subtotal_unpaid":"$0.00","subtotal_waived":"$0.00","zoning_fee_paid":"$0.00","other_fee_unpaid":"$0.00","other_fee_waived":"$0.00","street_direction":"W","building_fee_paid":"$255.00","contact_1_zipcode":"60606-","contact_2_zipcode":"60666","zoning_fee_unpaid":"$0.00","zoning_fee_waived":"$0.00","other_fee_subtotal":"$0","building_fee_unpaid":"$0.00","building_fee_waived":"$0.00","zoning_fee_subtotal":"$0","building_fee_subtotal":"$255"},"geometry":{"type":"Point","coordinates":[-87.914428439,42.008536401]}},{"type":"Feature","properties":{"date":"2020-06-26T00:00:00.000Z","year":2020,"description":"RENOVATION OF THE FORMER O'HARE INTERNATIONAL AIRPORT OFFICE OF EMERGENCY MANAGEMENT (USE GROUP B) INTO THE NEW AIRPORT OPERATIONS CENTER (USE GROUP B), LOCATED ON THE BASEMENT LEVEL OF AIRPORT PARKING GARAGE.(CONDITIONAL PERMIT SUBJECT TO FIELD INSPECTIONS)","metadescription":"PERMIT - RENOVATION/ALTERATION. RENOVATION OF THE FORMER O'HARE INTERNATIONAL AIRPORT OFFICE OF EMERGENCY MANAGEMENT (USE GROUP B) INTO THE NEW AIRPORT OPERATIONS CENTER (USE GROUP B), LOCATED ON THE BASEMENT LEVEL OF AIRPORT PARKING GARAGE.(CONDITIONAL PERMIT SUBJECT TO FIELD INSPECTIONS). COMPLETE. 11601","address":"300 East TOUHY Avenue, DES PLAINES, IL, DES PLAINES, 60018, US","location":"POINT (-87.91442843927 42.008536400869)","pin_list":"1208100006","review_type":"STANDARD PLAN REVIEW","street_name":"TOUHY AVE","xcoordinate":"1098098.5774643964","ycoordinate":"1945979.209781826","subtotal_paid":"$4,732.50","community_area":"76","contact_1_city":"CHICAGO","contact_1_name":"BERGER, STUART M","contact_1_type":"ARCHITECT","contact_2_city":"ELK GROVE VILLAGE","contact_2_name":"PAGODA ELECTRIC & CONSTRUCTION","contact_2_type":"CONTRACTOR-ELECTRICAL","contact_3_city":"FLOSSMOOR","contact_3_name":"PAGODA ELECTRIC & CONSTRUCTION INC","contact_3_type":"CONTRACTOR-GENERAL CONTRACTOR","contact_4_city":"ELK GROVE VILLAGE","contact_4_name":"CHICAGO AREA PLUMBING INCORP","contact_4_type":"CONTRACTOR-PLUMBER/PLUMBING","contact_5_city":"WESTMONT","contact_5_name":"MECHANICAL INC","contact_5_type":"CONTRACTOR-REFRIGERATION","contact_6_city":"WESTMONT","contact_6_name":"MECHANICAL INC","contact_6_type":"CONTRACTOR-VENTILATION","contact_7_city":"CHICAGO","contact_7_name":"MATTHEW MCGLEAM","contact_7_type":"OWNER","other_fee_paid":"$0.00","contact_1_state":"IL","contact_2_state":"IL","contact_3_state":"IL","contact_4_state":"IL","contact_5_state":"IL","contact_6_state":"IL","contact_7_state":"IL","processing_time":"64","subtotal_unpaid":"$0.00","subtotal_waived":"$0.00","zoning_fee_paid":"$75.00","other_fee_unpaid":"$0.00","other_fee_waived":"$0.00","permit_milestone":"COMPLETE","street_direction":"W","building_fee_paid":"$4,657.50","contact_1_zipcode":"60666","contact_2_zipcode":"60007-","contact_3_zipcode":"60422","contact_4_zipcode":"60007-","contact_5_zipcode":"60559","contact_6_zipcode":"60559","contact_7_zipcode":"60666","zoning_fee_unpaid":"$0.00","zoning_fee_waived":"$0.00","other_fee_subtotal":"$0","building_fee_unpaid":"$0.00","building_fee_waived":"$0.00","zoning_fee_subtotal":"$75","building_fee_subtotal":"$4,657.5"},"geometry":{"type":"Point","coordinates":[-87.914428439,42.008536401]}},{"type":"Feature","properties":{"date":"2020-06-19T00:00:00.000Z","year":2020,"description":"REPLACE THE HOIST ROPES ON ONE (1) 2000LB.CAP, 7-STOP,GEARED TRACTION PASSENGER ELEVATOR #10 IN THE PARKING GARAGE. PURSUANT TO THE SCOPE OF WORK SUBMITTED. EV005048","metadescription":"PERMIT - ELEVATOR EQUIPMENT. REPLACE THE HOIST ROPES ON ONE (1) 2000LB.CAP, 7-STOP,GEARED TRACTION PASSENGER ELEVATOR #10 IN THE PARKING GARAGE. PURSUANT TO THE SCOPE OF WORK SUBMITTED. EV005048. 11601","address":"300 East TOUHY Avenue, DES PLAINES, IL, DES PLAINES, 60018, US","location":"POINT (-87.91442843927 42.008536400869)","pin_list":"0931201004","review_type":"CONVEYANCE DEVICE PERMIT","street_name":"TOUHY AVE","xcoordinate":"1098098.5774643964","ycoordinate":"1945979.209781826","subtotal_paid":"$280.00","community_area":"76","contact_1_city":"CHICAGO","contact_1_name":"SCHINDLER ELEVATOR CORPORATION","contact_1_type":"CONTRACTOR-ELEVATOR","contact_2_city":"CHICAGO","contact_2_name":"O'HARE AIRPORT","contact_2_type":"OWNER","other_fee_paid":"$25.00","contact_1_state":"IL","contact_2_state":"IL","processing_time":"0","subtotal_unpaid":"$0.00","subtotal_waived":"$0.00","zoning_fee_paid":"$0.00","other_fee_unpaid":"$0.00","other_fee_waived":"$0.00","street_direction":"W","building_fee_paid":"$255.00","contact_1_zipcode":"60606-","contact_2_zipcode":"60666","zoning_fee_unpaid":"$0.00","zoning_fee_waived":"$0.00","other_fee_subtotal":"$25","building_fee_unpaid":"$0.00","building_fee_waived":"$0.00","zoning_fee_subtotal":"$0","building_fee_subtotal":"$255"},"geometry":{"type":"Point","coordinates":[-87.914428439,42.008536401]}},{"type":"Feature","properties":{"date":"2020-05-19T00:00:00.000Z","year":2020,"description":"CONSTRUCTION OF 4,550 SQUARE FOOT GSE SHOP (VEHICLE MAINTENANCE). CONSTRUCTION INCLUDES TWO DEMISING WALLS. INSTALLATION OF EXTERIOR OVERHEAD DOOR WITH RAMP, EXTERIOR MAN DOOR, TRIPLE BASIN, MAKE-UP AIR UNIT AND ELECTRICAL FOR EQUIPMENT. CURRENT OCCUPANCY H-2 (STORAGE MODERATE HAZARD). PROPOSED OCCUPANCY H-3 (GARAGES).","metadescription":"PERMIT - RENOVATION/ALTERATION. CONSTRUCTION OF 4,550 SQUARE FOOT GSE SHOP (VEHICLE MAINTENANCE). CONSTRUCTION INCLUDES TWO DEMISING WALLS. INSTALLATION OF EXTERIOR OVERHEAD DOOR WITH RAMP, EXTERIOR MAN DOOR, TRIPLE BASIN, MAKE-UP AIR UNIT AND ELECTRICAL FOR EQUIPMENT. CURRENT OCCUPANCY H-2 (STORAGE MODERATE HAZARD). PROPOSED OCCUPANCY H-3 (GARAGES).. COMPLETE. 11601","address":"300 East TOUHY Avenue, DES PLAINES, IL, DES PLAINES, 60018, US","location":"POINT (-87.91442843927 42.008536400869)","pin_list":"1208100006","review_type":"STANDARD PLAN REVIEW","street_name":"TOUHY AVE","xcoordinate":"1098098.5774643964","ycoordinate":"1945979.209781826","subtotal_paid":"$3,075.00","community_area":"76","contact_1_city":"WESTCHESTER","contact_1_name":"JEFFREY GRABOWSKI","contact_1_type":"OWNER","contact_2_city":"ITASCA","contact_2_name":"SCHULTZ, RICHARD J","contact_2_type":"ARCHITECT","contact_3_city":"PALOS PARK","contact_3_name":"AMPOL ELECTRIC","contact_3_type":"CONTRACTOR-ELECTRICAL","contact_4_city":"DES PLAINES","contact_4_name":"AMPOL GROUP INTERNATIONAL, INC","contact_4_type":"CONTRACTOR-GENERAL CONTRACTOR","contact_5_city":"CHICAGO","contact_5_name":"ANYWAY CONCRETTE INC.","contact_5_type":"MASONRY CONTRACTOR","contact_6_city":"GLENVIEW","contact_6_name":"POLISH MASON CONSTRUCTION CO.","contact_6_type":"MASONRY CONTRACTOR","contact_7_city":"NIES","contact_7_name":"LAKEVIEW PLUMBING, INC.","contact_7_type":"CONTRACTOR-PLUMBER/PLUMBING","contact_8_city":"PROSPECT HIGHTS","contact_8_name":"CAROMAYA HVAC","contact_8_type":"CONTRACTOR-VENTILATION","other_fee_paid":"$0.00","contact_1_state":"IL","contact_2_state":"IL","contact_3_state":"IL","contact_4_state":"IL","contact_5_state":"IL","contact_6_state":"IL","contact_7_state":"IL","contact_8_state":"IL","processing_time":"50","subtotal_unpaid":"$0.00","subtotal_waived":"$0.00","zoning_fee_paid":"$75.00","other_fee_unpaid":"$0.00","other_fee_waived":"$0.00","permit_milestone":"COMPLETE","street_direction":"W","building_fee_paid":"$3,000.00","contact_1_zipcode":"60154","contact_2_zipcode":"60143-","contact_3_zipcode":"60464-","contact_4_zipcode":"60018","contact_5_zipcode":"60630","contact_6_zipcode":"60025","contact_7_zipcode":"60714-","contact_8_zipcode":"60070","zoning_fee_unpaid":"$0.00","zoning_fee_waived":"$0.00","other_fee_subtotal":"$0","building_fee_unpaid":"$0.00","building_fee_waived":"$0.00","zoning_fee_subtotal":"$75","building_fee_subtotal":"$3,000"},"geometry":{"type":"Point","coordinates":[-87.914428439,42.008536401]}},{"type":"Feature","properties":{"date":"2019-10-03T00:00:00.000Z","year":2019,"description":"RENOVATE INTERIOR OFFICE TO STORAGE, NEW 8 COOLERS AND 1 FREEZER. NEW (2) OVERHEAD GARAGE DOORS AND (2) SCISSOR LIFTS.","metadescription":"PERMIT - RENOVATION/ALTERATION. RENOVATE INTERIOR OFFICE TO STORAGE, NEW 8 COOLERS AND 1 FREEZER. NEW (2) OVERHEAD GARAGE DOORS AND (2) SCISSOR LIFTS.. COMPLETE. 11601","address":"300 East TOUHY Avenue, DES PLAINES, IL, DES PLAINES, 60018, US","location":"POINT (-87.91442843927 42.008536400869)","pin_list":"1208100006","review_type":"SELF CERT","street_name":"TOUHY AVE","xcoordinate":"1098098.5774643964","ycoordinate":"1945979.209781826","subtotal_paid":"$8,655.00","community_area":"76","contact_1_city":"CHICAGO","contact_1_name":"FUNKE, JEFFREY N","contact_1_type":"SELF CERT ARCHITECT","contact_2_city":"COUNTRYSIDE","contact_2_name":"JAN ELECTRIC, LLC","contact_2_type":"CONTRACTOR-ELECTRICAL","contact_3_city":"CHICAGO","contact_3_name":"POWER CONSTRUCTION COMPANY, LLC","contact_3_type":"CONTRACTOR-GENERAL CONTRACTOR","contact_4_city":"MOUNT PROSPECT","contact_4_name":"OSIRIS CONSTRUCTION INC","contact_4_type":"MASONRY CONTRACTOR","contact_5_city":"CHICAGO","contact_5_name":"YILMAZ OEDER","contact_5_type":"OWNER OCCUPIED","contact_6_city":"LANSING","contact_6_name":"MECCON INDUSTRIES, INC.","contact_6_type":"CONTRACTOR-PLUMBER/PLUMBING","contact_7_city":"CAROL STREAM","contact_7_name":"RAM MECHANICAL SERVICES, INC.","contact_7_type":"CONTRACTOR-REFRIGERATION","other_fee_paid":"$0.00","contact_1_state":"IL","contact_2_state":"IL","contact_3_state":"IL","contact_4_state":"IL","contact_5_state":"IL","contact_6_state":"IL","contact_7_state":"IL","processing_time":"0","subtotal_unpaid":"$0.00","subtotal_waived":"$0.00","zoning_fee_paid":"$75.00","other_fee_unpaid":"$0.00","other_fee_waived":"$0.00","permit_milestone":"COMPLETE","street_direction":"W","building_fee_paid":"$8,580.00","contact_1_zipcode":"60611","contact_2_zipcode":"60525","contact_3_zipcode":"60631-3546","contact_4_zipcode":"60056","contact_5_zipcode":"60666","contact_6_zipcode":"60438-","contact_7_zipcode":"60188","zoning_fee_unpaid":"$0.00","zoning_fee_waived":"$0.00","other_fee_subtotal":"$0","building_fee_unpaid":"$0.00","building_fee_waived":"$0.00","zoning_fee_subtotal":"$75","building_fee_subtotal":"$8,580"},"geometry":{"type":"Point","coordinates":[-87.914428439,42.008536401]}},{"type":"Feature","properties":{"date":"2019-08-01T00:00:00.000Z","year":2019,"description":"INSTALLATION OF (4) NEW HIGH SPEED ROLLUP DOORS, EXT. CMU WALLS ASSEMBLY, SLIDING WINDOWS, AND ASSOCIATED MECHANICAL VENTILATION FOR GARAGE TUG SPACE.","metadescription":"PERMIT - RENOVATION/ALTERATION. INSTALLATION OF (4) NEW HIGH SPEED ROLLUP DOORS, EXT. CMU WALLS ASSEMBLY, SLIDING WINDOWS, AND ASSOCIATED MECHANICAL VENTILATION FOR GARAGE TUG SPACE.. COMPLETE. 11601","address":"300 East TOUHY Avenue, DES PLAINES, IL, DES PLAINES, 60018, US","location":"POINT (-87.91442843927 42.008536400869)","pin_list":"1208100006","review_type":"STANDARD PLAN REVIEW","street_name":"TOUHY AVE","xcoordinate":"1098098.5774643964","ycoordinate":"1945979.209781826","subtotal_paid":"$825.00","community_area":"76","contact_1_city":"CHICAGO","contact_1_name":"UNITED AIRLINES","contact_1_type":"OWNER","contact_2_city":"CHICAGO","contact_2_name":"FUJIKAWA, TOMOO T","contact_2_type":"ARCHITECT","contact_3_city":"SKOKIE","contact_3_name":"MARON ELECTRIC COMPANY","contact_3_type":"CONTRACTOR-ELECTRICAL","contact_4_city":"CHICAGO","contact_4_name":"CONSTRUCTION SERVICE ASSOCIATE","contact_4_type":"EXPEDITOR","contact_5_city":"CHICAGO","contact_5_name":"BLINDERMAN CONSTRUCTION CO., INC.","contact_5_type":"CONTRACTOR-GENERAL CONTRACTOR","contact_6_city":"ROUND LAKE BEACH","contact_6_name":"RASCO MASON CONTRACTORS, INC.","contact_6_type":"MASONRY CONTRACTOR","contact_7_city":"WILLOW SPRINGS","contact_7_name":"AIR DESIGN SYSTEMS","contact_7_type":"CONTRACTOR-VENTILATION","other_fee_paid":"$0.00","contact_1_state":"IL","contact_2_state":"IL","contact_3_state":"IL","contact_4_state":"IL","contact_5_state":"IL","contact_6_state":"IL","contact_7_state":"IL","processing_time":"44","subtotal_unpaid":"$0.00","subtotal_waived":"$0.00","zoning_fee_paid":"$75.00","other_fee_unpaid":"$0.00","other_fee_waived":"$0.00","permit_milestone":"COMPLETE","street_direction":"W","building_fee_paid":"$750.00","contact_1_zipcode":"60606","contact_2_zipcode":"60601-","contact_3_zipcode":"60077-3211","contact_4_zipcode":"60602-","contact_5_zipcode":"60661","contact_6_zipcode":"60073-5639","contact_7_zipcode":"60480-","zoning_fee_unpaid":"$0.00","zoning_fee_waived":"$0.00","other_fee_subtotal":"$0","building_fee_unpaid":"$0.00","building_fee_waived":"$0.00","zoning_fee_subtotal":"$75","building_fee_subtotal":"$750"},"geometry":{"type":"Point","coordinates":[-87.914428439,42.008536401]}},{"type":"Feature","properties":{"date":"2019-05-21T00:00:00.000Z","year":2019,"description":"INSTALL 1\" GRC FOR COMMUNICATION CABLE AND REPLACE EXISTING GATES AT MAIN PARKING GARAGE","metadescription":"PERMIT – EXPRESS PERMIT PROGRAM. Electrical Work. INSTALL 1\" GRC FOR COMMUNICATION CABLE AND REPLACE EXISTING GATES AT MAIN PARKING GARAGE. COMPLETE. 11601","address":"300 East TOUHY Avenue, DES PLAINES, IL, DES PLAINES, 60018, US","location":"POINT (-87.91442843927 42.008536400869)","review_type":"EXPRESS PERMIT PROGRAM","street_name":"TOUHY AVE","xcoordinate":"1098098.5774643964","ycoordinate":"1945979.209781826","subtotal_paid":"$75.00","community_area":"76","contact_1_city":"NEW LENOX","contact_1_name":"SONOMA ELECTRICAL SERVICES","contact_1_type":"ELECTRICAL CONTRACTOR","contact_2_city":"NEW LENOX","contact_2_name":"SONOMA ELECTRICAL SERVICES INC","contact_2_type":"APPLICANT","contact_3_city":"ARLINGTON HEIGHTS","contact_3_name":"MCHUGH MARTIN","contact_3_type":"APPLICANT","other_fee_paid":"$0.00","contact_1_state":"IL","contact_2_state":"IL","contact_3_state":"IL","processing_time":"0","subtotal_unpaid":"$0.00","subtotal_waived":"$0.00","zoning_fee_paid":"$0.00","other_fee_unpaid":"$0.00","other_fee_waived":"$0.00","permit_milestone":"COMPLETE","street_direction":"W","building_fee_paid":"$75.00","contact_1_zipcode":"60451","contact_2_zipcode":"60451","contact_3_zipcode":"60005","zoning_fee_unpaid":"$0.00","zoning_fee_waived":"$0.00","other_fee_subtotal":"$0","building_fee_unpaid":"$0.00","building_fee_waived":"$0.00","zoning_fee_subtotal":"$0","building_fee_subtotal":"$75"},"geometry":{"type":"Point","coordinates":[-87.914428439,42.008536401]}},{"type":"Feature","properties":{"date":"2019-04-26T00:00:00.000Z","year":2019,"description":"PERFORM ELECTRICAL WORK AS A SUB-CONTRACTOR TO HARTMANN ELECTRIC UNDER BUILDING PERMIT # 100770655 AT O'HARE INT'L AIRPORT.  DESCRIPTION:  NEW ONE STORY TRUCK GARAGE (H3) WITH EMPLOYEE SUPPORT SPACES (E) AND FUELING FACILITY AT O'HARE INT'L AIRPORT.  PD-0, CDA APPROVED, NO PARKING","metadescription":"PERMIT – EXPRESS PERMIT PROGRAM. Administrative Change. PERFORM ELECTRICAL WORK AS A SUB-CONTRACTOR TO HARTMANN ELECTRIC UNDER BUILDING PERMIT # 100770655 AT O'HARE INT'L AIRPORT.  DESCRIPTION:  NEW ONE STORY TRUCK GARAGE (H3) WITH EMPLOYEE SUPPORT SPACES (E) AND FUELING FACILITY AT O'HARE INT'L AIRPORT.  PD-0, CDA APPROVED, NO PARKING. COMPLETE. 11601","address":"300 East TOUHY Avenue, DES PLAINES, IL, DES PLAINES, 60018, US","location":"POINT (-87.91442843927 42.008536400869)","review_type":"EXPRESS PERMIT PROGRAM","street_name":"TOUHY AVE","xcoordinate":"1098098.5774643964","ycoordinate":"1945979.209781826","subtotal_paid":"$75.00","community_area":"76","contact_1_city":"ARLINGTON HEIGHTS","contact_1_name":"ARTHUR S. ARRIAGA, JR.","contact_1_type":"ELECTRICAL CONTRACTOR","contact_2_city":"ARLINGTON HEIGHTS","contact_2_name":"ARTHUR S. ARRIAGA, JR.","contact_2_type":"APPLICANT","contact_3_city":"ARLINGTON HEIGHTS","contact_3_name":"ARRIAGA ARTHUR S","contact_3_type":"APPLICANT","other_fee_paid":"$0.00","contact_1_state":"IL","contact_2_state":"IL","contact_3_state":"IL","processing_time":"0","subtotal_unpaid":"$0.00","subtotal_waived":"$0.00","zoning_fee_paid":"$0.00","other_fee_unpaid":"$0.00","other_fee_waived":"$0.00","permit_milestone":"COMPLETE","street_direction":"W","building_fee_paid":"$75.00","contact_1_zipcode":"60005","contact_2_zipcode":"60005","contact_3_zipcode":"60005","zoning_fee_unpaid":"$0.00","zoning_fee_waived":"$0.00","other_fee_subtotal":"$0","building_fee_unpaid":"$0.00","building_fee_waived":"$0.00","zoning_fee_subtotal":"$0","building_fee_subtotal":"$75"},"geometry":{"type":"Point","coordinates":[-87.914428439,42.008536401]}},{"type":"Feature","properties":{"date":"2019-03-06T00:00:00.000Z","year":2019,"description":"REPLACEMENT OF HOIST CABLES ON THREE(3) PARKING GARAGE ELEVATORS: CAR #16- 2000LB CAPACITY, 7 STOP; CAR#20-2000LB CAPACITY, 7 STOP;CAR#32-2000LB CAPACITY, 7 STOP, PURSUANT TO THE SCOPE OF WORK SUBMITTED. (EV005048)","metadescription":"PERMIT - ELEVATOR EQUIPMENT. REPLACEMENT OF HOIST CABLES ON THREE(3) PARKING GARAGE ELEVATORS: CAR #16- 2000LB CAPACITY, 7 STOP; CAR#20-2000LB CAPACITY, 7 STOP;CAR#32-2000LB CAPACITY, 7 STOP, PURSUANT TO THE SCOPE OF WORK SUBMITTED. (EV005048). 11601","address":"300 East TOUHY Avenue, DES PLAINES, IL, DES PLAINES, 60018, US","location":"POINT (-87.91442843927 42.008536400869)","pin_list":"1208100006","review_type":"CONVEYANCE DEVICE PERMIT","street_name":"TOUHY AVE","xcoordinate":"1098098.5774643964","ycoordinate":"1945979.209781826","subtotal_paid":"$765.00","community_area":"76","contact_1_city":"ITASCA","contact_1_name":"SCHINDLER ELEV CORP ITASCA","contact_1_type":"CONTRACTOR-ELEVATOR","contact_2_city":"CHICAGO","contact_2_name":"DEPARTMENT OF AVIATION","contact_2_type":"OWNER","other_fee_paid":"$0.00","contact_1_state":"IL","contact_2_state":"IL","processing_time":"0","subtotal_unpaid":"$0.00","subtotal_waived":"$0.00","zoning_fee_paid":"$0.00","other_fee_unpaid":"$0.00","other_fee_waived":"$0.00","street_direction":"W","building_fee_paid":"$765.00","contact_1_zipcode":"60143-","contact_2_zipcode":"60666","zoning_fee_unpaid":"$0.00","zoning_fee_waived":"$0.00","other_fee_subtotal":"$0","building_fee_unpaid":"$0.00","building_fee_waived":"$0.00","zoning_fee_subtotal":"$0","building_fee_subtotal":"$765"},"geometry":{"type":"Point","coordinates":[-87.914428439,42.008536401]}},{"type":"Feature","properties":{"date":"2018-08-06T00:00:00.000Z","year":2018,"description":"EXISTING BUILDING 521 AT O'HARE INTERNATIONAL AIRPORT IS BEING USED FOR BUSINESS (E) OFFICE SPACE AND GARAGE (H3) SPACE.  THE BUILDING WILL BE RENOVATED FOR USE AS A NEW CHICAGO POLICE DEPARTMENT STATION - AND GARAGE SPACE - TYPE H3.","metadescription":"PERMIT - RENOVATION/ALTERATION. EXISTING BUILDING 521 AT O'HARE INTERNATIONAL AIRPORT IS BEING USED FOR BUSINESS (E) OFFICE SPACE AND GARAGE (H3) SPACE.  THE BUILDING WILL BE RENOVATED FOR USE AS A NEW CHICAGO POLICE DEPARTMENT STATION - AND GARAGE SPACE - TYPE H3.. COMPLETE. 11601","address":"300 East TOUHY Avenue, DES PLAINES, IL, DES PLAINES, 60018, US","location":"POINT (-87.91442843927 42.008536400869)","pin_list":"1208100006","review_type":"STANDARD PLAN REVIEW","street_name":"TOUHY AVE","xcoordinate":"1098098.5774643964","ycoordinate":"1945979.209781826","subtotal_paid":"$12,711.80","community_area":"76","contact_1_city":"CHICAGO","contact_1_name":"BARNEY, CAROL ROSS","contact_1_type":"ARCHITECT","contact_2_city":"ARLINGTON HEUGHTS","contact_2_name":"KROESCHELL ENGINEERING CO.","contact_2_type":"CONTRACTOR-ELECTRICAL","contact_3_city":"CHICAGO","contact_3_name":"THE BOWA GROUP, INC.","contact_3_type":"CONTRACTOR-GENERAL CONTRACTOR","contact_4_city":"EAST DUNDEE","contact_4_name":"NATOLA CONCRETE","contact_4_type":"MASONRY CONTRACTOR","contact_5_city":"ORLAND PARK","contact_5_name":"RV BUILDERS, CORP.","contact_5_type":"MASONRY CONTRACTOR","contact_6_city":"CARY","contact_6_name":"SHERMAN MECHANICAL, INC.","contact_6_type":"CONTRACTOR-PLUMBER/PLUMBING","contact_7_city":"OAK FOREST","contact_7_name":"QU-BAR, INC","contact_7_type":"CONTRACTOR-REFRIGERATION","contact_8_city":"OAK FOREST","contact_8_name":"QU-BAR, INC","contact_8_type":"CONTRACTOR-VENTILATION","contact_9_city":"CHICAGO","contact_9_name":"FRANK GRIMALDI","contact_9_type":"OWNER","other_fee_paid":"$0.00","contact_1_state":"IL","contact_2_state":"IL","contact_3_state":"IL","contact_4_state":"IL","contact_5_state":"IL","contact_6_state":"IL","contact_7_state":"IL","contact_8_state":"IL","contact_9_state":"IL","processing_time":"391","subtotal_unpaid":"$0.00","subtotal_waived":"$0.00","zoning_fee_paid":"$75.00","other_fee_unpaid":"$0.00","other_fee_waived":"$0.00","permit_milestone":"COMPLETE","street_direction":"W","building_fee_paid":"$12,636.80","contact_1_zipcode":"60610","contact_2_zipcode":"60004","contact_3_zipcode":"60649","contact_4_zipcode":"60118","contact_5_zipcode":"60462","contact_6_zipcode":"60013-1891","contact_7_zipcode":"60452-","contact_8_zipcode":"60452-","contact_9_zipcode":"60666","zoning_fee_unpaid":"$0.00","zoning_fee_waived":"$0.00","other_fee_subtotal":"$0","building_fee_unpaid":"$0.00","building_fee_waived":"$0.00","zoning_fee_subtotal":"$75","building_fee_subtotal":"$12,636.8"},"geometry":{"type":"Point","coordinates":[-87.914428439,42.008536401]}},{"type":"Feature","properties":{"date":"2018-03-23T00:00:00.000Z","year":2018,"description":"REMOVAL AND REPLACEMENT OF FIRE PUMP CONTROLLER IN LOWER LEVEL OF TERMINAL 1/PARKING GARAGE. IN BETWEEN PC 1 & PC2. ELECTRICAL ONLY.","metadescription":"PERMIT – EXPRESS PERMIT PROGRAM. Electrical Work. REMOVAL AND REPLACEMENT OF FIRE PUMP CONTROLLER IN LOWER LEVEL OF TERMINAL 1/PARKING GARAGE. IN BETWEEN PC 1 & PC2. ELECTRICAL ONLY.. COMPLETE. 11601","address":"300 East TOUHY Avenue, DES PLAINES, IL, DES PLAINES, 60018, US","location":"POINT (-87.91442843927 42.008536400869)","review_type":"EXPRESS PERMIT PROGRAM","street_name":"TOUHY AVE","xcoordinate":"1098098.5774643964","ycoordinate":"1945979.209781826","subtotal_paid":"$75.00","community_area":"76","contact_1_city":"CHICAGO","contact_1_name":"COURTESY ELECTRIC, INC.","contact_1_type":"ELECTRICAL CONTRACTOR","contact_2_city":"CHICAGO","contact_2_name":"COURTESY ELECTRIC, INC.","contact_2_type":"APPLICANT","contact_3_city":"CHICAGO","contact_3_name":"RYAN THOMAS M","contact_3_type":"APPLICANT","other_fee_paid":"$0.00","contact_1_state":"IL","contact_2_state":"IL","contact_3_state":"IL","processing_time":"0","subtotal_unpaid":"$0.00","subtotal_waived":"$0.00","zoning_fee_paid":"$0.00","other_fee_unpaid":"$0.00","other_fee_waived":"$0.00","permit_milestone":"COMPLETE","street_direction":"W","building_fee_paid":"$75.00","contact_1_zipcode":"60631","contact_2_zipcode":"60631","contact_3_zipcode":"60643","zoning_fee_unpaid":"$0.00","zoning_fee_waived":"$0.00","other_fee_subtotal":"$0","building_fee_unpaid":"$0.00","building_fee_waived":"$0.00","zoning_fee_subtotal":"$0","building_fee_subtotal":"$75"},"geometry":{"type":"Point","coordinates":[-87.914428439,42.008536401]}},{"type":"Feature","properties":{"date":"2017-06-01T00:00:00.000Z","year":2017,"description":"NEW MAINTENANCE FACILITY FOR AMERICAN AIRLINES GROUND EQUIPMENT MAINTENANCE (GEM).  THE BUILDING IS PROPOSED TO BE COMPRISED OF TWO, 1-STORY WINGS OF WORK BAYS SERVING AA AND ENVOY GROUPS.  THE TWO, 1-STORY WINGS ARE CLASSIFIED AS H-3 GARAGES OCCUPANCY TYPE 1-B CONSTRUCTION.  THE MIDDLE SECTION OF THE BUILDING IS PROPOSED TO BE A 2-STORY BUSINESS (OCCUPANCY E) SANDWICHED BETWEEN THE WORK BAYS.  THE BUSINESS (OCCUPANCY E) WILL ALSO BE TYPE 1-B CONSTRUCTION","metadescription":"PERMIT - NEW CONSTRUCTION. NEW MAINTENANCE FACILITY FOR AMERICAN AIRLINES GROUND EQUIPMENT MAINTENANCE (GEM).  THE BUILDING IS PROPOSED TO BE COMPRISED OF TWO, 1-STORY WINGS OF WORK BAYS SERVING AA AND ENVOY GROUPS.  THE TWO, 1-STORY WINGS ARE CLASSIFIED AS H-3 GARAGES OCCUPANCY TYPE 1-B CONSTRUCTION.  THE MIDDLE SECTION OF THE BUILDING IS PROPOSED TO BE A 2-STORY BUSINESS (OCCUPANCY E) SANDWICHED BETWEEN THE WORK BAYS.  THE BUSINESS (OCCUPANCY E) WILL ALSO BE TYPE 1-B CONSTRUCTION. COMPLETE. 11601","address":"300 East TOUHY Avenue, DES PLAINES, IL, DES PLAINES, 60018, US","location":"POINT (-87.91442843927 42.008536400869)","pin_list":"1208100006","review_type":"STANDARD PLAN REVIEW","street_name":"TOUHY AVE","xcoordinate":"1098098.5774643964","ycoordinate":"1945979.209781826","subtotal_paid":"$26,592.50","community_area":"76","contact_1_city":"CHICAGO","contact_1_name":"RON LADUKE","contact_1_type":"OWNER OCCUPIED","contact_2_city":"OKLAHOMA CITY","contact_2_name":"PHILIP GEORGE MCNAYR","contact_2_type":"ARCHITECT","contact_3_city":"NILES","contact_3_name":"BLOCK ELECTRIC COMPANY","contact_3_type":"CONTRACTOR-ELECTRICAL","contact_4_city":"CHICAGO","contact_4_name":"F.H. PASCHEN, S.N. NIELSEN & ASSOCIATES, LLC.","contact_4_type":"CONTRACTOR-GENERAL CONTRACTOR","contact_5_city":"CICERO","contact_5_name":"ALL MASONRY CONST. CO. INC","contact_5_type":"MASONRY CONTRACTOR","contact_6_city":"LAKE IN THE HILLS","contact_6_name":"ABITUA PLUMBING, INC.","contact_6_type":"CONTRACTOR-PLUMBER/PLUMBING","contact_7_city":"TINLEY PARK","contact_7_name":"ROBERTS ENVIRONMENTAL CONTROL","contact_7_type":"CONTRACTOR-REFRIGERATION","contact_8_city":"TINLEY PARK","contact_8_name":"ROBERTS ENVIRONMENTAL CONTROL","contact_8_type":"CONTRACTOR-VENTILATION","contact_9_city":"CHICAGO","contact_9_name":"PAUL WIESE","contact_9_type":"OWNER","other_fee_paid":"$0.00","contact_1_state":"IL","contact_2_state":"OK","contact_3_state":"IL","contact_4_state":"IL","contact_5_state":"IL","contact_6_state":"IL","contact_7_state":"IL","contact_8_state":"IL","contact_9_state":"IL","processing_time":"59","subtotal_unpaid":"$0.00","subtotal_waived":"$0.00","zoning_fee_paid":"$2,300.00","other_fee_unpaid":"$0.00","other_fee_waived":"$0.00","permit_milestone":"CERTIFICATE OF OCCUPANCY ISSUED","street_direction":"W","building_fee_paid":"$24,292.50","contact_1_zipcode":"60666","contact_2_zipcode":"73118","contact_3_zipcode":"60714","contact_4_zipcode":"60656-","contact_5_zipcode":"60804","contact_6_zipcode":"60156-","contact_7_zipcode":"60487-","contact_8_zipcode":"60487-","contact_9_zipcode":"60666","zoning_fee_unpaid":"$0.00","zoning_fee_waived":"$0.00","other_fee_subtotal":"$0","building_fee_unpaid":"$0.00","building_fee_waived":"$0.00","zoning_fee_subtotal":"$2,300","building_fee_subtotal":"$24,292.5"},"geometry":{"type":"Point","coordinates":[-87.914428439,42.008536401]}},{"type":"Feature","properties":{"date":"2017-05-11T00:00:00.000Z","year":2017,"description":"INSTALL VERIZON AND TMO CELLULAR SYSTEM THROUGHOUT THE PARKING GARAGE, ARRIVAL AND DEPARTURE ROADWAYS.","metadescription":"PERMIT – EXPRESS PERMIT PROGRAM. Electrical Work. INSTALL VERIZON AND TMO CELLULAR SYSTEM THROUGHOUT THE PARKING GARAGE, ARRIVAL AND DEPARTURE ROADWAYS.. COMPLETE. 11601","address":"300 East TOUHY Avenue, DES PLAINES, IL, DES PLAINES, 60018, US","location":"POINT (-87.91442843927 42.008536400869)","review_type":"EXPRESS PERMIT PROGRAM","street_name":"TOUHY AVE","xcoordinate":"1098098.5774643964","ycoordinate":"1945979.209781826","subtotal_paid":"$225.00","community_area":"76","contact_1_city":"ELK GROVE VILLAGE","contact_1_name":"HARTMANN ELECTRIC COMPANY, INC","contact_1_type":"ELECTRICAL CONTRACTOR","contact_2_city":"DES PLAINES","contact_2_name":"PALM JAMES J","contact_2_type":"APPLICANT","contact_3_city":"ELK GROVE VILLAGE","contact_3_name":"HARTMANN ELECTRIC COMPANY, INC","contact_3_type":"APPLICANT","other_fee_paid":"$0.00","contact_1_state":"IL","contact_2_state":"IL","contact_3_state":"IL","processing_time":"0","subtotal_unpaid":"$0.00","subtotal_waived":"$0.00","zoning_fee_paid":"$0.00","other_fee_unpaid":"$0.00","other_fee_waived":"$0.00","permit_milestone":"COMPLETE","street_direction":"W","building_fee_paid":"$225.00","contact_1_zipcode":"60007","contact_2_zipcode":"60016","contact_3_zipcode":"60007","zoning_fee_unpaid":"$0.00","zoning_fee_waived":"$0.00","other_fee_subtotal":"$0","building_fee_unpaid":"$0.00","building_fee_waived":"$0.00","zoning_fee_subtotal":"$0","building_fee_subtotal":"$225"},"geometry":{"type":"Point","coordinates":[-87.914428439,42.008536401]}},{"type":"Feature","properties":{"date":"2016-07-20T00:00:00.000Z","year":2016,"description":"REPLACE CABLES ON A 2000LB.CAP, 7-STOP, EWGT TRACTION PARKING GARAGE ELEVATOR # ESP35. PURSUANT TO THE SCOPE OF WORK SUBMITTED. EV005048","metadescription":"PERMIT - ELEVATOR EQUIPMENT. REPLACE CABLES ON A 2000LB.CAP, 7-STOP, EWGT TRACTION PARKING GARAGE ELEVATOR # ESP35. PURSUANT TO THE SCOPE OF WORK SUBMITTED. EV005048. 11601","address":"300 East TOUHY Avenue, DES PLAINES, IL, DES PLAINES, 60018, US","location":"POINT (-87.91442843927 42.008536400869)","pin_list":"1306108021","review_type":"CONVEYANCE DEVICE PERMIT","street_name":"TOUHY AVE","xcoordinate":"1098098.5774643964","ycoordinate":"1945979.209781826","subtotal_paid":"$255.00","community_area":"76","contact_1_city":"ITASCA","contact_1_name":"SCHINDLER ELEV CORP ITASCA","contact_1_type":"CONTRACTOR-ELEVATOR","contact_2_city":"CHICAGO","contact_2_name":"CITY OF CHICAGO DEPARTMENT OF AVIATION","contact_2_type":"OWNER","other_fee_paid":"$0.00","contact_1_state":"IL","contact_2_state":"IL","processing_time":"0","subtotal_unpaid":"$0.00","subtotal_waived":"$0.00","zoning_fee_paid":"$0.00","other_fee_unpaid":"$0.00","other_fee_waived":"$0.00","street_direction":"W","building_fee_paid":"$255.00","contact_1_zipcode":"60143-","contact_2_zipcode":"60666","zoning_fee_unpaid":"$0.00","zoning_fee_waived":"$0.00","other_fee_subtotal":"$0","building_fee_unpaid":"$0.00","building_fee_waived":"$0.00","zoning_fee_subtotal":"$0","building_fee_subtotal":"$255"},"geometry":{"type":"Point","coordinates":[-87.914428439,42.008536401]}},{"type":"Feature","properties":{"date":"2015-07-30T00:00:00.000Z","year":2015,"description":"INSTALL CONDUIT AND CABLE FOR THE AT&T ANTENNA SYSTEM IN THE PARKING GARAGE","metadescription":"PERMIT – EXPRESS PERMIT PROGRAM. Electrical Work. INSTALL CONDUIT AND CABLE FOR THE AT&T ANTENNA SYSTEM IN THE PARKING GARAGE. COMPLETE. 11601","address":"300 East TOUHY Avenue, DES PLAINES, IL, DES PLAINES, 60018, US","location":"POINT (-87.91442843927 42.008536400869)","review_type":"EXPRESS PERMIT PROGRAM","street_name":"TOUHY AVE","xcoordinate":"1098098.5774643964","ycoordinate":"1945979.209781826","subtotal_paid":"$50.00","community_area":"76","contact_1_city":"ELK GROVE VILLAGE","contact_1_name":"HARTMANN ELECTRIC COMPANY, INC","contact_1_type":"ELECTRICAL CONTRACTOR","contact_2_city":"DES PLAINES","contact_2_name":"PALM JAMES J","contact_2_type":"APPLICANT","contact_3_city":"ELK GROVE VILLAGE","contact_3_name":"HARTMANN ELECTRIC COMPANY, INC","contact_3_type":"APPLICANT","other_fee_paid":"$0.00","contact_1_state":"IL","contact_2_state":"IL","contact_3_state":"IL","processing_time":"0","subtotal_unpaid":"$0.00","subtotal_waived":"$0.00","zoning_fee_paid":"$0.00","other_fee_unpaid":"$0.00","other_fee_waived":"$0.00","permit_milestone":"COMPLETE","street_direction":"W","building_fee_paid":"$50.00","contact_1_zipcode":"60007","contact_2_zipcode":"60016","contact_3_zipcode":"60007","zoning_fee_unpaid":"$0.00","zoning_fee_waived":"$0.00","other_fee_subtotal":"$0","building_fee_unpaid":"$0.00","building_fee_waived":"$0.00","zoning_fee_subtotal":"$0","building_fee_subtotal":"$50"},"geometry":{"type":"Point","coordinates":[-87.914428439,42.008536401]}},{"type":"Feature","properties":{"date":"2014-05-07T00:00:00.000Z","year":2014,"description":"REPLACE SUSPENSION MEANS ON (5) PASSENGER ELEVATORS (ROTUNDA #58, GARAGE #21 & 22, TERMINAL #1 CARS #23 & 24).","metadescription":"PERMIT - ELEVATOR EQUIPMENT. REPLACE SUSPENSION MEANS ON (5) PASSENGER ELEVATORS (ROTUNDA #58, GARAGE #21 & 22, TERMINAL #1 CARS #23 & 24).. 11601","address":"300 East TOUHY Avenue, DES PLAINES, IL, DES PLAINES, 60018, US","location":"POINT (-87.91442843927 42.008536400869)","pin_list":"0000000000","review_type":"CONVEYANCE DEVICE PERMIT","street_name":"TOUHY AVE","xcoordinate":"1098098.5774643964","ycoordinate":"1945979.209781826","subtotal_paid":"$500.00","community_area":"76","contact_1_city":"ITASCA","contact_1_name":"SCHINDLER ELEV CORP ITASCA","contact_1_type":"CONTRACTOR-ELEVATOR","contact_2_city":"CHICAGO","contact_2_name":"DEPARTMENT OF AVIATION","contact_2_type":"OWNER","other_fee_paid":"$0.00","contact_1_state":"IL","contact_2_state":"ILL","processing_time":"0","subtotal_unpaid":"$0.00","subtotal_waived":"$0.00","zoning_fee_paid":"$0.00","other_fee_unpaid":"$0.00","other_fee_waived":"$0.00","street_direction":"W","building_fee_paid":"$500.00","contact_1_zipcode":"60143-","contact_2_zipcode":"60660","zoning_fee_unpaid":"$0.00","zoning_fee_waived":"$0.00","other_fee_subtotal":"$0","building_fee_unpaid":"$0.00","building_fee_waived":"$0.00","zoning_fee_subtotal":"$0","building_fee_subtotal":"$500"},"geometry":{"type":"Point","coordinates":[-87.914428439,42.008536401]}},{"type":"Feature","properties":{"date":"2013-02-01T00:00:00.000Z","year":2013,"description":"INSTALL (4) NETWORK/DATA SYSTEM AREAS T1,T2,T3,T5 & PARKING GARAGE","metadescription":"PERMIT – EXPRESS PERMIT PROGRAM. Electrical Work. INSTALL (4) NETWORK/DATA SYSTEM AREAS T1,T2,T3,T5 & PARKING GARAGE. COMPLETE. 11601","address":"300 East TOUHY Avenue, DES PLAINES, IL, DES PLAINES, 60018, US","location":"POINT (-87.91442843927 42.008536400869)","review_type":"EXPRESS PERMIT PROGRAM","street_name":"TOUHY AVE","xcoordinate":"1098098.5774643964","ycoordinate":"1945979.209781826","subtotal_paid":"$50.00","community_area":"76","contact_1_city":"MELROSE PARK","contact_1_name":"ELITE ELECTRIC CO. INC.","contact_1_type":"ELECTRICAL CONTRACTOR","contact_2_city":"MELROSE PARK","contact_2_name":"ELITE ELECTRIC CO. INC.","contact_2_type":"APPLICANT","contact_3_city":"MELROSE PARK","contact_3_name":"MESSINA JAMES D","contact_3_type":"APPLICANT","other_fee_paid":"$0.00","contact_1_state":"IL","contact_2_state":"IL","contact_3_state":"IL","processing_time":"0","subtotal_unpaid":"$0.00","subtotal_waived":"$0.00","zoning_fee_paid":"$0.00","other_fee_unpaid":"$0.00","other_fee_waived":"$0.00","permit_milestone":"COMPLETE","street_direction":"W","building_fee_paid":"$50.00","contact_1_zipcode":"60160","contact_2_zipcode":"60160","contact_3_zipcode":"60160","zoning_fee_unpaid":"$0.00","zoning_fee_waived":"$0.00","other_fee_subtotal":"$0","building_fee_unpaid":"$0.00","building_fee_waived":"$0.00","zoning_fee_subtotal":"$0","building_fee_subtotal":"$50"},"geometry":{"type":"Point","coordinates":[-87.914428439,42.008536401]}},{"type":"Feature","properties":{"date":"2012-05-22T00:00:00.000Z","year":2012,"description":"INTERIOR OFFICE BUILDOUT IN A PORTION OF THE BASEMENT OF AN EXISTING PARKING GARAGE AT O'HARE INTERNATIONAL AIRPORT.","metadescription":"PERMIT - RENOVATION/ALTERATION. INTERIOR OFFICE BUILDOUT IN A PORTION OF THE BASEMENT OF AN EXISTING PARKING GARAGE AT O'HARE INTERNATIONAL AIRPORT.. COMPLETE. 11601","address":"300 East TOUHY Avenue, DES PLAINES, IL, DES PLAINES, 60018, US","location":"POINT (-87.91442843927 42.008536400869)","pin_list":"1208100006","review_type":"STANDARD PLAN REVIEW","street_name":"TOUHY AVE","xcoordinate":"1098098.5774643964","ycoordinate":"1945979.209781826","subtotal_paid":"$1,047.19","community_area":"76","contact_1_city":"CHICAGO","contact_1_name":"KATRINA TRIMBLE","contact_1_type":"OWNER","contact_2_city":"CHICAGO","contact_2_name":"JOHNSON WALKER C","contact_2_type":"ARCHITECT","contact_3_city":"OAK BROOK","contact_3_name":"MASOUD FATHIZADEH","contact_3_type":"CONTRACTOR-ELECTRICAL","contact_4_city":"OKLAHOMA CITY","contact_4_name":"COOLEY CONSTRUCTORS, INC.","contact_4_type":"CONTRACTOR-GENERAL CONTRACTOR","contact_5_city":"CHICAGO","contact_5_name":"ROGER REEVES","contact_5_type":"OWNER","contact_6_city":"DES PLAINES","contact_6_name":"AIR SPECIALIST, INC.","contact_6_type":"CONTRACTOR-VENTILATION","contact_7_city":"CHICAGO","contact_7_name":"GSA FEDERAL OFFICE BLDG","contact_7_type":"OWNER","other_fee_paid":"$0.00","contact_1_state":"IL","contact_2_state":"IL","contact_3_state":"IL","contact_4_state":"OK","contact_5_state":"IL","contact_6_state":"IL","contact_7_state":"IL","processing_time":"69","subtotal_unpaid":"$0.00","subtotal_waived":"$0.00","zoning_fee_paid":"$75.00","other_fee_unpaid":"$0.00","other_fee_waived":"$0.00","permit_milestone":"CERTIFICATE OF OCCUPANCY ISSUED","street_direction":"W","building_fee_paid":"$972.19","contact_1_zipcode":"60604","contact_2_zipcode":"60601","contact_3_zipcode":"60523","contact_4_zipcode":"73111","contact_5_zipcode":"60640","contact_6_zipcode":"60018-","contact_7_zipcode":"60604","zoning_fee_unpaid":"$0.00","zoning_fee_waived":"$0.00","other_fee_subtotal":"$0","building_fee_unpaid":"$0.00","building_fee_waived":"$0.00","zoning_fee_subtotal":"$75","building_fee_subtotal":"$972.19"},"geometry":{"type":"Point","coordinates":[-87.914428439,42.008536401]}},{"type":"Feature","properties":{"date":"2011-04-08T00:00:00.000Z","year":2011,"description":"RUN CONDUIT AND CABLE FOR WI-FI SYSTEM ANTENNA'S CELL PHONES IN GARAGE PARKING LOT.","metadescription":"PERMIT – EXPRESS PERMIT PROGRAM. Electrical Work. RUN CONDUIT AND CABLE FOR WI-FI SYSTEM ANTENNA'S CELL PHONES IN GARAGE PARKING LOT.. COMPLETE. 11601","address":"300 East TOUHY Avenue, DES PLAINES, IL, DES PLAINES, 60018, US","location":"POINT (-87.91442843927 42.008536400869)","review_type":"EXPRESS PERMIT PROGRAM","street_name":"TOUHY AVE","xcoordinate":"1098098.5774643964","ycoordinate":"1945979.209781826","subtotal_paid":"$100.00","community_area":"76","contact_1_city":"MELROSE PARK","contact_1_name":"ELITE ELECTRIC CO. INC.","contact_1_type":"ELECTRICAL CONTRACTOR","contact_2_city":"MELROSE PARK","contact_2_name":"MESSINA JAMES D","contact_2_type":"APPLICANT","contact_3_city":"MELROSE PARK","contact_3_name":"ELITE ELECTRIC CO. INC.","contact_3_type":"APPLICANT","other_fee_paid":"$0.00","contact_1_state":"IL","contact_2_state":"IL","contact_3_state":"IL","processing_time":"0","subtotal_unpaid":"$0.00","subtotal_waived":"$0.00","zoning_fee_paid":"$0.00","other_fee_unpaid":"$0.00","other_fee_waived":"$0.00","permit_milestone":"COMPLETE","street_direction":"W","building_fee_paid":"$100.00","contact_1_zipcode":"60160","contact_2_zipcode":"60160","contact_3_zipcode":"60160","zoning_fee_unpaid":"$0.00","zoning_fee_waived":"$0.00","other_fee_subtotal":"$0","building_fee_unpaid":"$0.00","building_fee_waived":"$0.00","zoning_fee_subtotal":"$0","building_fee_subtotal":"$100"},"geometry":{"type":"Point","coordinates":[-87.914428439,42.008536401]}},{"type":"Feature","properties":{"date":"2006-02-02T00:00:00.000Z","year":2006,"description":"OIA '11601 W TOUHY - O'HARE AIRPO' O'HARE INTERNATIONAL AIRPORT ORD11601 W. TOUHY AVE.TENANT BUILDOUT OF A GARAGE AND OFFICE 19,000 SQ. FT. (GLOBE GROUND)","metadescription":"PERMIT - NEW CONSTRUCTION. OIA '11601 W TOUHY - O'HARE AIRPO' O'HARE INTERNATIONAL AIRPORT ORD11601 W. TOUHY AVE.TENANT BUILDOUT OF A GARAGE AND OFFICE 19,000 SQ. FT. (GLOBE GROUND). EXPIRED. 11601","address":"300 East TOUHY Avenue, DES PLAINES, IL, DES PLAINES, 60018, US","location":"POINT (-87.91442843927 42.008536400869)","review_type":"TRADITIONAL DEVELOPER SERVICES","street_name":"TOUHY AVE","xcoordinate":"1098098.5774643964","ycoordinate":"1945979.209781826","subtotal_paid":"$10,388.35","contact_1_city":"OAKBROOK","contact_1_name":"CENTER POINT PROPERTIES","contact_1_type":"OWNER","contact_2_city":"BLOOMINGDALE","contact_2_name":"CAPITAL DESIGN LTD.","contact_2_type":"ARCHITECT","contact_3_city":"ITASCA","contact_3_name":"PINNACLE SERVICES, INC.","contact_3_type":"CONTRACTOR-ELECTRICAL","contact_4_city":"ITASCA","contact_4_name":"FCL BUILDERS, INCORPORATED","contact_4_type":"CONTRACTOR-GENERAL CONTRACTOR","contact_5_city":"ELK GRV VL","contact_5_name":"GHC MECHANIC","contact_5_type":"CONTRACTOR-HEATING","contact_6_city":"BLOOMINGDALE","contact_6_name":"PL9811-CECCHIN PLUMBING &","contact_6_type":"CONTRACTOR-PLUMBER/PLUMBING","contact_7_city":"ELK GRV VL","contact_7_name":"GHC MECHANIC","contact_7_type":"CONTRACTOR-REFRIGERATION","other_fee_paid":"$0.00","contact_1_state":"IL","contact_2_state":"ILLINOIS","contact_3_state":"IL","contact_4_state":"IL","contact_5_state":"IL","contact_6_state":"IL","contact_7_state":"IL","processing_time":"0","subtotal_unpaid":"$0.00","subtotal_waived":"$0.00","zoning_fee_paid":"$75.00","other_fee_unpaid":"$0.00","other_fee_waived":"$0.00","permit_milestone":"INSPECTIONS (CERTIFICATE OF OCCUPANCY REQUIRED)","street_direction":"W","building_fee_paid":"$10,313.35","contact_1_zipcode":"60523-","contact_2_zipcode":"60108","contact_3_zipcode":"60143-","contact_4_zipcode":"60143-","contact_5_zipcode":"60007","contact_6_zipcode":"60108-","contact_7_zipcode":"60007","zoning_fee_unpaid":"$0.00","zoning_fee_waived":"$0.00","other_fee_subtotal":"$0","building_fee_unpaid":"$0.00","building_fee_waived":"$0.00","zoning_fee_subtotal":"$75","building_fee_subtotal":"$10,313.35"},"geometry":{"type":"Point","coordinates":[-87.914428439,42.008536401]}}]}
