{"type":"FeatureCollection","features":[{"type":"Feature","properties":{"date":"2024-04-03T00:00:00.000Z","year":2024,"description":"**ELECTRICAL ONLY PERMIT**INSTALL 400 AMP FEED FOR GENERATOR","metadescription":"PERMIT – EXPRESS PERMIT PROGRAM. Electrical Work. **ELECTRICAL ONLY PERMIT**INSTALL 400 AMP FEED FOR GENERATOR. COMPLETE. 11601","address":"11601","location":"POINT (-87.91442843927 42.008536400869)","review_type":"EXPRESS PERMIT PROGRAM","street_name":"TOUHY AVE","xcoordinate":"1098098.5774643964","ycoordinate":"1945979.209781826","subtotal_paid":"$300.00","community_area":"76","contact_1_city":"ELK GROVE VILLAGE","contact_1_name":"HARTMANN ELECTRIC COMPANY, INC","contact_1_type":"ELECTRICAL CONTRACTOR","contact_2_city":"ELK GROVE VILLAGE","contact_2_name":"HARTMANN JOHN","contact_2_type":"APPLICANT","contact_3_city":"ELK GROVE VILLAGE","contact_3_name":"HARTMANN ELECTRIC COMPANY, INC","contact_3_type":"APPLICANT","other_fee_paid":"$0.00","contact_1_state":"IL","contact_2_state":"IL","contact_3_state":"IL","processing_time":"20","subtotal_unpaid":"$0.00","subtotal_waived":"$0.00","zoning_fee_paid":"$0.00","other_fee_unpaid":"$0.00","other_fee_waived":"$0.00","permit_milestone":"COMPLETE","street_direction":"W","building_fee_paid":"$300.00","contact_1_zipcode":"60007","contact_2_zipcode":"60007","contact_3_zipcode":"60007","zoning_fee_unpaid":"$0.00","zoning_fee_waived":"$0.00","other_fee_subtotal":"$0","building_fee_unpaid":"$0.00","building_fee_waived":"$0.00","zoning_fee_subtotal":"$0","building_fee_subtotal":"$300"},"geometry":{"type":"Point","coordinates":[-87.914428439,42.008536401]}},{"type":"Feature","properties":{"date":"2024-01-31T00:00:00.000Z","year":2024,"description":"REPLACE GENERATOR AT EAST TANK FARM FOR MENZIES.","metadescription":"PERMIT – EXPRESS PERMIT PROGRAM. Electrical Work. REPLACE GENERATOR AT EAST TANK FARM FOR MENZIES.. COMPLETE. 11601","address":"11601","location":"POINT (-87.91442843927 42.008536400869)","review_type":"EXPRESS PERMIT PROGRAM","street_name":"TOUHY AVE","xcoordinate":"1098098.5774643964","ycoordinate":"1945979.209781826","subtotal_paid":"$75.00","community_area":"76","contact_1_city":"ELK GROVE VILLAGE","contact_1_name":"HARTMANN ELECTRIC COMPANY, INC","contact_1_type":"ELECTRICAL CONTRACTOR","contact_2_city":"ELK GROVE VILLAGE","contact_2_name":"HARTMANN JOHN","contact_2_type":"APPLICANT","contact_3_city":"ELK GROVE VILLAGE","contact_3_name":"HARTMANN ELECTRIC COMPANY, INC","contact_3_type":"APPLICANT","other_fee_paid":"$0.00","contact_1_state":"IL","contact_2_state":"IL","contact_3_state":"IL","processing_time":"0","subtotal_unpaid":"$0.00","subtotal_waived":"$0.00","zoning_fee_paid":"$0.00","other_fee_unpaid":"$0.00","other_fee_waived":"$0.00","permit_milestone":"COMPLETE","street_direction":"W","building_fee_paid":"$75.00","contact_1_zipcode":"60007","contact_2_zipcode":"60007","contact_3_zipcode":"60007","zoning_fee_unpaid":"$0.00","zoning_fee_waived":"$0.00","other_fee_subtotal":"$0","building_fee_unpaid":"$0.00","building_fee_waived":"$0.00","zoning_fee_subtotal":"$0","building_fee_subtotal":"$75"},"geometry":{"type":"Point","coordinates":[-87.914428439,42.008536401]}},{"type":"Feature","properties":{"date":"2024-01-24T00:00:00.000Z","year":2024,"description":"MAKE EMERGENCY REPAIRS TO EAST TANK FARM GENERATOR AT MENZIES FUELING SYSTEM.","metadescription":"PERMIT – EXPRESS PERMIT PROGRAM. Electrical Work. MAKE EMERGENCY REPAIRS TO EAST TANK FARM GENERATOR AT MENZIES FUELING SYSTEM.. COMPLETE. 11601","address":"11601","location":"POINT (-87.91442843927 42.008536400869)","review_type":"EXPRESS PERMIT PROGRAM","street_name":"TOUHY AVE","xcoordinate":"1098098.5774643964","ycoordinate":"1945979.209781826","subtotal_paid":"$75.00","community_area":"76","contact_1_city":"ELK GROVE VILLAGE","contact_1_name":"HARTMANN ELECTRIC COMPANY, INC","contact_1_type":"ELECTRICAL CONTRACTOR","contact_2_city":"ELK GROVE VILLAGE","contact_2_name":"HARTMANN JOHN","contact_2_type":"APPLICANT","contact_3_city":"ELK GROVE VILLAGE","contact_3_name":"HARTMANN ELECTRIC COMPANY, INC","contact_3_type":"APPLICANT","other_fee_paid":"$0.00","contact_1_state":"IL","contact_2_state":"IL","contact_3_state":"IL","processing_time":"0","subtotal_unpaid":"$0.00","subtotal_waived":"$0.00","zoning_fee_paid":"$0.00","other_fee_unpaid":"$0.00","other_fee_waived":"$0.00","permit_milestone":"COMPLETE","street_direction":"W","building_fee_paid":"$75.00","contact_1_zipcode":"60007","contact_2_zipcode":"60007","contact_3_zipcode":"60007","zoning_fee_unpaid":"$0.00","zoning_fee_waived":"$0.00","other_fee_subtotal":"$0","building_fee_unpaid":"$0.00","building_fee_waived":"$0.00","zoning_fee_subtotal":"$0","building_fee_subtotal":"$75"},"geometry":{"type":"Point","coordinates":[-87.914428439,42.008536401]}},{"type":"Feature","properties":{"date":"2023-08-05T00:00:00.000Z","year":2023,"description":"ELECTRICAL CONNECTION FOR EMERGENCY RENTAL STANDBY GENERATOR.","metadescription":"PERMIT – EXPRESS PERMIT PROGRAM. Electrical Work. ELECTRICAL CONNECTION FOR EMERGENCY RENTAL STANDBY GENERATOR.. COMPLETE. 11555","address":"11555","location":"POINT (-87.913737674538 42.008551282573)","review_type":"EXPRESS PERMIT PROGRAM","street_name":"TOUHY AVE","xcoordinate":"1098286.2849810263","ycoordinate":"1945985.5521126066","census_tract":"770600","subtotal_paid":"$150.00","community_area":"76","contact_1_city":"ELK GROVE VILLAGE","contact_1_name":"HARTMANN ELECTRIC COMPANY, INC","contact_1_type":"ELECTRICAL CONTRACTOR","contact_2_city":"ELK GROVE VILLAGE","contact_2_name":"HARTMANN JOHN","contact_2_type":"APPLICANT","contact_3_city":"ELK GROVE VILLAGE","contact_3_name":"HARTMANN ELECTRIC COMPANY, INC","contact_3_type":"APPLICANT","other_fee_paid":"$0.00","contact_1_state":"IL","contact_2_state":"IL","contact_3_state":"IL","processing_time":"1","subtotal_unpaid":"$0.00","subtotal_waived":"$0.00","zoning_fee_paid":"$0.00","other_fee_unpaid":"$0.00","other_fee_waived":"$0.00","permit_milestone":"COMPLETE","street_direction":"W","building_fee_paid":"$150.00","contact_1_zipcode":"60007","contact_2_zipcode":"60007","contact_3_zipcode":"60007","zoning_fee_unpaid":"$0.00","zoning_fee_waived":"$0.00","other_fee_subtotal":"$0","building_fee_unpaid":"$0.00","building_fee_waived":"$0.00","zoning_fee_subtotal":"$0","building_fee_subtotal":"$150"},"geometry":{"type":"Point","coordinates":[-87.913737675,42.008551283]}},{"type":"Feature","properties":{"date":"2021-08-10T00:00:00.000Z","year":2021,"description":"GENERATOR DISTRIBUTION PANEL FOR CONSTRUCTION OFFICE TRAILER AT T5 LANDSIDE","metadescription":"PERMIT – EXPRESS PERMIT PROGRAM. Electrical Work. GENERATOR DISTRIBUTION PANEL FOR CONSTRUCTION OFFICE TRAILER AT T5 LANDSIDE. COMPLETE. 11601","address":"11601","location":"POINT (-87.91442843927 42.008536400869)","review_type":"EXPRESS PERMIT PROGRAM","street_name":"TOUHY AVE","xcoordinate":"1098098.5774643964","ycoordinate":"1945979.209781826","subtotal_paid":"$150.00","community_area":"76","contact_1_city":"LIBERTYVILLE","contact_1_name":"ALDRIDGE ELECTRIC INC","contact_1_type":"ELECTRICAL CONTRACTOR","contact_2_city":"MT. PROSPECT","contact_2_name":"HARDIMAN TERRENCE P","contact_2_type":"APPLICANT","contact_3_city":"LIBERTYVILLE","contact_3_name":"ALDRIDGE ELECTRIC, INC.","contact_3_type":"APPLICANT","other_fee_paid":"$0.00","contact_1_state":"IL","contact_2_state":"IL","contact_3_state":"IL","processing_time":"0","subtotal_unpaid":"$0.00","subtotal_waived":"$0.00","zoning_fee_paid":"$0.00","other_fee_unpaid":"$0.00","other_fee_waived":"$0.00","permit_milestone":"COMPLETE","street_direction":"W","building_fee_paid":"$150.00","contact_1_zipcode":"60048","contact_2_zipcode":"60056","contact_3_zipcode":"60048","zoning_fee_unpaid":"$0.00","zoning_fee_waived":"$0.00","other_fee_subtotal":"$0","building_fee_unpaid":"$0.00","building_fee_waived":"$0.00","zoning_fee_subtotal":"$0","building_fee_subtotal":"$150"},"geometry":{"type":"Point","coordinates":[-87.914428439,42.008536401]}},{"type":"Feature","properties":{"date":"2019-05-21T00:00:00.000Z","year":2019,"description":"REPLACEMENT OF LIGHTING, NON-REQUIRED FIRE ALARM SYSTEM AND EMERGENCY GENERATOR.","metadescription":"PERMIT – EXPRESS PERMIT PROGRAM. Electrical Work. REPLACEMENT OF LIGHTING, NON-REQUIRED FIRE ALARM SYSTEM AND EMERGENCY GENERATOR.. COMPLETE. 11601","address":"11601","location":"POINT (-87.91442843927 42.008536400869)","review_type":"EXPRESS PERMIT PROGRAM","street_name":"TOUHY AVE","xcoordinate":"1098098.5774643964","ycoordinate":"1945979.209781826","subtotal_paid":"$2,400.00","community_area":"76","contact_1_city":"CHICAGO","contact_1_name":"COURTESY ELECTRIC, INC.","contact_1_type":"ELECTRICAL CONTRACTOR","contact_2_city":"CHICAGO","contact_2_name":"COURTESY ELECTRIC, INC.","contact_2_type":"APPLICANT","contact_3_city":"CHICAGO","contact_3_name":"RYAN THOMAS M","contact_3_type":"APPLICANT","other_fee_paid":"$0.00","contact_1_state":"IL","contact_2_state":"IL","contact_3_state":"IL","processing_time":"0","subtotal_unpaid":"$0.00","subtotal_waived":"$0.00","zoning_fee_paid":"$0.00","other_fee_unpaid":"$0.00","other_fee_waived":"$0.00","permit_milestone":"COMPLETE","street_direction":"W","building_fee_paid":"$2,400.00","contact_1_zipcode":"60631","contact_2_zipcode":"60631","contact_3_zipcode":"60643","zoning_fee_unpaid":"$0.00","zoning_fee_waived":"$0.00","other_fee_subtotal":"$0","building_fee_unpaid":"$0.00","building_fee_waived":"$0.00","zoning_fee_subtotal":"$0","building_fee_subtotal":"$2,400"},"geometry":{"type":"Point","coordinates":[-87.914428439,42.008536401]}},{"type":"Feature","properties":{"date":"2019-04-17T00:00:00.000Z","year":2019,"description":"UPGRADE EXISTING FIRE ALARM SYSTEM AND INSTALL 80KW NATURAL GAS BACK UP GENERATOR AT AMERICAN AIRLINES HANGAR #1.","metadescription":"PERMIT – EXPRESS PERMIT PROGRAM. Fire Alarm System. UPGRADE EXISTING FIRE ALARM SYSTEM AND INSTALL 80KW NATURAL GAS BACK UP GENERATOR AT AMERICAN AIRLINES HANGAR #1.. COMPLETE. 11601","address":"11601","location":"POINT (-87.91442843927 42.008536400869)","review_type":"EXPRESS PERMIT PROGRAM","street_name":"TOUHY AVE","xcoordinate":"1098098.5774643964","ycoordinate":"1945979.209781826","subtotal_paid":"$900.00","community_area":"76","contact_1_city":"ELK GROVE VILLAGE","contact_1_name":"HARTMANN ELECTRIC COMPANY, INC","contact_1_type":"ELECTRICAL CONTRACTOR","contact_2_city":"DES PLAINES","contact_2_name":"PALM JAMES J","contact_2_type":"APPLICANT","contact_3_city":"ELK GROVE VILLAGE","contact_3_name":"HARTMANN ELECTRIC COMPANY, INC","contact_3_type":"APPLICANT","other_fee_paid":"$0.00","contact_1_state":"IL","contact_2_state":"IL","contact_3_state":"IL","processing_time":"0","subtotal_unpaid":"$0.00","subtotal_waived":"$0.00","zoning_fee_paid":"$0.00","other_fee_unpaid":"$0.00","other_fee_waived":"$0.00","permit_milestone":"COMPLETE","street_direction":"W","building_fee_paid":"$900.00","contact_1_zipcode":"60007","contact_2_zipcode":"60016","contact_3_zipcode":"60007","zoning_fee_unpaid":"$0.00","zoning_fee_waived":"$0.00","other_fee_subtotal":"$0","building_fee_unpaid":"$0.00","building_fee_waived":"$0.00","zoning_fee_subtotal":"$0","building_fee_subtotal":"$900"},"geometry":{"type":"Point","coordinates":[-87.914428439,42.008536401]}},{"type":"Feature","properties":{"date":"2019-02-16T00:00:00.000Z","year":2019,"description":"CONSTRUCTION OF 3 NEW COOLERS TOTALING 11,155 SQUARE FEET WITH INSTALLATION OF BACK-UP GENERATOR. NO CHANGE IN OCCUPANCY.  OCCUPANCY CLASS H-2 STORAGE.","metadescription":"PERMIT - RENOVATION/ALTERATION. CONSTRUCTION OF 3 NEW COOLERS TOTALING 11,155 SQUARE FEET WITH INSTALLATION OF BACK-UP GENERATOR. NO CHANGE IN OCCUPANCY.  OCCUPANCY CLASS H-2 STORAGE.. COMPLETE. 11601","address":"11601","location":"POINT (-87.91442843927 42.008536400869)","pin_list":"1205402005","review_type":"SELF CERT","street_name":"TOUHY AVE","xcoordinate":"1098098.5774643964","ycoordinate":"1945979.209781826","subtotal_paid":"$3,477.28","community_area":"76","contact_1_city":"ITASCA","contact_1_name":"SCHULTZ, RICHARD J","contact_1_type":"ARCHITECT","contact_2_city":"ITASCA","contact_2_name":"SCHULTZ, RICHARD J","contact_2_type":"SELF CERT ARCHITECT","contact_3_city":"ARLINGTON HEIGHTS","contact_3_name":"K.B. ELECTRIC SERVICE,INC","contact_3_type":"CONTRACTOR-ELECTRICAL","contact_4_city":"ROSEMONT","contact_4_name":"QUALITY BUILDERS OF MIDWEST, INC.","contact_4_type":"CONTRACTOR-GENERAL CONTRACTOR","contact_5_city":"ANNAPOLIS","contact_5_name":"ERIKA MITTENBERG","contact_5_type":"OWNER","contact_6_city":"CHICAGO","contact_6_name":"GEHRETT PLUMBING, INC.","contact_6_type":"CONTRACTOR-PLUMBER/PLUMBING","contact_7_city":"ELK GROVE","contact_7_name":"COOLING EQUIPMENT SERVICE INC","contact_7_type":"CONTRACTOR-REFRIGERATION","contact_8_city":"ELK GROVE","contact_8_name":"COOLING EQUIPMENT SERVICE INC","contact_8_type":"CONTRACTOR-VENTILATION","other_fee_paid":"$0.00","contact_1_state":"IL","contact_2_state":"IL","contact_3_state":"IL","contact_4_state":"IL","contact_5_state":"ND","contact_6_state":"IL","contact_7_state":"IL","contact_8_state":"IL","processing_time":"0","subtotal_unpaid":"$0.00","subtotal_waived":"$0.00","zoning_fee_paid":"$75.00","other_fee_unpaid":"$0.00","other_fee_waived":"$0.00","permit_milestone":"COMPLETE","street_direction":"W","building_fee_paid":"$3,402.28","contact_1_zipcode":"60143-","contact_2_zipcode":"60143-","contact_3_zipcode":"60004-","contact_4_zipcode":"60018","contact_5_zipcode":"21401","contact_6_zipcode":"60632-","contact_7_zipcode":"60007-","contact_8_zipcode":"60007-","zoning_fee_unpaid":"$0.00","zoning_fee_waived":"$0.00","other_fee_subtotal":"$0","building_fee_unpaid":"$0.00","building_fee_waived":"$0.00","zoning_fee_subtotal":"$75","building_fee_subtotal":"$3,402.28"},"geometry":{"type":"Point","coordinates":[-87.914428439,42.008536401]}},{"type":"Feature","properties":{"date":"2019-01-23T00:00:00.000Z","year":2019,"description":"11601 W TOUHY AVE, BUILDING 727 (HANGAR NO.1) - INSTALLATION OF NEW FOAM GENERATORS ON NORTH AND SOUTH AIRCRAFT HANGAR SPACE AND ALL ASSOCIATED MECHANICAL, ELECTRICAL, PLUMBING SYSTEMS TO SUPPORT THE FOAM GENERATORS. REPLACEMENT OF FIRE ALARM HEAD UNIT AND ASSOCIATED DEVICES. NEW ELECTRICAL EMERGENCY GENERATOR. RATED DOOR AND FRAME REPLACEMENTS THROUGHOUT.","metadescription":"PERMIT - RENOVATION/ALTERATION. 11601 W TOUHY AVE, BUILDING 727 (HANGAR NO.1) - INSTALLATION OF NEW FOAM GENERATORS ON NORTH AND SOUTH AIRCRAFT HANGAR SPACE AND ALL ASSOCIATED MECHANICAL, ELECTRICAL, PLUMBING SYSTEMS TO SUPPORT THE FOAM GENERATORS. REPLACEMENT OF FIRE ALARM HEAD UNIT AND ASSOCIATED DEVICES. NEW ELECTRICAL EMERGENCY GENERATOR. RATED DOOR AND FRAME REPLACEMENTS THROUGHOUT.. COMPLETE. 11601","address":"11601","location":"POINT (-87.91442843927 42.008536400869)","pin_list":"0931100007","review_type":"STANDARD PLAN REVIEW","street_name":"TOUHY AVE","xcoordinate":"1098098.5774643964","ycoordinate":"1945979.209781826","subtotal_paid":"$14,575.00","community_area":"76","contact_1_city":"CHICAGO","contact_1_name":"RON LADUKE","contact_1_type":"OWNER OCCUPIED","contact_2_city":"CHICAGO","contact_2_name":"ILEKIS, ALPHONSE A","contact_2_type":"ARCHITECT","contact_3_city":"ELK GROVE VILLAGE","contact_3_name":"HARTMANN ELECTRIC COMPANY, INC","contact_3_type":"CONTRACTOR-ELECTRICAL","contact_4_city":"CHICAGO","contact_4_name":"F.H. PASCHEN, S.N. NIELSEN & ASSOCIATES, LLC.","contact_4_type":"CONTRACTOR-GENERAL CONTRACTOR","contact_5_city":"ORLAND PARK","contact_5_name":"F.H. PASCHEN","contact_5_type":"MASONRY CONTRACTOR","contact_6_city":"CHICAGO","contact_6_name":"R.E.A.MASONRY LLC","contact_6_type":"MASONRY CONTRACTOR","contact_7_city":"LANSING","contact_7_name":"MECCON INDUSTRIES, INC.","contact_7_type":"CONTRACTOR-PLUMBER/PLUMBING","contact_8_city":"CHICAGO","contact_8_name":"COMMERCIAL HEATING & AIR","contact_8_type":"CONTRACTOR-REFRIGERATION","contact_9_city":"CHICAGO","contact_9_name":"COMMERCIAL HEATING & AIR","contact_9_type":"CONTRACTOR-VENTILATION","other_fee_paid":"$0.00","contact_1_state":"IL","contact_2_state":"IL","contact_3_state":"IL","contact_4_state":"IL","contact_5_state":"IL","contact_6_state":"IL","contact_7_state":"IL","contact_8_state":"IL","contact_9_state":"IL","processing_time":"35","subtotal_unpaid":"$0.00","subtotal_waived":"$0.00","zoning_fee_paid":"$75.00","other_fee_unpaid":"$0.00","other_fee_waived":"$0.00","permit_milestone":"COMPLETE","street_direction":"W","building_fee_paid":"$14,500.00","contact_1_zipcode":"60666","contact_2_zipcode":"60606","contact_3_zipcode":"60007-","contact_4_zipcode":"60656-","contact_5_zipcode":"60467","contact_6_zipcode":"60620","contact_7_zipcode":"60438-","contact_8_zipcode":"60612-","contact_9_zipcode":"60612-","zoning_fee_unpaid":"$0.00","zoning_fee_waived":"$0.00","other_fee_subtotal":"$0","building_fee_unpaid":"$0.00","building_fee_waived":"$0.00","zoning_fee_subtotal":"$75","building_fee_subtotal":"$14,500"},"geometry":{"type":"Point","coordinates":[-87.914428439,42.008536401]}},{"type":"Feature","properties":{"date":"2017-07-18T00:00:00.000Z","year":2017,"description":"THIS IS AMENDING PERMIT NO. 100715827 TO INCLUDE GENERATOR AND TWO ATS.","metadescription":"PERMIT – EXPRESS PERMIT PROGRAM. Electrical Work. THIS IS AMENDING PERMIT NO. 100715827 TO INCLUDE GENERATOR AND TWO ATS.. COMPLETE. 11601","address":"11601","location":"POINT (-87.91442843927 42.008536400869)","review_type":"EXPRESS PERMIT PROGRAM","street_name":"TOUHY AVE","xcoordinate":"1098098.5774643964","ycoordinate":"1945979.209781826","subtotal_paid":"$750.00","community_area":"76","contact_1_city":"CHICAGO","contact_1_name":"GIM ELECTRIC CO., INC.","contact_1_type":"ELECTRICAL CONTRACTOR","contact_2_city":"CHICAGO","contact_2_name":"MAH ERIC W.","contact_2_type":"APPLICANT","contact_3_city":"CHICAGO","contact_3_name":"GIM ELECTRIC CO., INC.","contact_3_type":"APPLICANT","other_fee_paid":"$0.00","contact_1_state":"IL","contact_2_state":"IL","contact_3_state":"IL","processing_time":"0","subtotal_unpaid":"$0.00","subtotal_waived":"$0.00","zoning_fee_paid":"$0.00","other_fee_unpaid":"$0.00","other_fee_waived":"$0.00","permit_milestone":"COMPLETE","street_direction":"W","building_fee_paid":"$750.00","contact_1_zipcode":"60641","contact_2_zipcode":"60641","contact_3_zipcode":"60641","zoning_fee_unpaid":"$0.00","zoning_fee_waived":"$0.00","other_fee_subtotal":"$0","building_fee_unpaid":"$0.00","building_fee_waived":"$0.00","zoning_fee_subtotal":"$0","building_fee_subtotal":"$750"},"geometry":{"type":"Point","coordinates":[-87.914428439,42.008536401]}},{"type":"Feature","properties":{"date":"2017-07-18T00:00:00.000Z","year":2017,"description":"INSTALL 200KVA GENERATOR AND TWO ATS SWITCHES.   INSTALL TRANSFORMER AND PANEL.  THIS IS TO BACK UP COMPUTER EQUIPMENT AND IS NOT LIFE SAFETY.","metadescription":"PERMIT – EXPRESS PERMIT PROGRAM. Electrical Work. INSTALL 200KVA GENERATOR AND TWO ATS SWITCHES.   INSTALL TRANSFORMER AND PANEL.  THIS IS TO BACK UP COMPUTER EQUIPMENT AND IS NOT LIFE SAFETY.. COMPLETE. 11601","address":"11601","location":"POINT (-87.91442843927 42.008536400869)","review_type":"EXPRESS PERMIT PROGRAM","street_name":"TOUHY AVE","xcoordinate":"1098098.5774643964","ycoordinate":"1945979.209781826","subtotal_paid":"$150.00","community_area":"76","contact_1_city":"CHICAGO","contact_1_name":"GIM ELECTRIC CO., INC.","contact_1_type":"ELECTRICAL CONTRACTOR","contact_2_city":"CHICAGO","contact_2_name":"MAH ERIC W.","contact_2_type":"APPLICANT","contact_3_city":"CHICAGO","contact_3_name":"GIM ELECTRIC CO., INC.","contact_3_type":"APPLICANT","other_fee_paid":"$0.00","contact_1_state":"IL","contact_2_state":"IL","contact_3_state":"IL","processing_time":"0","subtotal_unpaid":"$0.00","subtotal_waived":"$0.00","zoning_fee_paid":"$0.00","other_fee_unpaid":"$0.00","other_fee_waived":"$0.00","permit_milestone":"COMPLETE","street_direction":"W","building_fee_paid":"$150.00","contact_1_zipcode":"60641","contact_2_zipcode":"60641","contact_3_zipcode":"60641","zoning_fee_unpaid":"$0.00","zoning_fee_waived":"$0.00","other_fee_subtotal":"$0","building_fee_unpaid":"$0.00","building_fee_waived":"$0.00","zoning_fee_subtotal":"$0","building_fee_subtotal":"$150"},"geometry":{"type":"Point","coordinates":[-87.914428439,42.008536401]}},{"type":"Feature","properties":{"date":"2016-10-18T00:00:00.000Z","year":2016,"description":"NEW SERVICE AND GENERATOR FOR NORTHEAST CARGO FUEL FARM","metadescription":"PERMIT – EXPRESS PERMIT PROGRAM. Electrical Work. NEW SERVICE AND GENERATOR FOR NORTHEAST CARGO FUEL FARM. COMPLETE. 11601","address":"11601","location":"POINT (-87.91442843927 42.008536400869)","review_type":"EXPRESS PERMIT PROGRAM","street_name":"TOUHY AVE","xcoordinate":"1098098.5774643964","ycoordinate":"1945979.209781826","subtotal_paid":"$1,500.00","community_area":"76","contact_1_city":"ELK GROVE VILLAGE","contact_1_name":"HARTMANN ELECTRIC COMPANY, INC","contact_1_type":"ELECTRICAL CONTRACTOR","contact_2_city":"ELK GROVE VILLAGE","contact_2_name":"HARTMANN ELECTRIC COMPANY, INC","contact_2_type":"APPLICANT","contact_3_city":"DES PLAINES","contact_3_name":"PALM JAMES J","contact_3_type":"APPLICANT","other_fee_paid":"$0.00","contact_1_state":"IL","contact_2_state":"IL","contact_3_state":"IL","processing_time":"27","subtotal_unpaid":"$0.00","subtotal_waived":"$0.00","zoning_fee_paid":"$0.00","other_fee_unpaid":"$0.00","other_fee_waived":"$0.00","permit_milestone":"COMPLETE","street_direction":"W","building_fee_paid":"$1,500.00","contact_1_zipcode":"60007","contact_2_zipcode":"60007","contact_3_zipcode":"60016","zoning_fee_unpaid":"$0.00","zoning_fee_waived":"$0.00","other_fee_subtotal":"$0","building_fee_unpaid":"$0.00","building_fee_waived":"$0.00","zoning_fee_subtotal":"$0","building_fee_subtotal":"$1,500"},"geometry":{"type":"Point","coordinates":[-87.914428439,42.008536401]}},{"type":"Feature","properties":{"date":"2016-08-23T00:00:00.000Z","year":2016,"description":"PROVIDE WIRING FOR POWER AND CONTROL FOR NEW MOTORS, GENERATOR, LIGHTING AND POWER CIRCUITS AT THE NORTHEAST FUEL FARM.","metadescription":"PERMIT – EXPRESS PERMIT PROGRAM. Electrical Work. PROVIDE WIRING FOR POWER AND CONTROL FOR NEW MOTORS, GENERATOR, LIGHTING AND POWER CIRCUITS AT THE NORTHEAST FUEL FARM.. COMPLETE. 11601","address":"11601","location":"POINT (-87.91442843927 42.008536400869)","review_type":"EXPRESS PERMIT PROGRAM","street_name":"TOUHY AVE","xcoordinate":"1098098.5774643964","ycoordinate":"1945979.209781826","subtotal_paid":"$1,575.00","community_area":"76","contact_1_city":"ELK GROVE VILLAGE","contact_1_name":"HARTMANN ELECTRIC COMPANY, INC","contact_1_type":"ELECTRICAL CONTRACTOR","contact_2_city":"ELK GROVE VILLAGE","contact_2_name":"HARTMANN ELECTRIC COMPANY, INC","contact_2_type":"APPLICANT","contact_3_city":"DES PLAINES","contact_3_name":"PALM JAMES J","contact_3_type":"APPLICANT","other_fee_paid":"$0.00","contact_1_state":"IL","contact_2_state":"IL","contact_3_state":"IL","processing_time":"0","subtotal_unpaid":"$0.00","subtotal_waived":"$0.00","zoning_fee_paid":"$0.00","other_fee_unpaid":"$0.00","other_fee_waived":"$0.00","permit_milestone":"COMPLETE","street_direction":"W","building_fee_paid":"$1,575.00","contact_1_zipcode":"60007","contact_2_zipcode":"60007","contact_3_zipcode":"60016","zoning_fee_unpaid":"$0.00","zoning_fee_waived":"$0.00","other_fee_subtotal":"$0","building_fee_unpaid":"$0.00","building_fee_waived":"$0.00","zoning_fee_subtotal":"$0","building_fee_subtotal":"$1,575"},"geometry":{"type":"Point","coordinates":[-87.914428439,42.008536401]}},{"type":"Feature","properties":{"date":"2015-01-21T00:00:00.000Z","year":2015,"description":"NEW ELECTRICAL GENERATOR FOR AN EXISTING CAR RENTAL OFFICE FACILITY, AS PER PLANS. EXTERIOR WORK ONLY.","metadescription":"PERMIT - RENOVATION/ALTERATION. NEW ELECTRICAL GENERATOR FOR AN EXISTING CAR RENTAL OFFICE FACILITY, AS PER PLANS. EXTERIOR WORK ONLY.. COMPLETE. 11601","address":"11601","location":"POINT (-87.91442843927 42.008536400869)","pin_list":"1208100006","review_type":"STANDARD PLAN REVIEW","street_name":"TOUHY AVE","xcoordinate":"1098098.5774643964","ycoordinate":"1945979.209781826","subtotal_paid":"$650.00","community_area":"76","contact_1_city":"CHICAGO","contact_1_name":"COMMISSIONER OF AVIATION CHICAGO O'HARE INTL. AIRPORT","contact_1_type":"OWNER","contact_2_city":"CHICAGO","contact_2_name":"KARKHANIS, ATUL P","contact_2_type":"ARCHITECT","contact_3_city":"ADDISON","contact_3_name":"WALCOR ELECTRIC INC.","contact_3_type":"CONTRACTOR-ELECTRICAL","contact_4_city":"ELMHURST","contact_4_name":"C. MULLIGAN & ASSOCIATES CO.","contact_4_type":"CONTRACTOR-GENERAL CONTRACTOR","contact_5_city":"ELMHURST","contact_5_name":"C. MULLIGAN & ASSOC CO. INC.","contact_5_type":"MASONRY CONTRACTOR","other_fee_paid":"$0.00","contact_1_state":"IL","contact_2_state":"IL","contact_3_state":"IL","contact_4_state":"IL","contact_5_state":"IL","processing_time":"127","subtotal_unpaid":"$0.00","subtotal_waived":"$0.00","zoning_fee_paid":"$150.00","other_fee_unpaid":"$0.00","other_fee_waived":"$0.00","permit_milestone":"COMPLETE","street_direction":"W","building_fee_paid":"$500.00","contact_1_zipcode":"60666","contact_2_zipcode":"60659-","contact_3_zipcode":"60101","contact_4_zipcode":"60126","contact_5_zipcode":"60126","zoning_fee_unpaid":"$0.00","zoning_fee_waived":"$0.00","other_fee_subtotal":"$0","building_fee_unpaid":"$0.00","building_fee_waived":"$0.00","zoning_fee_subtotal":"$150","building_fee_subtotal":"$500"},"geometry":{"type":"Point","coordinates":[-87.914428439,42.008536401]}},{"type":"Feature","properties":{"date":"2014-07-11T00:00:00.000Z","year":2014,"description":"INSTALLATION OF ELECTRICAL FOR THE FAA RTR-U BUILDING AT O'HARE INTERNATIONAL AIRPORT. WORK INCLUDES A NEW ELECTRICAL SERVICE, A GENERATOR BACKUP, GENERAL LIGHTING AND POWER. DIVANE JOB NO. C-8677.","metadescription":"PERMIT – EXPRESS PERMIT PROGRAM. Electrical Work. INSTALLATION OF ELECTRICAL FOR THE FAA RTR-U BUILDING AT O'HARE INTERNATIONAL AIRPORT. WORK INCLUDES A NEW ELECTRICAL SERVICE, A GENERATOR BACKUP, GENERAL LIGHTING AND POWER. DIVANE JOB NO. C-8677.. COMPLETE. 11601","address":"11601","location":"POINT (-87.91442843927 42.008536400869)","review_type":"EXPRESS PERMIT PROGRAM","street_name":"TOUHY AVE","xcoordinate":"1098098.5774643964","ycoordinate":"1945979.209781826","subtotal_paid":"$600.00","community_area":"76","contact_1_city":"FRANKLIN PARK","contact_1_name":"DIVANE BROS. ELECTRIC CO.","contact_1_type":"ELECTRICAL CONTRACTOR","contact_2_city":"NAPERVILLE","contact_2_name":"DIVANE, IV DANIEL J","contact_2_type":"APPLICANT","contact_3_city":"FRANKLIN PARK","contact_3_name":"DIVANE BROS. ELECTRIC CO.","contact_3_type":"APPLICANT","other_fee_paid":"$0.00","contact_1_state":"IL","contact_2_state":"IL","contact_3_state":"IL","processing_time":"1","subtotal_unpaid":"$0.00","subtotal_waived":"$0.00","zoning_fee_paid":"$0.00","other_fee_unpaid":"$0.00","other_fee_waived":"$0.00","permit_milestone":"COMPLETE","street_direction":"W","building_fee_paid":"$600.00","contact_1_zipcode":"60131","contact_2_zipcode":"60565","contact_3_zipcode":"60131","zoning_fee_unpaid":"$0.00","zoning_fee_waived":"$0.00","other_fee_subtotal":"$0","building_fee_unpaid":"$0.00","building_fee_waived":"$0.00","zoning_fee_subtotal":"$0","building_fee_subtotal":"$600"},"geometry":{"type":"Point","coordinates":[-87.914428439,42.008536401]}},{"type":"Feature","properties":{"date":"2012-06-13T00:00:00.000Z","year":2012,"description":"INSTALL OUTDOOR 800AMP 480 VOLT GENERATOR TAP BOX AND REPLACE EXISTING SERVICE CABLES","metadescription":"PERMIT – EXPRESS PERMIT PROGRAM. Electrical Work. INSTALL OUTDOOR 800AMP 480 VOLT GENERATOR TAP BOX AND REPLACE EXISTING SERVICE CABLES. COMPLETE. 11601","address":"11601","location":"POINT (-87.91442843927 42.008536400869)","review_type":"EXPRESS PERMIT PROGRAM","street_name":"TOUHY AVE","xcoordinate":"1098098.5774643964","ycoordinate":"1945979.209781826","subtotal_paid":"$100.00","community_area":"76","contact_1_city":"ELK GROVE VILLAGE","contact_1_name":"HARTMANN ELECTRIC COMPANY, INC","contact_1_type":"ELECTRICAL CONTRACTOR","contact_2_city":"DES PLAINES","contact_2_name":"PALM JAMES J","contact_2_type":"APPLICANT","contact_3_city":"ELK GROVE VILLAGE","contact_3_name":"HARTMANN ELECTRIC COMPANY, INC","contact_3_type":"APPLICANT","other_fee_paid":"$0.00","contact_1_state":"IL","contact_2_state":"IL","contact_3_state":"IL","processing_time":"0","subtotal_unpaid":"$0.00","subtotal_waived":"$0.00","zoning_fee_paid":"$0.00","other_fee_unpaid":"$0.00","other_fee_waived":"$0.00","permit_milestone":"COMPLETE","street_direction":"W","building_fee_paid":"$100.00","contact_1_zipcode":"60007","contact_2_zipcode":"60016","contact_3_zipcode":"60007","zoning_fee_unpaid":"$0.00","zoning_fee_waived":"$0.00","other_fee_subtotal":"$0","building_fee_unpaid":"$0.00","building_fee_waived":"$0.00","zoning_fee_subtotal":"$0","building_fee_subtotal":"$100"},"geometry":{"type":"Point","coordinates":[-87.914428439,42.008536401]}},{"type":"Feature","properties":{"date":"2010-02-10T00:00:00.000Z","year":2010,"description":"INSTALL GENERATOR","metadescription":"PERMIT – EXPRESS PERMIT PROGRAM. Electrical Work. INSTALL GENERATOR. COMPLETE. 11601","address":"11601","location":"POINT (-87.91442843927 42.008536400869)","review_type":"EXPRESS PERMIT PROGRAM","street_name":"TOUHY AVE","xcoordinate":"1098098.5774643964","ycoordinate":"1945979.209781826","subtotal_paid":"$1,000.00","community_area":"76","contact_1_city":"CHICAGO","contact_1_name":"BURNHAM NATIONWIDE, INC.","contact_1_type":"EXPEDITER","contact_2_city":"DOWNERS GROVE","contact_2_name":"GIBSON ELECTRIC CO., INC.","contact_2_type":"ELECTRICAL CONTRACTOR","contact_3_city":"CHICAGO","contact_3_name":"DOWNES CHRISTOPHER","contact_3_type":"APPLICANT","contact_4_city":"CHICAGO","contact_4_name":"BURNHAM NATIONWIDE, INC.","contact_4_type":"APPLICANT","other_fee_paid":"$0.00","contact_1_state":"IL","contact_2_state":"IL","contact_3_state":"IL","contact_4_state":"IL","processing_time":"0","subtotal_unpaid":"$0.00","subtotal_waived":"$0.00","zoning_fee_paid":"$0.00","other_fee_unpaid":"$0.00","other_fee_waived":"$0.00","permit_milestone":"COMPLETE","street_direction":"W","building_fee_paid":"$1,000.00","contact_1_zipcode":"60602","contact_2_zipcode":"60515","contact_3_zipcode":"60602","contact_4_zipcode":"60602","zoning_fee_unpaid":"$0.00","zoning_fee_waived":"$0.00","other_fee_subtotal":"$0","building_fee_unpaid":"$0.00","building_fee_waived":"$0.00","zoning_fee_subtotal":"$0","building_fee_subtotal":"$1,000"},"geometry":{"type":"Point","coordinates":[-87.914428439,42.008536401]}}]}
