{"type":"FeatureCollection","features":[{"type":"Feature","properties":{"date":"2023-05-01T00:00:00.000Z","year":2023,"description":"ROOF TEAR OFF AND REPLACEMENT (NO STRUCTURAL WORK)","metadescription":"PERMIT - EASY PERMIT PROCESS. ROOF TEAR OFF AND REPLACEMENT (NO STRUCTURAL WORK). 11601","address":"11601","location":"POINT (-87.91442843927 42.008536400869)","pin_list":"1609301032","review_type":"EASY PERMIT","street_name":"TOUHY AVE","xcoordinate":"1098098.5774643964","ycoordinate":"1945979.209781826","subtotal_paid":"$450.00","community_area":"76","contact_1_city":"CHICAGO","contact_1_name":"CHICAGO TRANSIT AUTHORITY","contact_1_type":"OWNER","contact_2_city":"CHICAGO","contact_2_name":"MW POWELL COMPANY","contact_2_type":"OWNER AS GENERAL CONTRACTOR","contact_3_city":"CHICAGO","contact_3_name":"CHICAGO BUILDING CONSULTING SERVICES, INC.","contact_3_type":"OWNER","other_fee_paid":"$0.00","contact_1_state":"IL","contact_2_state":"IL","contact_3_state":"IL","processing_time":"4","subtotal_unpaid":"$0.00","subtotal_waived":"$0.00","zoning_fee_paid":"$0.00","other_fee_unpaid":"$0.00","other_fee_waived":"$0.00","street_direction":"W","building_fee_paid":"$450.00","contact_1_zipcode":"60661","contact_2_zipcode":"60623","contact_3_zipcode":"60606-","zoning_fee_unpaid":"$0.00","zoning_fee_waived":"$0.00","other_fee_subtotal":"$0","building_fee_unpaid":"$0.00","building_fee_waived":"$0.00","zoning_fee_subtotal":"$0","building_fee_subtotal":"$450"},"geometry":{"type":"Point","coordinates":[-87.914428439,42.008536401]}},{"type":"Feature","properties":{"date":"2023-03-03T00:00:00.000Z","year":2023,"description":"SPR 2019 CBRC: INTERIOR ALTERATION OF EXISTING CONCOURSE E, COLUMN LINES 81 - 88, CONCOURSE AND APRON LEVELS IN TERMINAL 2 AT ORD FOR ALASKA AIRLINES OPERATIONS, GATES, AND HOLDROOMS WITH NO CHANGE IN CURRENT OCCUPANCY CLASSIFICATION OF GROUP A-3 (WAITING AREA TRANSPORTATION TERMINALS) AND GROUP B, ACCESSORY TO GROUP A-3. WORK TO INCLUDE ARCHITECTURAL, MECHANICAL, ELECTRICAL, AND PLUMBING AS PER PLANS. NO STRUCTURAL WORK. APPROX 5,200 SF. CDA PROJECT # TH1495.22-00. DOB PERMIT APP #100999734. (OCCUPANCY GROUP A-3, B; CONSTRUCTION TYPE 1B)","metadescription":"PERMIT - RENOVATION/ALTERATION. SPR 2019 CBRC: INTERIOR ALTERATION OF EXISTING CONCOURSE E, COLUMN LINES 81 - 88, CONCOURSE AND APRON LEVELS IN TERMINAL 2 AT ORD FOR ALASKA AIRLINES OPERATIONS, GATES, AND HOLDROOMS WITH NO CHANGE IN CURRENT OCCUPANCY CLASSIFICATION OF GROUP A-3 (WAITING AREA TRANSPORTATION TERMINALS) AND GROUP B, ACCESSORY TO GROUP A-3. WORK TO INCLUDE ARCHITECTURAL, MECHANICAL, ELECTRICAL, AND PLUMBING AS PER PLANS. NO STRUCTURAL WORK. APPROX 5,200 SF. CDA PROJECT # TH1495.22-00. DOB PERMIT APP #100999734. (OCCUPANCY GROUP A-3, B; CONSTRUCTION TYPE 1B). EXPIRED. 11601","address":"11601","location":"POINT (-87.91442843927 42.008536400869)","pin_list":"1208100006","review_type":"STANDARD PLAN REVIEW","street_name":"TOUHY AVE","xcoordinate":"1098098.5774643964","ycoordinate":"1945979.209781826","subtotal_paid":"$3,195.00","community_area":"76","contact_1_city":"SEATTLE","contact_1_name":"ALASKA AIRLINES (JODY CADA)","contact_1_type":"OWNER","contact_2_city":"SNOQUALMIE","contact_2_name":"MATTONI, JOSEPH M","contact_2_type":"ARCHITECT","contact_3_city":"ELK GROVE VILLAGE","contact_3_name":"HARTMANN ELECTRIC COMPANY, INC","contact_3_type":"CONTRACTOR-ELECTRICAL","contact_4_city":"CHICAGO","contact_4_name":"BUILDING PERMITS","contact_4_type":"EXPEDITOR","contact_5_city":"HAMPSHIRE","contact_5_name":"NORTHWEST CONTRACTORS, INC","contact_5_type":"CONTRACTOR-GENERAL CONTRACTOR","contact_6_city":"WILMETTE","contact_6_name":"F.J. KERRIGAN PLUMBING CO INC.","contact_6_type":"CONTRACTOR-PLUMBER/PLUMBING","contact_7_city":"CHICAGO","contact_7_name":"COMMERCIAL HEATING & AIR","contact_7_type":"CONTRACTOR-REFRIGERATION","contact_8_city":"CHICAGO","contact_8_name":"COMMERCIAL HEATING & AIR","contact_8_type":"CONTRACTOR-VENTILATION","other_fee_paid":"$0.00","contact_1_state":"WA","contact_2_state":"WA","contact_3_state":"IL","contact_4_state":"IL","contact_5_state":"IL","contact_6_state":"IL","contact_7_state":"IL","contact_8_state":"IL","processing_time":"49","subtotal_unpaid":"$0.00","subtotal_waived":"$0.00","zoning_fee_paid":"$75.00","other_fee_unpaid":"$0.00","other_fee_waived":"$0.00","permit_milestone":"INSPECTIONS (CERTIFICATE OF OCCUPANCY REQUIRED)","street_direction":"W","building_fee_paid":"$3,120.00","contact_1_zipcode":"98188","contact_2_zipcode":"98065-4500","contact_3_zipcode":"60007-","contact_4_zipcode":"60603-","contact_5_zipcode":"60120-","contact_6_zipcode":"60091-","contact_7_zipcode":"60612-","contact_8_zipcode":"60612-","zoning_fee_unpaid":"$0.00","zoning_fee_waived":"$0.00","other_fee_subtotal":"$0","building_fee_unpaid":"$0.00","building_fee_waived":"$0.00","zoning_fee_subtotal":"$75","building_fee_subtotal":"$3,120"},"geometry":{"type":"Point","coordinates":[-87.914428439,42.008536401]}},{"type":"Feature","properties":{"date":"2021-12-02T00:00:00.000Z","year":2021,"description":"SELF-CERT CBRC: INTERIOR ALTERATIONS TO THE SECOND OFFICE FLOOR OF AN EXISTING FULLY SPRINKLERED BUILDING. WORK TO INCLUDE INTERIOR PARTITIONS, FINISHES, LIGHT FIXTURES, ELECTRICAL, MECHANICAL, AND PLUMBING WORK. NO STRUCTURAL WORK TO BE PERFORMED. NO CHANGE IN USE. (B-BUSINESS; 1A CONSTRUCTION TYPE)","metadescription":"PERMIT - RENOVATION/ALTERATION. SELF-CERT CBRC: INTERIOR ALTERATIONS TO THE SECOND OFFICE FLOOR OF AN EXISTING FULLY SPRINKLERED BUILDING. WORK TO INCLUDE INTERIOR PARTITIONS, FINISHES, LIGHT FIXTURES, ELECTRICAL, MECHANICAL, AND PLUMBING WORK. NO STRUCTURAL WORK TO BE PERFORMED. NO CHANGE IN USE. (B-BUSINESS; 1A CONSTRUCTION TYPE). EXPIRED. 11555","address":"11555","location":"POINT (-87.913737674538 42.008551282573)","pin_list":"0931201004","review_type":"SELF CERT","street_name":"TOUHY AVE","xcoordinate":"1098286.2849810263","ycoordinate":"1945985.5521126066","census_tract":"770602","subtotal_paid":"$10,303.56","community_area":"76","contact_1_city":"CHICAGO","contact_1_name":"POWERS, THOMAS E","contact_1_type":"SELF CERT ARCHITECT","contact_2_city":"SKOKIE","contact_2_name":"MARON ELECTRIC COMPANY","contact_2_type":"CONTRACTOR-ELECTRICAL","contact_3_city":"CHICAGO","contact_3_name":"BURNHAM NATIONWIDE, INC.","contact_3_type":"EXPEDITOR","contact_4_city":"CHICAGO","contact_4_name":"J A WATTS, INC","contact_4_type":"CONTRACTOR-GENERAL CONTRACTOR","contact_5_city":"CHICAGO","contact_5_name":"UNITED AIRLINES, INC. .","contact_5_type":"OWNER OCCUPIED","contact_6_city":"NORTHBROOK","contact_6_name":"F.E. MORAN,INC.","contact_6_type":"CONTRACTOR-PLUMBER/PLUMBING","contact_7_city":"NORTHBROOK","contact_7_name":"F.E. MORAN INC","contact_7_type":"CONTRACTOR-VENTILATION","other_fee_paid":"$0.00","contact_1_state":"IL","contact_2_state":"IL","contact_3_state":"IL","contact_4_state":"IL","contact_5_state":"IL","contact_6_state":"IL","contact_7_state":"IL","processing_time":"0","subtotal_unpaid":"$0.00","subtotal_waived":"$0.00","zoning_fee_paid":"$75.00","other_fee_unpaid":"$0.00","other_fee_waived":"$0.00","permit_milestone":"INSPECTIONS","street_direction":"W","building_fee_paid":"$10,228.56","contact_1_zipcode":"60606-","contact_2_zipcode":"60077-3211","contact_3_zipcode":"60602-","contact_4_zipcode":"60631","contact_5_zipcode":"60606","contact_6_zipcode":"60062-","contact_7_zipcode":"60062-","zoning_fee_unpaid":"$0.00","zoning_fee_waived":"$0.00","other_fee_subtotal":"$0","building_fee_unpaid":"$0.00","building_fee_waived":"$0.00","zoning_fee_subtotal":"$75","building_fee_subtotal":"$10,228.56"},"geometry":{"type":"Point","coordinates":[-87.913737675,42.008551283]}},{"type":"Feature","properties":{"date":"2020-01-28T00:00:00.000Z","year":2020,"description":"REPLACE EXISTING ROOFING MATERIAL WITH SAME IN KIND. NO STRUCTURAL WORK.","metadescription":"PERMIT - EASY PERMIT PROCESS. REPLACE EXISTING ROOFING MATERIAL WITH SAME IN KIND. NO STRUCTURAL WORK.. 11555","address":"11555","location":"POINT (-87.913737674538 42.008551282573)","pin_list":"1208100006","review_type":"EASY PERMIT","street_name":"TOUHY AVE","xcoordinate":"1098286.2849810263","ycoordinate":"1945985.5521126066","census_tract":"770602","subtotal_paid":"$450.00","community_area":"76","contact_1_city":"CHICAGO","contact_1_name":"UNITED AIRLINES INC.","contact_1_type":"OWNER","other_fee_paid":"$0.00","contact_1_state":"IL","processing_time":"0","subtotal_unpaid":"$0.00","subtotal_waived":"$0.00","zoning_fee_paid":"$0.00","other_fee_unpaid":"$0.00","other_fee_waived":"$0.00","street_direction":"W","building_fee_paid":"$450.00","contact_1_zipcode":"60661","zoning_fee_unpaid":"$0.00","zoning_fee_waived":"$0.00","other_fee_subtotal":"$0","building_fee_unpaid":"$0.00","building_fee_waived":"$0.00","zoning_fee_subtotal":"$0","building_fee_subtotal":"$450"},"geometry":{"type":"Point","coordinates":[-87.913737675,42.008551283]}},{"type":"Feature","properties":{"date":"2019-09-05T00:00:00.000Z","year":2019,"description":"REMOVE & REPLACE EXISTING DETERIORATED ROOFING MATERIAL TO INCLUDE INSULATION & FLASHING. NO STRUCTURAL WORK, ALSO KNOWN AS 617 S ACCESS RD","metadescription":"PERMIT - EASY PERMIT PROCESS. REMOVE & REPLACE EXISTING DETERIORATED ROOFING MATERIAL TO INCLUDE INSULATION & FLASHING. NO STRUCTURAL WORK, ALSO KNOWN AS 617 S ACCESS RD. 11601","address":"11601","location":"POINT (-87.91442843927 42.008536400869)","pin_list":"1208100006","review_type":"EASY PERMIT","street_name":"TOUHY AVE","xcoordinate":"1098098.5774643964","ycoordinate":"1945979.209781826","subtotal_paid":"$450.00","community_area":"76","contact_1_city":"CHICAGO","contact_1_name":"AIR FRANCE CARGO #617","contact_1_type":"OWNER","other_fee_paid":"$0.00","contact_1_state":"IL","processing_time":"0","subtotal_unpaid":"$0.00","subtotal_waived":"$0.00","zoning_fee_paid":"$0.00","other_fee_unpaid":"$0.00","other_fee_waived":"$0.00","street_direction":"W","building_fee_paid":"$450.00","contact_1_zipcode":"60666-0144","zoning_fee_unpaid":"$0.00","zoning_fee_waived":"$0.00","other_fee_subtotal":"$0","building_fee_unpaid":"$0.00","building_fee_waived":"$0.00","zoning_fee_subtotal":"$0","building_fee_subtotal":"$450"},"geometry":{"type":"Point","coordinates":[-87.914428439,42.008536401]}},{"type":"Feature","properties":{"date":"2019-05-07T00:00:00.000Z","year":2019,"description":"SELF CERT: INTERIOR ALTERATIONS TO EXISTING BUSINESS USE OFFICE SPACE. WORK TO INCLUDE LIGHTING CHANGES, FINISHES, AND MODIFICATIONS TO EXISTING CEILING GRID. NO STRUCTURAL WORK. NO CHANGE OF OCCUPANCY OR CHANGE IN USE.","metadescription":"PERMIT - RENOVATION/ALTERATION. SELF CERT: INTERIOR ALTERATIONS TO EXISTING BUSINESS USE OFFICE SPACE. WORK TO INCLUDE LIGHTING CHANGES, FINISHES, AND MODIFICATIONS TO EXISTING CEILING GRID. NO STRUCTURAL WORK. NO CHANGE OF OCCUPANCY OR CHANGE IN USE.. COMPLETE. 11545","address":"11545","location":"POINT (-87.913726106005 42.008551580859)","pin_list":"0930500004","review_type":"SELF CERT","street_name":"TOUHY AVE","xcoordinate":"1098289.4285110775","ycoordinate":"1945985.676219655","census_tract":"770602","subtotal_paid":"$825.00","community_area":"76","contact_1_city":"CHICAGO","contact_1_name":"HEEREMA, ROGER LOREN","contact_1_type":"SELF CERT ARCHITECT","contact_2_city":"SOUTH HOLLAND","contact_2_name":"BOSS ELECTRIC, INC.","contact_2_type":"CONTRACTOR-ELECTRICAL","contact_3_city":"CHICAGO","contact_3_name":"BURNHAM NATIONWIDE, INC.","contact_3_type":"EXPEDITOR","contact_4_city":"CHICAGO","contact_4_name":"REED ILLINOIS CORPORATION","contact_4_type":"CONTRACTOR-GENERAL CONTRACTOR","contact_5_city":"CHICAGO","contact_5_name":"ALLIANT CREDIT UNION","contact_5_type":"OWNER OCCUPIED","contact_6_city":"CARY","contact_6_name":"SHERMAN MECHANICAL INC","contact_6_type":"CONTRACTOR-VENTILATION","other_fee_paid":"$0.00","contact_1_state":"IL","contact_2_state":"IL","contact_3_state":"IL","contact_4_state":"IL","contact_5_state":"IL","contact_6_state":"IL","processing_time":"0","subtotal_unpaid":"$0.00","subtotal_waived":"$0.00","zoning_fee_paid":"$75.00","other_fee_unpaid":"$0.00","other_fee_waived":"$0.00","permit_milestone":"COMPLETE","street_direction":"W","building_fee_paid":"$750.00","contact_1_zipcode":"60603-","contact_2_zipcode":"60473","contact_3_zipcode":"60602-","contact_4_zipcode":"60661-","contact_5_zipcode":"60666","contact_6_zipcode":"60013-","zoning_fee_unpaid":"$0.00","zoning_fee_waived":"$0.00","other_fee_subtotal":"$0","building_fee_unpaid":"$0.00","building_fee_waived":"$0.00","zoning_fee_subtotal":"$75","building_fee_subtotal":"$750"},"geometry":{"type":"Point","coordinates":[-87.913726106,42.008551581]}},{"type":"Feature","properties":{"date":"2019-05-03T00:00:00.000Z","year":2019,"description":"WORK AT THE SWISSPORT BUILDING ONLY LOCATED AT 515 EXPRESS CENTER DRIVE: RECOAT/RECOVER ROOF (NO TEAR OFF) (NO MEP)(NO STRUCTURAL WORK)- ALL WORK SAME AS EXISTING; SUBJECT TO FIELD INSPECTIONS","metadescription":"PERMIT - EASY PERMIT PROCESS. WORK AT THE SWISSPORT BUILDING ONLY LOCATED AT 515 EXPRESS CENTER DRIVE: RECOAT/RECOVER ROOF (NO TEAR OFF) (NO MEP)(NO STRUCTURAL WORK)- ALL WORK SAME AS EXISTING; SUBJECT TO FIELD INSPECTIONS. 11601","address":"11601","location":"POINT (-87.91442843927 42.008536400869)","pin_list":"1208100006","review_type":"EASY PERMIT","street_name":"TOUHY AVE","xcoordinate":"1098098.5774643964","ycoordinate":"1945979.209781826","subtotal_paid":"$425.00","community_area":"76","contact_1_city":"ANNAPOLIS","contact_1_name":"AERO O'HARE EXPRESS, MARIANNA LOUDERMAN LLC","contact_1_type":"OWNER","other_fee_paid":"$0.00","contact_1_state":"MD","processing_time":"0","subtotal_unpaid":"$0.00","subtotal_waived":"$0.00","zoning_fee_paid":"$75.00","other_fee_unpaid":"$0.00","other_fee_waived":"$0.00","street_direction":"W","building_fee_paid":"$350.00","contact_1_zipcode":"21401","zoning_fee_unpaid":"$0.00","zoning_fee_waived":"$0.00","other_fee_subtotal":"$0","building_fee_unpaid":"$0.00","building_fee_waived":"$0.00","zoning_fee_subtotal":"$75","building_fee_subtotal":"$350"},"geometry":{"type":"Point","coordinates":[-87.914428439,42.008536401]}},{"type":"Feature","properties":{"date":"2019-05-03T00:00:00.000Z","year":2019,"description":"WORK AT THE ALTAS AIR BUILDING ONLY LOCATED AT 516 EXPRESS CENTER DRIVE: RECOAT/RECOVER ROOF (NO TEAR OFF) (NO MEP)(NO STRUCTURAL WORK)- ALL WORK SAME AS EXISTING; SUBJECT TO FIELD INSPECTIONS","metadescription":"PERMIT - EASY PERMIT PROCESS. WORK AT THE ALTAS AIR BUILDING ONLY LOCATED AT 516 EXPRESS CENTER DRIVE: RECOAT/RECOVER ROOF (NO TEAR OFF) (NO MEP)(NO STRUCTURAL WORK)- ALL WORK SAME AS EXISTING; SUBJECT TO FIELD INSPECTIONS. 11601","address":"11601","location":"POINT (-87.91442843927 42.008536400869)","pin_list":"1208100006","review_type":"EASY PERMIT","street_name":"TOUHY AVE","xcoordinate":"1098098.5774643964","ycoordinate":"1945979.209781826","subtotal_paid":"$425.00","community_area":"76","contact_1_city":"ANNAPOLIS","contact_1_name":"AERO O'HARE EXPRESS, MARIANNA LOUDERMAN LLC","contact_1_type":"OWNER","other_fee_paid":"$0.00","contact_1_state":"MD","processing_time":"0","subtotal_unpaid":"$0.00","subtotal_waived":"$0.00","zoning_fee_paid":"$75.00","other_fee_unpaid":"$0.00","other_fee_waived":"$0.00","street_direction":"W","building_fee_paid":"$350.00","contact_1_zipcode":"21401","zoning_fee_unpaid":"$0.00","zoning_fee_waived":"$0.00","other_fee_subtotal":"$0","building_fee_unpaid":"$0.00","building_fee_waived":"$0.00","zoning_fee_subtotal":"$75","building_fee_subtotal":"$350"},"geometry":{"type":"Point","coordinates":[-87.914428439,42.008536401]}},{"type":"Feature","properties":{"date":"2016-08-30T00:00:00.000Z","year":2016,"description":"WORK AT O'HARE INTERNATIONAL AIRPORT TERMINAL 1-B6 CLUB: REPLACE ROOF (APPX-27631SF) (NO MEP) (NO STRUCTURAL WORK)- ALL WORK SAME AS EXISTING; SUBJECT TO FIELD INSPECTIONS","metadescription":"PERMIT - EASY PERMIT PROCESS. WORK AT O'HARE INTERNATIONAL AIRPORT TERMINAL 1-B6 CLUB: REPLACE ROOF (APPX-27631SF) (NO MEP) (NO STRUCTURAL WORK)- ALL WORK SAME AS EXISTING; SUBJECT TO FIELD INSPECTIONS. 11601","address":"11601","location":"POINT (-87.91442843927 42.008536400869)","pin_list":"1208100006","review_type":"EASY PERMIT","street_name":"TOUHY AVE","xcoordinate":"1098098.5774643964","ycoordinate":"1945979.209781826","subtotal_paid":"$525.00","community_area":"76","contact_1_city":"CHGO","contact_1_name":"UNITED-CORPORATE REAL ESTATE-DESIGN & CONST","contact_1_type":"OWNER","other_fee_paid":"$0.00","contact_1_state":"IL","processing_time":"0","subtotal_unpaid":"$0.00","subtotal_waived":"$0.00","zoning_fee_paid":"$75.00","other_fee_unpaid":"$0.00","other_fee_waived":"$0.00","street_direction":"W","building_fee_paid":"$450.00","contact_1_zipcode":"60606","zoning_fee_unpaid":"$0.00","zoning_fee_waived":"$0.00","other_fee_subtotal":"$0","building_fee_unpaid":"$0.00","building_fee_waived":"$0.00","zoning_fee_subtotal":"$75","building_fee_subtotal":"$450"},"geometry":{"type":"Point","coordinates":[-87.914428439,42.008536401]}},{"type":"Feature","properties":{"date":"2016-01-19T00:00:00.000Z","year":2016,"description":"WORK IN TERMINAL #3: REPLACE FLOOR FINISHES, WALL FINISHES & FLOOR DISPLAYS & MILLWORK & DISPLAY FIXTURES.  - ALL WORK SAME AS EXISTING (NO STRUCTURAL WORK/NO PLUMBING WORK/NO HVAC WORK); SUBJECT TO FIELD INSPECTIONS","metadescription":"PERMIT - EASY PERMIT PROCESS. WORK IN TERMINAL #3: REPLACE FLOOR FINISHES, WALL FINISHES & FLOOR DISPLAYS & MILLWORK & DISPLAY FIXTURES.  - ALL WORK SAME AS EXISTING (NO STRUCTURAL WORK/NO PLUMBING WORK/NO HVAC WORK); SUBJECT TO FIELD INSPECTIONS. 11601","address":"11601","location":"POINT (-87.91442843927 42.008536400869)","pin_list":"1208100006","review_type":"EASY PERMIT","street_name":"TOUHY AVE","xcoordinate":"1098098.5774643964","ycoordinate":"1945979.209781826","subtotal_paid":"$250.00","community_area":"76","contact_1_city":"CHICAGO","contact_1_name":"PHASE 1 CONSULTING","contact_1_type":"EXPEDITOR","contact_2_city":"NEW LENOX","contact_2_name":"ORNELAS CONSTRUCTION COMPANY","contact_2_type":"CONTRACTOR-GENERAL CONTRACTOR","contact_3_city":"NY","contact_3_name":"OTG MANAGEMENT","contact_3_type":"OWNER","other_fee_paid":"$0.00","contact_1_state":"IL","contact_2_state":"IL","contact_3_state":"NY","processing_time":"0","subtotal_unpaid":"$0.00","subtotal_waived":"$0.00","zoning_fee_paid":"$75.00","other_fee_unpaid":"$0.00","other_fee_waived":"$0.00","street_direction":"W","building_fee_paid":"$175.00","contact_1_zipcode":"60603-","contact_2_zipcode":"60452","contact_3_zipcode":"10016","zoning_fee_unpaid":"$0.00","zoning_fee_waived":"$0.00","other_fee_subtotal":"$0","building_fee_unpaid":"$0.00","building_fee_waived":"$0.00","zoning_fee_subtotal":"$75","building_fee_subtotal":"$175"},"geometry":{"type":"Point","coordinates":[-87.914428439,42.008536401]}},{"type":"Feature","properties":{"date":"2016-01-19T00:00:00.000Z","year":2016,"description":"WORK IN TERMINAL#2: REPLACE FLOOR FINISHES, WALL FINISHES & FLOOR DISPLAYS & MILLWORK & DISPLAY FIXTURES. REPLACE PLUMBING LINES FOR COFFEE MACHINE- ALL WORK SAME AS EXISTING (NO STRUCTURAL WORK); SUBJECT TO FIELD INSPECTIONS","metadescription":"PERMIT - EASY PERMIT PROCESS. WORK IN TERMINAL#2: REPLACE FLOOR FINISHES, WALL FINISHES & FLOOR DISPLAYS & MILLWORK & DISPLAY FIXTURES. REPLACE PLUMBING LINES FOR COFFEE MACHINE- ALL WORK SAME AS EXISTING (NO STRUCTURAL WORK); SUBJECT TO FIELD INSPECTIONS. 11601","address":"11601","location":"POINT (-87.91442843927 42.008536400869)","pin_list":"1208100006","review_type":"EASY PERMIT","street_name":"TOUHY AVE","xcoordinate":"1098098.5774643964","ycoordinate":"1945979.209781826","subtotal_paid":"$400.00","community_area":"76","contact_1_city":"CHICAGO","contact_1_name":"PHASE 1 CONSULTING","contact_1_type":"EXPEDITOR","contact_2_city":"NEW LENOX","contact_2_name":"ORNELAS CONSTRUCTION COMPANY","contact_2_type":"CONTRACTOR-GENERAL CONTRACTOR","contact_3_city":"WILMETTE","contact_3_name":"F.J. KERRIGAN PLUMBING CO INC.","contact_3_type":"CONTRACTOR-PLUMBER/PLUMBING","contact_4_city":"NY","contact_4_name":"OTG MANAGEMENT","contact_4_type":"OWNER","other_fee_paid":"$0.00","contact_1_state":"IL","contact_2_state":"IL","contact_3_state":"IL","contact_4_state":"NY","processing_time":"0","subtotal_unpaid":"$0.00","subtotal_waived":"$0.00","zoning_fee_paid":"$75.00","other_fee_unpaid":"$0.00","other_fee_waived":"$0.00","street_direction":"W","building_fee_paid":"$325.00","contact_1_zipcode":"60603-","contact_2_zipcode":"60452","contact_3_zipcode":"60091-","contact_4_zipcode":"10016","zoning_fee_unpaid":"$0.00","zoning_fee_waived":"$0.00","other_fee_subtotal":"$0","building_fee_unpaid":"$0.00","building_fee_waived":"$0.00","zoning_fee_subtotal":"$75","building_fee_subtotal":"$325"},"geometry":{"type":"Point","coordinates":[-87.914428439,42.008536401]}},{"type":"Feature","properties":{"date":"2015-12-16T00:00:00.000Z","year":2015,"description":"SELF CERT: INTERIOR ALTERATIONS TO EXISTING BUSINESS USE OFFICE SPACE FLOORS 1 & 2. WORK TO INCLUDE LIGHTING CHANGES, FINISHES, PARTITIONS, MODIFICATIONS TO EXISTING CEILING GRID, AND BATHROOM REPLACEMENT. NO STRUCTURAL WORK ALL AS PER PLANS. NO CHANGE IN USE.4,100 SQ.FT.","metadescription":"PERMIT - RENOVATION/ALTERATION. SELF CERT: INTERIOR ALTERATIONS TO EXISTING BUSINESS USE OFFICE SPACE FLOORS 1 & 2. WORK TO INCLUDE LIGHTING CHANGES, FINISHES, PARTITIONS, MODIFICATIONS TO EXISTING CEILING GRID, AND BATHROOM REPLACEMENT. NO STRUCTURAL WORK ALL AS PER PLANS. NO CHANGE IN USE.4,100 SQ.FT.. COMPLETE. 11545","address":"11545","location":"POINT (-87.913726106005 42.008551580859)","pin_list":"0931201004","review_type":"SELF CERT","street_name":"TOUHY AVE","xcoordinate":"1098289.4285110775","ycoordinate":"1945985.676219655","census_tract":"770602","subtotal_paid":"$2,576.00","community_area":"76","contact_1_city":"CHICAGO","contact_1_name":"HEEREMA, ROGER LOREN","contact_1_type":"SELF CERT ARCHITECT","contact_2_city":"SOUTH HOLLAND","contact_2_name":"BOSS ELECTRIC, INC.","contact_2_type":"CONTRACTOR-ELECTRICAL","contact_3_city":"CHICAGO","contact_3_name":"BURNHAM NATIONWIDE, INC.","contact_3_type":"EXPEDITOR","contact_4_city":"WILLOWBROOK","contact_4_name":"FCI CONSTRUCTION INC.","contact_4_type":"CONTRACTOR-GENERAL CONTRACTOR","contact_5_city":"CHICAGO","contact_5_name":"ALLIANT CREDIT UNION","contact_5_type":"OWNER","contact_6_city":"WHEELING","contact_6_name":"TAYLOR PLUMBING, INC.","contact_6_type":"CONTRACTOR-PLUMBER/PLUMBING","contact_7_city":"ADDISON","contact_7_name":"ENVIRO MECHANICAL","contact_7_type":"CONTRACTOR-REFRIGERATION","contact_8_city":"ADDISON","contact_8_name":"ENVIRO MECHANICAL","contact_8_type":"CONTRACTOR-VENTILATION","other_fee_paid":"$0.00","contact_1_state":"IL","contact_2_state":"IL","contact_3_state":"IL","contact_4_state":"IL","contact_5_state":"IL","contact_6_state":"IL","contact_7_state":"IL","contact_8_state":"IL","processing_time":"0","subtotal_unpaid":"$0.00","subtotal_waived":"$0.00","zoning_fee_paid":"$75.00","other_fee_unpaid":"$0.00","other_fee_waived":"$0.00","permit_milestone":"COMPLETE","street_direction":"W","building_fee_paid":"$2,501.00","contact_1_zipcode":"60603-","contact_2_zipcode":"60473","contact_3_zipcode":"60602-","contact_4_zipcode":"60527","contact_5_zipcode":"60606","contact_6_zipcode":"60090-","contact_7_zipcode":"60101","contact_8_zipcode":"60101","zoning_fee_unpaid":"$0.00","zoning_fee_waived":"$0.00","other_fee_subtotal":"$0","building_fee_unpaid":"$0.00","building_fee_waived":"$0.00","zoning_fee_subtotal":"$75","building_fee_subtotal":"$2,501"},"geometry":{"type":"Point","coordinates":[-87.913726106,42.008551581]}},{"type":"Feature","properties":{"date":"2013-09-27T00:00:00.000Z","year":2013,"description":"STRUCTURAL PERMIT ONLY - EXTERIOR OHARE TERMINAL 1- B CONCOURSE, CONCRETE EQUIPMENT PADS FOR NEW ABOVE-GROUND PROPYLENE GLYCOL NON-DISPENSING DOUBLE WALL 20K GALLON TANK.  AVIATION #TH6029.13-00  NO OTHER TRADES.  PLUMBING CONTRACTOR TO INSTALL TANK.  ENVIRONMENTAL PERMIT HAS BEEN SECURED. GLYCOL IS NON-REGULATED LIQUID WITH 212 DEG MIN FLASHPOINT.   STRUCTURAL PEER REVIEW HAS BEEN DONE BY CHRIS PERRY.","metadescription":"PERMIT - RENOVATION/ALTERATION. STRUCTURAL PERMIT ONLY - EXTERIOR OHARE TERMINAL 1- B CONCOURSE, CONCRETE EQUIPMENT PADS FOR NEW ABOVE-GROUND PROPYLENE GLYCOL NON-DISPENSING DOUBLE WALL 20K GALLON TANK.  AVIATION #TH6029.13-00  NO OTHER TRADES.  PLUMBING CONTRACTOR TO INSTALL TANK.  ENVIRONMENTAL PERMIT HAS BEEN SECURED. GLYCOL IS NON-REGULATED LIQUID WITH 212 DEG MIN FLASHPOINT.   STRUCTURAL PEER REVIEW HAS BEEN DONE BY CHRIS PERRY.. COMPLETE. 11601","address":"11601","location":"POINT (-87.91442843927 42.008536400869)","pin_list":"1208100006","review_type":"STANDARD PLAN REVIEW","street_name":"TOUHY AVE","xcoordinate":"1098098.5774643964","ycoordinate":"1945979.209781826","subtotal_paid":"$825.00","community_area":"76","contact_1_city":"CHICAGO","contact_1_name":"ROBERT HETHERINGTON","contact_1_type":"OWNER OCCUPIED","contact_2_city":"CHICAGO","contact_2_name":"CHIN, LINDA K","contact_2_type":"ARCHITECT","contact_3_city":"HAMPSHIRE","contact_3_name":"NORTHWEST CONTRACTORS, INC","contact_3_type":"CONTRACTOR-GENERAL CONTRACTOR","contact_4_city":"CHICAGO","contact_4_name":"ZIELKE MASONRY, INC","contact_4_type":"MASONRY CONTRACTOR","contact_5_city":"WILMETTE","contact_5_name":"F.J. KERRIGAN PLUMBING CO INC.","contact_5_type":"CONTRACTOR-PLUMBER/PLUMBING","other_fee_paid":"$0.00","contact_1_state":"IL","contact_2_state":"IL","contact_3_state":"IL","contact_4_state":"IL","contact_5_state":"IL","processing_time":"1","subtotal_unpaid":"$0.00","subtotal_waived":"$0.00","zoning_fee_paid":"$75.00","other_fee_unpaid":"$0.00","other_fee_waived":"$0.00","permit_milestone":"COMPLETE","street_direction":"W","building_fee_paid":"$750.00","contact_1_zipcode":"60666","contact_2_zipcode":"60630","contact_3_zipcode":"60120-","contact_4_zipcode":"60620","contact_5_zipcode":"60091-","zoning_fee_unpaid":"$0.00","zoning_fee_waived":"$0.00","other_fee_subtotal":"$0","building_fee_unpaid":"$0.00","building_fee_waived":"$0.00","zoning_fee_subtotal":"$75","building_fee_subtotal":"$750"},"geometry":{"type":"Point","coordinates":[-87.914428439,42.008536401]}},{"type":"Feature","properties":{"date":"2012-07-30T00:00:00.000Z","year":2012,"description":"UPS O'HARE FACILITY-SOUTH WEST CARGO ROAD: REPLACE ROOF (TEAR OFF) (NO STRUCTURAL WORK, NO MEP WORK)- ALL WORK SAME AS EXISTING; SUBJECT TO FIELD INSPECTIONS","metadescription":"PERMIT - EASY PERMIT PROCESS. UPS O'HARE FACILITY-SOUTH WEST CARGO ROAD: REPLACE ROOF (TEAR OFF) (NO STRUCTURAL WORK, NO MEP WORK)- ALL WORK SAME AS EXISTING; SUBJECT TO FIELD INSPECTIONS. 11601","address":"11601","location":"POINT (-87.91442843927 42.008536400869)","pin_list":"1208100006","review_type":"EASY PERMIT","street_name":"TOUHY AVE","xcoordinate":"1098098.5774643964","ycoordinate":"1945979.209781826","subtotal_paid":"$375.00","community_area":"76","contact_1_city":"CHICAGO","contact_1_name":"R.A. GRELA & ASSOCIATES, INC.","contact_1_type":"EXPEDITOR","contact_2_city":"DECATUR","contact_2_name":"UNITED PARCEL SERVICES INC.","contact_2_type":"OWNER","other_fee_paid":"$0.00","contact_1_state":"IL","contact_2_state":"IL","processing_time":"0","subtotal_unpaid":"$0.00","subtotal_waived":"$0.00","zoning_fee_paid":"$75.00","other_fee_unpaid":"$0.00","other_fee_waived":"$0.00","street_direction":"W","building_fee_paid":"$300.00","contact_1_zipcode":"60602-","contact_2_zipcode":"62526","zoning_fee_unpaid":"$0.00","zoning_fee_waived":"$0.00","other_fee_subtotal":"$0","building_fee_unpaid":"$0.00","building_fee_waived":"$0.00","zoning_fee_subtotal":"$75","building_fee_subtotal":"$300"},"geometry":{"type":"Point","coordinates":[-87.914428439,42.008536401]}},{"type":"Feature","properties":{"date":"2008-06-17T00:00:00.000Z","year":2008,"description":"TERMINAL #2 PENTHOUSE:  REMOVE & REPLACEMENT OF EXISTING ROOF COVERING WITH NEW  APP MODIFIED BITUMEN.  NO STRUCTURAL WORK.","metadescription":"PERMIT - EASY PERMIT PROCESS. TERMINAL #2 PENTHOUSE:  REMOVE & REPLACEMENT OF EXISTING ROOF COVERING WITH NEW  APP MODIFIED BITUMEN.  NO STRUCTURAL WORK.. 11601","address":"11601","location":"POINT (-87.91442843927 42.008536400869)","review_type":"EASY PERMIT","street_name":"TOUHY AVE","xcoordinate":"1098098.5774643964","ycoordinate":"1945979.209781826","subtotal_paid":"$500.00","community_area":"76","contact_1_city":"MARKHAM","contact_1_name":"BCI COMMERCIAL ROOFING, INC","contact_1_type":"CONTRACTOR-GENERAL CONTRACTOR","contact_2_city":"CHICAGO","contact_2_name":"CITY OF CHICAGO","contact_2_type":"OWNER","other_fee_paid":"$0.00","contact_1_state":"IL","contact_2_state":"IL","processing_time":"0","subtotal_unpaid":"$0.00","subtotal_waived":"$0.00","zoning_fee_paid":"$75.00","other_fee_unpaid":"$0.00","other_fee_waived":"$0.00","street_direction":"W","building_fee_paid":"$425.00","contact_1_zipcode":"60426","contact_2_zipcode":"60606","zoning_fee_unpaid":"$0.00","zoning_fee_waived":"$0.00","other_fee_subtotal":"$0","building_fee_unpaid":"$0.00","building_fee_waived":"$0.00","zoning_fee_subtotal":"$75","building_fee_subtotal":"$425"},"geometry":{"type":"Point","coordinates":[-87.914428439,42.008536401]}},{"type":"Feature","properties":{"date":"2008-06-17T00:00:00.000Z","year":2008,"description":"TERMINAL #3 PENTHOUSE:  REMOVE & REPLACEMENT OF EXISTING ROOF COVERING WITH NEW  APP MODIFIED BITUMEN.  NO STRUCTURAL WORK.","metadescription":"PERMIT - EASY PERMIT PROCESS. TERMINAL #3 PENTHOUSE:  REMOVE & REPLACEMENT OF EXISTING ROOF COVERING WITH NEW  APP MODIFIED BITUMEN.  NO STRUCTURAL WORK.. 11601","address":"11601","location":"POINT (-87.91442843927 42.008536400869)","review_type":"EASY PERMIT","street_name":"TOUHY AVE","xcoordinate":"1098098.5774643964","ycoordinate":"1945979.209781826","subtotal_paid":"$500.00","community_area":"76","contact_1_city":"MARKHAM","contact_1_name":"BCI COMMERCIAL ROOFING, INC","contact_1_type":"CONTRACTOR-GENERAL CONTRACTOR","contact_2_city":"CHICAGO","contact_2_name":"CITY OF CHICAGO","contact_2_type":"OWNER","other_fee_paid":"$0.00","contact_1_state":"IL","contact_2_state":"IL","processing_time":"0","subtotal_unpaid":"$0.00","subtotal_waived":"$0.00","zoning_fee_paid":"$75.00","other_fee_unpaid":"$0.00","other_fee_waived":"$0.00","street_direction":"W","building_fee_paid":"$425.00","contact_1_zipcode":"60426","contact_2_zipcode":"60606","zoning_fee_unpaid":"$0.00","zoning_fee_waived":"$0.00","other_fee_subtotal":"$0","building_fee_unpaid":"$0.00","building_fee_waived":"$0.00","zoning_fee_subtotal":"$75","building_fee_subtotal":"$425"},"geometry":{"type":"Point","coordinates":[-87.914428439,42.008536401]}},{"type":"Feature","properties":{"date":"2007-10-23T00:00:00.000Z","year":2007,"description":"INTERIOR ALTERATIONS FOR SHELL & CORE TO BASEMENT, LOWER LEVEL & CONCOURSE LEVELS OF TERMINAL ONE FOR UNITED AIRLINES RED CARPET CLUB PER PLANS.  ARCHITECTURAL & STRUCTURAL WORK ONLY.","metadescription":"PERMIT - RENOVATION/ALTERATION. INTERIOR ALTERATIONS FOR SHELL & CORE TO BASEMENT, LOWER LEVEL & CONCOURSE LEVELS OF TERMINAL ONE FOR UNITED AIRLINES RED CARPET CLUB PER PLANS.  ARCHITECTURAL & STRUCTURAL WORK ONLY.. COMPLETE. 11601","address":"11601","location":"POINT (-87.91442843927 42.008536400869)","review_type":"STANDARD PLAN REVIEW","street_name":"TOUHY AVE","xcoordinate":"1098098.5774643964","ycoordinate":"1945979.209781826","subtotal_paid":"$3,747.50","contact_1_city":"CHICAGO","contact_1_name":"BRININSTOOL, DAVID LEE","contact_1_type":"ARCHITECT","contact_2_city":"CHICAGO","contact_2_name":"PHASE 1 CONSULTING","contact_2_type":"EXPEDITOR","contact_3_city":"HAMPSHIRE","contact_3_name":"NORTHWEST CONTRACTORS, INC","contact_3_type":"CONTRACTOR-GENERAL CONTRACTOR","contact_4_city":"CHICAGO","contact_4_name":"ROBERT DAWSON","contact_4_type":"OWNER","other_fee_paid":"$0.00","contact_1_state":"IL","contact_2_state":"IL","contact_3_state":"IL","contact_4_state":"IL","processing_time":"47","subtotal_unpaid":"$0.00","subtotal_waived":"$0.00","zoning_fee_paid":"$75.00","other_fee_unpaid":"$0.00","other_fee_waived":"$0.00","permit_milestone":"COMPLETE","street_direction":"W","building_fee_paid":"$3,672.50","contact_1_zipcode":"60611-","contact_2_zipcode":"60606-","contact_3_zipcode":"60120-","contact_4_zipcode":"60666","zoning_fee_unpaid":"$0.00","zoning_fee_waived":"$0.00","other_fee_subtotal":"$0","building_fee_unpaid":"$0.00","building_fee_waived":"$0.00","zoning_fee_subtotal":"$75","building_fee_subtotal":"$3,672.5"},"geometry":{"type":"Point","coordinates":[-87.914428439,42.008536401]}}]}
