{"type":"FeatureCollection","features":[{"type":"Feature","properties":{"date":"2025-02-06T00:00:00.000Z","year":2025,"description":"Eplan. Major remodel to the existing building, including new egress system, new exterior and interior walls, new suspended ceiling system, new roof system and new floor layout.","metadescription":"Bldg-Alter/Repair. Commercial. Eplan. Major remodel to the existing building, including new egress system, new exterior and interior walls, new suspended ceiling system, new roof system and new floor layout.. Quality Review Completed. 2326 E 103RD ST","address":"2326 East 103Rd Street, CA, Los Angeles, 90002, US","ct":"2430.02","ev":"N","apc":"South Los Angeles","cpa":"Southeast Los Angeles","zone":"[Q]R4-1","solar":"N","pin_nbr":"091-5A217  67","use_code":"6","status_date":"02/12/2025","construction":"Type V-B Construction","permit_group":"Building","refresh_time":"06/10/2026","type_lat_lon":"ADDRESS","business_unit":"Regular Plan Check"},"geometry":{"type":"Point","coordinates":[-118.22976,33.94299]}},{"type":"Feature","properties":{"date":"2020-08-20T00:00:00.000Z","year":2020,"description":"CONVERT 592 SF OF (E) SFD W/ATT CLEANERS AND TAKEOUT RESTURANT TO ADU PER GCS 65852.2 (e)(1)(A).","metadescription":"Bldg-Addition. Commercial. CONVERT 592 SF OF (E) SFD W/ATT CLEANERS AND TAKEOUT RESTURANT TO ADU PER GCS 65852.2 (e)(1)(A).. Verifications in Progress. 10739-10739 1/2 S JUNIPER ST","address":"10739 Juniper Street, CA, Los Angeles, 90059, US","ct":"2430.00","ev":"N","apc":"South Los Angeles","cpa":"Southeast Los Angeles","zone":"R1-1","solar":"N","pin_nbr":"088-5A217 141","use_code":"1","adu_changed":"1","status_date":"03/22/2021","construction":"Type V-B Construction","permit_group":"Building","refresh_time":"06/10/2026","type_lat_lon":"ADDRESS","business_unit":"Regular Plan Check","square_footage":"0"},"geometry":{"type":"Point","coordinates":[-118.23298,33.93777]}},{"type":"Feature","properties":{"date":"2006-03-24T00:00:00.000Z","year":2006,"description":"INSTALL NEW DRYWALL. CHANGE OUT (4) WINDOWS, (5) DOORS-SAME SIZE AND LOCATION.","metadescription":"Bldg-Alter/Repair. Commercial. INSTALL NEW DRYWALL. CHANGE OUT (4) WINDOWS, (5) DOORS-SAME SIZE AND LOCATION.. Permit Expired. 10624 S JUNIPER ST","address":"10624 Juniper Street, CA, Los Angeles, 90002, US","ct":"2430.00","ev":"N","apc":"South Los Angeles","cpa":"Southeast Los Angeles","zone":"R1-1","solar":"N","pin_nbr":"090A217   502","use_code":"16","geolocation":"POINT (-118.23265 33.939)","status_date":"08/18/2008","permit_group":"Building","refresh_time":"06/10/2026","type_lat_lon":"ADDRESS","business_unit":"Express Permit"},"geometry":{"type":"Point","coordinates":[-118.23265,33.939]}},{"type":"Feature","properties":{"date":"2005-08-09T00:00:00.000Z","year":2005,"description":"FIRE DAMAGE REPAIR FOR THE MKT. BLDG., MAXIMUM 10% DAMAGE.    REPLACE DRYWALL AND SANDBLAST TO ASSESS DAMAGE (NO STRUCTURAL CHANGE).     ****SEE COMMENTS****","metadescription":"Bldg-Alter/Repair. Commercial. FIRE DAMAGE REPAIR FOR THE MKT. BLDG., MAXIMUM 10% DAMAGE.    REPLACE DRYWALL AND SANDBLAST TO ASSESS DAMAGE (NO STRUCTURAL CHANGE).     ****SEE COMMENTS****. Permit Expired. 10624 S JUNIPER ST","address":"10624 Juniper Street, CA, Los Angeles, 90002, US","ct":"2430.00","ev":"N","apc":"South Los Angeles","cpa":"Southeast Los Angeles","zone":"R1-1","solar":"N","pin_nbr":"090A217   502","use_code":"23","geolocation":"POINT (-118.23265 33.939)","status_date":"10/08/2007","permit_group":"Building","refresh_time":"06/10/2026","type_lat_lon":"ADDRESS","business_unit":"Express Permit"},"geometry":{"type":"Point","coordinates":[-118.23265,33.939]}},{"type":"Feature","properties":{"date":"2002-08-27T00:00:00.000Z","year":2002,"description":"SUPPLEMENTAL:  CORRECT PARKING INVENTORY.  CLOSE 2 DOORS AND CHANGE SWING OF THE OTHERS TO SWING INSIDE.  (OCC LOAD LESS 50 FOR EACH CLASSROOMS)","metadescription":"Bldg-Alter/Repair. Commercial. SUPPLEMENTAL:  CORRECT PARKING INVENTORY.  CLOSE 2 DOORS AND CHANGE SWING OF THE OTHERS TO SWING INSIDE.  (OCC LOAD LESS 50 FOR EACH CLASSROOMS). Permit Finaled. 2252 E 108TH ST","address":"2251 East 108Th Street, CA, Los Angeles, 90059, US","ct":"2430.00","ev":"N","apc":"South Los Angeles","zone":"R1-1","solar":"N","pin_nbr":"088-5A217 295","use_code":"18","geolocation":"POINT (-118.23199 33.9373)","status_date":"09/09/2002","construction":"Type V-N Construction","permit_group":"Building","refresh_time":"06/10/2026","type_lat_lon":"ADDRESS","business_unit":"Regular Plan Check","square_footage":"2336"},"geometry":{"type":"Point","coordinates":[-118.23199,33.9373]}},{"type":"Feature","properties":{"date":"2002-04-09T00:00:00.000Z","year":2002,"description":"Interior remodeling of non bearing walls.  Remodel (e) bathrooms to make it more handicap compliant.  No change in seating (parking to remain the same).  Relocate platform, enlarge counseling office, and remodel literature room.  Change ceiling.","metadescription":"Bldg-Alter/Repair. Commercial. Interior remodeling of non bearing walls.  Remodel (e) bathrooms to make it more handicap compliant.  No change in seating (parking to remain the same).  Relocate platform, enlarge counseling office, and remodel literature room.  Change ceiling.. Issued. 2326 E 103RD ST","address":"2326 East 103Rd Street, CA, Los Angeles, 90002, US","ct":"2430.00","ev":"N","apc":"South Los Angeles","zone":"[Q]R4-1","solar":"N","pin_nbr":"091-5A217  67","use_code":"6","geolocation":"POINT (-118.22976 33.94299)","status_date":"04/09/2002","permit_group":"Building","refresh_time":"06/10/2026","type_lat_lon":"ADDRESS","business_unit":"Plan Check at Counter"},"geometry":{"type":"Point","coordinates":[-118.22976,33.94299]}},{"type":"Feature","properties":{"date":"2002-03-13T00:00:00.000Z","year":2002,"description":"SUPPLEMENTAL TO ORIGINAL PERMIT TO ADD TO DESCRIPTION.   BUILD A NEW 6 FT BLOCK WALL ENCLOSURE FOR TRASH ENCLOSURE.PER CITY STANDARDS","metadescription":"Nonbldg-New. Commercial. SUPPLEMENTAL TO ORIGINAL PERMIT TO ADD TO DESCRIPTION.   BUILD A NEW 6 FT BLOCK WALL ENCLOSURE FOR TRASH ENCLOSURE.PER CITY STANDARDS. Permit Finaled. 2252 E 108TH ST","address":"2251 East 108Th Street, CA, Los Angeles, 90059, US","ct":"2430.00","ev":"N","apc":"South Los Angeles","zone":"R1-1","solar":"N","pin_nbr":"088-5A217 295","use_code":"23","geolocation":"POINT (-118.23199 33.9373)","status_date":"09/09/2002","permit_group":"Building","refresh_time":"06/10/2026","type_lat_lon":"ADDRESS","business_unit":"Plan Check at Counter"},"geometry":{"type":"Point","coordinates":[-118.23199,33.9373]}},{"type":"Feature","properties":{"date":"2002-02-08T00:00:00.000Z","year":2002,"description":"Change of occupany from commercial grocery store under permit 55LA6808 to SFD. \"COMPLY WITH DEPARTMENT ORDER DATED 9/7/01.  PERMIT WILL EXPIRE 30 DAYS FROM ISSUANCE.\"","metadescription":"Bldg-Alter/Repair. 1 or 2 Family Dwelling. Change of occupany from commercial grocery store under permit 55LA6808 to SFD. \"COMPLY WITH DEPARTMENT ORDER DATED 9/7/01.  PERMIT WILL EXPIRE 30 DAYS FROM ISSUANCE.\". Permit Finaled. 10848 S WEIGAND AVE","address":"10850 South Weigand Avenue, CA, Los Angeles, 90059, US","ct":"2430.00","ev":"N","apc":"South Los Angeles","zone":"R1-1","solar":"N","pin_nbr":"088-5A217 481","use_code":"1","geolocation":"POINT (-118.23049 33.93566)","status_date":"04/25/2002","permit_group":"Building","refresh_time":"06/10/2026","type_lat_lon":"ADDRESS","business_unit":"Regular Plan Check"},"geometry":{"type":"Point","coordinates":[-118.23049,33.93566]}},{"type":"Feature","properties":{"date":"2002-02-07T00:00:00.000Z","year":2002,"description":"SUPPLEMENTAL:  TRUSS SYSTEM (LARR# 25104)","metadescription":"Bldg-Alter/Repair. Commercial. SUPPLEMENTAL:  TRUSS SYSTEM (LARR# 25104). Permit Finaled. 2252 E 108TH ST","address":"2251 East 108Th Street, CA, Los Angeles, 90059, US","ct":"2430.00","ev":"N","apc":"South Los Angeles","zone":"R1-1","solar":"N","pin_nbr":"088-5A217 295","use_code":"18","geolocation":"POINT (-118.23199 33.9373)","status_date":"09/09/2002","construction":"Type V-N Construction","permit_group":"Building","refresh_time":"06/10/2026","type_lat_lon":"ADDRESS","business_unit":"Plan Check at Counter","square_footage":"2336"},"geometry":{"type":"Point","coordinates":[-118.23199,33.9373]}},{"type":"Feature","properties":{"date":"2002-02-06T00:00:00.000Z","year":2002,"description":"SUPPLEMENTAL:  PARKING LAYOUT CHANGE (DUE TO DRIVEWAY RELOCATION)","metadescription":"Bldg-Alter/Repair. Commercial. SUPPLEMENTAL:  PARKING LAYOUT CHANGE (DUE TO DRIVEWAY RELOCATION). Permit Finaled. 2252 E 108TH ST","address":"2251 East 108Th Street, CA, Los Angeles, 90059, US","ct":"2430.00","ev":"N","apc":"South Los Angeles","zone":"R1-1","solar":"N","pin_nbr":"088-5A217 295","use_code":"18","geolocation":"POINT (-118.23199 33.9373)","status_date":"09/09/2002","construction":"Type V-N Construction","permit_group":"Building","refresh_time":"06/10/2026","type_lat_lon":"ADDRESS","business_unit":"Plan Check at Counter","square_footage":"2336"},"geometry":{"type":"Point","coordinates":[-118.23199,33.9373]}},{"type":"Feature","properties":{"date":"2001-11-16T00:00:00.000Z","year":2001,"description":"ELEMENTARY SCHOOL","metadescription":"Bldg-New. Commercial. ELEMENTARY SCHOOL. Issued. 2252 E 108TH ST","address":"2251 East 108Th Street, CA, Los Angeles, 90059, US","ct":"2430.00","ev":"N","apc":"South Los Angeles","zone":"R1-1","solar":"N","height":"15","pin_nbr":"088-5A217 295","use_code":"18","geolocation":"POINT (-118.23199 33.9373)","status_date":"11/16/2001","construction":"Type V-N Construction","permit_group":"Building","refresh_time":"06/10/2026","type_lat_lon":"ADDRESS","business_unit":"Regular Plan Check","square_footage":"2336"},"geometry":{"type":"Point","coordinates":[-118.23199,33.9373]}},{"type":"Feature","properties":{"date":"2000-05-04T00:00:00.000Z","year":2000,"description":"FIX THE EXISTING T-BAR DROP CEILING & DRYWALL (3) LESS THAN 10% DAMAGE FOR MARKET.","metadescription":"Bldg-Alter/Repair. Commercial. FIX THE EXISTING T-BAR DROP CEILING & DRYWALL (3) LESS THAN 10% DAMAGE FOR MARKET.. Permit Expired. 10626 S WEIGAND AVE","address":"10626 Weigand Avenue, CA, Los Angeles, 90002, US","ct":"2430.00","ev":"N","apc":"South Los Angeles","zone":"Currently Not Available","solar":"N","pin_nbr":"090A217   489","use_code":"16","geolocation":"POINT (-118.22953 33.93909)","status_date":"03/19/2008","permit_group":"Building","refresh_time":"06/10/2026","type_lat_lon":"ADDRESS","business_unit":"Express Permit"},"geometry":{"type":"Point","coordinates":[-118.22953,33.93909]}},{"type":"Feature","properties":{"date":"1998-07-29T00:00:00.000Z","year":1998,"description":"REMOVE EXISTING ROOF, CONSTRUCT SHULLER SPEC. #4GNS, TOPGARD TYPES B 7 A COATINGS. CLASS \"A\" ROOF, 111 SQS.","metadescription":"Bldg-Alter/Repair. Commercial. REMOVE EXISTING ROOF, CONSTRUCT SHULLER SPEC. #4GNS, TOPGARD TYPES B 7 A COATINGS. CLASS \"A\" ROOF, 111 SQS.. Permit Finaled. 2270 E 108TH ST","address":"2270 East 108Th Street, CA, Los Angeles, 90059, US","ct":"2430.00","ev":"N","apc":"South Los Angeles","solar":"N","pin_nbr":"088-5A217 233","use_code":"18","geolocation":"POINT (-118.23146 33.93719)","status_date":"08/11/1999","permit_group":"Building","refresh_time":"06/10/2026","type_lat_lon":"ADDRESS","business_unit":"Express Permit"},"geometry":{"type":"Point","coordinates":[-118.23146,33.93719]}}]}
