{"type":"FeatureCollection","features":[{"type":"Feature","properties":{"date":"2024-10-23T00:00:00.000Z","year":2024,"description":"Supplemental Permit to remove side door with steps and to add steps to front porch. Revisions:1) Side door 106 is getting demoed and we are filling that wall + removal of steps to that side entry. This is needed to provide a clear pathway to the rear unit2) Front Porch steps are recreated to be extend on 3 sides rather than only one side of stepsNO CHANGE IN PLOT PLAN","metadescription":"Bldg-Alter/Repair. 1 or 2 Family Dwelling. Supplemental Permit to remove side door with steps and to add steps to front porch. Revisions:1) Side door 106 is getting demoed and we are filling that wall + removal of steps to that side entry. This is needed to provide a clear pathway to the rear unit2) Front Porch steps are recreated to be extend on 3 sides rather than only one side of stepsNO CHANGE IN PLOT PLAN. Permit Finaled. 2357-2357 1/2 E 108TH ST","address":"2357 East 108Th Street, CA, Los Angeles, 90059, US","ct":"2430.02","ev":"N","apc":"South Los Angeles","cpa":"Southeast Los Angeles","zone":"R1-1","solar":"N","pin_nbr":"088-5A217 206","use_code":"1","status_date":"11/21/2025","permit_group":"Building","refresh_time":"06/10/2026","type_lat_lon":"ADDRESS","business_unit":"Expanded Counter Plan Check"},"geometry":{"type":"Point","coordinates":[-118.22991,33.93705]}},{"type":"Feature","properties":{"date":"2019-06-26T00:00:00.000Z","year":2019,"description":"Supplemental to 18016-70000-32686 to revise location of door and window. COMPLY WITH DEPARTMENT ORDER effective date 09/18/2018. PERMIT WILL EXPIRE 30 DAYS FROM ISSUANCE DATE.","metadescription":"Bldg-Alter/Repair. 1 or 2 Family Dwelling. Supplemental to 18016-70000-32686 to revise location of door and window. COMPLY WITH DEPARTMENT ORDER effective date 09/18/2018. PERMIT WILL EXPIRE 30 DAYS FROM ISSUANCE DATE.. Permit Finaled. 10715-10715 1/2 S GORMAN AVE","address":"10717 Gorman Avenue, CA, Los Angeles, 90059, US","ct":"2430.00","ev":"N","apc":"South Los Angeles","cpa":"Southeast Los Angeles","zone":"R1-1","solar":"N","pin_nbr":"090A217   562","use_code":"1","geolocation":"POINT (-118.23091 33.93841)","status_date":"01/06/2020","permit_group":"Building","refresh_time":"06/10/2026","type_lat_lon":"ADDRESS","business_unit":"Plan Check at Counter"},"geometry":{"type":"Point","coordinates":[-118.23091,33.93841]}},{"type":"Feature","properties":{"date":"2018-06-25T00:00:00.000Z","year":2018,"description":"Re-roof with Class A or B material weighing less than 6 pounds per sq. ft. over new solid sheathing __ 18__squares.  For residential roof replacement > 50% of the total roof area, apply Cool Roof Product labeled and certified by Cool Roofing Rating Council (CRRC). Cool Roof may be required for non-residential buildings per Title 24, Part 6, Section 149(b). Kitchen and Bathroom remodel for residential buildings (no structural changes). Window (2) change-out (same size & type) for residential buildings.  Dual glazing, labeled and certified by National Fenestration Rating Council (NFRC), is required for doors and windows replaced in all residential buildings, three stories or less, per Section 152(b) of Title 24.","metadescription":"Bldg-Alter/Repair. 1 or 2 Family Dwelling. Re-roof with Class A or B material weighing less than 6 pounds per sq. ft. over new solid sheathing __ 18__squares.  For residential roof replacement > 50% of the total roof area, apply Cool Roof Product labeled and certified by Cool Roofing Rating Council (CRRC). Cool Roof may be required for non-residential buildings per Title 24, Part 6, Section 149(b). Kitchen and Bathroom remodel for residential buildings (no structural changes). Window (2) change-out (same size & type) for residential buildings.  Dual glazing, labeled and certified by National Fenestration Rating Council (NFRC), is required for doors and windows replaced in all residential buildings, three stories or less, per Section 152(b) of Title 24.. Permit Finaled. 10516 S CROESUS AVE","address":"10516 Croesus Avenue, CA, Los Angeles, 90002, US","ct":"2430.00","ev":"N","apc":"South Los Angeles","cpa":"Southeast Los Angeles","zone":"R1-1","solar":"N","pin_nbr":"090A217   332","use_code":"1","geolocation":"POINT (-118.23369 33.9401)","status_date":"01/08/2019","permit_group":"Building","refresh_time":"06/10/2026","type_lat_lon":"ADDRESS","business_unit":"Express Permit"},"geometry":{"type":"Point","coordinates":[-118.23369,33.9401]}},{"type":"Feature","properties":{"date":"2018-06-25T00:00:00.000Z","year":2018,"description":"12 WINDOWS CHANGE-OUT (SAME SIZE & TYPE) FOR RESIDENTIAL BUILDINGS.  DUAL GLAZING, LABELED AND CERTIFIED BY NATIONAL FENESTRATION RATING COUNCIL (NFRC), IS REQUIRED FOR DOORS AND WINDOWS REPLACED IN ALL RESIDENTIAL BUILDINGS, THREE STORIES OR LESS, PER SECTION 152(B) OF TITLE 24.      KITCHEN/BATHROOM REMODEL FOR RESIDENTIAL BUILDINGS (NO STRUCTURAL CHANGES). COMBINED WITH ELECTRICAL & PLUMIBING.COMPLY WITH DEPARMTENT ORDER EFFECTIVE DATE 12/1/17. PERMIT WILL EXPIRE 30 DAYS FROM DATE OF ISSUANCE.","metadescription":"Bldg-Alter/Repair. 1 or 2 Family Dwelling. 12 WINDOWS CHANGE-OUT (SAME SIZE & TYPE) FOR RESIDENTIAL BUILDINGS.  DUAL GLAZING, LABELED AND CERTIFIED BY NATIONAL FENESTRATION RATING COUNCIL (NFRC), IS REQUIRED FOR DOORS AND WINDOWS REPLACED IN ALL RESIDENTIAL BUILDINGS, THREE STORIES OR LESS, PER SECTION 152(B) OF TITLE 24.      KITCHEN/BATHROOM REMODEL FOR RESIDENTIAL BUILDINGS (NO STRUCTURAL CHANGES). COMBINED WITH ELECTRICAL & PLUMIBING.COMPLY WITH DEPARMTENT ORDER EFFECTIVE DATE 12/1/17. PERMIT WILL EXPIRE 30 DAYS FROM DATE OF ISSUANCE.. Permit Finaled. 10823 S WEIGAND AVE","address":"10818 1/2 Weigand Avenue, CA, Los Angeles, 90059, US","ct":"2430.00","ev":"N","apc":"South Los Angeles","cpa":"Southeast Los Angeles","zone":"R1-1","solar":"N","pin_nbr":"088-5A217 348","use_code":"1","geolocation":"POINT (-118.23047 33.93636)","status_date":"08/06/2018","permit_group":"Building","refresh_time":"06/10/2026","type_lat_lon":"ADDRESS","business_unit":"Express Permit"},"geometry":{"type":"Point","coordinates":[-118.23047,33.93636]}},{"type":"Feature","properties":{"date":"2018-03-09T00:00:00.000Z","year":2018,"description":"(2) Window and door change-out (same size & type) for residential buildings.  Dual glazing, labeled and certified by National Fenestration Rating Council (NFRC), is required for doors and windows replaced in all residential buildings, three stories or less, per Section 152(b) of Title 24.   Kitchen remodel for residential buildings (no structural changes). \"COMPLY WITH DEPARTMENT ORDER effective date02/23/2018. PERMIT WILL EXPIRE 30 DAYS FROM ISSUANCE DATE\".","metadescription":"Bldg-Alter/Repair. 1 or 2 Family Dwelling. (2) Window and door change-out (same size & type) for residential buildings.  Dual glazing, labeled and certified by National Fenestration Rating Council (NFRC), is required for doors and windows replaced in all residential buildings, three stories or less, per Section 152(b) of Title 24.   Kitchen remodel for residential buildings (no structural changes). \"COMPLY WITH DEPARTMENT ORDER effective date02/23/2018. PERMIT WILL EXPIRE 30 DAYS FROM ISSUANCE DATE\".. Permit Finaled. 2352 E 108TH ST","address":"2352 East 108Th Street, CA, Los Angeles, 90059, US","ct":"2430.00","ev":"N","apc":"South Los Angeles","cpa":"Southeast Los Angeles","zone":"R1-1","solar":"N","pin_nbr":"088-5A217 268","use_code":"1","geolocation":"POINT (-118.23012 33.93687)","status_date":"02/28/2025","permit_group":"Building","refresh_time":"06/10/2026","type_lat_lon":"ADDRESS","business_unit":"Express Permit"},"geometry":{"type":"Point","coordinates":[-118.23012,33.93687]}},{"type":"Feature","properties":{"date":"2017-06-14T00:00:00.000Z","year":2017,"description":"Window (6) change-out (same size & type) for residential buildings.Dual glazing, labeled and certified by National Fenestration Rating Council (NFRC), is required for doors and windows replaced in all residential buildings, three stories or less, per Section 152(b) of Title 24.","metadescription":"Bldg-Alter/Repair. 1 or 2 Family Dwelling. Window (6) change-out (same size & type) for residential buildings.Dual glazing, labeled and certified by National Fenestration Rating Council (NFRC), is required for doors and windows replaced in all residential buildings, three stories or less, per Section 152(b) of Title 24.. Permit Finaled. 10733 S MONA BLVD","address":"10729 Mona Boulevard, CA, Los Angeles, 90059, US","ct":"2430.00","ev":"N","apc":"South Los Angeles","cpa":"Southeast Los Angeles","zone":"R1-1","solar":"N","pin_nbr":"088-5A217  96","use_code":"1","geolocation":"POINT (-118.22914 33.9379)","status_date":"09/05/2017","permit_group":"Building","refresh_time":"06/10/2026","type_lat_lon":"ADDRESS","business_unit":"Express Permit"},"geometry":{"type":"Point","coordinates":[-118.22914,33.9379]}},{"type":"Feature","properties":{"date":"2017-06-06T00:00:00.000Z","year":2017,"description":"KITCHEN AND BATHROOM REMODEL COMBINED WITH ELECTRICAL, PLUMBING AND HVAC (FOR RESIDENTIAL BUILDINGS; NO STRUCTURAL CHANGES). CHANGE OUT 6  (SAME SIZE & TYPE FOR RESIDENTIAL BUILDINGS ONLY) DUAL GLAZING, LABELED AND CERTIFIED BY NATIONAL FENESTRATION RATING COUNCIL (NFRC), IS REQUIRED FOR DOORS AND WINDOWS REPLACED IN ALL RESIDENTIAL BUILDING, THREE STORIES OR LESS, PER SECTION 152(B) OF TITLE 24. DRYWALL/PLASTER PATCH AND PAINT.","metadescription":"Bldg-Alter/Repair. 1 or 2 Family Dwelling. KITCHEN AND BATHROOM REMODEL COMBINED WITH ELECTRICAL, PLUMBING AND HVAC (FOR RESIDENTIAL BUILDINGS; NO STRUCTURAL CHANGES). CHANGE OUT 6  (SAME SIZE & TYPE FOR RESIDENTIAL BUILDINGS ONLY) DUAL GLAZING, LABELED AND CERTIFIED BY NATIONAL FENESTRATION RATING COUNCIL (NFRC), IS REQUIRED FOR DOORS AND WINDOWS REPLACED IN ALL RESIDENTIAL BUILDING, THREE STORIES OR LESS, PER SECTION 152(B) OF TITLE 24. DRYWALL/PLASTER PATCH AND PAINT.. Issued. 10822 S GORMAN AVE","address":"10825 Gorman Avenue, CA, Los Angeles, 90059, US","ct":"2430.00","ev":"N","apc":"South Los Angeles","cpa":"Southeast Los Angeles","zone":"R1-1","solar":"N","pin_nbr":"088-5A217 321","use_code":"1","geolocation":"POINT (-118.23124 33.93659)","status_date":"06/06/2017","permit_group":"Building","refresh_time":"06/10/2026","type_lat_lon":"ADDRESS","business_unit":"Express Permit"},"geometry":{"type":"Point","coordinates":[-118.23124,33.93659]}},{"type":"Feature","properties":{"date":"2017-05-30T00:00:00.000Z","year":2017,"description":"(9) Window change-out (same size & type) for residential buildings.  Dual glazing, labeled and certified by National Fenestration Rating Council (NFRC), is required for doors and windows replaced in all residential buildings, three stories or less, per Section 152(b) of Title 24.","metadescription":"Bldg-Alter/Repair. Apartment. (9) Window change-out (same size & type) for residential buildings.  Dual glazing, labeled and certified by National Fenestration Rating Council (NFRC), is required for doors and windows replaced in all residential buildings, three stories or less, per Section 152(b) of Title 24.. Issued. 10739 S JUNIPER ST UNITS 1,3,-4","address":"10739 Juniper Street, CA, Los Angeles, 90059, US","ct":"2430.00","ev":"N","apc":"South Los Angeles","cpa":"Southeast Los Angeles","zone":"R1-1","solar":"N","pin_nbr":"088-5A217 141","use_code":"5","geolocation":"POINT (-118.23298 33.93777)","status_date":"05/30/2017","permit_group":"Building","refresh_time":"06/10/2026","type_lat_lon":"ADDRESS","business_unit":"Express Permit"},"geometry":{"type":"Point","coordinates":[-118.23298,33.93777]}},{"type":"Feature","properties":{"date":"2017-03-16T00:00:00.000Z","year":2017,"description":"CHANGE OUT 4 WINDOWS  (SAME SIZE & TYPE FOR RESIDENTIAL BUILDINGS ONLY) DUAL GLAZING, LABELED AND CERTIFIED BY NATIONAL FENESTRATION RATING COUNCIL (NFRC), IS REQUIRED FOR DOORS AND WINDOWS REPLACED IN ALL RESIDENTIAL BUILDING, THREE STORIES OR LESS, PER SECTION 152(B) OF TITLE 24.","metadescription":"Bldg-Alter/Repair. 1 or 2 Family Dwelling. CHANGE OUT 4 WINDOWS  (SAME SIZE & TYPE FOR RESIDENTIAL BUILDINGS ONLY) DUAL GLAZING, LABELED AND CERTIFIED BY NATIONAL FENESTRATION RATING COUNCIL (NFRC), IS REQUIRED FOR DOORS AND WINDOWS REPLACED IN ALL RESIDENTIAL BUILDING, THREE STORIES OR LESS, PER SECTION 152(B) OF TITLE 24.. Issued. 10837 S WEIGAND AVE","address":"10839 Weigand Avenue, CA, Los Angeles, 90059, US","ct":"2430.00","ev":"N","apc":"South Los Angeles","cpa":"Southeast Los Angeles","zone":"R1-1","solar":"N","pin_nbr":"088-5A217 413","use_code":"1","geolocation":"POINT (-118.23071 33.93596)","status_date":"03/16/2017","permit_group":"Building","refresh_time":"06/10/2026","type_lat_lon":"ADDRESS","business_unit":"Express Permit"},"geometry":{"type":"Point","coordinates":[-118.23071,33.93596]}},{"type":"Feature","properties":{"date":"2016-01-05T00:00:00.000Z","year":2016,"description":"BATHROOM/KITCHEN REMODEL COMBINED W/ELECTRICAL, PLUMBING AND HVAC. (FOR RESIDENTIAL BUILDINGS:  NO STRUCTURAL CHANGES)CHANGE OUT 6-RETROFIT WINDOWS (SAME SIZE AND TYPE)  DUAL GLAZING, LABELED AND CERTIFIED BY NATIONAL FENESTRATION RATING OCUNCIL (NFRC) IS REQUIRED FOR DOORS AND WINDOWS REPLACED IN ALL RESIDENTIAL BUILDNGS, THREE STORIES OR LESS, PER SECTION 152(b) OF TITLE 24.","metadescription":"Bldg-Alter/Repair. 1 or 2 Family Dwelling. BATHROOM/KITCHEN REMODEL COMBINED W/ELECTRICAL, PLUMBING AND HVAC. (FOR RESIDENTIAL BUILDINGS:  NO STRUCTURAL CHANGES)CHANGE OUT 6-RETROFIT WINDOWS (SAME SIZE AND TYPE)  DUAL GLAZING, LABELED AND CERTIFIED BY NATIONAL FENESTRATION RATING OCUNCIL (NFRC) IS REQUIRED FOR DOORS AND WINDOWS REPLACED IN ALL RESIDENTIAL BUILDNGS, THREE STORIES OR LESS, PER SECTION 152(b) OF TITLE 24.. Permit Expired. 10828 S GORMAN AVE","address":"10825 Gorman Avenue, CA, Los Angeles, 90059, US","ct":"2430.00","ev":"N","apc":"South Los Angeles","cpa":"Southeast Los Angeles","zone":"R1-1","solar":"N","pin_nbr":"088-5A217 356","use_code":"1","geolocation":"POINT (-118.2313 33.93639)","status_date":"02/02/2018","permit_group":"Building","refresh_time":"06/10/2026","type_lat_lon":"ADDRESS","business_unit":"Express Permit"},"geometry":{"type":"Point","coordinates":[-118.2313,33.93639]}},{"type":"Feature","properties":{"date":"2015-10-02T00:00:00.000Z","year":2015,"description":"BATHROOM REMODEL COMBINED WITH ELECTRICAL, PLUMBING AND HVAC (FOR RESIDENTIAL BUILDINGS; NO STRUCTURAL CHANGES). NEW STUCCO. DRYWALL/PLASTER AND PAINT. CHANGE OUT  8 WINDOWS AND 2 DOORS (SAME SIZE & TYPE FOR RESIDENTIAL BUILDINGS ONLY) DUAL GLAZING, LABELED AND CERTIFIED BY NATIONAL FENESTRATION RATING COUNCIL (NFRC), IS REQUIRED FOR DOORS AND WINDOWS REPLACED IN ALL RESIDENTIAL BUILDINGS, THREE STORIES OR LESS, PER SECTION 152(B) OF TITLE 24.","metadescription":"Bldg-Alter/Repair. 1 or 2 Family Dwelling. BATHROOM REMODEL COMBINED WITH ELECTRICAL, PLUMBING AND HVAC (FOR RESIDENTIAL BUILDINGS; NO STRUCTURAL CHANGES). NEW STUCCO. DRYWALL/PLASTER AND PAINT. CHANGE OUT  8 WINDOWS AND 2 DOORS (SAME SIZE & TYPE FOR RESIDENTIAL BUILDINGS ONLY) DUAL GLAZING, LABELED AND CERTIFIED BY NATIONAL FENESTRATION RATING COUNCIL (NFRC), IS REQUIRED FOR DOORS AND WINDOWS REPLACED IN ALL RESIDENTIAL BUILDINGS, THREE STORIES OR LESS, PER SECTION 152(B) OF TITLE 24.. Permit Finaled. 10826 S KALMIA ST","address":"10826 Kalmia Street, CA, Los Angeles, 90059, US","ct":"2430.00","ev":"N","apc":"South Los Angeles","cpa":"Southeast Los Angeles","zone":"R1-1","solar":"N","pin_nbr":"088-5A217 312","use_code":"1","geolocation":"POINT (-118.23227 33.93666)","status_date":"08/04/2016","permit_group":"Building","refresh_time":"06/10/2026","type_lat_lon":"ADDRESS","business_unit":"Express Permit"},"geometry":{"type":"Point","coordinates":[-118.23227,33.93666]}},{"type":"Feature","properties":{"date":"2015-09-01T00:00:00.000Z","year":2015,"description":"Replace (8) windows, same size and location.  \"DUAL GLAZING IS REQUIRED FOR ALL DOORS/WINDOWS CHANGE OUT FOR RESIDENTIAL BUILDINGS THREE STORIES OR LESS, PER SECTION 152(b) OF TITLE 24\".","metadescription":"Bldg-Alter/Repair. 1 or 2 Family Dwelling. Replace (8) windows, same size and location.  \"DUAL GLAZING IS REQUIRED FOR ALL DOORS/WINDOWS CHANGE OUT FOR RESIDENTIAL BUILDINGS THREE STORIES OR LESS, PER SECTION 152(b) OF TITLE 24\".. Permit Finaled. 10516 S CROESUS AVE","address":"10516 Croesus Avenue, CA, Los Angeles, 90002, US","ct":"2430.00","ev":"N","apc":"South Los Angeles","cpa":"Southeast Los Angeles","zone":"R1-1","solar":"N","pin_nbr":"090A217   332","use_code":"1","geolocation":"POINT (-118.23369 33.9401)","status_date":"09/03/2015","permit_group":"Building","refresh_time":"06/10/2026","type_lat_lon":"ADDRESS","business_unit":"Express Permit"},"geometry":{"type":"Point","coordinates":[-118.23369,33.9401]}},{"type":"Feature","properties":{"date":"2014-08-18T00:00:00.000Z","year":2014,"description":"(9) Windows and (6) doors change-out (same size & type) for residential buildings.  Dual glazing, labeled and certified by National Fenestration Rating Council (NFRC), is required for doors and windows replaced in all residential buildings, three stories or less, per Section 152(b) of Title 24. Kitchen remodel for residential buildings (no structural changes)-CABINETS.","metadescription":"Bldg-Alter/Repair. 1 or 2 Family Dwelling. (9) Windows and (6) doors change-out (same size & type) for residential buildings.  Dual glazing, labeled and certified by National Fenestration Rating Council (NFRC), is required for doors and windows replaced in all residential buildings, three stories or less, per Section 152(b) of Title 24. Kitchen remodel for residential buildings (no structural changes)-CABINETS.. Permit Finaled. 10848 S WEIGAND AVE","address":"10850 South Weigand Avenue, CA, Los Angeles, 90059, US","ct":"2430.00","ev":"N","apc":"South Los Angeles","cpa":"Southeast Los Angeles","zone":"R1-1","solar":"N","pin_nbr":"088-5A217 471","use_code":"1","geolocation":"POINT (-118.23049 33.93566)","status_date":"10/15/2015","permit_group":"Building","refresh_time":"06/10/2026","type_lat_lon":"ADDRESS","business_unit":"Express Permit"},"geometry":{"type":"Point","coordinates":[-118.23049,33.93566]}},{"type":"Feature","properties":{"date":"2014-05-23T00:00:00.000Z","year":2014,"description":"REAR ADDITION TO EXISTING SINGLE FAMILY DWELLING. (NEW BEDROOM, NO DOOR TO THE EXTERIOR). COMPLY WITH DEPARTMENT ORDER effective date 03/20/2014. PERMIT WILL EXPIRE 30 DAYS FROM ISSUANCE DATE","metadescription":"Bldg-Addition. 1 or 2 Family Dwelling. REAR ADDITION TO EXISTING SINGLE FAMILY DWELLING. (NEW BEDROOM, NO DOOR TO THE EXTERIOR). COMPLY WITH DEPARTMENT ORDER effective date 03/20/2014. PERMIT WILL EXPIRE 30 DAYS FROM ISSUANCE DATE. CofO Issued. 2214 E 107TH ST","address":"2218 East 107Th Street, CA, Los Angeles, 90002, US","ct":"2430.00","ev":"N","apc":"South Los Angeles","cpa":"Southeast Los Angeles","zone":"R1-1","solar":"N","pin_nbr":"090A217   517","use_code":"1","geolocation":"POINT (-118.23204258 33.93870192)","status_date":"03/10/2016","construction":"Type V-B Construction","permit_group":"Building","refresh_time":"06/10/2026","type_lat_lon":"BUILDING","business_unit":"Plan Check at Counter","square_footage":"296"},"geometry":{"type":"Point","coordinates":[-118.23204258,33.93870192]}},{"type":"Feature","properties":{"date":"2014-02-25T00:00:00.000Z","year":2014,"description":"CHANGE OUT #8 WINDOW(S) AND #6 DOOR(S)  (SAME SIZE & TYPE FOR RESIDENTIAL BUILDINGS ONLY) DUAL GLAZING, LABELED AND CERTIFIED BY NATIONAL FENESTRATION RATING COUNCIL (NFRC), IS REQUIRED FOR DOORS AND WINDOWS REPLACED IN ALL RESIDENTIAL BUILDINGS, THREE STORIES OR LESS, PER SECTION 152(B) OF TITLE 24.","metadescription":"Bldg-Alter/Repair. 1 or 2 Family Dwelling. CHANGE OUT #8 WINDOW(S) AND #6 DOOR(S)  (SAME SIZE & TYPE FOR RESIDENTIAL BUILDINGS ONLY) DUAL GLAZING, LABELED AND CERTIFIED BY NATIONAL FENESTRATION RATING COUNCIL (NFRC), IS REQUIRED FOR DOORS AND WINDOWS REPLACED IN ALL RESIDENTIAL BUILDINGS, THREE STORIES OR LESS, PER SECTION 152(B) OF TITLE 24.. Permit Finaled. 10715 S GORMAN AVE","address":"10715 Gorman Avenue, CA, Los Angeles, 90002, US","ct":"2430.00","ev":"N","apc":"South Los Angeles","cpa":"Southeast Los Angeles","zone":"R1-1","solar":"N","pin_nbr":"090A217   562","use_code":"1","geolocation":"POINT (-118.23101 33.93842)","status_date":"04/03/2014","permit_group":"Building","refresh_time":"06/10/2026","type_lat_lon":"ADDRESS","business_unit":"Express Permit"},"geometry":{"type":"Point","coordinates":[-118.23101,33.93842]}},{"type":"Feature","properties":{"date":"2014-01-24T00:00:00.000Z","year":2014,"description":"Install (5) windows, same size and location. \"DUAL GLAZING IS REQUIRED FOR ALL DOORS/WINDOWS CHANGE OUT FOR RESIDENTIAL BUILDINGS, THREE STORIES OR LESS PER SECTION 152(b) OF TITLE 24\".","metadescription":"Bldg-Alter/Repair. 1 or 2 Family Dwelling. Install (5) windows, same size and location. \"DUAL GLAZING IS REQUIRED FOR ALL DOORS/WINDOWS CHANGE OUT FOR RESIDENTIAL BUILDINGS, THREE STORIES OR LESS PER SECTION 152(b) OF TITLE 24\".. Permit Expired. 10405 S KALMIA ST","address":"10401 Kalmia Street, CA, Los Angeles, 90002, US","ct":"2430.00","ev":"N","apc":"South Los Angeles","cpa":"Southeast Los Angeles","zone":"R1-1","solar":"N","pin_nbr":"090A217   181","use_code":"1","geolocation":"POINT (-118.23181 33.94133)","status_date":"02/18/2016","permit_group":"Building","refresh_time":"06/10/2026","type_lat_lon":"ADDRESS","business_unit":"Express Permit"},"geometry":{"type":"Point","coordinates":[-118.23181,33.94133]}},{"type":"Feature","properties":{"date":"2013-09-23T00:00:00.000Z","year":2013,"description":"Kitchen remodel for residential buildings (no structural changes). Windows (9) and (1) garage door change-out (same size & type) for residential buildings.  Dual glazing, labeled and certified by National Fenestration Rating Council (NFRC), is required for doors and windows replaced in all residential buildings, three stories or less, per Section 152(b) of Title 24.","metadescription":"Bldg-Alter/Repair. 1 or 2 Family Dwelling. Kitchen remodel for residential buildings (no structural changes). Windows (9) and (1) garage door change-out (same size & type) for residential buildings.  Dual glazing, labeled and certified by National Fenestration Rating Council (NFRC), is required for doors and windows replaced in all residential buildings, three stories or less, per Section 152(b) of Title 24.. Permit Finaled. 2206 E 105TH ST","address":"2206 East 105Th Street, CA, Los Angeles, 90002, US","ct":"2430.00","ev":"N","apc":"South Los Angeles","cpa":"Southeast Los Angeles","zone":"R1-1","solar":"N","pin_nbr":"090A217   290","use_code":"1","geolocation":"POINT (-118.23249 33.9405)","status_date":"11/07/2013","permit_group":"Building","refresh_time":"06/10/2026","type_lat_lon":"ADDRESS","business_unit":"Express Permit"},"geometry":{"type":"Point","coordinates":[-118.23249,33.9405]}},{"type":"Feature","properties":{"date":"2013-08-23T00:00:00.000Z","year":2013,"description":"Change out (1) window same size and location    Dual glazing, labeled and certified by National Fenestration Rating Council (NFRC), is required for doors and windows replaced in all residential buildings, three stories or less, per Section 152(b) of Title 24.","metadescription":"Bldg-Alter/Repair. 1 or 2 Family Dwelling. Change out (1) window same size and location    Dual glazing, labeled and certified by National Fenestration Rating Council (NFRC), is required for doors and windows replaced in all residential buildings, three stories or less, per Section 152(b) of Title 24.. Permit Finaled. 10405 S KALMIA ST","address":"10401 Kalmia Street, CA, Los Angeles, 90002, US","ct":"2430.00","ev":"N","apc":"South Los Angeles","cpa":"Southeast Los Angeles","zone":"R1-1","solar":"N","pin_nbr":"090A217   181","use_code":"1","geolocation":"POINT (-118.23181 33.94133)","status_date":"10/21/2013","permit_group":"Building","refresh_time":"06/10/2026","type_lat_lon":"ADDRESS","business_unit":"Express Permit"},"geometry":{"type":"Point","coordinates":[-118.23181,33.94133]}},{"type":"Feature","properties":{"date":"2013-03-07T00:00:00.000Z","year":2013,"description":"Supplemental to permit #13016-70000-03007 to change out (2) windows same size and location.  Dual glazing, labeled and certified by National Fenestration Rating Council (NFRC), is required for doors and windows replaced in all residential buildings, three stories or less, per Section 152(b) of Title 24.      \"COMPLY WITH DEPARTMENT ORDER effective date02/07/2013. PERMIT WILL EXPIRE 30 DAYS FROM ISSUANCE DATE\".","metadescription":"Bldg-Alter/Repair. 1 or 2 Family Dwelling. Supplemental to permit #13016-70000-03007 to change out (2) windows same size and location.  Dual glazing, labeled and certified by National Fenestration Rating Council (NFRC), is required for doors and windows replaced in all residential buildings, three stories or less, per Section 152(b) of Title 24.      \"COMPLY WITH DEPARTMENT ORDER effective date02/07/2013. PERMIT WILL EXPIRE 30 DAYS FROM ISSUANCE DATE\".. Permit Finaled. 2217 E 108TH ST","address":"2217 East 108Th Street, CA, Los Angeles, 90059, US","ct":"2430.00","ev":"N","apc":"South Los Angeles","cpa":"Southeast Los Angeles","zone":"R1-1","solar":"N","pin_nbr":"088-5A217 118","use_code":"1","geolocation":"POINT (-118.23231 33.93754)","status_date":"03/13/2013","permit_group":"Building","refresh_time":"06/10/2026","type_lat_lon":"ADDRESS","business_unit":"Express Permit"},"geometry":{"type":"Point","coordinates":[-118.23231,33.93754]}},{"type":"Feature","properties":{"date":"2013-02-26T00:00:00.000Z","year":2013,"description":"Window (16) change-out (same size & type) for residential buildings.Dual glazing, labeled and certified by National Fenestration Rating Council (NFRC), is required for doors and windows replaced in all residential buildings, three stories or less, per Section 152(b) of Title 24.  Valuation to be verified by Inspector.\"COMPLY WITH DEPARTMENT ORDER effective date 11/12/2010. PERMIT WILL EXPIRE 30DAYS FROM ISSUANCE DATE.","metadescription":"Bldg-Alter/Repair. 1 or 2 Family Dwelling. Window (16) change-out (same size & type) for residential buildings.Dual glazing, labeled and certified by National Fenestration Rating Council (NFRC), is required for doors and windows replaced in all residential buildings, three stories or less, per Section 152(b) of Title 24.  Valuation to be verified by Inspector.\"COMPLY WITH DEPARTMENT ORDER effective date 11/12/2010. PERMIT WILL EXPIRE 30DAYS FROM ISSUANCE DATE.. Permit Finaled. 10514 S KALMIA ST","address":"10516 South Kalmia Street, CA, Los Angeles, 90002, US","ct":"2430.00","ev":"N","apc":"South Los Angeles","cpa":"Southeast Los Angeles","zone":"R1-1","solar":"N","pin_nbr":"090A217   327","use_code":"1","geolocation":"POINT (-118.23162 33.94016)","status_date":"06/14/2013","permit_group":"Building","refresh_time":"06/10/2026","type_lat_lon":"ADDRESS","business_unit":"Express Permit"},"geometry":{"type":"Point","coordinates":[-118.23162,33.94016]}},{"type":"Feature","properties":{"date":"2013-01-17T00:00:00.000Z","year":2013,"description":"CHANGE OUT 1 DOOR (SAME SIZE AND TYPE FOR RESIDENTIAL BUILDINGS ONLY)","metadescription":"Bldg-Alter/Repair. 1 or 2 Family Dwelling. CHANGE OUT 1 DOOR (SAME SIZE AND TYPE FOR RESIDENTIAL BUILDINGS ONLY). Issued. 2340 E SANTA ANA BLVD NORTH","address":"2340 Santa Ana Boulevard North, CA, Los Angeles, 90059, US","ct":"2430.00, 2431.00","ev":"N","apc":"Harbor","solar":"N","pin_nbr":"088-5A217 661","use_code":"1","geolocation":"POINT (-118.23105 33.9346)","status_date":"01/17/2013","permit_group":"Building","refresh_time":"06/10/2026","type_lat_lon":"ADDRESS","business_unit":"Express Permit"},"geometry":{"type":"Point","coordinates":[-118.23105,33.9346]}},{"type":"Feature","properties":{"date":"2013-01-04T00:00:00.000Z","year":2013,"description":"Kitchen/bathroom remodel for residential buildings (no structural changes). Window change-out (same size & type) for residential buildings.  Dual glazing, labeled and certified by National Fenestration Rating Council (NFRC), is required for doors and windows replaced in all residential buildings, three stories or less, per Section 152(b) of Title 24.","metadescription":"Bldg-Alter/Repair. 1 or 2 Family Dwelling. Kitchen/bathroom remodel for residential buildings (no structural changes). Window change-out (same size & type) for residential buildings.  Dual glazing, labeled and certified by National Fenestration Rating Council (NFRC), is required for doors and windows replaced in all residential buildings, three stories or less, per Section 152(b) of Title 24.. Permit Finaled. 2251-2253 E 105TH ST","address":"2251 East 105Th Street, CA, Los Angeles, 90002, US","ct":"2430.00","ev":"N","apc":"South Los Angeles","cpa":"Southeast Los Angeles","zone":"R1-1","solar":"N","pin_nbr":"090A217   247","use_code":"2","geolocation":"POINT (-118.23157 33.94069)","status_date":"04/09/2013","permit_group":"Building","refresh_time":"06/10/2026","type_lat_lon":"ADDRESS","business_unit":"Express Permit"},"geometry":{"type":"Point","coordinates":[-118.23157,33.94069]}},{"type":"Feature","properties":{"date":"2012-12-05T00:00:00.000Z","year":2012,"description":"SUPPL. PERMIT TO PERMIT #12016-10000-17657 FOR Windows (3) change-out (same size & type) for residential buildings.  Dual glazing, labeled and certified by National Fenestration Rating Council (NFRC), is required for doors and windows replaced in all residential buildings, three stories or less, per Section 152(b) of Title 24.","metadescription":"Bldg-Alter/Repair. 1 or 2 Family Dwelling. SUPPL. PERMIT TO PERMIT #12016-10000-17657 FOR Windows (3) change-out (same size & type) for residential buildings.  Dual glazing, labeled and certified by National Fenestration Rating Council (NFRC), is required for doors and windows replaced in all residential buildings, three stories or less, per Section 152(b) of Title 24.. Permit Expired. 10517 S GORMAN AVE","address":"10517 Gorman Avenue, CA, Los Angeles, 90002, US","ct":"2430.00","ev":"N","apc":"South Los Angeles","cpa":"Southeast Los Angeles","zone":"R1-1","solar":"N","pin_nbr":"090A217   347","use_code":"1","geolocation":"POINT (-118.23077 33.94002)","status_date":"06/04/2014","permit_group":"Building","refresh_time":"06/10/2026","type_lat_lon":"ADDRESS","business_unit":"Express Permit"},"geometry":{"type":"Point","coordinates":[-118.23077,33.94002]}},{"type":"Feature","properties":{"date":"2012-10-31T00:00:00.000Z","year":2012,"description":"Suppl. permit to permit #12016-70000-19689 for Window change-out (same size & type) for residential buildings.  Dual glazing, labeled and certified by National Fenestration Rating Council (NFRC), is required for doors and windows replaced in all residential buildings, three stories or less, per Section 152(b) of Title 24.","metadescription":"Bldg-Alter/Repair. 1 or 2 Family Dwelling. Suppl. permit to permit #12016-70000-19689 for Window change-out (same size & type) for residential buildings.  Dual glazing, labeled and certified by National Fenestration Rating Council (NFRC), is required for doors and windows replaced in all residential buildings, three stories or less, per Section 152(b) of Title 24.. Permit Finaled. 10521 S JUNIPER ST","address":"10517 Juniper Street, CA, Los Angeles, 90002, US","ct":"2430.00","ev":"N","apc":"South Los Angeles","cpa":"Southeast Los Angeles","zone":"R1-1","solar":"N","pin_nbr":"090A217   352","use_code":"1","geolocation":"POINT (-118.23285 33.93996)","status_date":"12/19/2012","permit_group":"Building","refresh_time":"06/10/2026","type_lat_lon":"ADDRESS","business_unit":"Express Permit"},"geometry":{"type":"Point","coordinates":[-118.23285,33.93996]}},{"type":"Feature","properties":{"date":"2012-10-15T00:00:00.000Z","year":2012,"description":"Window change-out (same size & type) for residential buildings.  Dual glazing, labeled and certified by National Fenestration Rating Council (NFRC), is required for doors and windows replaced in all residential buildings, three stories or less, per Section 152(b) of Title 24. General rehabilitation (No alteration & no structural changes.) (less than 10% of replacement cost of building).","metadescription":"Bldg-Alter/Repair. 1 or 2 Family Dwelling. Window change-out (same size & type) for residential buildings.  Dual glazing, labeled and certified by National Fenestration Rating Council (NFRC), is required for doors and windows replaced in all residential buildings, three stories or less, per Section 152(b) of Title 24. General rehabilitation (No alteration & no structural changes.) (less than 10% of replacement cost of building).. Permit Finaled. 10610 S GORMAN AVE","address":"10612 Gorman Avenue, CA, Los Angeles, 90002, US","ct":"2430.00","ev":"N","apc":"South Los Angeles","cpa":"Southeast Los Angeles","zone":"R1-1","solar":"N","pin_nbr":"090A217   429","use_code":"2","geolocation":"POINT (-118.23058 33.93947)","status_date":"06/19/2013","permit_group":"Building","refresh_time":"06/10/2026","type_lat_lon":"ADDRESS","business_unit":"Express Permit"},"geometry":{"type":"Point","coordinates":[-118.23058,33.93947]}},{"type":"Feature","properties":{"date":"2012-09-21T00:00:00.000Z","year":2012,"description":"Kitchen remodel for residential buildings (no structural changes). Window change-out (same size & type) for residential buildings.  Dual glazing, labeled and certified by National Fenestration Rating Council (NFRC), is required for doors and windows replaced in all residential buildings, three stories or less, per Section 152(b) of Title 24.","metadescription":"Bldg-Alter/Repair. 1 or 2 Family Dwelling. Kitchen remodel for residential buildings (no structural changes). Window change-out (same size & type) for residential buildings.  Dual glazing, labeled and certified by National Fenestration Rating Council (NFRC), is required for doors and windows replaced in all residential buildings, three stories or less, per Section 152(b) of Title 24.. Permit Finaled. 10612 S GORMAN AVE","address":"10612 Gorman Avenue, CA, Los Angeles, 90002, US","ct":"2430.00","ev":"N","apc":"South Los Angeles","cpa":"Southeast Los Angeles","zone":"R1-1","solar":"N","pin_nbr":"090A217   429","use_code":"1","geolocation":"POINT (-118.23058 33.9394)","status_date":"06/19/2013","permit_group":"Building","refresh_time":"06/10/2026","type_lat_lon":"ADDRESS","business_unit":"Express Permit"},"geometry":{"type":"Point","coordinates":[-118.23058,33.9394]}},{"type":"Feature","properties":{"date":"2012-08-22T00:00:00.000Z","year":2012,"description":"REMOVE UNPERMITTED PATIO COVER @ REAR AND ADD (N) 18'1\" X 27'6\" (499 SF) OF (2) BEDRMS, (2) BATHS, & LAUNDRY. (N) GABLE ROOF FOR ENTIRE 1-STORY SFD W/ ATT GARAGE. REPLACE ALL (E) WINDOWS/DOORS (SAME SIZE/LOCATION). (N) KITCHEN & REMODEL TO CREATE 3RD BEDROOM & PER PLAN. PER WFPP SHEET.","metadescription":"Bldg-Addition. 1 or 2 Family Dwelling. REMOVE UNPERMITTED PATIO COVER @ REAR AND ADD (N) 18'1\" X 27'6\" (499 SF) OF (2) BEDRMS, (2) BATHS, & LAUNDRY. (N) GABLE ROOF FOR ENTIRE 1-STORY SFD W/ ATT GARAGE. REPLACE ALL (E) WINDOWS/DOORS (SAME SIZE/LOCATION). (N) KITCHEN & REMODEL TO CREATE 3RD BEDROOM & PER PLAN. PER WFPP SHEET.. CofO Issued. 2306 E 105TH ST","address":"2306 East 105Th Street, CA, Los Angeles, 90002, US","ct":"2430.00","ev":"N","apc":"South Los Angeles","cpa":"Southeast Los Angeles","zone":"R1-1","solar":"N","height":"14.25","pin_nbr":"090A217   311","use_code":"1","geolocation":"POINT (-118.23041 33.94049)","status_date":"01/11/2013","construction":"Type V-B Construction","permit_group":"Building","refresh_time":"06/10/2026","type_lat_lon":"ADDRESS","business_unit":"Plan Check at Counter","square_footage":"499"},"geometry":{"type":"Point","coordinates":[-118.23041,33.94049]}},{"type":"Feature","properties":{"date":"2012-07-18T00:00:00.000Z","year":2012,"description":"Change out (1) window same size and location for unit #2305.     Dual glazing, labeled and certified by National Fenestration Rating Council (NFRC), is required for doors and windows replaced in all residential buildings, three stories or less, per Section 152(b) of Title 24.","metadescription":"Bldg-Alter/Repair. 1 or 2 Family Dwelling. Change out (1) window same size and location for unit #2305.     Dual glazing, labeled and certified by National Fenestration Rating Council (NFRC), is required for doors and windows replaced in all residential buildings, three stories or less, per Section 152(b) of Title 24.. Permit Finaled. 2303-2305 E 108TH ST","address":"2303 East 108Th Street, CA, Los Angeles, 90059, US","ct":"2430.00","ev":"N","apc":"South Los Angeles","cpa":"Southeast Los Angeles","zone":"R1-1","solar":"N","pin_nbr":"088-5A217 176","use_code":"2","geolocation":"POINT (-118.23096 33.93727)","status_date":"09/19/2012","permit_group":"Building","refresh_time":"06/10/2026","type_lat_lon":"ADDRESS","business_unit":"Express Permit"},"geometry":{"type":"Point","coordinates":[-118.23096,33.93727]}},{"type":"Feature","properties":{"date":"2012-03-16T00:00:00.000Z","year":2012,"description":"Window and door change-out (same size & type) for residential buildings.  Dual glazing, labeled and certified by National Fenestration Rating Council (NFRC), is required for doors and windows replaced in all residential buildings, three stories or less, per Section 152(b) of Title 24. *INVESTIGATION FEE INCLUDED*","metadescription":"Bldg-Alter/Repair. 1 or 2 Family Dwelling. Window and door change-out (same size & type) for residential buildings.  Dual glazing, labeled and certified by National Fenestration Rating Council (NFRC), is required for doors and windows replaced in all residential buildings, three stories or less, per Section 152(b) of Title 24. *INVESTIGATION FEE INCLUDED*. Permit Finaled. 10812 S CROESUS AVE","address":"10812 Croesus Avenue, CA, Los Angeles, 90059, US","ct":"2430.00","ev":"N","apc":"South Los Angeles","cpa":"Southeast Los Angeles","zone":"R1-1","solar":"N","pin_nbr":"088-5A217 151","use_code":"1","geolocation":"POINT (-118.2337 33.93772)","status_date":"04/26/2012","permit_group":"Building","refresh_time":"06/10/2026","type_lat_lon":"ADDRESS","business_unit":"Express Permit"},"geometry":{"type":"Point","coordinates":[-118.2337,33.93772]}},{"type":"Feature","properties":{"date":"2012-01-11T00:00:00.000Z","year":2012,"description":"Stucco over existing wood siding.  Change out (11) windows and (1) sliding door same size and location.\"COMPLY WITH DEPARTMENT ORDER effective date 07/15/2011. PERMIT WILL EXPIRE 30 DAYS FROM ISSUANCE DATE.","metadescription":"Bldg-Alter/Repair. 1 or 2 Family Dwelling. Stucco over existing wood siding.  Change out (11) windows and (1) sliding door same size and location.\"COMPLY WITH DEPARTMENT ORDER effective date 07/15/2011. PERMIT WILL EXPIRE 30 DAYS FROM ISSUANCE DATE.. Permit Finaled. 10527 S WEIGAND AVE","address":"10603 Weigand Avenue, CA, Los Angeles, 90002, US","ct":"2430.00","ev":"N","apc":"South Los Angeles","cpa":"Southeast Los Angeles","zone":"R1-1","solar":"N","pin_nbr":"090A217   390","use_code":"1","geolocation":"POINT (-118.22973 33.93974)","status_date":"04/30/2012","permit_group":"Building","refresh_time":"06/10/2026","type_lat_lon":"ADDRESS","business_unit":"Express Permit"},"geometry":{"type":"Point","coordinates":[-118.22973,33.93974]}},{"type":"Feature","properties":{"date":"2011-12-06T00:00:00.000Z","year":2011,"description":"Replace 11 window(s). Same size, location, number, type.  Replace 5 door(s). Same size, location, number, type.  Replace drywall/plaster (patch and paint). Non-structural repair only.Replace damaged wood framing (less than 10%). Same size/spacing/type.","metadescription":"Bldg-Alter/Repair. 1 or 2 Family Dwelling. Replace 11 window(s). Same size, location, number, type.  Replace 5 door(s). Same size, location, number, type.  Replace drywall/plaster (patch and paint). Non-structural repair only.Replace damaged wood framing (less than 10%). Same size/spacing/type.. Permit Finaled. 10729 S KALMIA ST","address":"10729 Kalmia Street, CA, Los Angeles, 90059, US","ct":"2430.00","ev":"N","apc":"South Los Angeles","cpa":"Southeast Los Angeles","zone":"R1-1","solar":"N","pin_nbr":"088-5A217  78","use_code":"1","geolocation":"POINT (-118.23206 33.93801)","status_date":"02/24/2012","permit_group":"Building","refresh_time":"06/10/2026","type_lat_lon":"ADDRESS","business_unit":"Express Permit"},"geometry":{"type":"Point","coordinates":[-118.23206,33.93801]}},{"type":"Feature","properties":{"date":"2011-06-24T00:00:00.000Z","year":2011,"description":"General rehab (No alteration & no structural changes, less than 10% replacement cost): Replace kitchen cabinets, change out (9) windows/(7) doors same size and location. \"COMPLY WITH DEPARTMENT ORDER effective date 08/05/2010. PERMIT WILL EXPIRE 30 DAYS FROM ISSUANCE DATE\"","metadescription":"Bldg-Alter/Repair. 1 or 2 Family Dwelling. General rehab (No alteration & no structural changes, less than 10% replacement cost): Replace kitchen cabinets, change out (9) windows/(7) doors same size and location. \"COMPLY WITH DEPARTMENT ORDER effective date 08/05/2010. PERMIT WILL EXPIRE 30 DAYS FROM ISSUANCE DATE\". Permit Finaled. 10603 S GORMAN AVE","address":"10603 Gorman Avenue, CA, Los Angeles, 90002, US","ct":"2430.00","ev":"N","apc":"South Los Angeles","cpa":"Southeast Los Angeles","zone":"R1-1","solar":"N","pin_nbr":"090A217   407","use_code":"1","geolocation":"POINT (-118.23077 33.93961)","status_date":"08/10/2011","permit_group":"Building","refresh_time":"06/10/2026","type_lat_lon":"ADDRESS","business_unit":"Express Permit"},"geometry":{"type":"Point","coordinates":[-118.23077,33.93961]}},{"type":"Feature","properties":{"date":"2011-04-20T00:00:00.000Z","year":2011,"description":"Convert garage back to original use by removal of unapproved wall and install new garage door.    (Remove plumbing and drywall) \"TO COMPLY WITH DEPT. ORDER DATED 4/18/08.  PERMIT WILL EXPIRE 30 DAYS FROM DATE OF ISSUANCE\".  CEIS CASE NUMBER 218096.  *****INVESTIGATION FEE INCLUDED******","metadescription":"Bldg-Alter/Repair. 1 or 2 Family Dwelling. Convert garage back to original use by removal of unapproved wall and install new garage door.    (Remove plumbing and drywall) \"TO COMPLY WITH DEPT. ORDER DATED 4/18/08.  PERMIT WILL EXPIRE 30 DAYS FROM DATE OF ISSUANCE\".  CEIS CASE NUMBER 218096.  *****INVESTIGATION FEE INCLUDED******. Permit Finaled. 10518 S JUNIPER ST","address":"10518 Juniper Street, CA, Los Angeles, 90002, US","ct":"2430.00","ev":"N","apc":"South Los Angeles","cpa":"Southeast Los Angeles","zone":"R1-1","solar":"N","pin_nbr":"090A217   344","use_code":"7","geolocation":"POINT (-118.23266 33.94003)","status_date":"08/31/2011","permit_group":"Building","refresh_time":"06/10/2026","type_lat_lon":"ADDRESS","business_unit":"Express Permit"},"geometry":{"type":"Point","coordinates":[-118.23266,33.94003]}},{"type":"Feature","properties":{"date":"2011-04-12T00:00:00.000Z","year":2011,"description":"Change out (1) window/(1) door same size and location @ storage room","metadescription":"Bldg-Alter/Repair. 1 or 2 Family Dwelling. Change out (1) window/(1) door same size and location @ storage room. Permit Finaled. 10829 S KALMIA ST","address":"10829 Kalmia Street, CA, Los Angeles, 90059, US","ct":"2430.00","ev":"N","apc":"South Los Angeles","cpa":"Southeast Los Angeles","zone":"R1-1","solar":"N","pin_nbr":"088-5A217 316","use_code":"22","geolocation":"POINT (-118.23249 33.93657)","status_date":"10/29/2015","permit_group":"Building","refresh_time":"06/10/2026","type_lat_lon":"ADDRESS","business_unit":"Express Permit"},"geometry":{"type":"Point","coordinates":[-118.23249,33.93657]}},{"type":"Feature","properties":{"date":"2011-02-02T00:00:00.000Z","year":2011,"description":"Replace 9 door(s). Same size, location, number, type.  Replace drywall/plaster (patch and paint). Non-structural repair only.Interior kitchen remodel/repair (no changes in walls or openings).  Interior bathroom remodel/repair (no changes in walls or openings).","metadescription":"Bldg-Alter/Repair. 1 or 2 Family Dwelling. Replace 9 door(s). Same size, location, number, type.  Replace drywall/plaster (patch and paint). Non-structural repair only.Interior kitchen remodel/repair (no changes in walls or openings).  Interior bathroom remodel/repair (no changes in walls or openings).. Permit Finaled. 10825 S GORMAN AVE","address":"10825 Gorman Avenue, CA, Los Angeles, 90059, US","ct":"2430.00","ev":"N","apc":"South Los Angeles","cpa":"Southeast Los Angeles","zone":"R1-1","solar":"N","pin_nbr":"088-5A217 323","use_code":"1","geolocation":"POINT (-118.23153 33.9365)","status_date":"05/03/2011","permit_group":"Building","refresh_time":"06/10/2026","type_lat_lon":"ADDRESS","business_unit":"Express Permit"},"geometry":{"type":"Point","coordinates":[-118.23153,33.9365]}},{"type":"Feature","properties":{"date":"2011-01-11T00:00:00.000Z","year":2011,"description":"General rehabilitation (No alteration & no structural changes.) (less than 10% of replacement cost of building). Windows (8) and doors (3) change-out (same size & type) for residential buildings.  TO COMPLY W/ DEPT. ORDER DATED 09-15-10.  PERMIT WILL EXPIRE 30 DAYS FROM ISSUANCE DATE. SEE APPLICATIONS COMMENTS TO CONTINUE.","metadescription":"Bldg-Alter/Repair. 1 or 2 Family Dwelling. General rehabilitation (No alteration & no structural changes.) (less than 10% of replacement cost of building). Windows (8) and doors (3) change-out (same size & type) for residential buildings.  TO COMPLY W/ DEPT. ORDER DATED 09-15-10.  PERMIT WILL EXPIRE 30 DAYS FROM ISSUANCE DATE. SEE APPLICATIONS COMMENTS TO CONTINUE.. Permit Finaled. 2322 E 105TH ST","address":"2322 East 105Th Street, CA, Los Angeles, 90002, US","ct":"2430.00","ev":"N","apc":"South Los Angeles","cpa":"Southeast Los Angeles","zone":"R1-1","solar":"N","pin_nbr":"090A217   316","use_code":"1","geolocation":"POINT (-118.22993 33.94049)","status_date":"01/27/2011","permit_group":"Building","refresh_time":"06/10/2026","type_lat_lon":"ADDRESS","business_unit":"Express Permit"},"geometry":{"type":"Point","coordinates":[-118.22993,33.94049]}},{"type":"Feature","properties":{"date":"2010-08-10T00:00:00.000Z","year":2010,"description":"Kitchen/bathroom remodel (no structural changes): Replace kitchen cabinets.  Change out (2) windows/(2) doors same size and location.  Repair drywall (no wall added).  Stucco Repair.  Related electrical/plumbing included.\"COMPLY WITH DEPARTMENT ORDER effective date 04/30/2010. PERMIT WILL EXPIRE 30DAYS FROM ISSUANCE DATE.","metadescription":"Bldg-Alter/Repair. 1 or 2 Family Dwelling. Kitchen/bathroom remodel (no structural changes): Replace kitchen cabinets.  Change out (2) windows/(2) doors same size and location.  Repair drywall (no wall added).  Stucco Repair.  Related electrical/plumbing included.\"COMPLY WITH DEPARTMENT ORDER effective date 04/30/2010. PERMIT WILL EXPIRE 30DAYS FROM ISSUANCE DATE.. Permit Finaled. 10844 S GORMAN AVE","address":"10849 Gorman Avenue, CA, Los Angeles, 90059, US","ct":"2430.00","ev":"N","apc":"South Los Angeles","cpa":"Southeast Los Angeles","zone":"R1-1","solar":"N","pin_nbr":"088-5A217 418","use_code":"1","geolocation":"POINT (-118.23142 33.93599)","status_date":"10/19/2010","permit_group":"Building","refresh_time":"06/10/2026","type_lat_lon":"ADDRESS","business_unit":"Express Permit"},"geometry":{"type":"Point","coordinates":[-118.23142,33.93599]}},{"type":"Feature","properties":{"date":"2010-06-21T00:00:00.000Z","year":2010,"description":"Kitchen/bathroom remodel (no structural changes).  Change out (7) windows/(7) doors same size and location.  Replace kitchen cabinets.  New tile flooring @ living room and hall way and replace carpet in bedrooms.\"COMPLY WITH DEPARTMENT ORDER effective date 10/07/2009. PERMIT WILL EXPIRE 30 DAYS FROM ISSUANCE DATE. **see coments***","metadescription":"Bldg-Alter/Repair. 1 or 2 Family Dwelling. Kitchen/bathroom remodel (no structural changes).  Change out (7) windows/(7) doors same size and location.  Replace kitchen cabinets.  New tile flooring @ living room and hall way and replace carpet in bedrooms.\"COMPLY WITH DEPARTMENT ORDER effective date 10/07/2009. PERMIT WILL EXPIRE 30 DAYS FROM ISSUANCE DATE. **see coments***. Permit Finaled. 10719 S GORMAN AVE","address":"10719 Gorman Avenue, CA, Los Angeles, 90059, US","ct":"2430.00","ev":"N","apc":"South Los Angeles","cpa":"Southeast Los Angeles","zone":"R1-1","solar":"N","pin_nbr":"088-5A217  31","use_code":"1","geolocation":"POINT (-118.23111609 33.93829503)","status_date":"11/10/2010","permit_group":"Building","refresh_time":"06/10/2026","type_lat_lon":"PIN","business_unit":"Express Permit"},"geometry":{"type":"Point","coordinates":[-118.23111609,33.93829503]}},{"type":"Feature","properties":{"date":"2010-04-09T00:00:00.000Z","year":2010,"description":"Kitchen/bathroom remodel for residential buildings (no structural changes).Re-stucco. (no new walls added)  Re-roof with Class A or B material weighing less than 6 pound per sq. ft.  Smoke detectors required.Window change-out (same size & type and location) for residential buildings.  Valuation to be verified by field inspector.  Dual glazing, labeled and certified by National Fenestration Rating Council (NFRC), is required for doors and windows replaced in all residential buildings, three stories or less, per Section 152(b) of Title 24.\"COMPLY WITHDEPARTMENT ORDER effective date 04/21/2009. PERMIT WILL EXPIRE 30DAYS FROM ISSUANCE DATE. All permits shall be for the same timeperiod limitation.","metadescription":"Bldg-Alter/Repair. 1 or 2 Family Dwelling. Kitchen/bathroom remodel for residential buildings (no structural changes).Re-stucco. (no new walls added)  Re-roof with Class A or B material weighing less than 6 pound per sq. ft.  Smoke detectors required.Window change-out (same size & type and location) for residential buildings.  Valuation to be verified by field inspector.  Dual glazing, labeled and certified by National Fenestration Rating Council (NFRC), is required for doors and windows replaced in all residential buildings, three stories or less, per Section 152(b) of Title 24.\"COMPLY WITHDEPARTMENT ORDER effective date 04/21/2009. PERMIT WILL EXPIRE 30DAYS FROM ISSUANCE DATE. All permits shall be for the same timeperiod limitation.. Permit Finaled. 2361 E 108TH ST","address":"2363 East 108Th Street, CA, Los Angeles, 90059, US","ct":"2430.00","ev":"N","apc":"South Los Angeles","cpa":"Southeast Los Angeles","zone":"R1-1","solar":"N","pin_nbr":"088-5A217 212","use_code":"1","geolocation":"POINT (-118.22975 33.93701)","status_date":"10/14/2010","permit_group":"Building","refresh_time":"06/10/2026","type_lat_lon":"ADDRESS","business_unit":"Express Permit"},"geometry":{"type":"Point","coordinates":[-118.22975,33.93701]}},{"type":"Feature","properties":{"date":"2009-08-11T00:00:00.000Z","year":2009,"description":"Install new drywall @ two bathrooms and kitchen (no walls added). Remove and re-hang (e) kitchen cabinets.  New tile around tub area only.  Drywall patch repair throughout dwelling.  Change out (1) patio door, (1) exterior door and (4) interior doors same size and location.  Repair fascia board as needed.\"COMPLY WITH DEPARTMENT ORDER effective date 05/22/2008. PERMIT WILL EXPIRE 30DAYS FROM ISSUANCE DATE.","metadescription":"Bldg-Alter/Repair. 1 or 2 Family Dwelling. Install new drywall @ two bathrooms and kitchen (no walls added). Remove and re-hang (e) kitchen cabinets.  New tile around tub area only.  Drywall patch repair throughout dwelling.  Change out (1) patio door, (1) exterior door and (4) interior doors same size and location.  Repair fascia board as needed.\"COMPLY WITH DEPARTMENT ORDER effective date 05/22/2008. PERMIT WILL EXPIRE 30DAYS FROM ISSUANCE DATE.. Permit Finaled. 2306 E 107TH ST","address":"2308 East 107Th Street, CA, Los Angeles, 90002, US","ct":"2430.00","ev":"N","apc":"South Los Angeles","cpa":"Southeast Los Angeles","zone":"R1-1","solar":"N","pin_nbr":"090A217   532","use_code":"1","geolocation":"POINT (-118.23043 33.93879)","status_date":"04/18/2011","permit_group":"Building","refresh_time":"06/10/2026","type_lat_lon":"ADDRESS","business_unit":"Express Permit"},"geometry":{"type":"Point","coordinates":[-118.23043,33.93879]}},{"type":"Feature","properties":{"date":"2009-07-01T00:00:00.000Z","year":2009,"description":"General rehabilitation (No alteration & no structural changes.) (less than 10% of replacement cost of building). Windows change-out (same size & type) for residential buildings.  Dual glazing, labeled and certified by National Fenestration Rating Council (NFRC), is required for doors and windows replaced in all residential buildings, three stories or less, per Section 152(b) of Title 24. Replace drywall. (no new walls added) COMPLY W/ DEPT ORDER DATED 01/11/08. PERMIT WILL EXPIRE 30 DAYS FROM ISSUANCE DATE.","metadescription":"Bldg-Alter/Repair. 1 or 2 Family Dwelling. General rehabilitation (No alteration & no structural changes.) (less than 10% of replacement cost of building). Windows change-out (same size & type) for residential buildings.  Dual glazing, labeled and certified by National Fenestration Rating Council (NFRC), is required for doors and windows replaced in all residential buildings, three stories or less, per Section 152(b) of Title 24. Replace drywall. (no new walls added) COMPLY W/ DEPT ORDER DATED 01/11/08. PERMIT WILL EXPIRE 30 DAYS FROM ISSUANCE DATE.. Permit Finaled. 10414 S KALMIA ST","address":"10408 1/2 Kalmia Street, CA, Los Angeles, 90002, US","ct":"2430.00","ev":"N","apc":"South Los Angeles","cpa":"Southeast Los Angeles","zone":"R1-1","solar":"N","pin_nbr":"090A217   217","use_code":"1","geolocation":"POINT (-118.23161 33.94105)","status_date":"07/30/2009","permit_group":"Building","refresh_time":"06/10/2026","type_lat_lon":"ADDRESS","business_unit":"Express Permit"},"geometry":{"type":"Point","coordinates":[-118.23161,33.94105]}},{"type":"Feature","properties":{"date":"2009-04-02T00:00:00.000Z","year":2009,"description":"CHANGE OUT (7) WINDOWS AND ALL INTERIOR DOORS SAME SIZE AND LOCATION.  PAINT INTERIOR AND EXTERIOR OF SFD.  ***address also known as 2218 E. 105th St*** \"COMPLY WITH DEPARTMENT ORDER effective date 12/22/2008. PERMIT WILL EXPIRE 30DAYS FROM ISSUANCE DATE.","metadescription":"Bldg-Alter/Repair. 1 or 2 Family Dwelling. CHANGE OUT (7) WINDOWS AND ALL INTERIOR DOORS SAME SIZE AND LOCATION.  PAINT INTERIOR AND EXTERIOR OF SFD.  ***address also known as 2218 E. 105th St*** \"COMPLY WITH DEPARTMENT ORDER effective date 12/22/2008. PERMIT WILL EXPIRE 30DAYS FROM ISSUANCE DATE.. Issued. 2216 E 105TH ST","address":"2220 East 105Th Street, CA, Los Angeles, 90002, US","ct":"2430.00","ev":"N","apc":"South Los Angeles","cpa":"Southeast Los Angeles","zone":"R1-1","solar":"N","pin_nbr":"090A217   293","use_code":"1","geolocation":"POINT (-118.23218 33.9405)","status_date":"04/02/2009","permit_group":"Building","refresh_time":"06/10/2026","type_lat_lon":"ADDRESS","business_unit":"Express Permit"},"geometry":{"type":"Point","coordinates":[-118.23218,33.9405]}},{"type":"Feature","properties":{"date":"2008-11-17T00:00:00.000Z","year":2008,"description":"REPLACE (2) WINDOWS SAME SIZE AND LOCATION.  REPLACE (1) AND REPAIR (1) EXTERIOR DOOR SAME SIZE AND LOCATION.  REPLACE DRYWALL (no walls added).","metadescription":"Bldg-Alter/Repair. 1 or 2 Family Dwelling. REPLACE (2) WINDOWS SAME SIZE AND LOCATION.  REPLACE (1) AND REPAIR (1) EXTERIOR DOOR SAME SIZE AND LOCATION.  REPLACE DRYWALL (no walls added).. Permit Finaled. 2266 E 105TH ST","address":"2262 East 105Th Street, CA, Los Angeles, 90002, US","ct":"2430.00","ev":"N","apc":"South Los Angeles","cpa":"Southeast Los Angeles","zone":"R1-1","solar":"N","pin_nbr":"090A217   304","use_code":"1","geolocation":"POINT (-118.23114 33.94049)","status_date":"04/21/2009","permit_group":"Building","refresh_time":"06/10/2026","type_lat_lon":"ADDRESS","business_unit":"Express Permit"},"geometry":{"type":"Point","coordinates":[-118.23114,33.94049]}},{"type":"Feature","properties":{"date":"2008-03-04T00:00:00.000Z","year":2008,"description":"GENERAL REHAB (no alteration & no structural changes) TO INCLUDE CHANGE OUT (10) WINDOWS (6) DOORS SAME SIZE AND LOCATION.  REPLACE DRYWALL.  MINOR ROOF REPAIR. elec/hvac/plumb included\"COMPLY WITH DEPARTMENT ORDER effective date 02/20/2008. PERMIT WILL EXPIRE 30DAYS FROM ISSUANCE DATE.","metadescription":"Bldg-Alter/Repair. 1 or 2 Family Dwelling. GENERAL REHAB (no alteration & no structural changes) TO INCLUDE CHANGE OUT (10) WINDOWS (6) DOORS SAME SIZE AND LOCATION.  REPLACE DRYWALL.  MINOR ROOF REPAIR. elec/hvac/plumb included\"COMPLY WITH DEPARTMENT ORDER effective date 02/20/2008. PERMIT WILL EXPIRE 30DAYS FROM ISSUANCE DATE.. Permit Finaled. 10613 S GORMAN AVE","address":"10617 Gorman Avenue, CA, Los Angeles, 90002, US","ct":"2430.00","ev":"N","apc":"South Los Angeles","cpa":"Southeast Los Angeles","zone":"R1-1","solar":"N","pin_nbr":"090A217   450","use_code":"1","geolocation":"POINT (-118.23077 33.93933)","status_date":"06/17/2009","permit_group":"Building","refresh_time":"06/10/2026","type_lat_lon":"ADDRESS","business_unit":"Express Permit"},"geometry":{"type":"Point","coordinates":[-118.23077,33.93933]}},{"type":"Feature","properties":{"date":"2006-08-01T00:00:00.000Z","year":2006,"description":"CHANGE OUT (E) GARAGE DOOR, SAME SIZE & LOCATION.   \"TO COMPLY WITH DEPARTMENT ORDER effective date 01/20/2006. PERMIT WILL EXPIRE 30 DAYS FROM ISSUANCE DATE\".","metadescription":"Bldg-Alter/Repair. 1 or 2 Family Dwelling. CHANGE OUT (E) GARAGE DOOR, SAME SIZE & LOCATION.   \"TO COMPLY WITH DEPARTMENT ORDER effective date 01/20/2006. PERMIT WILL EXPIRE 30 DAYS FROM ISSUANCE DATE\".. Permit Finaled. 10729 S MONA BLVD","address":"10729 Mona Boulevard, CA, Los Angeles, 90059, US","ct":"2430.00","ev":"N","apc":"South Los Angeles","cpa":"Southeast Los Angeles","zone":"R1-1","solar":"N","pin_nbr":"088-5A217  86","use_code":"1","geolocation":"POINT (-118.22912 33.93796)","status_date":"02/28/2007","permit_group":"Building","refresh_time":"06/10/2026","type_lat_lon":"ADDRESS","business_unit":"Express Permit"},"geometry":{"type":"Point","coordinates":[-118.22912,33.93796]}},{"type":"Feature","properties":{"date":"2006-07-06T00:00:00.000Z","year":2006,"description":"REMOVE (E) ROOFING MATERIAL AND RE-ROOF THE HOUSE; INSTALLING NEW PLYWOOD AND SHINGLES, KITCHEN AND BATH REMODEL, CHANGE OUT  6 (E) WINDOWS, 1 FRONT DOOR, SAME SIZE & LOCATION (W/ IN THE SAME OPENING).   \"TO COMPLY WITH DEPARTMENT ORDER effective date 06/20/2006. PERMIT WILL EXPIRE 30 DAYS FROM ISSUANCE DATE\".","metadescription":"Bldg-Alter/Repair. 1 or 2 Family Dwelling. REMOVE (E) ROOFING MATERIAL AND RE-ROOF THE HOUSE; INSTALLING NEW PLYWOOD AND SHINGLES, KITCHEN AND BATH REMODEL, CHANGE OUT  6 (E) WINDOWS, 1 FRONT DOOR, SAME SIZE & LOCATION (W/ IN THE SAME OPENING).   \"TO COMPLY WITH DEPARTMENT ORDER effective date 06/20/2006. PERMIT WILL EXPIRE 30 DAYS FROM ISSUANCE DATE\".. Permit Finaled. 10846 S GORMAN AVE","address":"10849 Gorman Avenue, CA, Los Angeles, 90059, US","ct":"2430.00","ev":"N","apc":"South Los Angeles","cpa":"Southeast Los Angeles","zone":"R1-1","solar":"N","pin_nbr":"088-5A217 434","use_code":"1","geolocation":"POINT (-118.23144 33.93593)","status_date":"10/18/2006","permit_group":"Building","refresh_time":"06/10/2026","type_lat_lon":"ADDRESS","business_unit":"Express Permit"},"geometry":{"type":"Point","coordinates":[-118.23144,33.93593]}},{"type":"Feature","properties":{"date":"2006-03-24T00:00:00.000Z","year":2006,"description":"INSTALL NEW DRYWALL. CHANGE OUT (4) WINDOWS, (5) DOORS-SAME SIZE AND LOCATION.","metadescription":"Bldg-Alter/Repair. Commercial. INSTALL NEW DRYWALL. CHANGE OUT (4) WINDOWS, (5) DOORS-SAME SIZE AND LOCATION.. Permit Expired. 10624 S JUNIPER ST","address":"10624 Juniper Street, CA, Los Angeles, 90002, US","ct":"2430.00","ev":"N","apc":"South Los Angeles","cpa":"Southeast Los Angeles","zone":"R1-1","solar":"N","pin_nbr":"090A217   502","use_code":"16","geolocation":"POINT (-118.23265 33.939)","status_date":"08/18/2008","permit_group":"Building","refresh_time":"06/10/2026","type_lat_lon":"ADDRESS","business_unit":"Express Permit"},"geometry":{"type":"Point","coordinates":[-118.23265,33.939]}},{"type":"Feature","properties":{"date":"2006-01-10T00:00:00.000Z","year":2006,"description":"ENLARGE BATHROOM DOOR TO 3'0\"X 6'8\" IN LIEU OF (E) 2'8\"X 6'8\".  NON STRUCTURAL REMODEL.  ALL WORK PER TYPE V","metadescription":"Bldg-Alter/Repair. Apartment. ENLARGE BATHROOM DOOR TO 3'0\"X 6'8\" IN LIEU OF (E) 2'8\"X 6'8\".  NON STRUCTURAL REMODEL.  ALL WORK PER TYPE V. Permit Finaled. 10607 S KALMIA ST Unit 1","address":"10613 Kalmia Street, CA, Los Angeles, 90002, US","ct":"2430.00","ev":"N","apc":"South Los Angeles","cpa":"Southeast Los Angeles","zone":"R1-1","solar":"N","pin_nbr":"090A217   438","use_code":"5","geolocation":"POINT (-118.23181 33.93947)","status_date":"06/29/2006","permit_group":"Building","refresh_time":"06/10/2026","type_lat_lon":"ADDRESS","business_unit":"Plan Check at Counter"},"geometry":{"type":"Point","coordinates":[-118.23181,33.93947]}},{"type":"Feature","properties":{"date":"2005-11-15T00:00:00.000Z","year":2005,"description":"REPLACE TERMITE/ WATER/ DRY ROT DAMAGED FACIA BOARD WITH SAME SIZE & SPACING FOR THE HOUSE  (LESS THAN 10% DAMAGE).    DRYWALL REPAIR, REPLACE BROKEN GLASS FOR WINDOWS, AND REPAIR DOORS.  \"TO COMPLY W/ DEPT. ORDER DATED 10/27/05.  PERMIT WILL EXPIRE 30 DAYS FROM ISSUANCE DATE\".","metadescription":"Bldg-Alter/Repair. 1 or 2 Family Dwelling. REPLACE TERMITE/ WATER/ DRY ROT DAMAGED FACIA BOARD WITH SAME SIZE & SPACING FOR THE HOUSE  (LESS THAN 10% DAMAGE).    DRYWALL REPAIR, REPLACE BROKEN GLASS FOR WINDOWS, AND REPAIR DOORS.  \"TO COMPLY W/ DEPT. ORDER DATED 10/27/05.  PERMIT WILL EXPIRE 30 DAYS FROM ISSUANCE DATE\".. Permit Finaled. 10824 S WEIGAND AVE","address":"10818 1/2 Weigand Avenue, CA, Los Angeles, 90059, US","ct":"2430.00","ev":"N","apc":"South Los Angeles","cpa":"Southeast Los Angeles","zone":"R1-1","solar":"N","pin_nbr":"088-5A217 374","use_code":"1","geolocation":"POINT (-118.23029 33.93632)","status_date":"02/09/2006","permit_group":"Building","refresh_time":"06/10/2026","type_lat_lon":"ADDRESS","business_unit":"Express Permit"},"geometry":{"type":"Point","coordinates":[-118.23029,33.93632]}},{"type":"Feature","properties":{"date":"2005-09-15T00:00:00.000Z","year":2005,"description":"Add sliding glass door to the addition under the permit issued7/5/05 and re-evaluate the prevailing setback.","metadescription":"Bldg-Alter/Repair. 1 or 2 Family Dwelling. Add sliding glass door to the addition under the permit issued7/5/05 and re-evaluate the prevailing setback.. Permit Finaled. 10931 S MONA BLVD","address":"10919 Mona Boulevard, CA, Los Angeles, 90059, US","ct":"2430.00","ev":"N","apc":"South Los Angeles","cpa":"Southeast Los Angeles","zone":"R1-1","solar":"N","pin_nbr":"088-5A217 524","use_code":"1","geolocation":"POINT (-118.22995 33.93519)","status_date":"03/12/2007","construction":"Type V-N Construction","permit_group":"Building","refresh_time":"06/10/2026","type_lat_lon":"ADDRESS","business_unit":"Plan Check at Counter","square_footage":"759"},"geometry":{"type":"Point","coordinates":[-118.22995,33.93519]}},{"type":"Feature","properties":{"date":"2004-11-19T00:00:00.000Z","year":2004,"description":"REPLACE (6)INT DOORS, SAME SIZE AND LOCATION. \"COMPLY WITH DEPARTMENT ORDER DATED 4/3/02.  PERMIT WILL EXPIRE 30 DAYS FROM ISSUANCE DATE\".  Valuation $8,500.00.","metadescription":"Bldg-Alter/Repair. 1 or 2 Family Dwelling. REPLACE (6)INT DOORS, SAME SIZE AND LOCATION. \"COMPLY WITH DEPARTMENT ORDER DATED 4/3/02.  PERMIT WILL EXPIRE 30 DAYS FROM ISSUANCE DATE\".  Valuation $8,500.00.. Permit Finaled. 10702 S JUNIPER ST","address":"10708 Juniper Street, CA, Los Angeles, 90059, US","ct":"2430.00","ev":"N","apc":"South Los Angeles","cpa":"Southeast Los Angeles","zone":"[Q]R4-1","solar":"N","pin_nbr":"090A217   515","use_code":"1","geolocation":"POINT (-118.23232106 33.93877919)","status_date":"01/13/2005","permit_group":"Building","refresh_time":"06/10/2026","type_lat_lon":"PIN","business_unit":"Express Permit"},"geometry":{"type":"Point","coordinates":[-118.23232106,33.93877919]}},{"type":"Feature","properties":{"date":"2004-07-27T00:00:00.000Z","year":2004,"description":"Replace 23 window(s). Same size, location, number, type.  Replace 9 door(s). Same size, location, number, type.  Interior bathroom remodel/repair (no changes in walls or openings).","metadescription":"Bldg-Alter/Repair. 1 or 2 Family Dwelling. Replace 23 window(s). Same size, location, number, type.  Replace 9 door(s). Same size, location, number, type.  Interior bathroom remodel/repair (no changes in walls or openings).. Permit Finaled. 10357 S KALMIA ST","address":"10357 Kalmia Street, CA, Los Angeles, 90002, US","ct":"2430.00","ev":"N","apc":"South Los Angeles","cpa":"Southeast Los Angeles","zone":"R1-1","solar":"N","pin_nbr":"090A217   164","use_code":"2","geolocation":"POINT (-118.23181 33.94143)","status_date":"09/01/2004","permit_group":"Building","refresh_time":"06/10/2026","type_lat_lon":"ADDRESS","business_unit":"Express Permit"},"geometry":{"type":"Point","coordinates":[-118.23181,33.94143]}},{"type":"Feature","properties":{"date":"2004-02-03T00:00:00.000Z","year":2004,"description":"DEMOLISH REAR PORCH  TO COMPLY WITH ORDER FOR ILLEGAL PORCH ENCLOSURE,  CHANGE OUT (12) WINDOWS SAME, SIZE, TYPE, LOCATION, CHANGE OUT (8) INTERIOR DOORS SAME SIZE, TYPE, LOCATION.  REPLACE FLOORING IN BATHROOM IN KITCHEN.  REPLACE KITCHEN CABINETS AND COUNTERTOPS","metadescription":"Bldg-Alter/Repair. 1 or 2 Family Dwelling. DEMOLISH REAR PORCH  TO COMPLY WITH ORDER FOR ILLEGAL PORCH ENCLOSURE,  CHANGE OUT (12) WINDOWS SAME, SIZE, TYPE, LOCATION, CHANGE OUT (8) INTERIOR DOORS SAME SIZE, TYPE, LOCATION.  REPLACE FLOORING IN BATHROOM IN KITCHEN.  REPLACE KITCHEN CABINETS AND COUNTERTOPS. Permit Finaled. 10622 S GORMAN AVE","address":"10624 South Gorman Avenue, CA, Los Angeles, 90002, US","ct":"2430.00","ev":"N","apc":"South Los Angeles","cpa":"Southeast Los Angeles","zone":"R1-1","solar":"N","pin_nbr":"090A217   487","use_code":"1","geolocation":"POINT (-118.23058 33.93912)","status_date":"10/26/2010","permit_group":"Building","refresh_time":"06/10/2026","type_lat_lon":"ADDRESS","business_unit":"Express Permit"},"geometry":{"type":"Point","coordinates":[-118.23058,33.93912]}},{"type":"Feature","properties":{"date":"2003-09-17T00:00:00.000Z","year":2003,"description":"Reroof: remove the existing roof-covering; install approx 16 squares Class A fiberglass shingles; replace 12 windows & 8 doors with the same existing sizes & locations; miscellaneous drywall repair.","metadescription":"Bldg-Alter/Repair. 1 or 2 Family Dwelling. Reroof: remove the existing roof-covering; install approx 16 squares Class A fiberglass shingles; replace 12 windows & 8 doors with the same existing sizes & locations; miscellaneous drywall repair.. Permit Finaled. 10822 S WEIGAND AVE","address":"10818 1/2 Weigand Avenue, CA, Los Angeles, 90059, US","ct":"2430.00","ev":"N","apc":"South Los Angeles","cpa":"Southeast Los Angeles","zone":"R1-1","solar":"N","pin_nbr":"088-5A217 359","use_code":"1","geolocation":"POINT (-118.23027 33.93639)","status_date":"03/16/2004","permit_group":"Building","refresh_time":"06/10/2026","type_lat_lon":"ADDRESS","business_unit":"Express Permit"},"geometry":{"type":"Point","coordinates":[-118.23027,33.93639]}},{"type":"Feature","properties":{"date":"2003-06-10T00:00:00.000Z","year":2003,"description":"Comply with dept order dated 7/9/02, permit is valid for 30-days from date of issuance.  Replace 14 windows & 2 doors with the same existing sizes & locations; miscellaneous drywall :& stucco repair; replace kitchen cabinets/counters; install tile @ kitchen floor.","metadescription":"Bldg-Alter/Repair. 1 or 2 Family Dwelling. Comply with dept order dated 7/9/02, permit is valid for 30-days from date of issuance.  Replace 14 windows & 2 doors with the same existing sizes & locations; miscellaneous drywall :& stucco repair; replace kitchen cabinets/counters; install tile @ kitchen floor.. Permit Finaled. 2226 E 105TH ST","address":"2223 East 105Th Street, CA, Los Angeles, 90002, US","ct":"2430.00","ev":"N","apc":"South Los Angeles","cpa":"Southeast Los Angeles","zone":"R1-1","solar":"N","pin_nbr":"090A217   298","use_code":"1","geolocation":"POINT (-118.23184 33.9405)","status_date":"08/20/2003","permit_group":"Building","refresh_time":"06/10/2026","type_lat_lon":"ADDRESS","business_unit":"Express Permit"},"geometry":{"type":"Point","coordinates":[-118.23184,33.9405]}},{"type":"Feature","properties":{"date":"2002-09-06T00:00:00.000Z","year":2002,"description":"Comply with Dept. Order dated 7-26-01.  Permit will expire 30 days from date of issuance. Work to include installation of 26 windows (same size & location), 4 exterior doors, 2 interior doors, and 2 kitchen cabinets.","metadescription":"Bldg-Alter/Repair. 1 or 2 Family Dwelling. Comply with Dept. Order dated 7-26-01.  Permit will expire 30 days from date of issuance. Work to include installation of 26 windows (same size & location), 4 exterior doors, 2 interior doors, and 2 kitchen cabinets.. Permit Finaled. 2262-2264 E 107TH ST","address":"2262 1/2 East 107Th Street, CA, Los Angeles, 90002, US","ct":"2430.00","ev":"N","apc":"South Los Angeles","zone":"R1-1","solar":"N","pin_nbr":"090A217   523","use_code":"2","geolocation":"POINT (-118.23139 33.9387)","status_date":"10/24/2002","permit_group":"Building","refresh_time":"06/10/2026","type_lat_lon":"ADDRESS","business_unit":"Express Permit"},"geometry":{"type":"Point","coordinates":[-118.23139,33.9387]}},{"type":"Feature","properties":{"date":"2002-08-27T00:00:00.000Z","year":2002,"description":"SUPPLEMENTAL:  CORRECT PARKING INVENTORY.  CLOSE 2 DOORS AND CHANGE SWING OF THE OTHERS TO SWING INSIDE.  (OCC LOAD LESS 50 FOR EACH CLASSROOMS)","metadescription":"Bldg-Alter/Repair. Commercial. SUPPLEMENTAL:  CORRECT PARKING INVENTORY.  CLOSE 2 DOORS AND CHANGE SWING OF THE OTHERS TO SWING INSIDE.  (OCC LOAD LESS 50 FOR EACH CLASSROOMS). Permit Finaled. 2252 E 108TH ST","address":"2251 East 108Th Street, CA, Los Angeles, 90059, US","ct":"2430.00","ev":"N","apc":"South Los Angeles","zone":"R1-1","solar":"N","pin_nbr":"088-5A217 295","use_code":"18","geolocation":"POINT (-118.23199 33.9373)","status_date":"09/09/2002","construction":"Type V-N Construction","permit_group":"Building","refresh_time":"06/10/2026","type_lat_lon":"ADDRESS","business_unit":"Regular Plan Check","square_footage":"2336"},"geometry":{"type":"Point","coordinates":[-118.23199,33.9373]}},{"type":"Feature","properties":{"date":"2002-02-26T00:00:00.000Z","year":2002,"description":"60 DAY PERMIT ISSUED, TO COMPLY WITH ABATE ORDER DATED 6/8/02.     REPLACE 10 WINDOWS, FIX DRY WALL REPLACE 1 EXTERIOR & 6 INTERIOR DOORS.","metadescription":"Bldg-Alter/Repair. 1 or 2 Family Dwelling. 60 DAY PERMIT ISSUED, TO COMPLY WITH ABATE ORDER DATED 6/8/02.     REPLACE 10 WINDOWS, FIX DRY WALL REPLACE 1 EXTERIOR & 6 INTERIOR DOORS.. Permit Finaled. 10836 S JUNIPER ST","address":"10832 Juniper Street, CA, Los Angeles, 90059, US","ct":"2430.00","ev":"N","apc":"South Los Angeles","zone":"R1-1","solar":"N","pin_nbr":"088-5A217 326","use_code":"1","geolocation":"POINT (-118.23311 33.93656)","status_date":"04/10/2002","permit_group":"Building","refresh_time":"06/10/2026","type_lat_lon":"ADDRESS","business_unit":"Express Permit"},"geometry":{"type":"Point","coordinates":[-118.23311,33.93656]}},{"type":"Feature","properties":{"date":"2001-06-28T00:00:00.000Z","year":2001,"description":"Change 9 windows, 3 exterior doors, patch and repair drywall.","metadescription":"Bldg-Alter/Repair. 1 or 2 Family Dwelling. Change 9 windows, 3 exterior doors, patch and repair drywall.. Permit Finaled. 11009 S MONA BLVD","address":"11011 Mona Boulevard, CA, Los Angeles, 90059, US","ct":"2430.00","ev":"N","apc":"South Los Angeles","zone":"R1-1","solar":"N","pin_nbr":"088-5A217 560","use_code":"1","geolocation":"POINT (-118.23005 33.93486)","status_date":"10/09/2001","permit_group":"Building","refresh_time":"06/10/2026","type_lat_lon":"ADDRESS","business_unit":"Express Permit"},"geometry":{"type":"Point","coordinates":[-118.23005,33.93486]}},{"type":"Feature","properties":{"date":"2001-06-11T00:00:00.000Z","year":2001,"description":"comply with dept order dated: 6/19/00: replace 8 windows & 7 doors with the same existing sizes; kitchen cabinets/counters; lath & stucco exterior; miscellaneous drywall repair; permit is valid for 30-days from date of issue.","metadescription":"Bldg-Alter/Repair. 1 or 2 Family Dwelling. comply with dept order dated: 6/19/00: replace 8 windows & 7 doors with the same existing sizes; kitchen cabinets/counters; lath & stucco exterior; miscellaneous drywall repair; permit is valid for 30-days from date of issue.. Permit Finaled. 10842 S JUNIPER ST","address":"10844 Juniper Street, CA, Los Angeles, 90059, US","ct":"2430.00","ev":"N","apc":"South Los Angeles","zone":"R1-1","solar":"N","pin_nbr":"088-5A217 351","use_code":"1","geolocation":"POINT (-118.23315 33.93642)","status_date":"08/23/2001","permit_group":"Building","refresh_time":"06/10/2026","type_lat_lon":"ADDRESS","business_unit":"Express Permit"},"geometry":{"type":"Point","coordinates":[-118.23315,33.93642]}},{"type":"Feature","properties":{"date":"2001-03-14T00:00:00.000Z","year":2001,"description":"General rehab and clean up to comply with Abate order dated 6/5/00, work to include: replace all windows & doors with same existing sizes replace kitchen and bath cabinets and install security bars. Permits to expire 30 days from the date of issuance.","metadescription":"Bldg-Alter/Repair. 1 or 2 Family Dwelling. General rehab and clean up to comply with Abate order dated 6/5/00, work to include: replace all windows & doors with same existing sizes replace kitchen and bath cabinets and install security bars. Permits to expire 30 days from the date of issuance.. Permit Finaled. 10838 S JUNIPER ST","address":"10838 Juniper Street, CA, Los Angeles, 90059, US","ct":"2430.00","ev":"N","apc":"South Los Angeles","zone":"R1-1","solar":"N","pin_nbr":"088-5A217 337","use_code":"1","geolocation":"POINT (-118.23313 33.93649)","status_date":"04/25/2001","permit_group":"Building","refresh_time":"06/10/2026","type_lat_lon":"ADDRESS","business_unit":"Express Permit"},"geometry":{"type":"Point","coordinates":[-118.23313,33.93649]}},{"type":"Feature","properties":{"date":"2000-12-04T00:00:00.000Z","year":2000,"description":"Fire-damage repair less than 10%; reroof: remove old roof; install Class A fiberglass shingles; replace 50% of interior drywall & insulat e; repair stucco as needed; replace 6 windows & 6 doors of same existing sizes; & replace subflooring for one bedroom.","metadescription":"Bldg-Alter/Repair. 1 or 2 Family Dwelling. Fire-damage repair less than 10%; reroof: remove old roof; install Class A fiberglass shingles; replace 50% of interior drywall & insulat e; repair stucco as needed; replace 6 windows & 6 doors of same existing sizes; & replace subflooring for one bedroom.. Permit Finaled. 2312 E 107TH ST","address":"2310 East 107Th Street, CA, Los Angeles, 90002, US","ct":"2430.00","ev":"N","apc":"South Los Angeles","zone":"R1-1","solar":"N","pin_nbr":"090A217   534","use_code":"1","geolocation":"POINT (-118.23026 33.93879)","status_date":"07/10/2001","permit_group":"Building","refresh_time":"06/10/2026","type_lat_lon":"ADDRESS","business_unit":"Express Permit"},"geometry":{"type":"Point","coordinates":[-118.23026,33.93879]}},{"type":"Feature","properties":{"date":"2000-07-27T00:00:00.000Z","year":2000,"description":"Replace 6 doors, & 10 windows with the same existing size; replace subflooring @ bath & kitchen as needed; repair/patch drywall & stucco as needed.","metadescription":"Bldg-Alter/Repair. 1 or 2 Family Dwelling. Replace 6 doors, & 10 windows with the same existing size; replace subflooring @ bath & kitchen as needed; repair/patch drywall & stucco as needed.. Permit Finaled. 10846 S WEIGAND AVE","address":"10850 South Weigand Avenue, CA, Los Angeles, 90059, US","ct":"2430.00","ev":"N","apc":"South Los Angeles","zone":"Currently Not Available","solar":"N","pin_nbr":"088-5A217 465","use_code":"1","geolocation":"POINT (-118.23047 33.93572)","status_date":"08/03/2001","permit_group":"Building","refresh_time":"06/10/2026","type_lat_lon":"ADDRESS","business_unit":"Express Permit"},"geometry":{"type":"Point","coordinates":[-118.23047,33.93572]}},{"type":"Feature","properties":{"date":"2000-07-27T00:00:00.000Z","year":2000,"description":"Replace 6 doors, & 10 windows with the same existing size; replace subflooring @ bath & kitchen as needed; repair drywall & stucco as needed.","metadescription":"Bldg-Alter/Repair. 1 or 2 Family Dwelling. Replace 6 doors, & 10 windows with the same existing size; replace subflooring @ bath & kitchen as needed; repair drywall & stucco as needed.. Permit Finaled. 10848 S WEIGAND AVE","address":"10850 South Weigand Avenue, CA, Los Angeles, 90059, US","ct":"2430.00","ev":"N","apc":"South Los Angeles","zone":"Currently Not Available","solar":"N","pin_nbr":"088-5A217 471","use_code":"1","geolocation":"POINT (-118.23049 33.93566)","status_date":"04/10/2002","permit_group":"Building","refresh_time":"06/10/2026","type_lat_lon":"ADDRESS","business_unit":"Express Permit"},"geometry":{"type":"Point","coordinates":[-118.23049,33.93566]}},{"type":"Feature","properties":{"date":"2000-03-17T00:00:00.000Z","year":2000,"description":"Comply with Abate Order dated: 3/16/1999: Replace 10 windows & 6 doors (same exist size); replace kitchen cabinets; roof repair 10 squares;replace subflooring @ kitchen & bath as needed; drywall as needed; Permit is valid for 60 days from date of isssuance.","metadescription":"Bldg-Alter/Repair. 1 or 2 Family Dwelling. Comply with Abate Order dated: 3/16/1999: Replace 10 windows & 6 doors (same exist size); replace kitchen cabinets; roof repair 10 squares;replace subflooring @ kitchen & bath as needed; drywall as needed; Permit is valid for 60 days from date of isssuance.. Permit Closed. 10611 S JUNIPER ST","address":"10613 Juniper Street, CA, Los Angeles, 90002, US","ct":"2430.00","ev":"N","apc":"South Los Angeles","solar":"N","pin_nbr":"090A217   436","use_code":"1","geolocation":"POINT (-118.23285 33.93941)","status_date":"04/24/2000","permit_group":"Building","refresh_time":"06/10/2026","type_lat_lon":"ADDRESS","business_unit":"Express Permit"},"geometry":{"type":"Point","coordinates":[-118.23285,33.93941]}},{"type":"Feature","properties":{"date":"1999-12-16T00:00:00.000Z","year":1999,"description":"Reroof 10 squares ,wrap exterior lath and stucco, replace 12 windows (block) two entry doors, repair kitchen cabinets and paint. 30 days to complete work per ABATE ORDER dated 7/29/99 (PPRT)","metadescription":"Bldg-Alter/Repair. 1 or 2 Family Dwelling. Reroof 10 squares ,wrap exterior lath and stucco, replace 12 windows (block) two entry doors, repair kitchen cabinets and paint. 30 days to complete work per ABATE ORDER dated 7/29/99 (PPRT). Permit Finaled. 10616 S CROESUS AVE","address":"10616 Croesus Avenue, CA, Los Angeles, 90002, US","ct":"2430.00","ev":"N","apc":"South Los Angeles","solar":"N","pin_nbr":"090A217   460","use_code":"1","geolocation":"POINT (-118.2337 33.93928)","status_date":"04/24/2000","permit_group":"Building","refresh_time":"06/10/2026","type_lat_lon":"ADDRESS","business_unit":"Express Permit"},"geometry":{"type":"Point","coordinates":[-118.2337,33.93928]}},{"type":"Feature","properties":{"date":"1999-09-10T00:00:00.000Z","year":1999,"description":"Comply with Abate Order dated 08/13/98: replace 10 windows; 2 doors; replace kitchen cabinets; drywall as needed;. EQ gas shut-off valve is required. Permit is valid for 30 days from date off issuance","metadescription":"Bldg-Alter/Repair. 1 or 2 Family Dwelling. Comply with Abate Order dated 08/13/98: replace 10 windows; 2 doors; replace kitchen cabinets; drywall as needed;. EQ gas shut-off valve is required. Permit is valid for 30 days from date off issuance. Permit Closed. 10858 S GORMAN AVE","address":"2273 East Santa Ana Boulevard, CA, Los Angeles, 90059, US","ct":"2430.00","ev":"N","apc":"South Los Angeles","solar":"N","pin_nbr":"088-5A217 480","use_code":"1","geolocation":"POINT (-118.23154 33.93559)","status_date":"05/19/2001","permit_group":"Building","refresh_time":"06/10/2026","type_lat_lon":"ADDRESS","business_unit":"Express Permit"},"geometry":{"type":"Point","coordinates":[-118.23154,33.93559]}},{"type":"Feature","properties":{"date":"1999-05-19T00:00:00.000Z","year":1999,"description":"Fire-damage repair less than 5% including smoke damage; drywall as needed; reroof: remove existing roof-covering; existing solid sheath & Class A fiberglass shingles; replace 4 windows, 2 doors; rewire 90% of electrical system; replace tub, lav, kit sink. smoke detectors requ ired.","metadescription":"Bldg-Alter/Repair. 1 or 2 Family Dwelling. Fire-damage repair less than 5% including smoke damage; drywall as needed; reroof: remove existing roof-covering; existing solid sheath & Class A fiberglass shingles; replace 4 windows, 2 doors; rewire 90% of electrical system; replace tub, lav, kit sink. smoke detectors requ ired.. Permit Closed. 2214 E 107TH ST","address":"2214 East 107Th Street, CA, Los Angeles, 90002, US","ct":"2430.00","ev":"N","apc":"South Los Angeles","solar":"N","pin_nbr":"090A217   517","use_code":"1","geolocation":"POINT (-118.23202 33.9388)","status_date":"05/15/2001","permit_group":"Building","refresh_time":"06/10/2026","type_lat_lon":"ADDRESS","business_unit":"Express Permit"},"geometry":{"type":"Point","coordinates":[-118.23202,33.9388]}},{"type":"Feature","properties":{"date":"1998-04-16T00:00:00.000Z","year":1998,"description":"Comply with Abate order: replace kitchen & bath cabinets; replace 16 windows same existing size; replace all doors with the same existing size; replace all plumbing fixtures & water heater. Work is to commen ce on or before 4/24/98 & completed by 5/16/98 Reroof: apply 2nd layer of Class A fiberglass shingles.","metadescription":"Bldg-Alter/Repair. 1 or 2 Family Dwelling. Comply with Abate order: replace kitchen & bath cabinets; replace 16 windows same existing size; replace all doors with the same existing size; replace all plumbing fixtures & water heater. Work is to commen ce on or before 4/24/98 & completed by 5/16/98 Reroof: apply 2nd layer of Class A fiberglass shingles.. Permit Closed. 10601 S JUNIPER ST","address":"10601 Juniper Street, CA, Los Angeles, 90002, US","ct":"2430.00","ev":"N","apc":"South Los Angeles","solar":"N","pin_nbr":"090A217   393","use_code":"1","geolocation":"POINT (-118.23285 33.93969)","status_date":"08/19/1999","permit_group":"Building","refresh_time":"06/10/2026","type_lat_lon":"ADDRESS","business_unit":"Express Permit"},"geometry":{"type":"Point","coordinates":[-118.23285,33.93969]}},{"type":"Feature","properties":{"date":"1998-02-18T00:00:00.000Z","year":1998,"description":"To comply with Abate Order dated 09/17/97; replace 3 doors; patch interior drywall as needed; repair tile in bath; replace kitchen sink; test gas system; replace 6 elect. plugs; PERMIT IS VALID FOR 30 DAYS from date of issuance.","metadescription":"Bldg-Alter/Repair. 1 or 2 Family Dwelling. To comply with Abate Order dated 09/17/97; replace 3 doors; patch interior drywall as needed; repair tile in bath; replace kitchen sink; test gas system; replace 6 elect. plugs; PERMIT IS VALID FOR 30 DAYS from date of issuance.. Permit Closed. 10838 S WEIGAND AVE","address":"10839 Weigand Avenue, CA, Los Angeles, 90059, US","ct":"2430.00","ev":"N","apc":"South Los Angeles","solar":"N","pin_nbr":"088-5A217 435","use_code":"1","geolocation":"POINT (-118.23041 33.93592)","status_date":"08/19/1999","permit_group":"Building","refresh_time":"06/10/2026","type_lat_lon":"ADDRESS","business_unit":"Express Permit"},"geometry":{"type":"Point","coordinates":[-118.23041,33.93592]}}]}
