{"type":"FeatureCollection","features":[{"type":"Feature","properties":{"date":"2014-07-16T00:00:00.000Z","year":2014,"description":"Supplemental permit to 14030-70000-04152 to revise backfill from CLSM to uncertified fill","metadescription":"Grading. 1 or 2 Family Dwelling. Supplemental permit to 14030-70000-04152 to revise backfill from CLSM to uncertified fill. Permit Finaled. 2225 E 105TH ST","address":"2223 East 105Th Street, CA, Los Angeles, 90002, US","ct":"2430.00","ev":"N","apc":"South Los Angeles","cpa":"Southeast Los Angeles","zone":"R1-1","solar":"N","pin_nbr":"090A217   265","use_code":"60","geolocation":"POINT (-118.23184 33.94069)","status_date":"07/23/2014","permit_group":"Building","refresh_time":"06/10/2026","type_lat_lon":"ADDRESS","business_unit":"Plan Check at Counter"},"geometry":{"type":"Point","coordinates":[-118.23184,33.94069]}},{"type":"Feature","properties":{"date":"2014-07-07T00:00:00.000Z","year":2014,"description":"BACKFILL UNPERMITTED POOL EXCAVATION WITH A CLSM MATERIAL (SLURRY) PER INFORMATION BULLETIN P/BC 2011-121 FOR NON STRUCTURAL BACKFILL.","metadescription":"Grading. 1 or 2 Family Dwelling. BACKFILL UNPERMITTED POOL EXCAVATION WITH A CLSM MATERIAL (SLURRY) PER INFORMATION BULLETIN P/BC 2011-121 FOR NON STRUCTURAL BACKFILL.. Permit Finaled. 2225 E 105TH ST","address":"2223 East 105Th Street, CA, Los Angeles, 90002, US","ct":"2430.00","ev":"N","apc":"South Los Angeles","cpa":"Southeast Los Angeles","zone":"R1-1","solar":"N","pin_nbr":"090A217   265","use_code":"60","geolocation":"POINT (-118.23184 33.94069)","status_date":"07/22/2014","permit_group":"Building","refresh_time":"06/10/2026","type_lat_lon":"ADDRESS","business_unit":"Plan Check at Counter"},"geometry":{"type":"Point","coordinates":[-118.23184,33.94069]}},{"type":"Feature","properties":{"date":"2009-04-23T00:00:00.000Z","year":2009,"description":"GRADING PERMIT FOR NON-HILLSIDE GRADING: EXCAVATION AND RECOMPACTION OF 92 CU. YD.","metadescription":"Grading. 1 or 2 Family Dwelling. GRADING PERMIT FOR NON-HILLSIDE GRADING: EXCAVATION AND RECOMPACTION OF 92 CU. YD.. Permit Finaled. 10740 S GORMAN AVE","address":"10740 Gorman Avenue, CA, Los Angeles, 90059, US","ct":"2430.00","ev":"N","apc":"South Los Angeles","cpa":"Southeast Los Angeles","zone":"R1-1","solar":"N","pin_nbr":"088-5A217 139","use_code":"60","geolocation":"POINT (-118.23089 33.93777)","status_date":"01/15/2010","permit_group":"Building","refresh_time":"06/10/2026","type_lat_lon":"ADDRESS","business_unit":"Regular Plan Check"},"geometry":{"type":"Point","coordinates":[-118.23089,33.93777]}},{"type":"Feature","properties":{"date":"2007-11-19T00:00:00.000Z","year":2007,"description":"SUPPLEMENTAL PERMIT TO 06030-10000-03547 TO COLLECT INVESTIGATION FEES PER INSP. RODRIGUEZ.","metadescription":"Grading. 1 or 2 Family Dwelling. SUPPLEMENTAL PERMIT TO 06030-10000-03547 TO COLLECT INVESTIGATION FEES PER INSP. RODRIGUEZ.. Permit Finaled. 2333 E SANTA ANA BLVD SOUTH","address":"2350 Santa Ana Boulevard North, CA, Los Angeles, 90059, US","ct":"2430.00, 2431.00","ev":"N","apc":"South Los Angeles","cpa":"Southeast Los Angeles","zone":"(Q)RZ2.5-1","solar":"N","pin_nbr":"088-5A217 660","use_code":"60","geolocation":"POINT (-118.231 33.93443)","status_date":"02/24/2010","permit_group":"Building","refresh_time":"06/10/2026","type_lat_lon":"ADDRESS","business_unit":"Express Permit"},"geometry":{"type":"Point","coordinates":[-118.231,33.93443]}},{"type":"Feature","properties":{"date":"2007-07-06T00:00:00.000Z","year":2007,"description":"SITE PREP FOR PROPOSED TRACT HOMES PER TENTATIVE TRACT NO. 64598.  PROPOSED CUT = 27,730 CU. YDS., FILL = 36,204 CU. YDS., EXPORT = 9,445 CU. YDS., IMPORT = 8474 CU. YDS.","metadescription":"Grading. 1 or 2 Family Dwelling. SITE PREP FOR PROPOSED TRACT HOMES PER TENTATIVE TRACT NO. 64598.  PROPOSED CUT = 27,730 CU. YDS., FILL = 36,204 CU. YDS., EXPORT = 9,445 CU. YDS., IMPORT = 8474 CU. YDS.. Permit Finaled. 2333 E SANTA ANA BLVD SOUTH","address":"2350 Santa Ana Boulevard North, CA, Los Angeles, 90059, US","ct":"2430.00, 2431.00","ev":"N","apc":"South Los Angeles","cpa":"Southeast Los Angeles","zone":"(Q)RZ2.5-1","solar":"N","pin_nbr":"088-5A217 660","use_code":"60","geolocation":"POINT (-118.231 33.93443)","status_date":"02/22/2010","permit_group":"Building","refresh_time":"06/10/2026","type_lat_lon":"ADDRESS","business_unit":"Regular Plan Check"},"geometry":{"type":"Point","coordinates":[-118.231,33.93443]}},{"type":"Feature","properties":{"date":"2005-10-19T00:00:00.000Z","year":2005,"description":"REMOVAL AND RECOMPACTION OF UPPER FIVE FEET FOR TWO LOTS.","metadescription":"Grading. 1 or 2 Family Dwelling. REMOVAL AND RECOMPACTION OF UPPER FIVE FEET FOR TWO LOTS.. Permit Finaled. 10751 S MONA BLVD","address":"10751 South Mona Boulevard, CA, Los Angeles, 90059, US","ct":"2430.00","ev":"N","apc":"South Los Angeles","cpa":"Southeast Los Angeles","zone":"R1-1","solar":"N","pin_nbr":"088-5A217 200","use_code":"60","geolocation":"POINT (-118.22935 33.93737)","status_date":"06/29/2006","permit_group":"Building","refresh_time":"06/10/2026","type_lat_lon":"ADDRESS","business_unit":"Plan Check at Counter"},"geometry":{"type":"Point","coordinates":[-118.22935,33.93737]}}]}
