{"type":"FeatureCollection","features":[{"type":"Feature","properties":{"date":"2025-06-03T00:00:00.000Z","year":2025,"description":"**ePlan**Supplemental permit to 24016-10000-16092 to collect mechanical, electrical and plumbing fees","metadescription":"Bldg-Alter/Repair. 1 or 2 Family Dwelling. **ePlan**Supplemental permit to 24016-10000-16092 to collect mechanical, electrical and plumbing fees. PC Info Complete. 2357-2357 1/2 E 108TH ST","address":"2357 East 108Th Street, CA, Los Angeles, 90059, US","ct":"2430.02","ev":"N","apc":"South Los Angeles","cpa":"Southeast Los Angeles","zone":"R1-1","solar":"N","pin_nbr":"088-5A217 206","use_code":"1","status_date":"06/06/2025","permit_group":"Building","refresh_time":"06/10/2026","type_lat_lon":"ADDRESS","business_unit":"Plan Check at Counter"},"geometry":{"type":"Point","coordinates":[-118.22991,33.93705]}},{"type":"Feature","properties":{"date":"2019-05-02T00:00:00.000Z","year":2019,"description":"Kitchen/ 2 bathroom remodel for residential buildings (no structural changes).  PLUMBING AND ELECTRICAL INCLUDEDRe-roof with Class A or B material weighing less than 6 pounds per sq. ft. over new solid sheathing __10____Squares. Class A roof covering is required within Very High Fire Hazard Severity Zone (VHFHSZ). For residential roof replacement > 50% of the total roof area, apply Cool Roof Product labeled and certified by Cool Roof Rating Council (CRRC). Cool Roof may be required for non-residential buildings per Title 24, Part 6, Section 141.0 (b) 2B.","metadescription":"Bldg-Alter/Repair. 1 or 2 Family Dwelling. Kitchen/ 2 bathroom remodel for residential buildings (no structural changes).  PLUMBING AND ELECTRICAL INCLUDEDRe-roof with Class A or B material weighing less than 6 pounds per sq. ft. over new solid sheathing __10____Squares. Class A roof covering is required within Very High Fire Hazard Severity Zone (VHFHSZ). For residential roof replacement > 50% of the total roof area, apply Cool Roof Product labeled and certified by Cool Roof Rating Council (CRRC). Cool Roof may be required for non-residential buildings per Title 24, Part 6, Section 141.0 (b) 2B.. Permit Finaled. 10625 S GORMAN AVE","address":"10625 Gorman Avenue, CA, Los Angeles, 90002, US","ct":"2430.00","ev":"N","apc":"South Los Angeles","cpa":"Southeast Los Angeles","zone":"R1-1","solar":"N","pin_nbr":"090A217   505","use_code":"1","geolocation":"POINT (-118.23077 33.93899)","status_date":"10/09/2019","permit_group":"Building","refresh_time":"06/10/2026","type_lat_lon":"ADDRESS","business_unit":"Express Permit"},"geometry":{"type":"Point","coordinates":[-118.23077,33.93899]}},{"type":"Feature","properties":{"date":"2018-07-23T00:00:00.000Z","year":2018,"description":"KITCHEN/BATHROOM REMODEL FOR RESIDENTIAL BUILDINGS (NO STRUCTURAL CHANGES) COMBINED WITH HVAC/PLUMBING.","metadescription":"Bldg-Alter/Repair. 1 or 2 Family Dwelling. KITCHEN/BATHROOM REMODEL FOR RESIDENTIAL BUILDINGS (NO STRUCTURAL CHANGES) COMBINED WITH HVAC/PLUMBING.. Permit Finaled. 10823 S WEIGAND AVE","address":"10818 1/2 Weigand Avenue, CA, Los Angeles, 90059, US","ct":"2430.00","ev":"N","apc":"South Los Angeles","cpa":"Southeast Los Angeles","zone":"R1-1","solar":"N","pin_nbr":"088-5A217 348","use_code":"1","geolocation":"POINT (-118.23047 33.93636)","status_date":"08/09/2018","permit_group":"Building","refresh_time":"06/10/2026","type_lat_lon":"ADDRESS","business_unit":"Express Permit"},"geometry":{"type":"Point","coordinates":[-118.23047,33.93636]}},{"type":"Feature","properties":{"date":"2017-06-06T00:00:00.000Z","year":2017,"description":"KITCHEN AND BATHROOM REMODEL COMBINED WITH ELECTRICAL, PLUMBING AND HVAC (FOR RESIDENTIAL BUILDINGS; NO STRUCTURAL CHANGES). CHANGE OUT 6  (SAME SIZE & TYPE FOR RESIDENTIAL BUILDINGS ONLY) DUAL GLAZING, LABELED AND CERTIFIED BY NATIONAL FENESTRATION RATING COUNCIL (NFRC), IS REQUIRED FOR DOORS AND WINDOWS REPLACED IN ALL RESIDENTIAL BUILDING, THREE STORIES OR LESS, PER SECTION 152(B) OF TITLE 24. DRYWALL/PLASTER PATCH AND PAINT.","metadescription":"Bldg-Alter/Repair. 1 or 2 Family Dwelling. KITCHEN AND BATHROOM REMODEL COMBINED WITH ELECTRICAL, PLUMBING AND HVAC (FOR RESIDENTIAL BUILDINGS; NO STRUCTURAL CHANGES). CHANGE OUT 6  (SAME SIZE & TYPE FOR RESIDENTIAL BUILDINGS ONLY) DUAL GLAZING, LABELED AND CERTIFIED BY NATIONAL FENESTRATION RATING COUNCIL (NFRC), IS REQUIRED FOR DOORS AND WINDOWS REPLACED IN ALL RESIDENTIAL BUILDING, THREE STORIES OR LESS, PER SECTION 152(B) OF TITLE 24. DRYWALL/PLASTER PATCH AND PAINT.. Issued. 10822 S GORMAN AVE","address":"10825 Gorman Avenue, CA, Los Angeles, 90059, US","ct":"2430.00","ev":"N","apc":"South Los Angeles","cpa":"Southeast Los Angeles","zone":"R1-1","solar":"N","pin_nbr":"088-5A217 321","use_code":"1","geolocation":"POINT (-118.23124 33.93659)","status_date":"06/06/2017","permit_group":"Building","refresh_time":"06/10/2026","type_lat_lon":"ADDRESS","business_unit":"Express Permit"},"geometry":{"type":"Point","coordinates":[-118.23124,33.93659]}},{"type":"Feature","properties":{"date":"2016-01-05T00:00:00.000Z","year":2016,"description":"BATHROOM/KITCHEN REMODEL COMBINED W/ELECTRICAL, PLUMBING AND HVAC. (FOR RESIDENTIAL BUILDINGS:  NO STRUCTURAL CHANGES)CHANGE OUT 6-RETROFIT WINDOWS (SAME SIZE AND TYPE)  DUAL GLAZING, LABELED AND CERTIFIED BY NATIONAL FENESTRATION RATING OCUNCIL (NFRC) IS REQUIRED FOR DOORS AND WINDOWS REPLACED IN ALL RESIDENTIAL BUILDNGS, THREE STORIES OR LESS, PER SECTION 152(b) OF TITLE 24.","metadescription":"Bldg-Alter/Repair. 1 or 2 Family Dwelling. BATHROOM/KITCHEN REMODEL COMBINED W/ELECTRICAL, PLUMBING AND HVAC. (FOR RESIDENTIAL BUILDINGS:  NO STRUCTURAL CHANGES)CHANGE OUT 6-RETROFIT WINDOWS (SAME SIZE AND TYPE)  DUAL GLAZING, LABELED AND CERTIFIED BY NATIONAL FENESTRATION RATING OCUNCIL (NFRC) IS REQUIRED FOR DOORS AND WINDOWS REPLACED IN ALL RESIDENTIAL BUILDNGS, THREE STORIES OR LESS, PER SECTION 152(b) OF TITLE 24.. Permit Expired. 10828 S GORMAN AVE","address":"10825 Gorman Avenue, CA, Los Angeles, 90059, US","ct":"2430.00","ev":"N","apc":"South Los Angeles","cpa":"Southeast Los Angeles","zone":"R1-1","solar":"N","pin_nbr":"088-5A217 356","use_code":"1","geolocation":"POINT (-118.2313 33.93639)","status_date":"02/02/2018","permit_group":"Building","refresh_time":"06/10/2026","type_lat_lon":"ADDRESS","business_unit":"Express Permit"},"geometry":{"type":"Point","coordinates":[-118.2313,33.93639]}},{"type":"Feature","properties":{"date":"2015-10-02T00:00:00.000Z","year":2015,"description":"BATHROOM REMODEL COMBINED WITH ELECTRICAL, PLUMBING AND HVAC (FOR RESIDENTIAL BUILDINGS; NO STRUCTURAL CHANGES). NEW STUCCO. DRYWALL/PLASTER AND PAINT. CHANGE OUT  8 WINDOWS AND 2 DOORS (SAME SIZE & TYPE FOR RESIDENTIAL BUILDINGS ONLY) DUAL GLAZING, LABELED AND CERTIFIED BY NATIONAL FENESTRATION RATING COUNCIL (NFRC), IS REQUIRED FOR DOORS AND WINDOWS REPLACED IN ALL RESIDENTIAL BUILDINGS, THREE STORIES OR LESS, PER SECTION 152(B) OF TITLE 24.","metadescription":"Bldg-Alter/Repair. 1 or 2 Family Dwelling. BATHROOM REMODEL COMBINED WITH ELECTRICAL, PLUMBING AND HVAC (FOR RESIDENTIAL BUILDINGS; NO STRUCTURAL CHANGES). NEW STUCCO. DRYWALL/PLASTER AND PAINT. CHANGE OUT  8 WINDOWS AND 2 DOORS (SAME SIZE & TYPE FOR RESIDENTIAL BUILDINGS ONLY) DUAL GLAZING, LABELED AND CERTIFIED BY NATIONAL FENESTRATION RATING COUNCIL (NFRC), IS REQUIRED FOR DOORS AND WINDOWS REPLACED IN ALL RESIDENTIAL BUILDINGS, THREE STORIES OR LESS, PER SECTION 152(B) OF TITLE 24.. Permit Finaled. 10826 S KALMIA ST","address":"10826 Kalmia Street, CA, Los Angeles, 90059, US","ct":"2430.00","ev":"N","apc":"South Los Angeles","cpa":"Southeast Los Angeles","zone":"R1-1","solar":"N","pin_nbr":"088-5A217 312","use_code":"1","geolocation":"POINT (-118.23227 33.93666)","status_date":"08/04/2016","permit_group":"Building","refresh_time":"06/10/2026","type_lat_lon":"ADDRESS","business_unit":"Express Permit"},"geometry":{"type":"Point","coordinates":[-118.23227,33.93666]}},{"type":"Feature","properties":{"date":"2014-06-19T00:00:00.000Z","year":2014,"description":"Change out 7 Windows (Same size & type for residential building only). Kitchen & Bathroom remodel (For residential buildings only). Combine with Electrical & Plumbing.","metadescription":"Bldg-Alter/Repair. 1 or 2 Family Dwelling. Change out 7 Windows (Same size & type for residential building only). Kitchen & Bathroom remodel (For residential buildings only). Combine with Electrical & Plumbing.. Permit Finaled. 10603 S JUNIPER ST","address":"10601 Juniper Street, CA, Los Angeles, 90002, US","ct":"2430.00","ev":"N","apc":"South Los Angeles","cpa":"Southeast Los Angeles","zone":"R1-1","solar":"N","pin_nbr":"090A217   402","use_code":"1","geolocation":"POINT (-118.23285 33.93962)","status_date":"10/31/2014","permit_group":"Building","refresh_time":"06/10/2026","type_lat_lon":"ADDRESS","business_unit":"Express Permit"},"geometry":{"type":"Point","coordinates":[-118.23285,33.93962]}},{"type":"Feature","properties":{"date":"2014-01-14T00:00:00.000Z","year":2014,"description":"Kitchen remodel to (E) SFD.   New stucco over (E) siding.  Related Electrical, and Plumbing Included.","metadescription":"Bldg-Alter/Repair. 1 or 2 Family Dwelling. Kitchen remodel to (E) SFD.   New stucco over (E) siding.  Related Electrical, and Plumbing Included.. Permit Finaled. 2300 E 108TH ST","address":"2306 East 108Th Street, CA, Los Angeles, 90059, US","ct":"2430.00","ev":"N","apc":"South Los Angeles","cpa":"Southeast Los Angeles","zone":"R1-1","solar":"N","pin_nbr":"088-5A217 244","use_code":"1","geolocation":"POINT (-118.23105 33.93711)","status_date":"04/22/2014","permit_group":"Building","refresh_time":"06/10/2026","type_lat_lon":"ADDRESS","business_unit":"Express Permit"},"geometry":{"type":"Point","coordinates":[-118.23105,33.93711]}},{"type":"Feature","properties":{"date":"2013-02-20T00:00:00.000Z","year":2013,"description":"Kitchen and bath remodel (no structural changes): New kitchen cabinets and countertops.  Related electrical, plumbing and hvac included.","metadescription":"Bldg-Alter/Repair. 1 or 2 Family Dwelling. Kitchen and bath remodel (no structural changes): New kitchen cabinets and countertops.  Related electrical, plumbing and hvac included.. Permit Finaled. 10813 S GORMAN AVE","address":"2306 East 108Th Street, CA, Los Angeles, 90059, US","ct":"2430.00","ev":"N","apc":"South Los Angeles","cpa":"Southeast Los Angeles","zone":"R1-1","solar":"N","pin_nbr":"088-5A217 271","use_code":"1","geolocation":"POINT (-118.23137 33.93683)","status_date":"03/26/2013","permit_group":"Building","refresh_time":"06/10/2026","type_lat_lon":"ADDRESS","business_unit":"Express Permit"},"geometry":{"type":"Point","coordinates":[-118.23137,33.93683]}},{"type":"Feature","properties":{"date":"2012-10-01T00:00:00.000Z","year":2012,"description":"Kitchen and bathroom remodel (no structural changes): Related electrical and plumbing included.  Install quick release for bedroom windows.","metadescription":"Bldg-Alter/Repair. 1 or 2 Family Dwelling. Kitchen and bathroom remodel (no structural changes): Related electrical and plumbing included.  Install quick release for bedroom windows.. Permit Finaled. 10521 S JUNIPER ST","address":"10517 Juniper Street, CA, Los Angeles, 90002, US","ct":"2430.00","ev":"N","apc":"South Los Angeles","cpa":"Southeast Los Angeles","zone":"R1-1","solar":"N","pin_nbr":"090A217   352","use_code":"1","geolocation":"POINT (-118.23285 33.93996)","status_date":"12/19/2012","permit_group":"Building","refresh_time":"06/10/2026","type_lat_lon":"ADDRESS","business_unit":"Express Permit"},"geometry":{"type":"Point","coordinates":[-118.23285,33.93996]}},{"type":"Feature","properties":{"date":"2011-04-20T00:00:00.000Z","year":2011,"description":"Convert garage back to original use by removal of unapproved wall and install new garage door.    (Remove plumbing and drywall) \"TO COMPLY WITH DEPT. ORDER DATED 4/18/08.  PERMIT WILL EXPIRE 30 DAYS FROM DATE OF ISSUANCE\".  CEIS CASE NUMBER 218096.  *****INVESTIGATION FEE INCLUDED******","metadescription":"Bldg-Alter/Repair. 1 or 2 Family Dwelling. Convert garage back to original use by removal of unapproved wall and install new garage door.    (Remove plumbing and drywall) \"TO COMPLY WITH DEPT. ORDER DATED 4/18/08.  PERMIT WILL EXPIRE 30 DAYS FROM DATE OF ISSUANCE\".  CEIS CASE NUMBER 218096.  *****INVESTIGATION FEE INCLUDED******. Permit Finaled. 10518 S JUNIPER ST","address":"10518 Juniper Street, CA, Los Angeles, 90002, US","ct":"2430.00","ev":"N","apc":"South Los Angeles","cpa":"Southeast Los Angeles","zone":"R1-1","solar":"N","pin_nbr":"090A217   344","use_code":"7","geolocation":"POINT (-118.23266 33.94003)","status_date":"08/31/2011","permit_group":"Building","refresh_time":"06/10/2026","type_lat_lon":"ADDRESS","business_unit":"Express Permit"},"geometry":{"type":"Point","coordinates":[-118.23266,33.94003]}},{"type":"Feature","properties":{"date":"2011-04-01T00:00:00.000Z","year":2011,"description":"Bath and Kitchen Rehab. for (E) Duplex.  (Electrical, Plumbing and Heating Included)","metadescription":"Bldg-Alter/Repair. 1 or 2 Family Dwelling. Bath and Kitchen Rehab. for (E) Duplex.  (Electrical, Plumbing and Heating Included). Permit Finaled. 10814-10814 1/2 S JUNIPER ST","address":"10814 Juniper Street, CA, Los Angeles, 90059, US","ct":"2430.00","ev":"N","apc":"South Los Angeles","cpa":"Southeast Los Angeles","zone":"R1-1","solar":"N","pin_nbr":"088-5A217 241","use_code":"2","geolocation":"POINT (-118.23293 33.93716)","status_date":"05/24/2011","permit_group":"Building","refresh_time":"06/10/2026","type_lat_lon":"ADDRESS","business_unit":"Express Permit"},"geometry":{"type":"Point","coordinates":[-118.23293,33.93716]}},{"type":"Feature","properties":{"date":"2010-12-23T00:00:00.000Z","year":2010,"description":"Change out (13) windows same size and location.  Kitchen/bathroom remodel (no structural changes).  Related plumbing and electrical included. Investigation fee included.","metadescription":"Bldg-Alter/Repair. 1 or 2 Family Dwelling. Change out (13) windows same size and location.  Kitchen/bathroom remodel (no structural changes).  Related plumbing and electrical included. Investigation fee included.. Permit Finaled. 10624 S CROESUS AVE","address":"10624 1/2 Croesus Avenue, CA, Los Angeles, 90002, US","ct":"2430.00","ev":"N","apc":"South Los Angeles","cpa":"Southeast Los Angeles","zone":"R1-1","solar":"N","pin_nbr":"090A217   491","use_code":"1","geolocation":"POINT (-118.23369 33.93907)","status_date":"04/12/2011","permit_group":"Building","refresh_time":"06/10/2026","type_lat_lon":"ADDRESS","business_unit":"Express Permit"},"geometry":{"type":"Point","coordinates":[-118.23369,33.93907]}},{"type":"Feature","properties":{"date":"2010-12-23T00:00:00.000Z","year":2010,"description":"Proposed major interior remodel in rear dwelling: Relocate all rooms; window change out; insulation; re-drywall;  Resulting in a 2-bed & 1-bath unit.  Related elec/hvac/plumbing.","metadescription":"Bldg-Alter/Repair. 1 or 2 Family Dwelling. Proposed major interior remodel in rear dwelling: Relocate all rooms; window change out; insulation; re-drywall;  Resulting in a 2-bed & 1-bath unit.  Related elec/hvac/plumbing.. Permit Finaled. 10624 1/2 S CROESUS AVE","address":"10624 1/2 Croesus Avenue, CA, Los Angeles, 90002, US","ct":"2430.00","ev":"N","apc":"South Los Angeles","cpa":"Southeast Los Angeles","zone":"R1-1","solar":"N","pin_nbr":"090A217   491","use_code":"1","geolocation":"POINT (-118.23369 33.93907)","status_date":"04/12/2011","permit_group":"Building","refresh_time":"06/10/2026","type_lat_lon":"ADDRESS","business_unit":"Plan Check at Counter"},"geometry":{"type":"Point","coordinates":[-118.23369,33.93907]}},{"type":"Feature","properties":{"date":"2010-10-04T00:00:00.000Z","year":2010,"description":"Supplemental permit for Kitchen/bathroom remodel (no structural changes): Kitchen: Replace kitchen cabinets/countertops, change out kitchen sink and retile floor.  Bathroom: Tile wall around shower area, minor drywall repair and change out of sink. Plumbing included.","metadescription":"Bldg-Alter/Repair. 1 or 2 Family Dwelling. Supplemental permit for Kitchen/bathroom remodel (no structural changes): Kitchen: Replace kitchen cabinets/countertops, change out kitchen sink and retile floor.  Bathroom: Tile wall around shower area, minor drywall repair and change out of sink. Plumbing included.. Permit Finaled. 10357 S GORMAN AVE","address":"10357 Gorman Avenue, CA, Los Angeles, 90002, US","ct":"2430.00","ev":"N","apc":"South Los Angeles","cpa":"Southeast Los Angeles","zone":"R1-1","solar":"N","pin_nbr":"090A217   166","use_code":"1","geolocation":"POINT (-118.23077 33.94146)","status_date":"12/26/2012","permit_group":"Building","refresh_time":"06/10/2026","type_lat_lon":"ADDRESS","business_unit":"Express Permit"},"geometry":{"type":"Point","coordinates":[-118.23077,33.94146]}},{"type":"Feature","properties":{"date":"2010-08-10T00:00:00.000Z","year":2010,"description":"Kitchen/bathroom remodel (no structural changes): Replace kitchen cabinets.  Change out (2) windows/(2) doors same size and location.  Repair drywall (no wall added).  Stucco Repair.  Related electrical/plumbing included.\"COMPLY WITH DEPARTMENT ORDER effective date 04/30/2010. PERMIT WILL EXPIRE 30DAYS FROM ISSUANCE DATE.","metadescription":"Bldg-Alter/Repair. 1 or 2 Family Dwelling. Kitchen/bathroom remodel (no structural changes): Replace kitchen cabinets.  Change out (2) windows/(2) doors same size and location.  Repair drywall (no wall added).  Stucco Repair.  Related electrical/plumbing included.\"COMPLY WITH DEPARTMENT ORDER effective date 04/30/2010. PERMIT WILL EXPIRE 30DAYS FROM ISSUANCE DATE.. Permit Finaled. 10844 S GORMAN AVE","address":"10849 Gorman Avenue, CA, Los Angeles, 90059, US","ct":"2430.00","ev":"N","apc":"South Los Angeles","cpa":"Southeast Los Angeles","zone":"R1-1","solar":"N","pin_nbr":"088-5A217 418","use_code":"1","geolocation":"POINT (-118.23142 33.93599)","status_date":"10/19/2010","permit_group":"Building","refresh_time":"06/10/2026","type_lat_lon":"ADDRESS","business_unit":"Express Permit"},"geometry":{"type":"Point","coordinates":[-118.23142,33.93599]}},{"type":"Feature","properties":{"date":"2010-07-14T00:00:00.000Z","year":2010,"description":"Kitchen remodel (no structural changes): Install granite counter tops and replace sink. (related plumbing included)","metadescription":"Bldg-Alter/Repair. 1 or 2 Family Dwelling. Kitchen remodel (no structural changes): Install granite counter tops and replace sink. (related plumbing included). Permit Finaled. 10834 S KALMIA ST","address":"10830 Kalmia Street, CA, Los Angeles, 90059, US","ct":"2430.00","ev":"N","apc":"South Los Angeles","cpa":"Southeast Los Angeles","zone":"R1-1","solar":"N","pin_nbr":"088-5A217 339","use_code":"1","geolocation":"POINT (-118.23232 33.93646)","status_date":"08/09/2010","permit_group":"Building","refresh_time":"06/10/2026","type_lat_lon":"ADDRESS","business_unit":"Express Permit"},"geometry":{"type":"Point","coordinates":[-118.23232,33.93646]}},{"type":"Feature","properties":{"date":"2009-01-06T00:00:00.000Z","year":2009,"description":"Proposed 15'x18' one car carport addition to the rear of the (e) SFD.  Also, convert  (e) attached garage into a bedroom, bathroom, porch and closets.  Related elec/plumbing/hvac.  Conventional Light-Frame construction  per type v sheet.  See comments.","metadescription":"Bldg-Addition. 1 or 2 Family Dwelling. Proposed 15'x18' one car carport addition to the rear of the (e) SFD.  Also, convert  (e) attached garage into a bedroom, bathroom, porch and closets.  Related elec/plumbing/hvac.  Conventional Light-Frame construction  per type v sheet.  See comments.. CofO Issued. 2310 E 107TH ST","address":"2310 East 107Th Street, CA, Los Angeles, 90002, US","ct":"2430.00","ev":"N","apc":"South Los Angeles","cpa":"Southeast Los Angeles","zone":"R1-1","solar":"N","pin_nbr":"090A217   533","use_code":"1","geolocation":"POINT (-118.23032 33.93874)","status_date":"06/18/2009","construction":"Type V-B Construction","permit_group":"Building","refresh_time":"06/10/2026","type_lat_lon":"ADDRESS","business_unit":"Plan Check at Counter","square_footage":"376"},"geometry":{"type":"Point","coordinates":[-118.23032,33.93874]}},{"type":"Feature","properties":{"date":"2008-07-14T00:00:00.000Z","year":2008,"description":"New 18' x 22' irregular addition to rear of existing SFD creating master bedroom, master bath, & walk-in closet (includes electrical, hvac, & plumbing)","metadescription":"Bldg-Addition. 1 or 2 Family Dwelling. New 18' x 22' irregular addition to rear of existing SFD creating master bedroom, master bath, & walk-in closet (includes electrical, hvac, & plumbing). CofO Issued. 10604 S KALMIA ST","address":"10604 Kalmia Street, CA, Los Angeles, 90002, US","ct":"2430.00","ev":"N","apc":"South Los Angeles","cpa":"Southeast Los Angeles","zone":"R1-1","solar":"N","pin_nbr":"090A217   406","use_code":"1","geolocation":"POINT (-118.23162 33.93961)","status_date":"02/18/2010","construction":"Type V-B Construction","permit_group":"Building","refresh_time":"06/10/2026","type_lat_lon":"ADDRESS","business_unit":"Plan Check at Counter","square_footage":"1147.5"},"geometry":{"type":"Point","coordinates":[-118.23162,33.93961]}},{"type":"Feature","properties":{"date":"2007-01-11T00:00:00.000Z","year":2007,"description":"Proposed  24'x24' 1-story addition to the rear of the (e) SFD consisting of  (2) bedrooms, laundry area, and (1) bathroom.  Also, enlarge kitchen and replace windows.   Related elec/plumbing/hvac.  Conventional Light-Frame construction  per type v sheet.","metadescription":"Bldg-Addition. 1 or 2 Family Dwelling. Proposed  24'x24' 1-story addition to the rear of the (e) SFD consisting of  (2) bedrooms, laundry area, and (1) bathroom.  Also, enlarge kitchen and replace windows.   Related elec/plumbing/hvac.  Conventional Light-Frame construction  per type v sheet.. Permit Expired. 10728 S CROESUS AVE","address":"10728 Croesus Avenue, CA, Los Angeles, 90059, US","ct":"2430.00","ev":"N","apc":"South Los Angeles","cpa":"Southeast Los Angeles","zone":"R1-1","solar":"N","pin_nbr":"088-5A217  66","use_code":"1","geolocation":"POINT (-118.2337 33.93816)","status_date":"03/19/2013","construction":"Type V-N Construction","permit_group":"Building","refresh_time":"06/10/2026","type_lat_lon":"ADDRESS","business_unit":"Plan Check at Counter","square_footage":"576"},"geometry":{"type":"Point","coordinates":[-118.2337,33.93816]}},{"type":"Feature","properties":{"date":"2005-07-05T00:00:00.000Z","year":2005,"description":"PROPOSED 23'X33' 1-STORY ADDITION TO THE REAR OF THE (E) SFD CONSISTING OF (2) BEDROOMS AND BATHROOM. CONSTRUCTION PER TYPE V SHEET.  RELATED ELEC/HVAC/PLUMBING.","metadescription":"Bldg-Addition. 1 or 2 Family Dwelling. PROPOSED 23'X33' 1-STORY ADDITION TO THE REAR OF THE (E) SFD CONSISTING OF (2) BEDROOMS AND BATHROOM. CONSTRUCTION PER TYPE V SHEET.  RELATED ELEC/HVAC/PLUMBING.. CofO Issued. 10931 S MONA BLVD","address":"10919 Mona Boulevard, CA, Los Angeles, 90059, US","ct":"2430.00","ev":"N","apc":"South Los Angeles","cpa":"Southeast Los Angeles","zone":"R1-1","solar":"N","pin_nbr":"088-5A217 524","use_code":"1","geolocation":"POINT (-118.22995 33.93519)","status_date":"03/21/2007","construction":"Type V-N Construction","permit_group":"Building","refresh_time":"06/10/2026","type_lat_lon":"ADDRESS","business_unit":"Plan Check at Counter","square_footage":"759"},"geometry":{"type":"Point","coordinates":[-118.22995,33.93519]}},{"type":"Feature","properties":{"date":"2001-03-26T00:00:00.000Z","year":2001,"description":"Drywall repair in bathroom and install bathroom cabinets; plumbing fees included for replacing toilet and lavatory.","metadescription":"Bldg-Alter/Repair. 1 or 2 Family Dwelling. Drywall repair in bathroom and install bathroom cabinets; plumbing fees included for replacing toilet and lavatory.. Permit Finaled. 10606 S JUNIPER ST","address":"10612 Juniper Street, CA, Los Angeles, 90002, US","ct":"2430.00","ev":"N","apc":"South Los Angeles","zone":"R1-1","solar":"N","pin_nbr":"090A217   414","use_code":"1","geolocation":"POINT (-118.23266 33.93955)","status_date":"04/20/2001","permit_group":"Building","refresh_time":"06/10/2026","type_lat_lon":"ADDRESS","business_unit":"Express Permit"},"geometry":{"type":"Point","coordinates":[-118.23266,33.93955]}},{"type":"Feature","properties":{"date":"1998-07-17T00:00:00.000Z","year":1998,"description":"Comply with Abate Order dated 5/12/98: restore garage to its original permitted use; replace 6 windows-same size; remodel kitchen & bath; patch/repair interior&exterior wall & ceiling coverings; reroof with roll-roof; replace plumbing fixtures&wtr htr; install wall heater; rep lace defective plugs, switches, & outlets.","metadescription":"Bldg-Alter/Repair. 1 or 2 Family Dwelling. Comply with Abate Order dated 5/12/98: restore garage to its original permitted use; replace 6 windows-same size; remodel kitchen & bath; patch/repair interior&exterior wall & ceiling coverings; reroof with roll-roof; replace plumbing fixtures&wtr htr; install wall heater; rep lace defective plugs, switches, & outlets.. Permit Closed. 10828 S WEIGAND AVE","address":"10818 1/2 Weigand Avenue, CA, Los Angeles, 90059, US","ct":"2430.00","ev":"N","apc":"South Los Angeles","solar":"N","pin_nbr":"088-5A217 392","use_code":"1","geolocation":"POINT (-118.23033 33.93619)","status_date":"05/19/2001","permit_group":"Building","refresh_time":"06/10/2026","type_lat_lon":"ADDRESS","business_unit":"Express Permit"},"geometry":{"type":"Point","coordinates":[-118.23033,33.93619]}},{"type":"Feature","properties":{"date":"1998-04-16T00:00:00.000Z","year":1998,"description":"Comply with Abate order: replace kitchen & bath cabinets; replace 16 windows same existing size; replace all doors with the same existing size; replace all plumbing fixtures & water heater. Work is to commen ce on or before 4/24/98 & completed by 5/16/98 Reroof: apply 2nd layer of Class A fiberglass shingles.","metadescription":"Bldg-Alter/Repair. 1 or 2 Family Dwelling. Comply with Abate order: replace kitchen & bath cabinets; replace 16 windows same existing size; replace all doors with the same existing size; replace all plumbing fixtures & water heater. Work is to commen ce on or before 4/24/98 & completed by 5/16/98 Reroof: apply 2nd layer of Class A fiberglass shingles.. Permit Closed. 10601 S JUNIPER ST","address":"10601 Juniper Street, CA, Los Angeles, 90002, US","ct":"2430.00","ev":"N","apc":"South Los Angeles","solar":"N","pin_nbr":"090A217   393","use_code":"1","geolocation":"POINT (-118.23285 33.93969)","status_date":"08/19/1999","permit_group":"Building","refresh_time":"06/10/2026","type_lat_lon":"ADDRESS","business_unit":"Express Permit"},"geometry":{"type":"Point","coordinates":[-118.23285,33.93969]}},{"type":"Feature","properties":{"date":"1998-02-06T00:00:00.000Z","year":1998,"description":"Comply with order dated 1-13-98: New roof windows, stucco, drywall, ELECTRICAL-sub panel, 9 circuits PLUMBING-install water heater and vent, clothes washer standpipe, tub, lavatory and kitchen drain","metadescription":"Bldg-Alter/Repair. 1 or 2 Family Dwelling. Comply with order dated 1-13-98: New roof windows, stucco, drywall, ELECTRICAL-sub panel, 9 circuits PLUMBING-install water heater and vent, clothes washer standpipe, tub, lavatory and kitchen drain. Permit Closed. 10838 S KALMIA ST","address":"10838 Kalmia Street, CA, Los Angeles, 90059, US","ct":"2430.00","ev":"N","apc":"South Los Angeles","solar":"N","pin_nbr":"088-5A217 372","use_code":"1","geolocation":"POINT (-118.23236 33.93633)","status_date":"08/19/1999","permit_group":"Building","refresh_time":"06/10/2026","type_lat_lon":"ADDRESS","business_unit":"Express Permit"},"geometry":{"type":"Point","coordinates":[-118.23236,33.93633]}},{"type":"Feature","properties":{"date":"1998-01-29T00:00:00.000Z","year":1998,"description":"OTC C6151H DTD 10-08-95/MAINTENANCE & REPAIR/ELEC-PLUMBING-HVAC -INSTALL WINDOWS & REPAIR SECURITY BARS.","metadescription":"Bldg-Alter/Repair. 1 or 2 Family Dwelling. OTC C6151H DTD 10-08-95/MAINTENANCE & REPAIR/ELEC-PLUMBING-HVAC -INSTALL WINDOWS & REPAIR SECURITY BARS.. Permit Expired. 10846 S GORMAN AVE","address":"10849 Gorman Avenue, CA, Los Angeles, 90059, US","ct":"2430.00","ev":"N","apc":"South Los Angeles","solar":"N","pin_nbr":"088-5A217 434","use_code":"1","geolocation":"POINT (-118.23144 33.93593)","status_date":"12/25/2006","permit_group":"Building","refresh_time":"06/10/2026","type_lat_lon":"ADDRESS","business_unit":"Express Permit"},"geometry":{"type":"Point","coordinates":[-118.23144,33.93593]}},{"type":"Feature","properties":{"date":"1997-10-07T00:00:00.000Z","year":1997,"description":"90-DAY PERMIT PER CNA FOR GEN. REHAB TO COMPLY WITH ABATED ORDER DATED 9/15/97, INCLUDES ELECTRICAL & PLUMBING","metadescription":"Bldg-Alter/Repair. 1 or 2 Family Dwelling. 90-DAY PERMIT PER CNA FOR GEN. REHAB TO COMPLY WITH ABATED ORDER DATED 9/15/97, INCLUDES ELECTRICAL & PLUMBING. Permit Closed. 10351 S GORMAN AVE","address":"10351 Gorman Avenue, CA, Los Angeles, 90002, US","ct":"2430.00","ev":"N","apc":"South Los Angeles","solar":"N","pin_nbr":"090A217   150","use_code":"1","geolocation":"POINT (-118.23077 33.9416)","status_date":"08/19/1999","permit_group":"Building","refresh_time":"06/10/2026","type_lat_lon":"ADDRESS","business_unit":"Express Permit"},"geometry":{"type":"Point","coordinates":[-118.23077,33.9416]}},{"type":"Feature","properties":{"date":"1997-05-21T00:00:00.000Z","year":1997,"description":"Complete work under 94SP17413 90% completed, see order dated 4-29-97 C-6151-H, plumbing","metadescription":"Bldg-Alter/Repair. 1 or 2 Family Dwelling. Complete work under 94SP17413 90% completed, see order dated 4-29-97 C-6151-H, plumbing. Permit Expired. 10848-10848 1/2 S KALMIA ST","address":"10848 1/2 Kalmia Street, CA, Los Angeles, 90059, US","ct":"2430.00","ev":"N","apc":"South Los Angeles","solar":"N","pin_nbr":"088-5A217 408","use_code":"1","geolocation":"POINT (-118.23244 33.93606)","status_date":"12/11/2006","permit_group":"Building","refresh_time":"06/10/2026","type_lat_lon":"ADDRESS","business_unit":"Express Permit"},"geometry":{"type":"Point","coordinates":[-118.23244,33.93606]}},{"type":"Feature","properties":{"date":"1997-05-20T00:00:00.000Z","year":1997,"description":"COMPLETE WORK ON 94LA26839 AND 94LA26839, 90% COMPLETE. INCLUDE ELECTRICAL & PLUMBING PERMITS","metadescription":"Bldg-Alter/Repair. 1 or 2 Family Dwelling. COMPLETE WORK ON 94LA26839 AND 94LA26839, 90% COMPLETE. INCLUDE ELECTRICAL & PLUMBING PERMITS. Permit Closed. 2321 E SANTA ANA BLVD NO","address":"2321 Santa Ana Boulevard, CA, Los Angeles, 90059, US","ct":"2430.00","ev":"N","apc":"South Los Angeles","solar":"N","pin_nbr":"088-5A217 528","use_code":"1","geolocation":"POINT (-118.231046 33.935044)","status_date":"08/19/1999","permit_group":"Building","refresh_time":"06/10/2026","type_lat_lon":"PIN","business_unit":"Express Permit"},"geometry":{"type":"Point","coordinates":[-118.231046,33.935044]}}]}
