{"type":"FeatureCollection","features":[{"type":"Feature","properties":{"date":"2019-05-02T00:00:00.000Z","year":2019,"description":"Kitchen/ 2 bathroom remodel for residential buildings (no structural changes).  PLUMBING AND ELECTRICAL INCLUDEDRe-roof with Class A or B material weighing less than 6 pounds per sq. ft. over new solid sheathing __10____Squares. Class A roof covering is required within Very High Fire Hazard Severity Zone (VHFHSZ). For residential roof replacement > 50% of the total roof area, apply Cool Roof Product labeled and certified by Cool Roof Rating Council (CRRC). Cool Roof may be required for non-residential buildings per Title 24, Part 6, Section 141.0 (b) 2B.","metadescription":"Bldg-Alter/Repair. 1 or 2 Family Dwelling. Kitchen/ 2 bathroom remodel for residential buildings (no structural changes).  PLUMBING AND ELECTRICAL INCLUDEDRe-roof with Class A or B material weighing less than 6 pounds per sq. ft. over new solid sheathing __10____Squares. Class A roof covering is required within Very High Fire Hazard Severity Zone (VHFHSZ). For residential roof replacement > 50% of the total roof area, apply Cool Roof Product labeled and certified by Cool Roof Rating Council (CRRC). Cool Roof may be required for non-residential buildings per Title 24, Part 6, Section 141.0 (b) 2B.. Permit Finaled. 10625 S GORMAN AVE","address":"10625 Gorman Avenue, CA, Los Angeles, 90002, US","ct":"2430.00","ev":"N","apc":"South Los Angeles","cpa":"Southeast Los Angeles","zone":"R1-1","solar":"N","pin_nbr":"090A217   505","use_code":"1","geolocation":"POINT (-118.23077 33.93899)","status_date":"10/09/2019","permit_group":"Building","refresh_time":"06/10/2026","type_lat_lon":"ADDRESS","business_unit":"Express Permit"},"geometry":{"type":"Point","coordinates":[-118.23077,33.93899]}},{"type":"Feature","properties":{"date":"2019-03-28T00:00:00.000Z","year":2019,"description":"(1) Bathroom remodel combined with plumb for residential buildings (no structural changes).","metadescription":"Bldg-Alter/Repair. 1 or 2 Family Dwelling. (1) Bathroom remodel combined with plumb for residential buildings (no structural changes).. Permit Finaled. 10727 S GORMAN AVE","address":"10727 Gorman Avenue, CA, Los Angeles, 90059, US","ct":"2430.00","ev":"N","apc":"South Los Angeles","cpa":"Southeast Los Angeles","zone":"R1-1","solar":"N","pin_nbr":"088-5A217  68","use_code":"1","geolocation":"POINT (-118.231 33.93807)","status_date":"09/27/2019","permit_group":"Building","refresh_time":"06/10/2026","type_lat_lon":"ADDRESS","business_unit":"Express Permit"},"geometry":{"type":"Point","coordinates":[-118.231,33.93807]}},{"type":"Feature","properties":{"date":"2019-02-12T00:00:00.000Z","year":2019,"description":"Reroof with 14 sqrs COMP SHINGLE roofing over new solid sheathing.Re-roof with Class A or B material weighing less than 6 pounds per sq. ft. For residential roof replacement > 50% of the total roof area, apply Cool Roof Product labeled and certified by Cool Roof Rating Council (CRRC). Cool Roof may be required for non-residential buildings per Title 24, Part 6, Section 149(b).","metadescription":"Bldg-Alter/Repair. 1 or 2 Family Dwelling. Reroof with 14 sqrs COMP SHINGLE roofing over new solid sheathing.Re-roof with Class A or B material weighing less than 6 pounds per sq. ft. For residential roof replacement > 50% of the total roof area, apply Cool Roof Product labeled and certified by Cool Roof Rating Council (CRRC). Cool Roof may be required for non-residential buildings per Title 24, Part 6, Section 149(b).. Permit Finaled. 10625 S KALMIA ST","address":"10625 Kalmia Street, CA, Los Angeles, 90002, US","ct":"2430.00","ev":"N","apc":"South Los Angeles","cpa":"Southeast Los Angeles","zone":"R1-1","solar":"N","pin_nbr":"090A217   503","use_code":"1","geolocation":"POINT (-118.23181 33.93899)","status_date":"02/27/2019","permit_group":"Building","refresh_time":"06/10/2026","type_lat_lon":"ADDRESS","business_unit":"Express Permit"},"geometry":{"type":"Point","coordinates":[-118.23181,33.93899]}},{"type":"Feature","properties":{"date":"2019-01-10T00:00:00.000Z","year":2019,"description":"Re-roof with Class A or B roof covering material weighing less than 6 pounds per sq. ft. over existing solid sheathing 12 Squares. Class A roof covering is required within Very High Fire Hazard Severity Zone (VHFHSZ). For residential roof replacement > 50% of the total roof area, apply Cool Roof Product labeled and certified by Cool Roof Rating Council (CRRC). Cool Roof may be required for non-residential buildings per Title 24, Part 6, Section 149(b).  Repair stucco as needed.","metadescription":"Bldg-Alter/Repair. 1 or 2 Family Dwelling. Re-roof with Class A or B roof covering material weighing less than 6 pounds per sq. ft. over existing solid sheathing 12 Squares. Class A roof covering is required within Very High Fire Hazard Severity Zone (VHFHSZ). For residential roof replacement > 50% of the total roof area, apply Cool Roof Product labeled and certified by Cool Roof Rating Council (CRRC). Cool Roof may be required for non-residential buildings per Title 24, Part 6, Section 149(b).  Repair stucco as needed.. Permit Finaled. 10625 S KALMIA ST","address":"10625 Kalmia Street, CA, Los Angeles, 90002, US","ct":"2430.00","ev":"N","apc":"South Los Angeles","cpa":"Southeast Los Angeles","zone":"R1-1","solar":"N","pin_nbr":"090A217   503","use_code":"1","geolocation":"POINT (-118.23181 33.93899)","status_date":"05/15/2019","permit_group":"Building","refresh_time":"06/10/2026","type_lat_lon":"ADDRESS","business_unit":"Express Permit"},"geometry":{"type":"Point","coordinates":[-118.23181,33.93899]}},{"type":"Feature","properties":{"date":"2018-11-16T00:00:00.000Z","year":2018,"description":"Re-roof with Class A or B material weighing less than 6 pounds per sq. ft. over existing solid sheathing 30 Squares. Class A roof covering is required within Very High Fire Hazard Severity Zone (VHFHSZ). For residential roof replacement > 50% of the total roof area, apply Cool Roof Product labeled and certified by Cool Roof Rating Council (CRRC). Cool Roof may be required for non-residential buildings per Title 24, Part 6, Section 141.0(b).  Replace plywood as needed.","metadescription":"Bldg-Alter/Repair. 1 or 2 Family Dwelling. Re-roof with Class A or B material weighing less than 6 pounds per sq. ft. over existing solid sheathing 30 Squares. Class A roof covering is required within Very High Fire Hazard Severity Zone (VHFHSZ). For residential roof replacement > 50% of the total roof area, apply Cool Roof Product labeled and certified by Cool Roof Rating Council (CRRC). Cool Roof may be required for non-residential buildings per Title 24, Part 6, Section 141.0(b).  Replace plywood as needed.. Permit Finaled. 10723-10723 1/2 S WEIGAND AVE","address":"10723 Weigand Avenue, CA, Los Angeles, 90059, US","ct":"2430.00","ev":"N","apc":"South Los Angeles","cpa":"Southeast Los Angeles","zone":"R1-1","solar":"N","pin_nbr":"088-5A217  33","use_code":"2","geolocation":"POINT (-118.23 33.93829)","status_date":"12/06/2018","permit_group":"Building","refresh_time":"06/10/2026","type_lat_lon":"ADDRESS","business_unit":"Express Permit"},"geometry":{"type":"Point","coordinates":[-118.23,33.93829]}},{"type":"Feature","properties":{"date":"2018-07-26T00:00:00.000Z","year":2018,"description":"WATER DAMAGE, TERMITE DAMAGE/ DRY ROT REPAIR WITH SAME SIZE & SPACING LESS THAN 10% OF REPLACEMENT COST OF RESIDENTIAL BUILDINGS.","metadescription":"Bldg-Alter/Repair. 1 or 2 Family Dwelling. WATER DAMAGE, TERMITE DAMAGE/ DRY ROT REPAIR WITH SAME SIZE & SPACING LESS THAN 10% OF REPLACEMENT COST OF RESIDENTIAL BUILDINGS.. Issued. 10823 S WEIGAND AVE","address":"10818 1/2 Weigand Avenue, CA, Los Angeles, 90059, US","ct":"2430.00","ev":"N","apc":"South Los Angeles","cpa":"Southeast Los Angeles","zone":"R1-1","solar":"N","pin_nbr":"088-5A217 348","use_code":"1","geolocation":"POINT (-118.23047 33.93636)","status_date":"07/26/2018","permit_group":"Building","refresh_time":"06/10/2026","type_lat_lon":"ADDRESS","business_unit":"Express Permit"},"geometry":{"type":"Point","coordinates":[-118.23047,33.93636]}},{"type":"Feature","properties":{"date":"2018-07-23T00:00:00.000Z","year":2018,"description":"KITCHEN/BATHROOM REMODEL FOR RESIDENTIAL BUILDINGS (NO STRUCTURAL CHANGES) COMBINED WITH HVAC/PLUMBING.","metadescription":"Bldg-Alter/Repair. 1 or 2 Family Dwelling. KITCHEN/BATHROOM REMODEL FOR RESIDENTIAL BUILDINGS (NO STRUCTURAL CHANGES) COMBINED WITH HVAC/PLUMBING.. Permit Finaled. 10823 S WEIGAND AVE","address":"10818 1/2 Weigand Avenue, CA, Los Angeles, 90059, US","ct":"2430.00","ev":"N","apc":"South Los Angeles","cpa":"Southeast Los Angeles","zone":"R1-1","solar":"N","pin_nbr":"088-5A217 348","use_code":"1","geolocation":"POINT (-118.23047 33.93636)","status_date":"08/09/2018","permit_group":"Building","refresh_time":"06/10/2026","type_lat_lon":"ADDRESS","business_unit":"Express Permit"},"geometry":{"type":"Point","coordinates":[-118.23047,33.93636]}},{"type":"Feature","properties":{"date":"2018-07-20T00:00:00.000Z","year":2018,"description":"Re-roof with Class A or B material weighing less than 6 pounds per sq. ft. over new solid sheathing 9 Squares. Class A roof covering is required within Very High Fire Hazard Severity Zone (VHFHSZ). For residential roof replacement > 50% of the total roof area, apply Cool Roof Product labeled and certified by Cool Roof Rating Council (CRRC). Cool Roof may be required for non-residential buildings per Title 24, Part 6, Section 141.0(b).","metadescription":"Bldg-Alter/Repair. 1 or 2 Family Dwelling. Re-roof with Class A or B material weighing less than 6 pounds per sq. ft. over new solid sheathing 9 Squares. Class A roof covering is required within Very High Fire Hazard Severity Zone (VHFHSZ). For residential roof replacement > 50% of the total roof area, apply Cool Roof Product labeled and certified by Cool Roof Rating Council (CRRC). Cool Roof may be required for non-residential buildings per Title 24, Part 6, Section 141.0(b).. Permit Finaled. 10749 S MONA BLVD","address":"10751 South Mona Boulevard, CA, Los Angeles, 90059, US","ct":"2430.00","ev":"N","apc":"South Los Angeles","cpa":"Southeast Los Angeles","zone":"R1-1","solar":"N","pin_nbr":"088-5A217 180","use_code":"1","geolocation":"POINT (-118.22928 33.93743)","status_date":"09/05/2018","permit_group":"Building","refresh_time":"06/10/2026","type_lat_lon":"ADDRESS","business_unit":"Express Permit"},"geometry":{"type":"Point","coordinates":[-118.22928,33.93743]}},{"type":"Feature","properties":{"date":"2018-06-25T00:00:00.000Z","year":2018,"description":"Re-roof with Class A or B material weighing less than 6 pounds per sq. ft. over new solid sheathing __ 18__squares.  For residential roof replacement > 50% of the total roof area, apply Cool Roof Product labeled and certified by Cool Roofing Rating Council (CRRC). Cool Roof may be required for non-residential buildings per Title 24, Part 6, Section 149(b). Kitchen and Bathroom remodel for residential buildings (no structural changes). Window (2) change-out (same size & type) for residential buildings.  Dual glazing, labeled and certified by National Fenestration Rating Council (NFRC), is required for doors and windows replaced in all residential buildings, three stories or less, per Section 152(b) of Title 24.","metadescription":"Bldg-Alter/Repair. 1 or 2 Family Dwelling. Re-roof with Class A or B material weighing less than 6 pounds per sq. ft. over new solid sheathing __ 18__squares.  For residential roof replacement > 50% of the total roof area, apply Cool Roof Product labeled and certified by Cool Roofing Rating Council (CRRC). Cool Roof may be required for non-residential buildings per Title 24, Part 6, Section 149(b). Kitchen and Bathroom remodel for residential buildings (no structural changes). Window (2) change-out (same size & type) for residential buildings.  Dual glazing, labeled and certified by National Fenestration Rating Council (NFRC), is required for doors and windows replaced in all residential buildings, three stories or less, per Section 152(b) of Title 24.. Permit Finaled. 10516 S CROESUS AVE","address":"10516 Croesus Avenue, CA, Los Angeles, 90002, US","ct":"2430.00","ev":"N","apc":"South Los Angeles","cpa":"Southeast Los Angeles","zone":"R1-1","solar":"N","pin_nbr":"090A217   332","use_code":"1","geolocation":"POINT (-118.23369 33.9401)","status_date":"01/08/2019","permit_group":"Building","refresh_time":"06/10/2026","type_lat_lon":"ADDRESS","business_unit":"Express Permit"},"geometry":{"type":"Point","coordinates":[-118.23369,33.9401]}},{"type":"Feature","properties":{"date":"2018-06-25T00:00:00.000Z","year":2018,"description":"12 WINDOWS CHANGE-OUT (SAME SIZE & TYPE) FOR RESIDENTIAL BUILDINGS.  DUAL GLAZING, LABELED AND CERTIFIED BY NATIONAL FENESTRATION RATING COUNCIL (NFRC), IS REQUIRED FOR DOORS AND WINDOWS REPLACED IN ALL RESIDENTIAL BUILDINGS, THREE STORIES OR LESS, PER SECTION 152(B) OF TITLE 24.      KITCHEN/BATHROOM REMODEL FOR RESIDENTIAL BUILDINGS (NO STRUCTURAL CHANGES). COMBINED WITH ELECTRICAL & PLUMIBING.COMPLY WITH DEPARMTENT ORDER EFFECTIVE DATE 12/1/17. PERMIT WILL EXPIRE 30 DAYS FROM DATE OF ISSUANCE.","metadescription":"Bldg-Alter/Repair. 1 or 2 Family Dwelling. 12 WINDOWS CHANGE-OUT (SAME SIZE & TYPE) FOR RESIDENTIAL BUILDINGS.  DUAL GLAZING, LABELED AND CERTIFIED BY NATIONAL FENESTRATION RATING COUNCIL (NFRC), IS REQUIRED FOR DOORS AND WINDOWS REPLACED IN ALL RESIDENTIAL BUILDINGS, THREE STORIES OR LESS, PER SECTION 152(B) OF TITLE 24.      KITCHEN/BATHROOM REMODEL FOR RESIDENTIAL BUILDINGS (NO STRUCTURAL CHANGES). COMBINED WITH ELECTRICAL & PLUMIBING.COMPLY WITH DEPARMTENT ORDER EFFECTIVE DATE 12/1/17. PERMIT WILL EXPIRE 30 DAYS FROM DATE OF ISSUANCE.. Permit Finaled. 10823 S WEIGAND AVE","address":"10818 1/2 Weigand Avenue, CA, Los Angeles, 90059, US","ct":"2430.00","ev":"N","apc":"South Los Angeles","cpa":"Southeast Los Angeles","zone":"R1-1","solar":"N","pin_nbr":"088-5A217 348","use_code":"1","geolocation":"POINT (-118.23047 33.93636)","status_date":"08/06/2018","permit_group":"Building","refresh_time":"06/10/2026","type_lat_lon":"ADDRESS","business_unit":"Express Permit"},"geometry":{"type":"Point","coordinates":[-118.23047,33.93636]}},{"type":"Feature","properties":{"date":"2018-03-09T00:00:00.000Z","year":2018,"description":"(2) Window and door change-out (same size & type) for residential buildings.  Dual glazing, labeled and certified by National Fenestration Rating Council (NFRC), is required for doors and windows replaced in all residential buildings, three stories or less, per Section 152(b) of Title 24.   Kitchen remodel for residential buildings (no structural changes). \"COMPLY WITH DEPARTMENT ORDER effective date02/23/2018. PERMIT WILL EXPIRE 30 DAYS FROM ISSUANCE DATE\".","metadescription":"Bldg-Alter/Repair. 1 or 2 Family Dwelling. (2) Window and door change-out (same size & type) for residential buildings.  Dual glazing, labeled and certified by National Fenestration Rating Council (NFRC), is required for doors and windows replaced in all residential buildings, three stories or less, per Section 152(b) of Title 24.   Kitchen remodel for residential buildings (no structural changes). \"COMPLY WITH DEPARTMENT ORDER effective date02/23/2018. PERMIT WILL EXPIRE 30 DAYS FROM ISSUANCE DATE\".. Permit Finaled. 2352 E 108TH ST","address":"2352 East 108Th Street, CA, Los Angeles, 90059, US","ct":"2430.00","ev":"N","apc":"South Los Angeles","cpa":"Southeast Los Angeles","zone":"R1-1","solar":"N","pin_nbr":"088-5A217 268","use_code":"1","geolocation":"POINT (-118.23012 33.93687)","status_date":"02/28/2025","permit_group":"Building","refresh_time":"06/10/2026","type_lat_lon":"ADDRESS","business_unit":"Express Permit"},"geometry":{"type":"Point","coordinates":[-118.23012,33.93687]}},{"type":"Feature","properties":{"date":"2017-11-03T00:00:00.000Z","year":2017,"description":"Re-roof with Class A or B material weighing less than 6 pound per sq. ft. over existing solid sheathing  5 Squares. Class A roof covering is required within Very High Fire Hazard Severity Zone (VHFHSZ). For residential roof replacement > 50% of the total roof area, apply Cool Roof Product labeled and certified by Cool Roof Rating Council (CRRC).  Cool Roof may be required for non-residential buildings per Title 24, Part 6, Section 149 (b).","metadescription":"Bldg-Alter/Repair. 1 or 2 Family Dwelling. Re-roof with Class A or B material weighing less than 6 pound per sq. ft. over existing solid sheathing  5 Squares. Class A roof covering is required within Very High Fire Hazard Severity Zone (VHFHSZ). For residential roof replacement > 50% of the total roof area, apply Cool Roof Product labeled and certified by Cool Roof Rating Council (CRRC).  Cool Roof may be required for non-residential buildings per Title 24, Part 6, Section 149 (b).. Permit Finaled. 10615 S JUNIPER ST","address":"10615 Juniper Street, CA, Los Angeles, 90002, US","ct":"2430.00","ev":"N","apc":"South Los Angeles","cpa":"Southeast Los Angeles","zone":"R1-1","solar":"N","pin_nbr":"090A217   461","use_code":"7","geolocation":"POINT (-118.23285 33.93927)","status_date":"11/28/2017","permit_group":"Building","refresh_time":"06/10/2026","type_lat_lon":"ADDRESS","business_unit":"Express Permit"},"geometry":{"type":"Point","coordinates":[-118.23285,33.93927]}},{"type":"Feature","properties":{"date":"2017-06-14T00:00:00.000Z","year":2017,"description":"Window (6) change-out (same size & type) for residential buildings.Dual glazing, labeled and certified by National Fenestration Rating Council (NFRC), is required for doors and windows replaced in all residential buildings, three stories or less, per Section 152(b) of Title 24.","metadescription":"Bldg-Alter/Repair. 1 or 2 Family Dwelling. Window (6) change-out (same size & type) for residential buildings.Dual glazing, labeled and certified by National Fenestration Rating Council (NFRC), is required for doors and windows replaced in all residential buildings, three stories or less, per Section 152(b) of Title 24.. Permit Finaled. 10733 S MONA BLVD","address":"10729 Mona Boulevard, CA, Los Angeles, 90059, US","ct":"2430.00","ev":"N","apc":"South Los Angeles","cpa":"Southeast Los Angeles","zone":"R1-1","solar":"N","pin_nbr":"088-5A217  96","use_code":"1","geolocation":"POINT (-118.22914 33.9379)","status_date":"09/05/2017","permit_group":"Building","refresh_time":"06/10/2026","type_lat_lon":"ADDRESS","business_unit":"Express Permit"},"geometry":{"type":"Point","coordinates":[-118.22914,33.9379]}},{"type":"Feature","properties":{"date":"2017-06-06T00:00:00.000Z","year":2017,"description":"KITCHEN AND BATHROOM REMODEL COMBINED WITH ELECTRICAL, PLUMBING AND HVAC (FOR RESIDENTIAL BUILDINGS; NO STRUCTURAL CHANGES). CHANGE OUT 6  (SAME SIZE & TYPE FOR RESIDENTIAL BUILDINGS ONLY) DUAL GLAZING, LABELED AND CERTIFIED BY NATIONAL FENESTRATION RATING COUNCIL (NFRC), IS REQUIRED FOR DOORS AND WINDOWS REPLACED IN ALL RESIDENTIAL BUILDING, THREE STORIES OR LESS, PER SECTION 152(B) OF TITLE 24. DRYWALL/PLASTER PATCH AND PAINT.","metadescription":"Bldg-Alter/Repair. 1 or 2 Family Dwelling. KITCHEN AND BATHROOM REMODEL COMBINED WITH ELECTRICAL, PLUMBING AND HVAC (FOR RESIDENTIAL BUILDINGS; NO STRUCTURAL CHANGES). CHANGE OUT 6  (SAME SIZE & TYPE FOR RESIDENTIAL BUILDINGS ONLY) DUAL GLAZING, LABELED AND CERTIFIED BY NATIONAL FENESTRATION RATING COUNCIL (NFRC), IS REQUIRED FOR DOORS AND WINDOWS REPLACED IN ALL RESIDENTIAL BUILDING, THREE STORIES OR LESS, PER SECTION 152(B) OF TITLE 24. DRYWALL/PLASTER PATCH AND PAINT.. Issued. 10822 S GORMAN AVE","address":"10825 Gorman Avenue, CA, Los Angeles, 90059, US","ct":"2430.00","ev":"N","apc":"South Los Angeles","cpa":"Southeast Los Angeles","zone":"R1-1","solar":"N","pin_nbr":"088-5A217 321","use_code":"1","geolocation":"POINT (-118.23124 33.93659)","status_date":"06/06/2017","permit_group":"Building","refresh_time":"06/10/2026","type_lat_lon":"ADDRESS","business_unit":"Express Permit"},"geometry":{"type":"Point","coordinates":[-118.23124,33.93659]}},{"type":"Feature","properties":{"date":"2017-05-30T00:00:00.000Z","year":2017,"description":"(9) Window change-out (same size & type) for residential buildings.  Dual glazing, labeled and certified by National Fenestration Rating Council (NFRC), is required for doors and windows replaced in all residential buildings, three stories or less, per Section 152(b) of Title 24.","metadescription":"Bldg-Alter/Repair. Apartment. (9) Window change-out (same size & type) for residential buildings.  Dual glazing, labeled and certified by National Fenestration Rating Council (NFRC), is required for doors and windows replaced in all residential buildings, three stories or less, per Section 152(b) of Title 24.. Issued. 10739 S JUNIPER ST UNITS 1,3,-4","address":"10739 Juniper Street, CA, Los Angeles, 90059, US","ct":"2430.00","ev":"N","apc":"South Los Angeles","cpa":"Southeast Los Angeles","zone":"R1-1","solar":"N","pin_nbr":"088-5A217 141","use_code":"5","geolocation":"POINT (-118.23298 33.93777)","status_date":"05/30/2017","permit_group":"Building","refresh_time":"06/10/2026","type_lat_lon":"ADDRESS","business_unit":"Express Permit"},"geometry":{"type":"Point","coordinates":[-118.23298,33.93777]}},{"type":"Feature","properties":{"date":"2017-03-16T00:00:00.000Z","year":2017,"description":"CHANGE OUT 4 WINDOWS  (SAME SIZE & TYPE FOR RESIDENTIAL BUILDINGS ONLY) DUAL GLAZING, LABELED AND CERTIFIED BY NATIONAL FENESTRATION RATING COUNCIL (NFRC), IS REQUIRED FOR DOORS AND WINDOWS REPLACED IN ALL RESIDENTIAL BUILDING, THREE STORIES OR LESS, PER SECTION 152(B) OF TITLE 24.","metadescription":"Bldg-Alter/Repair. 1 or 2 Family Dwelling. CHANGE OUT 4 WINDOWS  (SAME SIZE & TYPE FOR RESIDENTIAL BUILDINGS ONLY) DUAL GLAZING, LABELED AND CERTIFIED BY NATIONAL FENESTRATION RATING COUNCIL (NFRC), IS REQUIRED FOR DOORS AND WINDOWS REPLACED IN ALL RESIDENTIAL BUILDING, THREE STORIES OR LESS, PER SECTION 152(B) OF TITLE 24.. Issued. 10837 S WEIGAND AVE","address":"10839 Weigand Avenue, CA, Los Angeles, 90059, US","ct":"2430.00","ev":"N","apc":"South Los Angeles","cpa":"Southeast Los Angeles","zone":"R1-1","solar":"N","pin_nbr":"088-5A217 413","use_code":"1","geolocation":"POINT (-118.23071 33.93596)","status_date":"03/16/2017","permit_group":"Building","refresh_time":"06/10/2026","type_lat_lon":"ADDRESS","business_unit":"Express Permit"},"geometry":{"type":"Point","coordinates":[-118.23071,33.93596]}},{"type":"Feature","properties":{"date":"2016-01-12T00:00:00.000Z","year":2016,"description":"Water damage, termite damage/ dry rot repair less than 10% of replacement cost of residential buildings. Replacement of damaged framing members (less than 10% of replacement cost of building) for houses and duplexes (not including decks).","metadescription":"Bldg-Alter/Repair. 1 or 2 Family Dwelling. Water damage, termite damage/ dry rot repair less than 10% of replacement cost of residential buildings. Replacement of damaged framing members (less than 10% of replacement cost of building) for houses and duplexes (not including decks).. Permit Finaled. 10826 S KALMIA ST","address":"10826 Kalmia Street, CA, Los Angeles, 90059, US","ct":"2430.00","ev":"N","apc":"South Los Angeles","cpa":"Southeast Los Angeles","zone":"R1-1","solar":"N","pin_nbr":"088-5A217 312","use_code":"1","geolocation":"POINT (-118.23227 33.93666)","status_date":"08/16/2016","permit_group":"Building","refresh_time":"06/10/2026","type_lat_lon":"ADDRESS","business_unit":"Express Permit"},"geometry":{"type":"Point","coordinates":[-118.23227,33.93666]}},{"type":"Feature","properties":{"date":"2016-01-05T00:00:00.000Z","year":2016,"description":"BATHROOM/KITCHEN REMODEL COMBINED W/ELECTRICAL, PLUMBING AND HVAC. (FOR RESIDENTIAL BUILDINGS:  NO STRUCTURAL CHANGES)CHANGE OUT 6-RETROFIT WINDOWS (SAME SIZE AND TYPE)  DUAL GLAZING, LABELED AND CERTIFIED BY NATIONAL FENESTRATION RATING OCUNCIL (NFRC) IS REQUIRED FOR DOORS AND WINDOWS REPLACED IN ALL RESIDENTIAL BUILDNGS, THREE STORIES OR LESS, PER SECTION 152(b) OF TITLE 24.","metadescription":"Bldg-Alter/Repair. 1 or 2 Family Dwelling. BATHROOM/KITCHEN REMODEL COMBINED W/ELECTRICAL, PLUMBING AND HVAC. (FOR RESIDENTIAL BUILDINGS:  NO STRUCTURAL CHANGES)CHANGE OUT 6-RETROFIT WINDOWS (SAME SIZE AND TYPE)  DUAL GLAZING, LABELED AND CERTIFIED BY NATIONAL FENESTRATION RATING OCUNCIL (NFRC) IS REQUIRED FOR DOORS AND WINDOWS REPLACED IN ALL RESIDENTIAL BUILDNGS, THREE STORIES OR LESS, PER SECTION 152(b) OF TITLE 24.. Permit Expired. 10828 S GORMAN AVE","address":"10825 Gorman Avenue, CA, Los Angeles, 90059, US","ct":"2430.00","ev":"N","apc":"South Los Angeles","cpa":"Southeast Los Angeles","zone":"R1-1","solar":"N","pin_nbr":"088-5A217 356","use_code":"1","geolocation":"POINT (-118.2313 33.93639)","status_date":"02/02/2018","permit_group":"Building","refresh_time":"06/10/2026","type_lat_lon":"ADDRESS","business_unit":"Express Permit"},"geometry":{"type":"Point","coordinates":[-118.2313,33.93639]}},{"type":"Feature","properties":{"date":"2015-10-02T00:00:00.000Z","year":2015,"description":"BATHROOM REMODEL COMBINED WITH ELECTRICAL, PLUMBING AND HVAC (FOR RESIDENTIAL BUILDINGS; NO STRUCTURAL CHANGES). NEW STUCCO. DRYWALL/PLASTER AND PAINT. CHANGE OUT  8 WINDOWS AND 2 DOORS (SAME SIZE & TYPE FOR RESIDENTIAL BUILDINGS ONLY) DUAL GLAZING, LABELED AND CERTIFIED BY NATIONAL FENESTRATION RATING COUNCIL (NFRC), IS REQUIRED FOR DOORS AND WINDOWS REPLACED IN ALL RESIDENTIAL BUILDINGS, THREE STORIES OR LESS, PER SECTION 152(B) OF TITLE 24.","metadescription":"Bldg-Alter/Repair. 1 or 2 Family Dwelling. BATHROOM REMODEL COMBINED WITH ELECTRICAL, PLUMBING AND HVAC (FOR RESIDENTIAL BUILDINGS; NO STRUCTURAL CHANGES). NEW STUCCO. DRYWALL/PLASTER AND PAINT. CHANGE OUT  8 WINDOWS AND 2 DOORS (SAME SIZE & TYPE FOR RESIDENTIAL BUILDINGS ONLY) DUAL GLAZING, LABELED AND CERTIFIED BY NATIONAL FENESTRATION RATING COUNCIL (NFRC), IS REQUIRED FOR DOORS AND WINDOWS REPLACED IN ALL RESIDENTIAL BUILDINGS, THREE STORIES OR LESS, PER SECTION 152(B) OF TITLE 24.. Permit Finaled. 10826 S KALMIA ST","address":"10826 Kalmia Street, CA, Los Angeles, 90059, US","ct":"2430.00","ev":"N","apc":"South Los Angeles","cpa":"Southeast Los Angeles","zone":"R1-1","solar":"N","pin_nbr":"088-5A217 312","use_code":"1","geolocation":"POINT (-118.23227 33.93666)","status_date":"08/04/2016","permit_group":"Building","refresh_time":"06/10/2026","type_lat_lon":"ADDRESS","business_unit":"Express Permit"},"geometry":{"type":"Point","coordinates":[-118.23227,33.93666]}},{"type":"Feature","properties":{"date":"2015-09-01T00:00:00.000Z","year":2015,"description":"Replace (8) windows, same size and location.  \"DUAL GLAZING IS REQUIRED FOR ALL DOORS/WINDOWS CHANGE OUT FOR RESIDENTIAL BUILDINGS THREE STORIES OR LESS, PER SECTION 152(b) OF TITLE 24\".","metadescription":"Bldg-Alter/Repair. 1 or 2 Family Dwelling. Replace (8) windows, same size and location.  \"DUAL GLAZING IS REQUIRED FOR ALL DOORS/WINDOWS CHANGE OUT FOR RESIDENTIAL BUILDINGS THREE STORIES OR LESS, PER SECTION 152(b) OF TITLE 24\".. Permit Finaled. 10516 S CROESUS AVE","address":"10516 Croesus Avenue, CA, Los Angeles, 90002, US","ct":"2430.00","ev":"N","apc":"South Los Angeles","cpa":"Southeast Los Angeles","zone":"R1-1","solar":"N","pin_nbr":"090A217   332","use_code":"1","geolocation":"POINT (-118.23369 33.9401)","status_date":"09/03/2015","permit_group":"Building","refresh_time":"06/10/2026","type_lat_lon":"ADDRESS","business_unit":"Express Permit"},"geometry":{"type":"Point","coordinates":[-118.23369,33.9401]}},{"type":"Feature","properties":{"date":"2014-09-05T00:00:00.000Z","year":2014,"description":"REPLACE DRYWALL (NO NEW WALLS ADDED) FOR RESIDENTIAL BUILDINGS ONLY.","metadescription":"Bldg-Alter/Repair. 1 or 2 Family Dwelling. REPLACE DRYWALL (NO NEW WALLS ADDED) FOR RESIDENTIAL BUILDINGS ONLY.. Permit Finaled. 10734 S WEIGAND AVE","address":"10736 Weigand Avenue, CA, Los Angeles, 90059, US","ct":"2430.00","ev":"N","apc":"South Los Angeles","cpa":"Southeast Los Angeles","zone":"R1-1","solar":"N","pin_nbr":"088-5A217  94","use_code":"1","geolocation":"POINT (-118.2298 33.93796)","status_date":"10/03/2014","permit_group":"Building","refresh_time":"06/10/2026","type_lat_lon":"ADDRESS","business_unit":"Express Permit"},"geometry":{"type":"Point","coordinates":[-118.2298,33.93796]}},{"type":"Feature","properties":{"date":"2014-08-18T00:00:00.000Z","year":2014,"description":"(9) Windows and (6) doors change-out (same size & type) for residential buildings.  Dual glazing, labeled and certified by National Fenestration Rating Council (NFRC), is required for doors and windows replaced in all residential buildings, three stories or less, per Section 152(b) of Title 24. Kitchen remodel for residential buildings (no structural changes)-CABINETS.","metadescription":"Bldg-Alter/Repair. 1 or 2 Family Dwelling. (9) Windows and (6) doors change-out (same size & type) for residential buildings.  Dual glazing, labeled and certified by National Fenestration Rating Council (NFRC), is required for doors and windows replaced in all residential buildings, three stories or less, per Section 152(b) of Title 24. Kitchen remodel for residential buildings (no structural changes)-CABINETS.. Permit Finaled. 10848 S WEIGAND AVE","address":"10850 South Weigand Avenue, CA, Los Angeles, 90059, US","ct":"2430.00","ev":"N","apc":"South Los Angeles","cpa":"Southeast Los Angeles","zone":"R1-1","solar":"N","pin_nbr":"088-5A217 471","use_code":"1","geolocation":"POINT (-118.23049 33.93566)","status_date":"10/15/2015","permit_group":"Building","refresh_time":"06/10/2026","type_lat_lon":"ADDRESS","business_unit":"Express Permit"},"geometry":{"type":"Point","coordinates":[-118.23049,33.93566]}},{"type":"Feature","properties":{"date":"2014-06-19T00:00:00.000Z","year":2014,"description":"Change out 7 Windows (Same size & type for residential building only). Kitchen & Bathroom remodel (For residential buildings only). Combine with Electrical & Plumbing.","metadescription":"Bldg-Alter/Repair. 1 or 2 Family Dwelling. Change out 7 Windows (Same size & type for residential building only). Kitchen & Bathroom remodel (For residential buildings only). Combine with Electrical & Plumbing.. Permit Finaled. 10603 S JUNIPER ST","address":"10601 Juniper Street, CA, Los Angeles, 90002, US","ct":"2430.00","ev":"N","apc":"South Los Angeles","cpa":"Southeast Los Angeles","zone":"R1-1","solar":"N","pin_nbr":"090A217   402","use_code":"1","geolocation":"POINT (-118.23285 33.93962)","status_date":"10/31/2014","permit_group":"Building","refresh_time":"06/10/2026","type_lat_lon":"ADDRESS","business_unit":"Express Permit"},"geometry":{"type":"Point","coordinates":[-118.23285,33.93962]}},{"type":"Feature","properties":{"date":"2014-06-05T00:00:00.000Z","year":2014,"description":"General rehabilitation for residential buildings (Non-structural changes, less than 10% of replacement cost of building).  \"COMPLY WITHDEPARTMENT ORDER effective date 04/05/2013. PERMIT WILL EXPIRE 30DAYS FROM ISSUANCE DATE","metadescription":"Bldg-Alter/Repair. 1 or 2 Family Dwelling. General rehabilitation for residential buildings (Non-structural changes, less than 10% of replacement cost of building).  \"COMPLY WITHDEPARTMENT ORDER effective date 04/05/2013. PERMIT WILL EXPIRE 30DAYS FROM ISSUANCE DATE. Permit Finaled. 10725 S KALMIA ST","address":"10725 Kalmia Street, CA, Los Angeles, 90059, US","ct":"2430.00","ev":"N","apc":"South Los Angeles","cpa":"Southeast Los Angeles","zone":"R1-1","solar":"N","pin_nbr":"088-5A217  59","use_code":"1","geolocation":"POINT (-118.23202 33.93814)","status_date":"07/07/2014","permit_group":"Building","refresh_time":"06/10/2026","type_lat_lon":"ADDRESS","business_unit":"Express Permit"},"geometry":{"type":"Point","coordinates":[-118.23202,33.93814]}},{"type":"Feature","properties":{"date":"2014-04-29T00:00:00.000Z","year":2014,"description":"Change-out (3) windows (same size & type) for residential buildings. Replace drywall. (No new walls added). Termite damage/ dry rot repair less than 10% of replacement cost of building. Comply with department order effective 5/2/2014, permit to expire 30-days from date of issuance.  See application comments","metadescription":"Bldg-Alter/Repair. 1 or 2 Family Dwelling. Change-out (3) windows (same size & type) for residential buildings. Replace drywall. (No new walls added). Termite damage/ dry rot repair less than 10% of replacement cost of building. Comply with department order effective 5/2/2014, permit to expire 30-days from date of issuance.  See application comments. Permit Finaled. 10517 S GORMAN AVE","address":"10517 Gorman Avenue, CA, Los Angeles, 90002, US","ct":"2430.00","ev":"N","apc":"South Los Angeles","cpa":"Southeast Los Angeles","zone":"R1-1","solar":"N","pin_nbr":"090A217   347","use_code":"1","geolocation":"POINT (-118.23077 33.94002)","status_date":"06/04/2014","permit_group":"Building","refresh_time":"06/10/2026","type_lat_lon":"ADDRESS","business_unit":"Express Permit"},"geometry":{"type":"Point","coordinates":[-118.23077,33.94002]}},{"type":"Feature","properties":{"date":"2014-02-25T00:00:00.000Z","year":2014,"description":"CHANGE OUT #8 WINDOW(S) AND #6 DOOR(S)  (SAME SIZE & TYPE FOR RESIDENTIAL BUILDINGS ONLY) DUAL GLAZING, LABELED AND CERTIFIED BY NATIONAL FENESTRATION RATING COUNCIL (NFRC), IS REQUIRED FOR DOORS AND WINDOWS REPLACED IN ALL RESIDENTIAL BUILDINGS, THREE STORIES OR LESS, PER SECTION 152(B) OF TITLE 24.","metadescription":"Bldg-Alter/Repair. 1 or 2 Family Dwelling. CHANGE OUT #8 WINDOW(S) AND #6 DOOR(S)  (SAME SIZE & TYPE FOR RESIDENTIAL BUILDINGS ONLY) DUAL GLAZING, LABELED AND CERTIFIED BY NATIONAL FENESTRATION RATING COUNCIL (NFRC), IS REQUIRED FOR DOORS AND WINDOWS REPLACED IN ALL RESIDENTIAL BUILDINGS, THREE STORIES OR LESS, PER SECTION 152(B) OF TITLE 24.. Permit Finaled. 10715 S GORMAN AVE","address":"10715 Gorman Avenue, CA, Los Angeles, 90002, US","ct":"2430.00","ev":"N","apc":"South Los Angeles","cpa":"Southeast Los Angeles","zone":"R1-1","solar":"N","pin_nbr":"090A217   562","use_code":"1","geolocation":"POINT (-118.23101 33.93842)","status_date":"04/03/2014","permit_group":"Building","refresh_time":"06/10/2026","type_lat_lon":"ADDRESS","business_unit":"Express Permit"},"geometry":{"type":"Point","coordinates":[-118.23101,33.93842]}},{"type":"Feature","properties":{"date":"2014-02-06T00:00:00.000Z","year":2014,"description":"KITCHEN REMODEL (FOR RESIDENTIAL BUILDINGS; NO STRUCTURAL CHANGES). COMBINE WITH ELECTRICAL.","metadescription":"Bldg-Alter/Repair. 1 or 2 Family Dwelling. KITCHEN REMODEL (FOR RESIDENTIAL BUILDINGS; NO STRUCTURAL CHANGES). COMBINE WITH ELECTRICAL.. Permit Finaled. 2170 E 105TH ST","address":"2176 East 105Th Street, CA, Los Angeles, 90002, US","ct":"2430.00","ev":"N","apc":"South Los Angeles","cpa":"Southeast Los Angeles","zone":"R1-1","solar":"N","pin_nbr":"090A217   285","use_code":"1","geolocation":"POINT (-118.23305 33.94051)","status_date":"03/19/2014","permit_group":"Building","refresh_time":"06/10/2026","type_lat_lon":"ADDRESS","business_unit":"Express Permit"},"geometry":{"type":"Point","coordinates":[-118.23305,33.94051]}},{"type":"Feature","properties":{"date":"2014-01-24T00:00:00.000Z","year":2014,"description":"Install (5) windows, same size and location. \"DUAL GLAZING IS REQUIRED FOR ALL DOORS/WINDOWS CHANGE OUT FOR RESIDENTIAL BUILDINGS, THREE STORIES OR LESS PER SECTION 152(b) OF TITLE 24\".","metadescription":"Bldg-Alter/Repair. 1 or 2 Family Dwelling. Install (5) windows, same size and location. \"DUAL GLAZING IS REQUIRED FOR ALL DOORS/WINDOWS CHANGE OUT FOR RESIDENTIAL BUILDINGS, THREE STORIES OR LESS PER SECTION 152(b) OF TITLE 24\".. Permit Expired. 10405 S KALMIA ST","address":"10401 Kalmia Street, CA, Los Angeles, 90002, US","ct":"2430.00","ev":"N","apc":"South Los Angeles","cpa":"Southeast Los Angeles","zone":"R1-1","solar":"N","pin_nbr":"090A217   181","use_code":"1","geolocation":"POINT (-118.23181 33.94133)","status_date":"02/18/2016","permit_group":"Building","refresh_time":"06/10/2026","type_lat_lon":"ADDRESS","business_unit":"Express Permit"},"geometry":{"type":"Point","coordinates":[-118.23181,33.94133]}},{"type":"Feature","properties":{"date":"2013-09-23T00:00:00.000Z","year":2013,"description":"Kitchen remodel for residential buildings (no structural changes). Windows (9) and (1) garage door change-out (same size & type) for residential buildings.  Dual glazing, labeled and certified by National Fenestration Rating Council (NFRC), is required for doors and windows replaced in all residential buildings, three stories or less, per Section 152(b) of Title 24.","metadescription":"Bldg-Alter/Repair. 1 or 2 Family Dwelling. Kitchen remodel for residential buildings (no structural changes). Windows (9) and (1) garage door change-out (same size & type) for residential buildings.  Dual glazing, labeled and certified by National Fenestration Rating Council (NFRC), is required for doors and windows replaced in all residential buildings, three stories or less, per Section 152(b) of Title 24.. Permit Finaled. 2206 E 105TH ST","address":"2206 East 105Th Street, CA, Los Angeles, 90002, US","ct":"2430.00","ev":"N","apc":"South Los Angeles","cpa":"Southeast Los Angeles","zone":"R1-1","solar":"N","pin_nbr":"090A217   290","use_code":"1","geolocation":"POINT (-118.23249 33.9405)","status_date":"11/07/2013","permit_group":"Building","refresh_time":"06/10/2026","type_lat_lon":"ADDRESS","business_unit":"Express Permit"},"geometry":{"type":"Point","coordinates":[-118.23249,33.9405]}},{"type":"Feature","properties":{"date":"2013-08-23T00:00:00.000Z","year":2013,"description":"Change out (1) window same size and location    Dual glazing, labeled and certified by National Fenestration Rating Council (NFRC), is required for doors and windows replaced in all residential buildings, three stories or less, per Section 152(b) of Title 24.","metadescription":"Bldg-Alter/Repair. 1 or 2 Family Dwelling. Change out (1) window same size and location    Dual glazing, labeled and certified by National Fenestration Rating Council (NFRC), is required for doors and windows replaced in all residential buildings, three stories or less, per Section 152(b) of Title 24.. Permit Finaled. 10405 S KALMIA ST","address":"10401 Kalmia Street, CA, Los Angeles, 90002, US","ct":"2430.00","ev":"N","apc":"South Los Angeles","cpa":"Southeast Los Angeles","zone":"R1-1","solar":"N","pin_nbr":"090A217   181","use_code":"1","geolocation":"POINT (-118.23181 33.94133)","status_date":"10/21/2013","permit_group":"Building","refresh_time":"06/10/2026","type_lat_lon":"ADDRESS","business_unit":"Express Permit"},"geometry":{"type":"Point","coordinates":[-118.23181,33.94133]}},{"type":"Feature","properties":{"date":"2013-03-07T00:00:00.000Z","year":2013,"description":"Supplemental to permit #13016-70000-03007 to change out (2) windows same size and location.  Dual glazing, labeled and certified by National Fenestration Rating Council (NFRC), is required for doors and windows replaced in all residential buildings, three stories or less, per Section 152(b) of Title 24.      \"COMPLY WITH DEPARTMENT ORDER effective date02/07/2013. PERMIT WILL EXPIRE 30 DAYS FROM ISSUANCE DATE\".","metadescription":"Bldg-Alter/Repair. 1 or 2 Family Dwelling. Supplemental to permit #13016-70000-03007 to change out (2) windows same size and location.  Dual glazing, labeled and certified by National Fenestration Rating Council (NFRC), is required for doors and windows replaced in all residential buildings, three stories or less, per Section 152(b) of Title 24.      \"COMPLY WITH DEPARTMENT ORDER effective date02/07/2013. PERMIT WILL EXPIRE 30 DAYS FROM ISSUANCE DATE\".. Permit Finaled. 2217 E 108TH ST","address":"2217 East 108Th Street, CA, Los Angeles, 90059, US","ct":"2430.00","ev":"N","apc":"South Los Angeles","cpa":"Southeast Los Angeles","zone":"R1-1","solar":"N","pin_nbr":"088-5A217 118","use_code":"1","geolocation":"POINT (-118.23231 33.93754)","status_date":"03/13/2013","permit_group":"Building","refresh_time":"06/10/2026","type_lat_lon":"ADDRESS","business_unit":"Express Permit"},"geometry":{"type":"Point","coordinates":[-118.23231,33.93754]}},{"type":"Feature","properties":{"date":"2013-02-26T00:00:00.000Z","year":2013,"description":"Window (16) change-out (same size & type) for residential buildings.Dual glazing, labeled and certified by National Fenestration Rating Council (NFRC), is required for doors and windows replaced in all residential buildings, three stories or less, per Section 152(b) of Title 24.  Valuation to be verified by Inspector.\"COMPLY WITH DEPARTMENT ORDER effective date 11/12/2010. PERMIT WILL EXPIRE 30DAYS FROM ISSUANCE DATE.","metadescription":"Bldg-Alter/Repair. 1 or 2 Family Dwelling. Window (16) change-out (same size & type) for residential buildings.Dual glazing, labeled and certified by National Fenestration Rating Council (NFRC), is required for doors and windows replaced in all residential buildings, three stories or less, per Section 152(b) of Title 24.  Valuation to be verified by Inspector.\"COMPLY WITH DEPARTMENT ORDER effective date 11/12/2010. PERMIT WILL EXPIRE 30DAYS FROM ISSUANCE DATE.. Permit Finaled. 10514 S KALMIA ST","address":"10516 South Kalmia Street, CA, Los Angeles, 90002, US","ct":"2430.00","ev":"N","apc":"South Los Angeles","cpa":"Southeast Los Angeles","zone":"R1-1","solar":"N","pin_nbr":"090A217   327","use_code":"1","geolocation":"POINT (-118.23162 33.94016)","status_date":"06/14/2013","permit_group":"Building","refresh_time":"06/10/2026","type_lat_lon":"ADDRESS","business_unit":"Express Permit"},"geometry":{"type":"Point","coordinates":[-118.23162,33.94016]}},{"type":"Feature","properties":{"date":"2013-02-05T00:00:00.000Z","year":2013,"description":"Bathroom (2) remodel for residential buildings (no structural changes).   \"COMPLY WITHDEPARTMENT ORDER effective date 11/12/2010. PERMIT WILL EXPIRE 30DAYS FROM ISSUANCE DATE.","metadescription":"Bldg-Alter/Repair. 1 or 2 Family Dwelling. Bathroom (2) remodel for residential buildings (no structural changes).   \"COMPLY WITHDEPARTMENT ORDER effective date 11/12/2010. PERMIT WILL EXPIRE 30DAYS FROM ISSUANCE DATE.. Permit Finaled. 10514 S KALMIA ST","address":"10516 South Kalmia Street, CA, Los Angeles, 90002, US","ct":"2430.00","ev":"N","apc":"South Los Angeles","cpa":"Southeast Los Angeles","zone":"R1-1","solar":"N","pin_nbr":"090A217   327","use_code":"1","geolocation":"POINT (-118.23162 33.94016)","status_date":"05/09/2013","permit_group":"Building","refresh_time":"06/10/2026","type_lat_lon":"ADDRESS","business_unit":"Express Permit"},"geometry":{"type":"Point","coordinates":[-118.23162,33.94016]}},{"type":"Feature","properties":{"date":"2013-01-17T00:00:00.000Z","year":2013,"description":"CHANGE OUT 1 DOOR (SAME SIZE AND TYPE FOR RESIDENTIAL BUILDINGS ONLY)","metadescription":"Bldg-Alter/Repair. 1 or 2 Family Dwelling. CHANGE OUT 1 DOOR (SAME SIZE AND TYPE FOR RESIDENTIAL BUILDINGS ONLY). Issued. 2340 E SANTA ANA BLVD NORTH","address":"2340 Santa Ana Boulevard North, CA, Los Angeles, 90059, US","ct":"2430.00, 2431.00","ev":"N","apc":"Harbor","solar":"N","pin_nbr":"088-5A217 661","use_code":"1","geolocation":"POINT (-118.23105 33.9346)","status_date":"01/17/2013","permit_group":"Building","refresh_time":"06/10/2026","type_lat_lon":"ADDRESS","business_unit":"Express Permit"},"geometry":{"type":"Point","coordinates":[-118.23105,33.9346]}},{"type":"Feature","properties":{"date":"2013-01-16T00:00:00.000Z","year":2013,"description":"General rehabilitation (Non-structural changes, less than 10% of replacement cost of building). Kitchen remodel for residential buildings (no structural changes)-CABINETS. REPAIR drywall. (no new walls added) COMPLY W/ DEPT ORDER DATED 11/20/08. PERMIT WILL EXPIRE 30 DAYS FROM ISSUANCE DATE. **SEE APPLICATION COMMENTS**","metadescription":"Bldg-Alter/Repair. 1 or 2 Family Dwelling. General rehabilitation (Non-structural changes, less than 10% of replacement cost of building). Kitchen remodel for residential buildings (no structural changes)-CABINETS. REPAIR drywall. (no new walls added) COMPLY W/ DEPT ORDER DATED 11/20/08. PERMIT WILL EXPIRE 30 DAYS FROM ISSUANCE DATE. **SEE APPLICATION COMMENTS**. Permit Finaled. 10516 S KALMIA ST","address":"10516 South Kalmia Street, CA, Los Angeles, 90002, US","ct":"2430.00","ev":"N","apc":"South Los Angeles","cpa":"Southeast Los Angeles","zone":"R1-1","solar":"N","pin_nbr":"090A217   336","use_code":"1","geolocation":"POINT (-118.23144 33.94008)","status_date":"03/15/2013","permit_group":"Building","refresh_time":"06/10/2026","type_lat_lon":"ADDRESS","business_unit":"Express Permit"},"geometry":{"type":"Point","coordinates":[-118.23144,33.94008]}},{"type":"Feature","properties":{"date":"2013-01-04T00:00:00.000Z","year":2013,"description":"Kitchen/bathroom remodel for residential buildings (no structural changes). Window change-out (same size & type) for residential buildings.  Dual glazing, labeled and certified by National Fenestration Rating Council (NFRC), is required for doors and windows replaced in all residential buildings, three stories or less, per Section 152(b) of Title 24.","metadescription":"Bldg-Alter/Repair. 1 or 2 Family Dwelling. Kitchen/bathroom remodel for residential buildings (no structural changes). Window change-out (same size & type) for residential buildings.  Dual glazing, labeled and certified by National Fenestration Rating Council (NFRC), is required for doors and windows replaced in all residential buildings, three stories or less, per Section 152(b) of Title 24.. Permit Finaled. 2251-2253 E 105TH ST","address":"2251 East 105Th Street, CA, Los Angeles, 90002, US","ct":"2430.00","ev":"N","apc":"South Los Angeles","cpa":"Southeast Los Angeles","zone":"R1-1","solar":"N","pin_nbr":"090A217   247","use_code":"2","geolocation":"POINT (-118.23157 33.94069)","status_date":"04/09/2013","permit_group":"Building","refresh_time":"06/10/2026","type_lat_lon":"ADDRESS","business_unit":"Express Permit"},"geometry":{"type":"Point","coordinates":[-118.23157,33.94069]}},{"type":"Feature","properties":{"date":"2012-12-05T00:00:00.000Z","year":2012,"description":"SUPPL. PERMIT TO PERMIT #12016-10000-17657 FOR Windows (3) change-out (same size & type) for residential buildings.  Dual glazing, labeled and certified by National Fenestration Rating Council (NFRC), is required for doors and windows replaced in all residential buildings, three stories or less, per Section 152(b) of Title 24.","metadescription":"Bldg-Alter/Repair. 1 or 2 Family Dwelling. SUPPL. PERMIT TO PERMIT #12016-10000-17657 FOR Windows (3) change-out (same size & type) for residential buildings.  Dual glazing, labeled and certified by National Fenestration Rating Council (NFRC), is required for doors and windows replaced in all residential buildings, three stories or less, per Section 152(b) of Title 24.. Permit Expired. 10517 S GORMAN AVE","address":"10517 Gorman Avenue, CA, Los Angeles, 90002, US","ct":"2430.00","ev":"N","apc":"South Los Angeles","cpa":"Southeast Los Angeles","zone":"R1-1","solar":"N","pin_nbr":"090A217   347","use_code":"1","geolocation":"POINT (-118.23077 33.94002)","status_date":"06/04/2014","permit_group":"Building","refresh_time":"06/10/2026","type_lat_lon":"ADDRESS","business_unit":"Express Permit"},"geometry":{"type":"Point","coordinates":[-118.23077,33.94002]}},{"type":"Feature","properties":{"date":"2012-10-31T00:00:00.000Z","year":2012,"description":"Suppl. permit to permit #12016-70000-19689 for Window change-out (same size & type) for residential buildings.  Dual glazing, labeled and certified by National Fenestration Rating Council (NFRC), is required for doors and windows replaced in all residential buildings, three stories or less, per Section 152(b) of Title 24.","metadescription":"Bldg-Alter/Repair. 1 or 2 Family Dwelling. Suppl. permit to permit #12016-70000-19689 for Window change-out (same size & type) for residential buildings.  Dual glazing, labeled and certified by National Fenestration Rating Council (NFRC), is required for doors and windows replaced in all residential buildings, three stories or less, per Section 152(b) of Title 24.. Permit Finaled. 10521 S JUNIPER ST","address":"10517 Juniper Street, CA, Los Angeles, 90002, US","ct":"2430.00","ev":"N","apc":"South Los Angeles","cpa":"Southeast Los Angeles","zone":"R1-1","solar":"N","pin_nbr":"090A217   352","use_code":"1","geolocation":"POINT (-118.23285 33.93996)","status_date":"12/19/2012","permit_group":"Building","refresh_time":"06/10/2026","type_lat_lon":"ADDRESS","business_unit":"Express Permit"},"geometry":{"type":"Point","coordinates":[-118.23285,33.93996]}},{"type":"Feature","properties":{"date":"2012-10-15T00:00:00.000Z","year":2012,"description":"Window change-out (same size & type) for residential buildings.  Dual glazing, labeled and certified by National Fenestration Rating Council (NFRC), is required for doors and windows replaced in all residential buildings, three stories or less, per Section 152(b) of Title 24. General rehabilitation (No alteration & no structural changes.) (less than 10% of replacement cost of building).","metadescription":"Bldg-Alter/Repair. 1 or 2 Family Dwelling. Window change-out (same size & type) for residential buildings.  Dual glazing, labeled and certified by National Fenestration Rating Council (NFRC), is required for doors and windows replaced in all residential buildings, three stories or less, per Section 152(b) of Title 24. General rehabilitation (No alteration & no structural changes.) (less than 10% of replacement cost of building).. Permit Finaled. 10610 S GORMAN AVE","address":"10612 Gorman Avenue, CA, Los Angeles, 90002, US","ct":"2430.00","ev":"N","apc":"South Los Angeles","cpa":"Southeast Los Angeles","zone":"R1-1","solar":"N","pin_nbr":"090A217   429","use_code":"2","geolocation":"POINT (-118.23058 33.93947)","status_date":"06/19/2013","permit_group":"Building","refresh_time":"06/10/2026","type_lat_lon":"ADDRESS","business_unit":"Express Permit"},"geometry":{"type":"Point","coordinates":[-118.23058,33.93947]}},{"type":"Feature","properties":{"date":"2012-09-21T00:00:00.000Z","year":2012,"description":"Kitchen remodel for residential buildings (no structural changes). Window change-out (same size & type) for residential buildings.  Dual glazing, labeled and certified by National Fenestration Rating Council (NFRC), is required for doors and windows replaced in all residential buildings, three stories or less, per Section 152(b) of Title 24.","metadescription":"Bldg-Alter/Repair. 1 or 2 Family Dwelling. Kitchen remodel for residential buildings (no structural changes). Window change-out (same size & type) for residential buildings.  Dual glazing, labeled and certified by National Fenestration Rating Council (NFRC), is required for doors and windows replaced in all residential buildings, three stories or less, per Section 152(b) of Title 24.. Permit Finaled. 10612 S GORMAN AVE","address":"10612 Gorman Avenue, CA, Los Angeles, 90002, US","ct":"2430.00","ev":"N","apc":"South Los Angeles","cpa":"Southeast Los Angeles","zone":"R1-1","solar":"N","pin_nbr":"090A217   429","use_code":"1","geolocation":"POINT (-118.23058 33.9394)","status_date":"06/19/2013","permit_group":"Building","refresh_time":"06/10/2026","type_lat_lon":"ADDRESS","business_unit":"Express Permit"},"geometry":{"type":"Point","coordinates":[-118.23058,33.9394]}},{"type":"Feature","properties":{"date":"2012-07-18T00:00:00.000Z","year":2012,"description":"Change out (1) window same size and location for unit #2305.     Dual glazing, labeled and certified by National Fenestration Rating Council (NFRC), is required for doors and windows replaced in all residential buildings, three stories or less, per Section 152(b) of Title 24.","metadescription":"Bldg-Alter/Repair. 1 or 2 Family Dwelling. Change out (1) window same size and location for unit #2305.     Dual glazing, labeled and certified by National Fenestration Rating Council (NFRC), is required for doors and windows replaced in all residential buildings, three stories or less, per Section 152(b) of Title 24.. Permit Finaled. 2303-2305 E 108TH ST","address":"2303 East 108Th Street, CA, Los Angeles, 90059, US","ct":"2430.00","ev":"N","apc":"South Los Angeles","cpa":"Southeast Los Angeles","zone":"R1-1","solar":"N","pin_nbr":"088-5A217 176","use_code":"2","geolocation":"POINT (-118.23096 33.93727)","status_date":"09/19/2012","permit_group":"Building","refresh_time":"06/10/2026","type_lat_lon":"ADDRESS","business_unit":"Express Permit"},"geometry":{"type":"Point","coordinates":[-118.23096,33.93727]}},{"type":"Feature","properties":{"date":"2012-06-18T00:00:00.000Z","year":2012,"description":"General rehabilitation (No alteration & no structural changes.) (less than 10% of replacement cost of building). Kitchen/bathroom remodel for residential buildings (no structural changes). **SEE APPLICATION COMMENTS**","metadescription":"Bldg-Alter/Repair. 1 or 2 Family Dwelling. General rehabilitation (No alteration & no structural changes.) (less than 10% of replacement cost of building). Kitchen/bathroom remodel for residential buildings (no structural changes). **SEE APPLICATION COMMENTS**. Permit Finaled. 2303-2305 E 108TH ST","address":"2303 East 108Th Street, CA, Los Angeles, 90059, US","ct":"2430.00","ev":"N","apc":"South Los Angeles","cpa":"Southeast Los Angeles","zone":"R1-1","solar":"N","pin_nbr":"088-5A217 176","use_code":"2","geolocation":"POINT (-118.23096 33.93727)","status_date":"09/20/2012","permit_group":"Building","refresh_time":"06/10/2026","type_lat_lon":"ADDRESS","business_unit":"Express Permit"},"geometry":{"type":"Point","coordinates":[-118.23096,33.93727]}},{"type":"Feature","properties":{"date":"2012-04-18T00:00:00.000Z","year":2012,"description":"CHANGE OUT 1 WINDOW (SAME SIZE AND TYPE FOR RESIDENTIAL BUILDINGS ONLY)","metadescription":"Bldg-Alter/Repair. 1 or 2 Family Dwelling. CHANGE OUT 1 WINDOW (SAME SIZE AND TYPE FOR RESIDENTIAL BUILDINGS ONLY). Permit Finaled. 2253 E 105TH ST","address":"2253 East 105Th Street, CA, Los Angeles, 90002, US","ct":"2430.00","ev":"N","apc":"South Los Angeles","cpa":"Southeast Los Angeles","zone":"R1-1","solar":"N","pin_nbr":"090A217   248","use_code":"1","geolocation":"POINT (-118.23153 33.94069)","status_date":"08/01/2012","permit_group":"Building","refresh_time":"06/10/2026","type_lat_lon":"ADDRESS","business_unit":"Express Permit"},"geometry":{"type":"Point","coordinates":[-118.23153,33.94069]}},{"type":"Feature","properties":{"date":"2012-04-18T00:00:00.000Z","year":2012,"description":"CHANGE OUT 1 WINDOW (SAME SIZE AND TYPE FOR RESIDENTIAL BUILDINGS ONLY)","metadescription":"Bldg-Alter/Repair. 1 or 2 Family Dwelling. CHANGE OUT 1 WINDOW (SAME SIZE AND TYPE FOR RESIDENTIAL BUILDINGS ONLY). Permit Finaled. 2251 E 105TH ST","address":"2251 East 105Th Street, CA, Los Angeles, 90002, US","ct":"2430.00","ev":"N","apc":"South Los Angeles","cpa":"Southeast Los Angeles","zone":"R1-1","solar":"N","pin_nbr":"090A217   247","use_code":"1","geolocation":"POINT (-118.23157 33.94069)","status_date":"08/01/2012","permit_group":"Building","refresh_time":"06/10/2026","type_lat_lon":"ADDRESS","business_unit":"Express Permit"},"geometry":{"type":"Point","coordinates":[-118.23157,33.94069]}},{"type":"Feature","properties":{"date":"2012-03-16T00:00:00.000Z","year":2012,"description":"Window and door change-out (same size & type) for residential buildings.  Dual glazing, labeled and certified by National Fenestration Rating Council (NFRC), is required for doors and windows replaced in all residential buildings, three stories or less, per Section 152(b) of Title 24. *INVESTIGATION FEE INCLUDED*","metadescription":"Bldg-Alter/Repair. 1 or 2 Family Dwelling. Window and door change-out (same size & type) for residential buildings.  Dual glazing, labeled and certified by National Fenestration Rating Council (NFRC), is required for doors and windows replaced in all residential buildings, three stories or less, per Section 152(b) of Title 24. *INVESTIGATION FEE INCLUDED*. Permit Finaled. 10812 S CROESUS AVE","address":"10812 Croesus Avenue, CA, Los Angeles, 90059, US","ct":"2430.00","ev":"N","apc":"South Los Angeles","cpa":"Southeast Los Angeles","zone":"R1-1","solar":"N","pin_nbr":"088-5A217 151","use_code":"1","geolocation":"POINT (-118.2337 33.93772)","status_date":"04/26/2012","permit_group":"Building","refresh_time":"06/10/2026","type_lat_lon":"ADDRESS","business_unit":"Express Permit"},"geometry":{"type":"Point","coordinates":[-118.2337,33.93772]}},{"type":"Feature","properties":{"date":"2011-10-28T00:00:00.000Z","year":2011,"description":"Kitchen/bathroom remodel for residential buildings (no structural changes). Re-stucco, replace drywall. (no new walls added) Re-roof with Class A or B material weighing less than 6 pound per sq. ft. Installation of security bars for dwellings/apartments. Quick release required in bedrooms per California Building Code Part 12, Chapter 12-3. Replacement of damaged framing members (less than 10% of replacement cost of building) for houses and duplexes (not including decks). INSULATION. **SEE APPLICATION COMMENTS","metadescription":"Bldg-Alter/Repair. 1 or 2 Family Dwelling. Kitchen/bathroom remodel for residential buildings (no structural changes). Re-stucco, replace drywall. (no new walls added) Re-roof with Class A or B material weighing less than 6 pound per sq. ft. Installation of security bars for dwellings/apartments. Quick release required in bedrooms per California Building Code Part 12, Chapter 12-3. Replacement of damaged framing members (less than 10% of replacement cost of building) for houses and duplexes (not including decks). INSULATION. **SEE APPLICATION COMMENTS. Permit Finaled. 10627 S CROESUS AVE","address":"10627 Croesus Avenue, CA, Los Angeles, 90002, US","ct":"2430.00","ev":"N","apc":"South Los Angeles","cpa":"Southeast Los Angeles","zone":"R1-1","solar":"N","pin_nbr":"090A217   499","use_code":"1","geolocation":"POINT (-118.23396 33.93897)","status_date":"05/23/2012","permit_group":"Building","refresh_time":"06/10/2026","type_lat_lon":"ADDRESS","business_unit":"Express Permit"},"geometry":{"type":"Point","coordinates":[-118.23396,33.93897]}},{"type":"Feature","properties":{"date":"2011-08-30T00:00:00.000Z","year":2011,"description":"Fire damage repair for residential building only (maximum 10% of replacement cost of building) Replace drywall. (no new walls added) Re-roof with Class A or B material weighing less than 6 pound per sq. ft. (damaged area only) Replacement of damaged framing members (less than 10% of replacement cost of building) for houses and duplexes (not including decks).","metadescription":"Bldg-Alter/Repair. 1 or 2 Family Dwelling. Fire damage repair for residential building only (maximum 10% of replacement cost of building) Replace drywall. (no new walls added) Re-roof with Class A or B material weighing less than 6 pound per sq. ft. (damaged area only) Replacement of damaged framing members (less than 10% of replacement cost of building) for houses and duplexes (not including decks).. Permit Finaled. 10713 S MONA BLVD","address":"10713 Mona Boulevard, CA, Los Angeles, 90059, US","ct":"2430.00","ev":"N","apc":"South Los Angeles","cpa":"Southeast Los Angeles","zone":"R1-1","solar":"N","pin_nbr":"090A217   559","use_code":"1","geolocation":"POINT (-118.22913075 33.93844992)","status_date":"03/09/2012","permit_group":"Building","refresh_time":"06/10/2026","type_lat_lon":"PIN","business_unit":"Express Permit"},"geometry":{"type":"Point","coordinates":[-118.22913075,33.93844992]}},{"type":"Feature","properties":{"date":"2011-03-29T00:00:00.000Z","year":2011,"description":"Add sill plate anchor bolts and cripple wall plywood per LA City Standard Plan#1; no foundation replacement (Earthquake hazard reduction per Chapter 92 of the Los  Angeles Building Code). (Houses, residential buildings up to 3 stories and up to 4  units).","metadescription":"Bldg-Alter/Repair. 1 or 2 Family Dwelling. Add sill plate anchor bolts and cripple wall plywood per LA City Standard Plan#1; no foundation replacement (Earthquake hazard reduction per Chapter 92 of the Los  Angeles Building Code). (Houses, residential buildings up to 3 stories and up to 4  units).. Permit Finaled. 10915 S MONA BLVD","address":"10915 Mona Boulevard, CA, Los Angeles, 90059, US","ct":"2430.00","ev":"N","apc":"South Los Angeles","cpa":"Southeast Los Angeles","zone":"R1-1","solar":"N","pin_nbr":"088-5A217 472","use_code":"1","geolocation":"POINT (-118.22987 33.93567)","status_date":"11/21/2011","permit_group":"Building","refresh_time":"06/10/2026","type_lat_lon":"ADDRESS","business_unit":"Express Permit"},"geometry":{"type":"Point","coordinates":[-118.22987,33.93567]}},{"type":"Feature","properties":{"date":"2011-01-11T00:00:00.000Z","year":2011,"description":"General rehabilitation (No alteration & no structural changes.) (less than 10% of replacement cost of building). Windows (8) and doors (3) change-out (same size & type) for residential buildings.  TO COMPLY W/ DEPT. ORDER DATED 09-15-10.  PERMIT WILL EXPIRE 30 DAYS FROM ISSUANCE DATE. SEE APPLICATIONS COMMENTS TO CONTINUE.","metadescription":"Bldg-Alter/Repair. 1 or 2 Family Dwelling. General rehabilitation (No alteration & no structural changes.) (less than 10% of replacement cost of building). Windows (8) and doors (3) change-out (same size & type) for residential buildings.  TO COMPLY W/ DEPT. ORDER DATED 09-15-10.  PERMIT WILL EXPIRE 30 DAYS FROM ISSUANCE DATE. SEE APPLICATIONS COMMENTS TO CONTINUE.. Permit Finaled. 2322 E 105TH ST","address":"2322 East 105Th Street, CA, Los Angeles, 90002, US","ct":"2430.00","ev":"N","apc":"South Los Angeles","cpa":"Southeast Los Angeles","zone":"R1-1","solar":"N","pin_nbr":"090A217   316","use_code":"1","geolocation":"POINT (-118.22993 33.94049)","status_date":"01/27/2011","permit_group":"Building","refresh_time":"06/10/2026","type_lat_lon":"ADDRESS","business_unit":"Express Permit"},"geometry":{"type":"Point","coordinates":[-118.22993,33.94049]}},{"type":"Feature","properties":{"date":"2010-12-14T00:00:00.000Z","year":2010,"description":"(3) Windows change-out (same size & type) for residential buildings.  Dual glazing, labeled and certified by National Fenestration Rating Council (NFRC), is required for windows replaced in all residential buildings, three stories or less, per Section 152(b) of Title 24. Stucco. (no new walls added)","metadescription":"Bldg-Alter/Repair. 1 or 2 Family Dwelling. (3) Windows change-out (same size & type) for residential buildings.  Dual glazing, labeled and certified by National Fenestration Rating Council (NFRC), is required for windows replaced in all residential buildings, three stories or less, per Section 152(b) of Title 24. Stucco. (no new walls added). Permit Finaled. 10348 S WEIGAND AVE","address":"10350 Weigand Avenue, CA, Los Angeles, 90002, US","ct":"2430.00","ev":"N","apc":"South Los Angeles","cpa":"Southeast Los Angeles","zone":"R1-1","solar":"N","pin_nbr":"090A217   133","use_code":"1","geolocation":"POINT (-118.22954 33.94173)","status_date":"04/25/2011","permit_group":"Building","refresh_time":"06/10/2026","type_lat_lon":"ADDRESS","business_unit":"Express Permit"},"geometry":{"type":"Point","coordinates":[-118.22954,33.94173]}},{"type":"Feature","properties":{"date":"2010-04-09T00:00:00.000Z","year":2010,"description":"Kitchen/bathroom remodel for residential buildings (no structural changes).Re-stucco. (no new walls added)  Re-roof with Class A or B material weighing less than 6 pound per sq. ft.  Smoke detectors required.Window change-out (same size & type and location) for residential buildings.  Valuation to be verified by field inspector.  Dual glazing, labeled and certified by National Fenestration Rating Council (NFRC), is required for doors and windows replaced in all residential buildings, three stories or less, per Section 152(b) of Title 24.\"COMPLY WITHDEPARTMENT ORDER effective date 04/21/2009. PERMIT WILL EXPIRE 30DAYS FROM ISSUANCE DATE. All permits shall be for the same timeperiod limitation.","metadescription":"Bldg-Alter/Repair. 1 or 2 Family Dwelling. Kitchen/bathroom remodel for residential buildings (no structural changes).Re-stucco. (no new walls added)  Re-roof with Class A or B material weighing less than 6 pound per sq. ft.  Smoke detectors required.Window change-out (same size & type and location) for residential buildings.  Valuation to be verified by field inspector.  Dual glazing, labeled and certified by National Fenestration Rating Council (NFRC), is required for doors and windows replaced in all residential buildings, three stories or less, per Section 152(b) of Title 24.\"COMPLY WITHDEPARTMENT ORDER effective date 04/21/2009. PERMIT WILL EXPIRE 30DAYS FROM ISSUANCE DATE. All permits shall be for the same timeperiod limitation.. Permit Finaled. 2361 E 108TH ST","address":"2363 East 108Th Street, CA, Los Angeles, 90059, US","ct":"2430.00","ev":"N","apc":"South Los Angeles","cpa":"Southeast Los Angeles","zone":"R1-1","solar":"N","pin_nbr":"088-5A217 212","use_code":"1","geolocation":"POINT (-118.22975 33.93701)","status_date":"10/14/2010","permit_group":"Building","refresh_time":"06/10/2026","type_lat_lon":"ADDRESS","business_unit":"Express Permit"},"geometry":{"type":"Point","coordinates":[-118.22975,33.93701]}},{"type":"Feature","properties":{"date":"2009-07-01T00:00:00.000Z","year":2009,"description":"General rehabilitation (No alteration & no structural changes.) (less than 10% of replacement cost of building). Windows change-out (same size & type) for residential buildings.  Dual glazing, labeled and certified by National Fenestration Rating Council (NFRC), is required for doors and windows replaced in all residential buildings, three stories or less, per Section 152(b) of Title 24. Replace drywall. (no new walls added) COMPLY W/ DEPT ORDER DATED 01/11/08. PERMIT WILL EXPIRE 30 DAYS FROM ISSUANCE DATE.","metadescription":"Bldg-Alter/Repair. 1 or 2 Family Dwelling. General rehabilitation (No alteration & no structural changes.) (less than 10% of replacement cost of building). Windows change-out (same size & type) for residential buildings.  Dual glazing, labeled and certified by National Fenestration Rating Council (NFRC), is required for doors and windows replaced in all residential buildings, three stories or less, per Section 152(b) of Title 24. Replace drywall. (no new walls added) COMPLY W/ DEPT ORDER DATED 01/11/08. PERMIT WILL EXPIRE 30 DAYS FROM ISSUANCE DATE.. Permit Finaled. 10414 S KALMIA ST","address":"10408 1/2 Kalmia Street, CA, Los Angeles, 90002, US","ct":"2430.00","ev":"N","apc":"South Los Angeles","cpa":"Southeast Los Angeles","zone":"R1-1","solar":"N","pin_nbr":"090A217   217","use_code":"1","geolocation":"POINT (-118.23161 33.94105)","status_date":"07/30/2009","permit_group":"Building","refresh_time":"06/10/2026","type_lat_lon":"ADDRESS","business_unit":"Express Permit"},"geometry":{"type":"Point","coordinates":[-118.23161,33.94105]}}]}
