{"type":"FeatureCollection","features":[{"type":"Feature","properties":{"date":"2026-04-29T00:00:00.000Z","year":2026,"description":"**Attention: Varand Sarkisian**Eplan. supplemental plan check only to check revised ADU design","metadescription":"Bldg-Alter/Repair. 1 or 2 Family Dwelling. **Attention: Varand Sarkisian**Eplan. supplemental plan check only to check revised ADU design. PC Assigned. 2275 E SANTA ANA BLVD","address":"2275 East Santa Ana Boulevard, CA, Los Angeles, 90059, US","ct":"2430.02","ev":"N","apc":"South Los Angeles","cpa":"Southeast Los Angeles","zone":"R1-1","solar":"N","pin_nbr":"088-5A217 486","status_date":"05/21/2026","permit_group":"Building","refresh_time":"06/10/2026","type_lat_lon":"PIN","business_unit":"Regular Plan Check"},"geometry":{"type":"Point","coordinates":[-118.23181133,33.93539717]}},{"type":"Feature","properties":{"date":"2023-06-12T00:00:00.000Z","year":2023,"description":"Supplementa ref: 20010-70000-00470 to correct address from 10612 S Weigand Ave to 10610 S Weigand Ave per BOE assignment on original permit.  **No fee dept error**","metadescription":"Bldg-Alter/Repair. 1 or 2 Family Dwelling. Supplementa ref: 20010-70000-00470 to correct address from 10612 S Weigand Ave to 10610 S Weigand Ave per BOE assignment on original permit.  **No fee dept error**. Permit Finaled. 10610 S WEIGAND AVE","address":"10610 Weigand Avenue, CA, Los Angeles, 90002, US","ct":"2430.00","ev":"N","apc":"South Los Angeles","cpa":"Southeast Los Angeles","zone":"R1-1","solar":"N","pin_nbr":"090A217   432","use_code":"1","status_date":"11/09/2023","permit_group":"Building","refresh_time":"06/10/2026","type_lat_lon":"ADDRESS","business_unit":"Plan Check at Counter"},"geometry":{"type":"Point","coordinates":[-118.22954,33.93941]}},{"type":"Feature","properties":{"date":"2021-06-08T00:00:00.000Z","year":2021,"description":"(N) One-story, detached Accesory Dwelling unit (840 SF) at the rear of the property.  All work per engineered design.","metadescription":"Bldg-New. 1 or 2 Family Dwelling. (N) One-story, detached Accesory Dwelling unit (840 SF) at the rear of the property.  All work per engineered design.. CofO Issued. 10611 1/2 S CROESUS AVE","address":"10611 1/2 Croesus Avenue, CA, Los Angeles, 90002, US","ct":"2430.00","ev":"N","apc":"South Los Angeles","cpa":"Southeast Los Angeles","zone":"R1-1","solar":"N","height":"13","pin_nbr":"090A217   433","use_code":"1","status_date":"12/04/2021","construction":"Type V-B Construction","permit_group":"Building","refresh_time":"06/10/2026","type_lat_lon":"BUILDING","business_unit":"Expanded Counter Plan Check","square_footage":"782"},"geometry":{"type":"Point","coordinates":[-118.23419879,33.93940562]}},{"type":"Feature","properties":{"date":"2011-11-03T00:00:00.000Z","year":2011,"description":"REPAIR AND REPLACE FIRE DAMAGED WEST WALL PER ENGINEERING DESIGN.","metadescription":"Bldg-Alter/Repair. 1 or 2 Family Dwelling. REPAIR AND REPLACE FIRE DAMAGED WEST WALL PER ENGINEERING DESIGN.. Permit Finaled. 10713 S MONA BLVD","address":"10713 Mona Boulevard, CA, Los Angeles, 90059, US","ct":"2430.00","ev":"N","apc":"South Los Angeles","cpa":"Southeast Los Angeles","zone":"R1-1","solar":"N","pin_nbr":"090A217   559","use_code":"1","geolocation":"POINT (-118.22913075 33.93844992)","status_date":"03/09/2012","permit_group":"Building","refresh_time":"06/10/2026","type_lat_lon":"PIN","business_unit":"Plan Check at Counter"},"geometry":{"type":"Point","coordinates":[-118.22913075,33.93844992]}},{"type":"Feature","properties":{"date":"2007-11-19T00:00:00.000Z","year":2007,"description":"NEW 2 STORY SINGLE FAMILY DWELLINGS WITH ATTACHED 2 CAR GARAGE. Tract TR 64598 shall be recorded prior to final C of O per ZA 2006-7108 (ZV)(ZAA). (The minimum lot area for each lot is 2470 sq. ft). Address clearance will be signed off after the tract recorded.","metadescription":"Bldg-New. 1 or 2 Family Dwelling. NEW 2 STORY SINGLE FAMILY DWELLINGS WITH ATTACHED 2 CAR GARAGE. Tract TR 64598 shall be recorded prior to final C of O per ZA 2006-7108 (ZV)(ZAA). (The minimum lot area for each lot is 2470 sq. ft). Address clearance will be signed off after the tract recorded.. CofO Corrected. 2225 E SANTA ANA BLVD SOUTH","address":"2225 Santa Ana Boulevard South, CA, Los Angeles, 90059, US","ct":"2430.00, 2431.00","ev":"N","apc":"South Los Angeles","cpa":"Southeast Los Angeles","zone":"(Q)RZ2.5-1","solar":"N","height":"20.5","pin_nbr":"088-5A217 659","use_code":"1","geolocation":"POINT (-118.23318 33.93542)","status_date":"03/05/2010","construction":"Type V-N Construction","permit_group":"Building","refresh_time":"06/10/2026","type_lat_lon":"ADDRESS","business_unit":"Regular Plan Check","square_footage":"1870"},"geometry":{"type":"Point","coordinates":[-118.23318,33.93542]}},{"type":"Feature","properties":{"date":"2007-11-19T00:00:00.000Z","year":2007,"description":"NEW 2 STORY SINGLE FAMILY DWELLINGS WITH ATTACHED 2 CAR GARAGE. Tract TR 64598 shall be recorded prior to final C of O per ZA 2006-7108 (ZV)(ZAA). (The minimum lot area for each lot is 2470 sq. ft). Address clearance will be signed off after the tract recorded.","metadescription":"Bldg-New. 1 or 2 Family Dwelling. NEW 2 STORY SINGLE FAMILY DWELLINGS WITH ATTACHED 2 CAR GARAGE. Tract TR 64598 shall be recorded prior to final C of O per ZA 2006-7108 (ZV)(ZAA). (The minimum lot area for each lot is 2470 sq. ft). Address clearance will be signed off after the tract recorded.. CofO Corrected. 2327 E SANTA ANA BLVD SOUTH","address":"2327 Santa Ana Boulevard South, CA, Los Angeles, 90059, US","ct":"2430.00, 2431.00","ev":"N","apc":"South Los Angeles","cpa":"Southeast Los Angeles","zone":"(Q)RZ2.5-1","solar":"N","height":"20.5","pin_nbr":"088-5A217 659","use_code":"1","geolocation":"POINT (-118.23141 33.93463)","status_date":"03/04/2010","construction":"Type V-N Construction","permit_group":"Building","refresh_time":"06/10/2026","type_lat_lon":"ADDRESS","business_unit":"Regular Plan Check","square_footage":"1870"},"geometry":{"type":"Point","coordinates":[-118.23141,33.93463]}},{"type":"Feature","properties":{"date":"2007-11-19T00:00:00.000Z","year":2007,"description":"NEW 2 STORY SINGLE FAMILY DWELLINGS WITH ATTACHED 2 CAR GARAGE. Tract TR 64598 shall be recorded prior to final C of O per ZA 2006-7108 (ZV)(ZAA). (The minimum lot area for each lot is 2470 sq. ft). Address clearance will be signed off after the tract recorded.","metadescription":"Bldg-New. 1 or 2 Family Dwelling. NEW 2 STORY SINGLE FAMILY DWELLINGS WITH ATTACHED 2 CAR GARAGE. Tract TR 64598 shall be recorded prior to final C of O per ZA 2006-7108 (ZV)(ZAA). (The minimum lot area for each lot is 2470 sq. ft). Address clearance will be signed off after the tract recorded.. CofO Corrected. 2319 E SANTA ANA BLVD SOUTH","address":"2319 Santa Ana Boulevard South, CA, Los Angeles, 90059, US","ct":"2430.00, 2431.00","ev":"N","apc":"South Los Angeles","cpa":"Southeast Los Angeles","zone":"(Q)RZ2.5-1","solar":"N","height":"20.5","pin_nbr":"088-5A217 659","use_code":"1","geolocation":"POINT (-118.23162 33.9347)","status_date":"03/04/2010","construction":"Type V-N Construction","permit_group":"Building","refresh_time":"06/10/2026","type_lat_lon":"ADDRESS","business_unit":"Regular Plan Check","square_footage":"1870"},"geometry":{"type":"Point","coordinates":[-118.23162,33.9347]}},{"type":"Feature","properties":{"date":"2007-11-19T00:00:00.000Z","year":2007,"description":"NEW 2 STORY SINGLE FAMILY DWELLINGS WITH ATTACHED 2 CAR GARAGE. Tract TR 64598 shall be recorded prior to final C of O per ZA 2006-7108 (ZV)(ZAA). (The minimum lot area for each lot is 2470 sq. ft). Address clearance will be signed off after the tract recorded.","metadescription":"Bldg-New. 1 or 2 Family Dwelling. NEW 2 STORY SINGLE FAMILY DWELLINGS WITH ATTACHED 2 CAR GARAGE. Tract TR 64598 shall be recorded prior to final C of O per ZA 2006-7108 (ZV)(ZAA). (The minimum lot area for each lot is 2470 sq. ft). Address clearance will be signed off after the tract recorded.. CofO Corrected. 2250 E SANTA ANA BLVD NORTH","address":"2250 East Santa Ana Boulevard, CA, Los Angeles, 90059, US","ct":"2430.00, 2431.00","ev":"N","apc":"South Los Angeles","cpa":"Southeast Los Angeles","zone":"(Q)RZ2.5-1","solar":"N","height":"20.5","pin_nbr":"088-5A217 659","use_code":"1","geolocation":"POINT (-118.23285 33.9354)","status_date":"03/05/2010","construction":"Type V-N Construction","permit_group":"Building","refresh_time":"06/10/2026","type_lat_lon":"ADDRESS","business_unit":"Regular Plan Check","square_footage":"1870"},"geometry":{"type":"Point","coordinates":[-118.23285,33.9354]}},{"type":"Feature","properties":{"date":"2007-11-19T00:00:00.000Z","year":2007,"description":"NEW 2 STORY SINGLE FAMILY DWELLINGS WITH ATTACHED 2 CAR GARAGE. Tract TR 64598 shall be recorded prior to final C of O per ZA 2006-7108 (ZV)(ZAA). (The minimum lot area for each lot is 2470 sq. ft). Address clearance will be signed off after the tract recorded.","metadescription":"Bldg-New. 1 or 2 Family Dwelling. NEW 2 STORY SINGLE FAMILY DWELLINGS WITH ATTACHED 2 CAR GARAGE. Tract TR 64598 shall be recorded prior to final C of O per ZA 2006-7108 (ZV)(ZAA). (The minimum lot area for each lot is 2470 sq. ft). Address clearance will be signed off after the tract recorded.. CofO Corrected. 2369 E SANTA ANA BLVD SOUTH","address":"2369 Santa Ana Boulevard South, CA, Los Angeles, 90059, US","ct":"2430.00, 2431.00","ev":"N","apc":"South Los Angeles","cpa":"Southeast Los Angeles","zone":"(Q)RZ2.5-1","solar":"N","height":"20.5","pin_nbr":"088-5A217 659","use_code":"1","geolocation":"POINT (-118.23046 33.93423)","status_date":"03/04/2010","construction":"Type V-N Construction","permit_group":"Building","refresh_time":"06/10/2026","type_lat_lon":"ADDRESS","business_unit":"Regular Plan Check","square_footage":"1870"},"geometry":{"type":"Point","coordinates":[-118.23046,33.93423]}},{"type":"Feature","properties":{"date":"2007-11-19T00:00:00.000Z","year":2007,"description":"NEW 2 STORY SINGLE FAMILY DWELLINGS WITH ATTACHED 2 CAR GARAGE. Tract TR 64598 shall be recorded prior to final C of O per ZA 2006-7108 (ZV)(ZAA). (The minimum lot area for each lot is 2470 sq. ft). Address clearance will be signed off after the tract recorded.","metadescription":"Bldg-New. 1 or 2 Family Dwelling. NEW 2 STORY SINGLE FAMILY DWELLINGS WITH ATTACHED 2 CAR GARAGE. Tract TR 64598 shall be recorded prior to final C of O per ZA 2006-7108 (ZV)(ZAA). (The minimum lot area for each lot is 2470 sq. ft). Address clearance will be signed off after the tract recorded.. CofO Corrected. 2235 E SANTA ANA BLVD SOUTH","address":"2245 Santa Ana Boulevard South, CA, Los Angeles, 90059, US","ct":"2430.00, 2431.00","ev":"N","apc":"South Los Angeles","cpa":"Southeast Los Angeles","zone":"(Q)RZ2.5-1","solar":"N","height":"20.5","pin_nbr":"088-5A217 660","use_code":"1","geolocation":"POINT (-118.23305 33.93537)","status_date":"03/04/2010","construction":"Type V-N Construction","permit_group":"Building","refresh_time":"06/10/2026","type_lat_lon":"ADDRESS","business_unit":"Regular Plan Check","square_footage":"1834"},"geometry":{"type":"Point","coordinates":[-118.23305,33.93537]}},{"type":"Feature","properties":{"date":"2007-11-19T00:00:00.000Z","year":2007,"description":"NEW 2 STORY SINGLE FAMILY DWELLINGS WITH ATTACHED 2 CAR GARAGE. Tract TR 64598 shall be recorded prior to final C of O per ZA 2006-7108 (ZV)(ZAA). (The minimum lot area for each lot is 2470 sq. ft). Address clearance will be signed off after the tract recorded.","metadescription":"Bldg-New. 1 or 2 Family Dwelling. NEW 2 STORY SINGLE FAMILY DWELLINGS WITH ATTACHED 2 CAR GARAGE. Tract TR 64598 shall be recorded prior to final C of O per ZA 2006-7108 (ZV)(ZAA). (The minimum lot area for each lot is 2470 sq. ft). Address clearance will be signed off after the tract recorded.. CofO Issued. 2360 E SANTA ANA BLVD NORTH","address":"2360 Santa Ana Boulevard North, CA, Los Angeles, 90059, US","ct":"2430.00, 2431.00","ev":"N","apc":"South Los Angeles","cpa":"Southeast Los Angeles","zone":"(Q)RZ2.5-1","solar":"N","height":"20.5","pin_nbr":"088-5A217 659","use_code":"1","geolocation":"POINT (-118.23069 33.93442)","status_date":"02/24/2010","construction":"Type V-N Construction","permit_group":"Building","refresh_time":"06/10/2026","type_lat_lon":"ADDRESS","business_unit":"Regular Plan Check","square_footage":"1870"},"geometry":{"type":"Point","coordinates":[-118.23069,33.93442]}},{"type":"Feature","properties":{"date":"2007-11-19T00:00:00.000Z","year":2007,"description":"NEW 2 STORY SINGLE FAMILY DWELLINGS WITH ATTACHED 2 CAR GARAGE. Tract TR 64598 shall be recorded prior to final C of O per ZA 2006-7108 (ZV)(ZAA). (The minimum lot area for each lot is 2470 sq. ft). Address clearance will be signed off after the tract recorded.","metadescription":"Bldg-New. 1 or 2 Family Dwelling. NEW 2 STORY SINGLE FAMILY DWELLINGS WITH ATTACHED 2 CAR GARAGE. Tract TR 64598 shall be recorded prior to final C of O per ZA 2006-7108 (ZV)(ZAA). (The minimum lot area for each lot is 2470 sq. ft). Address clearance will be signed off after the tract recorded.. CofO Corrected. 2283 E SANTA ANA BLVD SOUTH","address":"2283 Santa Ana Boulevard South, CA, Los Angeles, 90059, US","ct":"2430.00, 2431.00","ev":"N","apc":"South Los Angeles","cpa":"Southeast Los Angeles","zone":"(Q)RZ2.5-1","solar":"N","height":"20.5","pin_nbr":"088-5A217 660","use_code":"1","geolocation":"POINT (-118.23213 33.93503)","status_date":"03/04/2010","construction":"Type V-N Construction","permit_group":"Building","refresh_time":"06/10/2026","type_lat_lon":"ADDRESS","business_unit":"Regular Plan Check","square_footage":"1834"},"geometry":{"type":"Point","coordinates":[-118.23213,33.93503]}},{"type":"Feature","properties":{"date":"2007-11-19T00:00:00.000Z","year":2007,"description":"NEW 2 STORY SINGLE FAMILY DWELLINGS WITH ATTACHED 2 CAR GARAGE. Tract TR 64598 shall be recorded prior to final C of O per ZA 2006-7108 (ZV)(ZAA). (The minimum lot area for each lot is 2470 sq. ft). Address clearance will be signed off after the tract recorded.","metadescription":"Bldg-New. 1 or 2 Family Dwelling. NEW 2 STORY SINGLE FAMILY DWELLINGS WITH ATTACHED 2 CAR GARAGE. Tract TR 64598 shall be recorded prior to final C of O per ZA 2006-7108 (ZV)(ZAA). (The minimum lot area for each lot is 2470 sq. ft). Address clearance will be signed off after the tract recorded.. CofO Corrected. 2270 E SANTA ANA BLVD NORTH","address":"2270 Santa Ana Boulevard North, CA, Los Angeles, 90059, US","ct":"2430.00, 2431.00","ev":"N","apc":"South Los Angeles","cpa":"Southeast Los Angeles","zone":"(Q)RZ2.5-1","solar":"N","height":"20.5","pin_nbr":"088-5A217 659","use_code":"1","geolocation":"POINT (-118.23248 33.93521)","status_date":"03/05/2010","construction":"Type V-N Construction","permit_group":"Building","refresh_time":"06/10/2026","type_lat_lon":"ADDRESS","business_unit":"Regular Plan Check","square_footage":"1870"},"geometry":{"type":"Point","coordinates":[-118.23248,33.93521]}},{"type":"Feature","properties":{"date":"2007-11-19T00:00:00.000Z","year":2007,"description":"NEW 2 STORY SINGLE FAMILY DWELLINGS WITH ATTACHED 2 CAR GARAGE. Tract TR 64598 shall be recorded prior to final C of O per ZA 2006-7108 (ZV)(ZAA). (The minimum lot area for each lot is 2470 sq. ft). Address clearance will be signed off after the tract recorded.","metadescription":"Bldg-New. 1 or 2 Family Dwelling. NEW 2 STORY SINGLE FAMILY DWELLINGS WITH ATTACHED 2 CAR GARAGE. Tract TR 64598 shall be recorded prior to final C of O per ZA 2006-7108 (ZV)(ZAA). (The minimum lot area for each lot is 2470 sq. ft). Address clearance will be signed off after the tract recorded.. CofO Corrected. 2310 E SANTA ANA BLVD NORTH","address":"2316 Santa Ana Boulevard North, CA, Los Angeles, 90059, US","ct":"2430.00, 2431.00","ev":"N","apc":"South Los Angeles","cpa":"Southeast Los Angeles","zone":"(Q)RZ2.5-1","solar":"N","height":"20.5","pin_nbr":"088-5A217 660","use_code":"1","geolocation":"POINT (-118.23168 33.93487)","status_date":"03/04/2010","construction":"Type V-N Construction","permit_group":"Building","refresh_time":"06/10/2026","type_lat_lon":"ADDRESS","business_unit":"Regular Plan Check","square_footage":"1834"},"geometry":{"type":"Point","coordinates":[-118.23168,33.93487]}},{"type":"Feature","properties":{"date":"2007-11-19T00:00:00.000Z","year":2007,"description":"NEW 2 STORY SINGLE FAMILY DWELLINGS WITH ATTACHED 2 CAR GARAGE. Tract TR 64598 shall be recorded prior to final C of O per ZA 2006-7108 (ZV)(ZAA). (The minimum lot area for each lot is 2470 sq. ft). Address clearance will be signed off after the tract recorded.","metadescription":"Bldg-New. 1 or 2 Family Dwelling. NEW 2 STORY SINGLE FAMILY DWELLINGS WITH ATTACHED 2 CAR GARAGE. Tract TR 64598 shall be recorded prior to final C of O per ZA 2006-7108 (ZV)(ZAA). (The minimum lot area for each lot is 2470 sq. ft). Address clearance will be signed off after the tract recorded.. CofO Corrected. 2356 E SANTA ANA BLVD NORTH","address":"2356 Santa Ana Boulevard North, CA, Los Angeles, 90059, US","ct":"2430.00, 2431.00","ev":"N","apc":"South Los Angeles","cpa":"Southeast Los Angeles","zone":"(Q)RZ2.5-1","solar":"N","height":"20.5","pin_nbr":"088-5A217 660","use_code":"1","geolocation":"POINT (-118.23078 33.93445)","status_date":"03/04/2010","construction":"Type V-N Construction","permit_group":"Building","refresh_time":"06/10/2026","type_lat_lon":"ADDRESS","business_unit":"Regular Plan Check","square_footage":"1834"},"geometry":{"type":"Point","coordinates":[-118.23078,33.93445]}},{"type":"Feature","properties":{"date":"2007-11-19T00:00:00.000Z","year":2007,"description":"NEW 2 STORY SINGLE FAMILY DWELLINGS WITH ATTACHED 2 CAR GARAGE. Tract TR 64598 shall be recorded prior to final C of O per ZA 2006-7108 (ZV)(ZAA). (The minimum lot area for each lot is 2470 sq. ft). Address clearance will be signed off after the tract recorded.","metadescription":"Bldg-New. 1 or 2 Family Dwelling. NEW 2 STORY SINGLE FAMILY DWELLINGS WITH ATTACHED 2 CAR GARAGE. Tract TR 64598 shall be recorded prior to final C of O per ZA 2006-7108 (ZV)(ZAA). (The minimum lot area for each lot is 2470 sq. ft). Address clearance will be signed off after the tract recorded.. CofO Corrected. 2365 E SANTA ANA BLVD SOUTH","address":"2365 Santa Ana Boulevard South, CA, Los Angeles, 90059, US","ct":"2430.00, 2431.00","ev":"N","apc":"South Los Angeles","cpa":"Southeast Los Angeles","zone":"(Q)RZ2.5-1","solar":"N","height":"20.5","pin_nbr":"088-5A217 660","use_code":"1","geolocation":"POINT (-118.23056 33.93429)","status_date":"03/04/2010","construction":"Type V-N Construction","permit_group":"Building","refresh_time":"06/10/2026","type_lat_lon":"ADDRESS","business_unit":"Regular Plan Check","square_footage":"1834"},"geometry":{"type":"Point","coordinates":[-118.23056,33.93429]}},{"type":"Feature","properties":{"date":"2007-11-19T00:00:00.000Z","year":2007,"description":"NEW 2 STORY SINGLE FAMILY DWELLINGS WITH ATTACHED 2 CAR GARAGE. Tract TR 64598 shall be recorded prior to final C of O per ZA 2006-7108 (ZV)(ZAA). (The minimum lot area for each lot is 2470 sq. ft). Address clearance will be signed off after the tract recorded.","metadescription":"Bldg-New. 1 or 2 Family Dwelling. NEW 2 STORY SINGLE FAMILY DWELLINGS WITH ATTACHED 2 CAR GARAGE. Tract TR 64598 shall be recorded prior to final C of O per ZA 2006-7108 (ZV)(ZAA). (The minimum lot area for each lot is 2470 sq. ft). Address clearance will be signed off after the tract recorded.. CofO Corrected. 2266 E SANTA ANA BLVD NORTH","address":"2266 Santa Ana Boulevard North, CA, Los Angeles, 90059, US","ct":"2430.00, 2431.00","ev":"N","apc":"South Los Angeles","cpa":"Southeast Los Angeles","zone":"(Q)RZ2.5-1","solar":"N","height":"20.5","pin_nbr":"088-5A217 660","use_code":"1","geolocation":"POINT (-118.23259 33.93524)","status_date":"03/04/2010","construction":"Type V-N Construction","permit_group":"Building","refresh_time":"06/10/2026","type_lat_lon":"ADDRESS","business_unit":"Regular Plan Check","square_footage":"1834"},"geometry":{"type":"Point","coordinates":[-118.23259,33.93524]}},{"type":"Feature","properties":{"date":"2007-11-19T00:00:00.000Z","year":2007,"description":"NEW 2 STORY SINGLE FAMILY DWELLINGS WITH ATTACHED 2 CAR GARAGE. Tract TR 64598 shall be recorded prior to final C of O per ZA 2006-7108 (ZV)(ZAA). (The minimum lot area for each lot is 2470 sq. ft). Address clearance will be signed off after the tract recorded.","metadescription":"Bldg-New. 1 or 2 Family Dwelling. NEW 2 STORY SINGLE FAMILY DWELLINGS WITH ATTACHED 2 CAR GARAGE. Tract TR 64598 shall be recorded prior to final C of O per ZA 2006-7108 (ZV)(ZAA). (The minimum lot area for each lot is 2470 sq. ft). Address clearance will be signed off after the tract recorded.. CofO Corrected. 2279 E SANTA ANA BLVD SOUTH","address":"2283 Santa Ana Boulevard South, CA, Los Angeles, 90059, US","ct":"2430.00, 2431.00","ev":"N","apc":"South Los Angeles","cpa":"Southeast Los Angeles","zone":"(Q)RZ2.5-1","solar":"N","height":"20.5","pin_nbr":"088-5A217 660","use_code":"1","geolocation":"POINT (-118.23222 33.93497)","status_date":"03/04/2010","construction":"Type V-N Construction","permit_group":"Building","refresh_time":"06/10/2026","type_lat_lon":"ADDRESS","business_unit":"Regular Plan Check","square_footage":"1834"},"geometry":{"type":"Point","coordinates":[-118.23222,33.93497]}},{"type":"Feature","properties":{"date":"2007-11-19T00:00:00.000Z","year":2007,"description":"NEW 2 STORY SINGLE FAMILY DWELLINGS WITH ATTACHED 2 CAR GARAGE. Tract TR 64598 shall be recorded prior to final C of O per ZA 2006-7108 (ZV)(ZAA). (The minimum lot area for each lot is 2470 sq. ft). Address clearance will be signed off after the tract recorded.","metadescription":"Bldg-New. 1 or 2 Family Dwelling. NEW 2 STORY SINGLE FAMILY DWELLINGS WITH ATTACHED 2 CAR GARAGE. Tract TR 64598 shall be recorded prior to final C of O per ZA 2006-7108 (ZV)(ZAA). (The minimum lot area for each lot is 2470 sq. ft). Address clearance will be signed off after the tract recorded.. CofO Corrected. 2300 E SANTA ANA BLVD NORTH","address":"2300 Santa Ana Boulevard North, CA, Los Angeles, 90059, US","ct":"2430.00, 2431.00","ev":"N","apc":"South Los Angeles","cpa":"Southeast Los Angeles","zone":"(Q)RZ2.5-1","solar":"N","height":"20.5","pin_nbr":"088-5A217 660","use_code":"1","geolocation":"POINT (-118.23194 33.935)","status_date":"03/04/2010","construction":"Type V-N Construction","permit_group":"Building","refresh_time":"06/10/2026","type_lat_lon":"ADDRESS","business_unit":"Regular Plan Check","square_footage":"1834"},"geometry":{"type":"Point","coordinates":[-118.23194,33.935]}},{"type":"Feature","properties":{"date":"2007-11-19T00:00:00.000Z","year":2007,"description":"NEW 2 STORY SINGLE FAMILY DWELLINGS WITH ATTACHED 2 CAR GARAGE. Tract TR 64598 shall be recorded prior to final C of O per ZA 2006-7108 (ZV)(ZAA). (The minimum lot area for each lot is 2470 sq. ft). Address clearance will be signed off after the tract recorded.","metadescription":"Bldg-New. 1 or 2 Family Dwelling. NEW 2 STORY SINGLE FAMILY DWELLINGS WITH ATTACHED 2 CAR GARAGE. Tract TR 64598 shall be recorded prior to final C of O per ZA 2006-7108 (ZV)(ZAA). (The minimum lot area for each lot is 2470 sq. ft). Address clearance will be signed off after the tract recorded.. CofO Issued. 2361 E SANTA ANA BLVD SOUTH","address":"2361 Santa Ana Boulevard South, CA, Los Angeles, 90059, US","ct":"2430.00, 2431.00","ev":"N","apc":"South Los Angeles","cpa":"Southeast Los Angeles","zone":"(Q)RZ2.5-1","solar":"N","height":"20.5","pin_nbr":"088-5A217 660","use_code":"1","geolocation":"POINT (-118.23069 33.93429)","status_date":"02/24/2010","construction":"Type V-N Construction","permit_group":"Building","refresh_time":"06/10/2026","type_lat_lon":"ADDRESS","business_unit":"Regular Plan Check","square_footage":"1834"},"geometry":{"type":"Point","coordinates":[-118.23069,33.93429]}},{"type":"Feature","properties":{"date":"2007-11-19T00:00:00.000Z","year":2007,"description":"NEW 2 STORY SINGLE FAMILY DWELLINGS WITH ATTACHED 2 CAR GARAGE. Tract TR 64598 shall be recorded prior to final C of O per ZA 2006-7108 (ZV)(ZAA). (The minimum lot area for each lot is 2470 sq. ft). Address clearance will be signed off after the tract recorded.","metadescription":"Bldg-New. 1 or 2 Family Dwelling. NEW 2 STORY SINGLE FAMILY DWELLINGS WITH ATTACHED 2 CAR GARAGE. Tract TR 64598 shall be recorded prior to final C of O per ZA 2006-7108 (ZV)(ZAA). (The minimum lot area for each lot is 2470 sq. ft). Address clearance will be signed off after the tract recorded.. CofO Corrected. 2256 E SANTA ANA BLVD NORTH","address":"2256 Santa Ana Boulevard North, CA, Los Angeles, 90059, US","ct":"2430.00, 2431.00","ev":"N","apc":"South Los Angeles","cpa":"Southeast Los Angeles","zone":"(Q)RZ2.5-1","solar":"N","height":"20.5","pin_nbr":"088-5A217 660","use_code":"1","geolocation":"POINT (-118.23275 33.93533)","status_date":"03/04/2010","construction":"Type V-N Construction","permit_group":"Building","refresh_time":"06/10/2026","type_lat_lon":"ADDRESS","business_unit":"Regular Plan Check","square_footage":"1834"},"geometry":{"type":"Point","coordinates":[-118.23275,33.93533]}},{"type":"Feature","properties":{"date":"2007-11-19T00:00:00.000Z","year":2007,"description":"NEW 2 STORY SINGLE FAMILY DWELLINGS WITH ATTACHED 2 CAR GARAGE. Tract TR 64598 shall be recorded prior to final C of O per ZA 2006-7108 (ZV)(ZAA). (The minimum lot area for each lot is 2470 sq. ft). Address clearance will be signed off after the tract recorded.","metadescription":"Bldg-New. 1 or 2 Family Dwelling. NEW 2 STORY SINGLE FAMILY DWELLINGS WITH ATTACHED 2 CAR GARAGE. Tract TR 64598 shall be recorded prior to final C of O per ZA 2006-7108 (ZV)(ZAA). (The minimum lot area for each lot is 2470 sq. ft). Address clearance will be signed off after the tract recorded.. CofO Corrected. 2260 E SANTA ANA BLVD NORTH","address":"2260 Santa Ana Boulevard North, CA, Los Angeles, 90059, US","ct":"2430.00, 2431.00","ev":"N","apc":"South Los Angeles","cpa":"Southeast Los Angeles","zone":"(Q)RZ2.5-1","solar":"N","height":"20.5","pin_nbr":"088-5A217 660","use_code":"1","geolocation":"POINT (-118.23267 33.93531)","status_date":"03/05/2010","construction":"Type V-N Construction","permit_group":"Building","refresh_time":"06/10/2026","type_lat_lon":"ADDRESS","business_unit":"Regular Plan Check","square_footage":"1834"},"geometry":{"type":"Point","coordinates":[-118.23267,33.93531]}},{"type":"Feature","properties":{"date":"2007-11-19T00:00:00.000Z","year":2007,"description":"NEW 2 STORY SINGLE FAMILY DWELLINGS WITH ATTACHED 2 CAR GARAGE. Tract TR 64598 shall be recorded prior to final C of O per ZA 2006-7108 (ZV)(ZAA). (The minimum lot area for each lot is 2470 sq. ft). Address clearance will be signed off after the tract recorded.","metadescription":"Bldg-New. 1 or 2 Family Dwelling. NEW 2 STORY SINGLE FAMILY DWELLINGS WITH ATTACHED 2 CAR GARAGE. Tract TR 64598 shall be recorded prior to final C of O per ZA 2006-7108 (ZV)(ZAA). (The minimum lot area for each lot is 2470 sq. ft). Address clearance will be signed off after the tract recorded.. CofO Corrected. 2306 E SANTA ANA BLVD NORTH","address":"2306 Santa Ana Boulevard North, CA, Los Angeles, 90059, US","ct":"2430.00, 2431.00","ev":"N","apc":"South Los Angeles","cpa":"Southeast Los Angeles","zone":"(Q)RZ2.5-1","solar":"N","height":"20.5","pin_nbr":"088-5A217 659","use_code":"1","geolocation":"POINT (-118.23181 33.93496)","status_date":"03/05/2010","construction":"Type V-N Construction","permit_group":"Building","refresh_time":"06/10/2026","type_lat_lon":"ADDRESS","business_unit":"Regular Plan Check","square_footage":"1870"},"geometry":{"type":"Point","coordinates":[-118.23181,33.93496]}},{"type":"Feature","properties":{"date":"2007-11-19T00:00:00.000Z","year":2007,"description":"NEW 2 STORY SINGLE FAMILY DWELLINGS WITH ATTACHED 2 CAR GARAGE. Tract TR 64598 shall be recorded prior to final C of O per ZA 2006-7108 (ZV)(ZAA). (The minimum lot area for each lot is 2470 sq. ft). Address clearance will be signed off after the tract recorded.","metadescription":"Bldg-New. 1 or 2 Family Dwelling. NEW 2 STORY SINGLE FAMILY DWELLINGS WITH ATTACHED 2 CAR GARAGE. Tract TR 64598 shall be recorded prior to final C of O per ZA 2006-7108 (ZV)(ZAA). (The minimum lot area for each lot is 2470 sq. ft). Address clearance will be signed off after the tract recorded.. CofO Corrected. 2275 E SANTA ANA BLVD SOUTH","address":"2275 Santa Ana Boulevard South, CA, Los Angeles, 90059, US","ct":"2430.00, 2431.00","ev":"N","apc":"South Los Angeles","cpa":"Southeast Los Angeles","zone":"(Q)RZ2.5-1","solar":"N","height":"20.5","pin_nbr":"088-5A217 659","use_code":"1","geolocation":"POINT (-118.23231 33.93506)","status_date":"03/05/2010","construction":"Type V-N Construction","permit_group":"Building","refresh_time":"06/10/2026","type_lat_lon":"ADDRESS","business_unit":"Regular Plan Check","square_footage":"1870"},"geometry":{"type":"Point","coordinates":[-118.23231,33.93506]}},{"type":"Feature","properties":{"date":"2007-11-19T00:00:00.000Z","year":2007,"description":"NEW 2 STORY SINGLE FAMILY DWELLINGS WITH ATTACHED 2 CAR GARAGE. Tract TR 64598 shall be recorded prior to final C of O per ZA 2006-7108 (ZV)(ZAA). (The minimum lot area for each lot is 2470 sq. ft). Address clearance will be signed off after the tract recorded.","metadescription":"Bldg-New. 1 or 2 Family Dwelling. NEW 2 STORY SINGLE FAMILY DWELLINGS WITH ATTACHED 2 CAR GARAGE. Tract TR 64598 shall be recorded prior to final C of O per ZA 2006-7108 (ZV)(ZAA). (The minimum lot area for each lot is 2470 sq. ft). Address clearance will be signed off after the tract recorded.. CofO Corrected. 2335 E SANTA ANA BLVD SOUTH","address":"2340 Santa Ana Boulevard North, CA, Los Angeles, 90059, US","ct":"2430.00, 2431.00","ev":"N","apc":"South Los Angeles","cpa":"Southeast Los Angeles","zone":"(Q)RZ2.5-1","solar":"N","height":"20.5","pin_nbr":"088-5A217 659","use_code":"1","geolocation":"POINT (-118.23118 33.93461)","status_date":"03/04/2010","construction":"Type V-N Construction","permit_group":"Building","refresh_time":"06/10/2026","type_lat_lon":"ADDRESS","business_unit":"Regular Plan Check","square_footage":"1870"},"geometry":{"type":"Point","coordinates":[-118.23118,33.93461]}},{"type":"Feature","properties":{"date":"2007-11-19T00:00:00.000Z","year":2007,"description":"NEW 2 STORY SINGLE FAMILY DWELLINGS WITH ATTACHED 2 CAR GARAGE. Tract TR 64598 shall be recorded prior to final C of O per ZA 2006-7108 (ZV)(ZAA). (The minimum lot area for each lot is 2470 sq. ft). Address clearance will be signed off after the tract recorded.","metadescription":"Bldg-New. 1 or 2 Family Dwelling. NEW 2 STORY SINGLE FAMILY DWELLINGS WITH ATTACHED 2 CAR GARAGE. Tract TR 64598 shall be recorded prior to final C of O per ZA 2006-7108 (ZV)(ZAA). (The minimum lot area for each lot is 2470 sq. ft). Address clearance will be signed off after the tract recorded.. CofO Corrected. 2245 E SANTA ANA BLVD SOUTH","address":"2245 Santa Ana Boulevard South, CA, Los Angeles, 90059, US","ct":"2430.00, 2431.00","ev":"N","apc":"South Los Angeles","cpa":"Southeast Los Angeles","zone":"(Q)RZ2.5-1","solar":"N","height":"20.5","pin_nbr":"088-5A217 660","use_code":"1","geolocation":"POINT (-118.233 33.93534)","status_date":"03/04/2010","construction":"Type V-N Construction","permit_group":"Building","refresh_time":"06/10/2026","type_lat_lon":"ADDRESS","business_unit":"Regular Plan Check","square_footage":"1834"},"geometry":{"type":"Point","coordinates":[-118.233,33.93534]}},{"type":"Feature","properties":{"date":"2007-11-19T00:00:00.000Z","year":2007,"description":"NEW 2 STORY SINGLE FAMILY DWELLINGS WITH ATTACHED 2 CAR GARAGE. Tract TR 64598 shall be recorded prior to final C of O per ZA 2006-7108 (ZV)(ZAA). (The minimum lot area for each lot is 2470 sq. ft). Address clearance will be signed off after the tract recorded.","metadescription":"Bldg-New. 1 or 2 Family Dwelling. NEW 2 STORY SINGLE FAMILY DWELLINGS WITH ATTACHED 2 CAR GARAGE. Tract TR 64598 shall be recorded prior to final C of O per ZA 2006-7108 (ZV)(ZAA). (The minimum lot area for each lot is 2470 sq. ft). Address clearance will be signed off after the tract recorded.. CofO Corrected. 2350 E SANTA ANA BLVD NORTH","address":"2356 Santa Ana Boulevard North, CA, Los Angeles, 90059, US","ct":"2430.00, 2431.00","ev":"N","apc":"South Los Angeles","cpa":"Southeast Los Angeles","zone":"(Q)RZ2.5-1","solar":"N","height":"20.5","pin_nbr":"088-5A217 659","use_code":"1","geolocation":"POINT (-118.23084 33.93451)","status_date":"03/04/2010","construction":"Type V-N Construction","permit_group":"Building","refresh_time":"06/10/2026","type_lat_lon":"ADDRESS","business_unit":"Regular Plan Check","square_footage":"1870"},"geometry":{"type":"Point","coordinates":[-118.23084,33.93451]}},{"type":"Feature","properties":{"date":"2007-11-19T00:00:00.000Z","year":2007,"description":"NEW 2 STORY SINGLE FAMILY DWELLINGS WITH ATTACHED 2 CAR GARAGE. Tract TR 64598 shall be recorded prior to final C of O per ZA 2006-7108 (ZV)(ZAA). (The minimum lot area for each lot is 2470 sq. ft). Address clearance will be signed off after the tract recorded.","metadescription":"Bldg-New. 1 or 2 Family Dwelling. NEW 2 STORY SINGLE FAMILY DWELLINGS WITH ATTACHED 2 CAR GARAGE. Tract TR 64598 shall be recorded prior to final C of O per ZA 2006-7108 (ZV)(ZAA). (The minimum lot area for each lot is 2470 sq. ft). Address clearance will be signed off after the tract recorded.. CofO Corrected. 2323 E SANTA ANA BLVD SOUTH","address":"2323 Santa Ana Boulevard South, CA, Los Angeles, 90059, US","ct":"2430.00, 2431.00","ev":"N","apc":"South Los Angeles","cpa":"Southeast Los Angeles","zone":"(Q)RZ2.5-1","solar":"N","height":"20.5","pin_nbr":"088-5A217 660","use_code":"1","geolocation":"POINT (-118.23145 33.93477)","status_date":"03/04/2010","construction":"Type V-N Construction","permit_group":"Building","refresh_time":"06/10/2026","type_lat_lon":"ADDRESS","business_unit":"Regular Plan Check","square_footage":"1834"},"geometry":{"type":"Point","coordinates":[-118.23145,33.93477]}},{"type":"Feature","properties":{"date":"2007-11-19T00:00:00.000Z","year":2007,"description":"NEW 2 STORY SINGLE FAMILY DWELLINGS WITH ATTACHED 2 CAR GARAGE. Tract TR 64598 shall be recorded prior to final C of O per ZA 2006-7108 (ZV)(ZAA). (The minimum lot area for each lot is 2470 sq. ft). Address clearance will be signed off after the tract recorded.","metadescription":"Bldg-New. 1 or 2 Family Dwelling. NEW 2 STORY SINGLE FAMILY DWELLINGS WITH ATTACHED 2 CAR GARAGE. Tract TR 64598 shall be recorded prior to final C of O per ZA 2006-7108 (ZV)(ZAA). (The minimum lot area for each lot is 2470 sq. ft). Address clearance will be signed off after the tract recorded.. CofO Corrected. 2331 E SANTA ANA BLVD SOUTH","address":"2331 Santa Ana Boulevard South, CA, Los Angeles, 90059, US","ct":"2430.00, 2431.00","ev":"N","apc":"South Los Angeles","cpa":"Southeast Los Angeles","zone":"(Q)RZ2.5-1","solar":"N","height":"20.5","pin_nbr":"088-5A217 660","use_code":"1","geolocation":"POINT (-118.23131 33.93461)","status_date":"03/04/2010","construction":"Type V-N Construction","permit_group":"Building","refresh_time":"06/10/2026","type_lat_lon":"ADDRESS","business_unit":"Regular Plan Check","square_footage":"1834"},"geometry":{"type":"Point","coordinates":[-118.23131,33.93461]}},{"type":"Feature","properties":{"date":"2007-11-19T00:00:00.000Z","year":2007,"description":"NEW 2 STORY SINGLE FAMILY DWELLINGS WITH ATTACHED 2 CAR GARAGE. Tract TR 64598 shall be recorded prior to final C of O per ZA 2006-7108 (ZV)(ZAA). (The minimum lot area for each lot is 2470 sq. ft). Address clearance will be signed off after the tract recorded.","metadescription":"Bldg-New. 1 or 2 Family Dwelling. NEW 2 STORY SINGLE FAMILY DWELLINGS WITH ATTACHED 2 CAR GARAGE. Tract TR 64598 shall be recorded prior to final C of O per ZA 2006-7108 (ZV)(ZAA). (The minimum lot area for each lot is 2470 sq. ft). Address clearance will be signed off after the tract recorded.. CofO Corrected. 2346 E SANTA ANA BLVD NORTH","address":"2346 Santa Ana Boulevard North, CA, Los Angeles, 90059, US","ct":"2430.00, 2431.00","ev":"N","apc":"South Los Angeles","cpa":"Southeast Los Angeles","zone":"(Q)RZ2.5-1","solar":"N","height":"20.5","pin_nbr":"088-5A217 660","use_code":"1","geolocation":"POINT (-118.23103 33.93449)","status_date":"03/04/2010","construction":"Type V-N Construction","permit_group":"Building","refresh_time":"06/10/2026","type_lat_lon":"ADDRESS","business_unit":"Regular Plan Check","square_footage":"1834"},"geometry":{"type":"Point","coordinates":[-118.23103,33.93449]}},{"type":"Feature","properties":{"date":"2007-11-19T00:00:00.000Z","year":2007,"description":"NEW 2 STORY SINGLE FAMILY DWELLINGS WITH ATTACHED 2 CAR GARAGE. Tract TR 64598 shall be recorded prior to final C of O per ZA 2006-7108 (ZV)(ZAA). (The minimum lot area for each lot is 2470 sq. ft). Address clearance will be signed off after the tract recorded.","metadescription":"Bldg-New. 1 or 2 Family Dwelling. NEW 2 STORY SINGLE FAMILY DWELLINGS WITH ATTACHED 2 CAR GARAGE. Tract TR 64598 shall be recorded prior to final C of O per ZA 2006-7108 (ZV)(ZAA). (The minimum lot area for each lot is 2470 sq. ft). Address clearance will be signed off after the tract recorded.. CofO Issued. 2271 E SANTA ANA BLVD SOUTH","address":"2271 Santa Ana Boulevard South, CA, Los Angeles, 90059, US","ct":"2430.00, 2431.00","ev":"N","apc":"South Los Angeles","cpa":"Southeast Los Angeles","zone":"(Q)RZ2.5-1","solar":"N","height":"20.5","pin_nbr":"088-5A217 660","use_code":"1","geolocation":"POINT (-118.23248 33.93508)","status_date":"02/26/2010","construction":"Type V-N Construction","permit_group":"Building","refresh_time":"06/10/2026","type_lat_lon":"ADDRESS","business_unit":"Regular Plan Check","square_footage":"1834"},"geometry":{"type":"Point","coordinates":[-118.23248,33.93508]}},{"type":"Feature","properties":{"date":"2007-11-19T00:00:00.000Z","year":2007,"description":"NEW 2 STORY SINGLE FAMILY DWELLINGS WITH ATTACHED 2 CAR GARAGE. Tract TR 64598 shall be recorded prior to final C of O per ZA 2006-7108 (ZV)(ZAA). (The minimum lot area for each lot is 2470 sq. ft). Address clearance will be signed off after the tract recorded.","metadescription":"Bldg-New. 1 or 2 Family Dwelling. NEW 2 STORY SINGLE FAMILY DWELLINGS WITH ATTACHED 2 CAR GARAGE. Tract TR 64598 shall be recorded prior to final C of O per ZA 2006-7108 (ZV)(ZAA). (The minimum lot area for each lot is 2470 sq. ft). Address clearance will be signed off after the tract recorded.. CofO Corrected. 2340 E SANTA ANA BLVD NORTH","address":"2340 Santa Ana Boulevard North, CA, Los Angeles, 90059, US","ct":"2430.00, 2431.00","ev":"N","apc":"South Los Angeles","cpa":"Southeast Los Angeles","zone":"(Q)RZ2.5-1","solar":"N","height":"20.5","pin_nbr":"088-5A217 660","use_code":"1","geolocation":"POINT (-118.23105 33.9346)","status_date":"03/04/2010","construction":"Type V-N Construction","permit_group":"Building","refresh_time":"06/10/2026","type_lat_lon":"ADDRESS","business_unit":"Regular Plan Check","square_footage":"1834"},"geometry":{"type":"Point","coordinates":[-118.23105,33.9346]}}]}
