{"type":"FeatureCollection","features":[{"type":"Feature","properties":{"date":"2013-03-20T04:00:00.000Z","year":2013,"description":"new 2stry residence and guest w/att garages and covd patio and breezeway EUD","metadescription":"EP. New. new 2stry residence and guest w/att garages and covd patio and breezeway EUD. Final. 2 LOST MEADOW TRL","address":"2 LOST MEADOW TRL","link":"https://abc.austintexas.gov/web/permit/public-search-other?t_detail=1&t_selected_folderrsn=10916723","tcad_id":"0135760409","location":"    (30.35119219, -97.97746431)","day_issued":"WEDNESDAY","project_id":"10916723","condominium":"No","status_date":"03/28/2013","jurisdiction":"THE HILLS FULL PURPOSE","housing_units":"2","contractor_zip":"78754","contractor_city":"AUSTIN","issuance_method":"Permit Center","contractor_phone":"5123000839","contractor_trade":"Electrical Contractor","number_of_floors":"2","permit_type_desc":"Electrical Permit","fiscal_year_issued":"2013","total_new_add_sqft":"7,058","permit_class_mapped":"Residential","contractor_address_2":"1834  FERGUS","contractor_full_name":"Mark Williams","issued_in_last_30_days":"No","certificate_of_occupancy":"No","property_legal_description":"LOT 738 HILLS OF LAKEWAY PHS 9"},"geometry":{"type":"Point","coordinates":[-97.97746431,30.35119219]}},{"type":"Feature","properties":{"date":"2012-12-31T05:00:00.000Z","year":2012,"description":"New 2 Stry Sf Res w/attached garage/covd patio.Electric Service Only.EUD","metadescription":"EP. New. New 2 Stry Sf Res w/attached garage/covd patio.Electric Service Only.EUD. Final. 414 LUNA VISTA DR","address":"414 LUNA VISTA DR","link":"https://abc.austintexas.gov/web/permit/public-search-other?t_detail=1&t_selected_folderrsn=10876286","tcad_id":"0135760941","location":"    (30.35286995, -97.98256695)","day_issued":"MONDAY","project_id":"10876286","condominium":"No","status_date":"07/11/2013","jurisdiction":"THE HILLS FULL PURPOSE","housing_units":"1","contractor_zip":"78634-____","contractor_city":"HUTTO","issuance_method":"Permit Center","contractor_phone":"5123825753","contractor_trade":"Electrical Contractor","number_of_floors":"2","permit_type_desc":"Electrical Permit","fiscal_year_issued":"2013","total_new_add_sqft":"4,364","permit_class_mapped":"Residential","contractor_address_2":"629  W FRONT","contractor_full_name":"Calvin Lockhart","issued_in_last_30_days":"No","certificate_of_occupancy":"No","property_legal_description":"LOT 13 A-1 HILLS OF LAKEWAY PHS 10 AMD LT 13A BL A & LT 769A BL A PHS 9"},"geometry":{"type":"Point","coordinates":[-97.98256695,30.35286995]}},{"type":"Feature","properties":{"date":"2012-10-31T04:00:00.000Z","year":2012,"description":"New 2 Stry SF resid w/att garage cov patio porch EUD","metadescription":"EP. New. New 2 Stry SF resid w/att garage cov patio porch EUD. Final. 7 PARKSIDE RD","address":"7 PARKSIDE RD","link":"https://abc.austintexas.gov/web/permit/public-search-other?t_detail=1&t_selected_folderrsn=10851271","tcad_id":"0131760621","location":"    (30.34248802, -97.97837762)","day_issued":"WEDNESDAY","project_id":"10851271","condominium":"No","status_date":"03/07/2013","jurisdiction":"THE HILLS FULL PURPOSE","housing_units":"1","contractor_zip":"78942","contractor_city":"Giddings","issuance_method":"Permit Center","contractor_phone":"5122029089","contractor_trade":"Electrical Contractor","number_of_floors":"2","permit_type_desc":"Electrical Permit","fiscal_year_issued":"2013","total_new_add_sqft":"4,029","permit_class_mapped":"Residential","contractor_address_2":"691 S Navarr","contractor_full_name":"Leonard Orocio","issued_in_last_30_days":"No","certificate_of_occupancy":"No","property_legal_description":"LOT 624 HILLS OF LAKEWAY PHS 8 THE"},"geometry":{"type":"Point","coordinates":[-97.97837762,30.34248802]}},{"type":"Feature","properties":{"date":"2007-09-21T04:00:00.000Z","year":2007,"description":"New 2 Stry SF res w/att gar  covrd porch & Patio - Elect Serv Only (EUD)\n  Wtr Dist #`17","metadescription":"EP. New. New 2 Stry SF res w/att gar  covrd porch & Patio - Elect Serv Only (EUD)\n  Wtr Dist #`17. Final. 24 FALLING OAKS TRL","address":"24 FALLING OAKS TRL","link":"https://abc.austintexas.gov/web/permit/public-search-other?t_detail=1&t_selected_folderrsn=10074276","tcad_id":"0135760831","location":"    (30.35329825, -97.98117706)","day_issued":"FRIDAY","project_id":"10074276","condominium":"No","status_date":"10/09/2008","jurisdiction":"THE HILLS FULL PURPOSE","housing_units":"2","contractor_zip":"78691-____","contractor_city":"PFLUGERVILLE","issuance_method":"Permit Center","contractor_phone":"5128328900","contractor_trade":"Electrical Contractor","number_of_floors":"2","permit_type_desc":"Electrical Permit","fiscal_year_issued":"2007","total_new_add_sqft":"4,470","permit_class_mapped":"Residential","contractor_address_1":"PO BOX 3289","contractor_full_name":"Bryan Neal","issued_in_last_30_days":"No","certificate_of_occupancy":"No","property_legal_description":"LOT 793-A HILLS OF LAKEWAY PHS 9 AMENDED PLAT OF LOTS 791-793"},"geometry":{"type":"Point","coordinates":[-97.98117706,30.35329825]}},{"type":"Feature","properties":{"date":"2007-07-12T04:00:00.000Z","year":2007,"description":"New 2 Stry SF res w/att gar - covrd porch & patio - Elect Serv Only (EUD)\n  Wtr Dist #17 / PEC Power","metadescription":"EP. New. New 2 Stry SF res w/att gar - covrd porch & patio - Elect Serv Only (EUD)\n  Wtr Dist #17 / PEC Power. Expired. 3 APPLEGREEN CT","address":"3 APPLEGREEN CT","link":"https://abc.austintexas.gov/web/permit/public-search-other?t_detail=1&t_selected_folderrsn=10051542","tcad_id":"0133800921","location":"    (30.34314461, -97.99366404)","day_issued":"THURSDAY","project_id":"10051542","condominium":"No","status_date":"10/09/2008","jurisdiction":"THE HILLS FULL PURPOSE","housing_units":"1","contractor_zip":"78665","contractor_city":"ROUND ROCK","issuance_method":"Permit Center","contractor_phone":"5129920437","contractor_trade":"Electrical Contractor","number_of_floors":"2","permit_type_desc":"Electrical Permit","fiscal_year_issued":"2007","total_new_add_sqft":"2,471","permit_class_mapped":"Residential","contractor_address_2":"3401  SUNRIS","contractor_full_name":"Aaron Gifford","issued_in_last_30_days":"No","certificate_of_occupancy":"No","property_legal_description":"LOT 123 HILLS OF LAKEWAY PHS 2 THE"},"geometry":{"type":"Point","coordinates":[-97.99366404,30.34314461]}},{"type":"Feature","properties":{"date":"2007-04-11T04:00:00.000Z","year":2007,"description":"New 2 Stry SF Res w/att Gar covrd porch/patio - Elect Serv Only EUD","metadescription":"EP. New. New 2 Stry SF Res w/att Gar covrd porch/patio - Elect Serv Only EUD. Final. 3 WINGREEN LOOP","address":"3 WINGREEN LOOP","link":"https://abc.austintexas.gov/web/permit/public-search-other?t_detail=1&t_selected_folderrsn=10022157","tcad_id":"0135760120","location":"    (30.34882467, -97.97823561)","day_issued":"WEDNESDAY","project_id":"10022157","condominium":"No","status_date":"10/09/2008","jurisdiction":"THE HILLS FULL PURPOSE","housing_units":"1","contractor_zip":"78691-____","contractor_city":"PFLUGERVILLE","issuance_method":"Permit Center","contractor_phone":"5128328900","contractor_trade":"Electrical Contractor","number_of_floors":"2","permit_type_desc":"Electrical Permit","fiscal_year_issued":"2007","total_new_add_sqft":"3,101","permit_class_mapped":"Residential","contractor_address_1":"PO BOX 3289","contractor_full_name":"Bryan Neal","issued_in_last_30_days":"No","certificate_of_occupancy":"No","property_legal_description":"LOT 706A HILLS OF LAKEWAY PHS 8 THE AMD PLAT OF LTS 706 & 707"},"geometry":{"type":"Point","coordinates":[-97.97823561,30.34882467]}},{"type":"Feature","properties":{"date":"2006-03-22T05:00:00.000Z","year":2006,"description":"New 2 Story Resid With Att Gar Porch And Patio Elec & Plbg Srv Only Eud","metadescription":"EP. Remodel. New 2 Story Resid With Att Gar Porch And Patio Elec & Plbg Srv Only Eud. Final. 28 COTTONDALE RD","address":"28 COTTONDALE RD","link":"https://abc.austintexas.gov/web/permit/public-search-other?t_detail=1&t_selected_folderrsn=4376660","tcad_id":"0135760503","location":"    (30.34855298, -97.97766829)","day_issued":"WEDNESDAY","project_id":"4376660","status_date":"03/05/2007","jurisdiction":"THE HILLS FULL PURPOSE","contractor_zip":"78748","contractor_city":"Austin","issuance_method":"Permit Center","contractor_phone":"5126791505","contractor_trade":"Electrical Contractor","permit_type_desc":"Electrical Permit","fiscal_year_issued":"2006","permit_class_mapped":"Residential","contractor_address_2":"1506  Strick","contractor_full_name":"Lee Fowler","issued_in_last_30_days":"No","property_legal_description":"LOT 662 HILLS OF LAKEWAY PHS 8 THE"},"geometry":{"type":"Point","coordinates":[-97.97766829,30.34855298]}},{"type":"Feature","properties":{"date":"2005-03-23T05:00:00.000Z","year":2005,"description":"New Sf Resd.W/Attached Garage Covrd Front And Rear Porch Patio Elec Srv Only.  Eud.","metadescription":"EP. Remodel. New Sf Resd.W/Attached Garage Covrd Front And Rear Porch Patio Elec Srv Only.  Eud.. Final. 51 WINGREEN LOOP","address":"51 WINGREEN LOOP","link":"https://abc.austintexas.gov/web/permit/public-search-other?t_detail=1&t_selected_folderrsn=4359992","tcad_id":"0133760727","location":"    (30.34595546, -97.97789661)","day_issued":"WEDNESDAY","project_id":"4359992","status_date":"03/05/2007","jurisdiction":"THE HILLS FULL PURPOSE","contractor_zip":"78734","contractor_city":"Lakeway","issuance_method":"Permit Center","contractor_phone":"5127480248","contractor_trade":"Electrical Contractor","permit_type_desc":"Electrical Permit","fiscal_year_issued":"2005","permit_class_mapped":"Residential","contractor_address_2":"2121  Lohman","contractor_full_name":"Daniel Hernandez","issued_in_last_30_days":"No","property_legal_description":"LOT 649 HILLS OF LAKEWAY PHS 8 THE"},"geometry":{"type":"Point","coordinates":[-97.97789661,30.34595546]}},{"type":"Feature","properties":{"date":"2004-04-07T04:00:00.000Z","year":2004,"description":"New 2 Story S/F Resid With Att Gar Porch And Patio Elec & Plbg Srv Only Eud","metadescription":"BP. Remodel. New 2 Story S/F Resid With Att Gar Porch And Patio Elec & Plbg Srv Only Eud. Expired. 28 COTTONDALE RD","address":"28 COTTONDALE RD","link":"https://abc.austintexas.gov/web/permit/public-search-other?t_detail=1&t_selected_folderrsn=708421","tcad_id":"0135760503","location":"    (30.34855298, -97.97766829)","day_issued":"WEDNESDAY","project_id":"708421","condominium":"No","status_date":"06/06/2007","jurisdiction":"THE HILLS FULL PURPOSE","issuance_method":"Permit Center","permit_type_desc":"Building Permit","fiscal_year_issued":"2004","permit_class_mapped":"Residential","issued_in_last_30_days":"No","certificate_of_occupancy":"No","property_legal_description":"LOT 662 HILLS OF LAKEWAY PHS 8 THE"},"geometry":{"type":"Point","coordinates":[-97.97766829,30.34855298]}},{"type":"Feature","properties":{"date":"2004-04-07T04:00:00.000Z","year":2004,"description":"New 2 Story S/F Resid With Att Gar Porch And Patio Elec & Plbg Srv Only Eud","metadescription":"PP. Remodel. New 2 Story S/F Resid With Att Gar Porch And Patio Elec & Plbg Srv Only Eud. Expired. 28 COTTONDALE RD","address":"28 COTTONDALE RD","link":"https://abc.austintexas.gov/web/permit/public-search-other?t_detail=1&t_selected_folderrsn=3755798","tcad_id":"0135760503","location":"    (30.34855298, -97.97766829)","day_issued":"WEDNESDAY","project_id":"3755798","status_date":"06/06/2007","jurisdiction":"THE HILLS FULL PURPOSE","issuance_method":"Permit Center","permit_type_desc":"Plumbing Permit","master_permit_num":"708421","fiscal_year_issued":"2004","permit_class_mapped":"Residential","issued_in_last_30_days":"No","property_legal_description":"LOT 662 HILLS OF LAKEWAY PHS 8 THE"},"geometry":{"type":"Point","coordinates":[-97.97766829,30.34855298]}},{"type":"Feature","properties":{"date":"2004-04-07T04:00:00.000Z","year":2004,"description":"New 2 Story S/F Resid With Att Gar Porch And Patio Elec & Plbg Srv Only Eud","metadescription":"EP. Remodel. New 2 Story S/F Resid With Att Gar Porch And Patio Elec & Plbg Srv Only Eud. Expired. 28 COTTONDALE RD","address":"28 COTTONDALE RD","link":"https://abc.austintexas.gov/web/permit/public-search-other?t_detail=1&t_selected_folderrsn=4345910","tcad_id":"0135760503","location":"    (30.34855298, -97.97766829)","day_issued":"WEDNESDAY","project_id":"4345910","status_date":"06/06/2007","jurisdiction":"THE HILLS FULL PURPOSE","contractor_zip":"78630","contractor_city":"CEDAR PARK","issuance_method":"Permit Center","contractor_phone":"5125512163","contractor_trade":"Electrical Contractor","permit_type_desc":"Electrical Permit","master_permit_num":"708421","fiscal_year_issued":"2004","permit_class_mapped":"Residential","contractor_address_1":"P.O. BOX 219","contractor_address_2":"CEDAR PARK T","contractor_full_name":"Leonard Wiegel","issued_in_last_30_days":"No","property_legal_description":"LOT 662 HILLS OF LAKEWAY PHS 8 THE"},"geometry":{"type":"Point","coordinates":[-97.97766829,30.34855298]}}]}
