{"type":"FeatureCollection","features":[{"type":"Feature","properties":{"date":"2013-02-06T05:00:00.000Z","year":2013,"description":"New 1 Stry Sf Res w/attached garage/porch.Electric Service Only.EUD","metadescription":"EP. New. New 1 Stry Sf Res w/attached garage/porch.Electric Service Only.EUD. Final. 1 GLEN ROCK DR","address":"1 GLEN ROCK DR","link":"https://abc.austintexas.gov/web/permit/public-search-other?t_detail=1&t_selected_folderrsn=10893516","tcad_id":"0131760303","location":"    (30.34110846, -97.98308184)","day_issued":"WEDNESDAY","project_id":"10893516","condominium":"No","status_date":"05/30/2013","jurisdiction":"THE HILLS FULL PURPOSE","housing_units":"1","contractor_zip":"78634-____","contractor_city":"HUTTO","issuance_method":"Permit Center","contractor_phone":"5123825753","contractor_trade":"Electrical Contractor","number_of_floors":"1","permit_type_desc":"Electrical Permit","fiscal_year_issued":"2013","total_new_add_sqft":"3,615","permit_class_mapped":"Residential","contractor_address_2":"629  W FRONT","contractor_full_name":"Calvin Lockhart","issued_in_last_30_days":"No","certificate_of_occupancy":"No","property_legal_description":"LOT 423 HILLS OF LAKEWAY PHS 4 THE"},"geometry":{"type":"Point","coordinates":[-97.98308184,30.34110846]}},{"type":"Feature","properties":{"date":"2012-10-31T04:00:00.000Z","year":2012,"description":"New 2 Stry SF resid w/att garage cov patio porch EUD","metadescription":"EP. New. New 2 Stry SF resid w/att garage cov patio porch EUD. Final. 7 PARKSIDE RD","address":"7 PARKSIDE RD","link":"https://abc.austintexas.gov/web/permit/public-search-other?t_detail=1&t_selected_folderrsn=10851271","tcad_id":"0131760621","location":"    (30.34248802, -97.97837762)","day_issued":"WEDNESDAY","project_id":"10851271","condominium":"No","status_date":"03/07/2013","jurisdiction":"THE HILLS FULL PURPOSE","housing_units":"1","contractor_zip":"78942","contractor_city":"Giddings","issuance_method":"Permit Center","contractor_phone":"5122029089","contractor_trade":"Electrical Contractor","number_of_floors":"2","permit_type_desc":"Electrical Permit","fiscal_year_issued":"2013","total_new_add_sqft":"4,029","permit_class_mapped":"Residential","contractor_address_2":"691 S Navarr","contractor_full_name":"Leonard Orocio","issued_in_last_30_days":"No","certificate_of_occupancy":"No","property_legal_description":"LOT 624 HILLS OF LAKEWAY PHS 8 THE"},"geometry":{"type":"Point","coordinates":[-97.97837762,30.34248802]}},{"type":"Feature","properties":{"date":"2010-04-23T04:00:00.000Z","year":2010,"description":"New 2 story sf residence with attached to garage and porch only","metadescription":"EP. New. New 2 story sf residence with attached to garage and porch only. Final. 408 LUNA VISTA DR","address":"408 LUNA VISTA DR","link":"https://abc.austintexas.gov/web/permit/public-search-other?t_detail=1&t_selected_folderrsn=10430364","tcad_id":"0135760921","location":"    (30.35220161, -97.98241517)","day_issued":"FRIDAY","project_id":"10430364","condominium":"No","status_date":"07/23/2010","jurisdiction":"THE HILLS FULL PURPOSE","housing_units":"1","contractor_zip":"78728","contractor_city":"Austin","issuance_method":"Permit Center","contractor_phone":"5122885373","contractor_trade":"Electrical Contractor","number_of_floors":"2","permit_type_desc":"Electrical Permit","fiscal_year_issued":"2010","total_new_add_sqft":"4,217","permit_class_mapped":"Residential","contractor_address_2":"2611  Howard","contractor_full_name":"John Lanehart","issued_in_last_30_days":"No","certificate_of_occupancy":"No","property_legal_description":"LOT 16 BLK A HILLS OF LAKEWAY PHS 10 RESUB OF LOT 3"},"geometry":{"type":"Point","coordinates":[-97.98241517,30.35220161]}},{"type":"Feature","properties":{"date":"2010-02-03T05:00:00.000Z","year":2010,"description":"New 2 story sf residence with attached garage and porch only EUD","metadescription":"EP. New. New 2 story sf residence with attached garage and porch only EUD. Final. 8 WATERFALL DR","address":"8 WATERFALL DR","link":"https://abc.austintexas.gov/web/permit/public-search-other?t_detail=1&t_selected_folderrsn=10396066","tcad_id":"0131780704","location":"    (30.34031592, -97.98455652)","day_issued":"WEDNESDAY","project_id":"10396066","condominium":"No","status_date":"06/28/2010","jurisdiction":"THE HILLS FULL PURPOSE","housing_units":"1","contractor_zip":"78691-____","contractor_city":"PFLUGERVILLE","issuance_method":"Permit Center","contractor_phone":"5128328900","contractor_trade":"Electrical Contractor","number_of_floors":"2","permit_type_desc":"Electrical Permit","fiscal_year_issued":"2010","total_new_add_sqft":"3,067","permit_class_mapped":"Residential","contractor_address_1":"PO BOX 3289","contractor_full_name":"Bryan Neal","issued_in_last_30_days":"No","certificate_of_occupancy":"No","property_legal_description":"LOT 270 HILLS OF LAKEWAY PHS 4 THE"},"geometry":{"type":"Point","coordinates":[-97.98455652,30.34031592]}},{"type":"Feature","properties":{"date":"2009-11-25T05:00:00.000Z","year":2009,"description":"New 2 story sf residence with attached garage and porch only EUD","metadescription":"EP. New. New 2 story sf residence with attached garage and porch only EUD. Final. 8 RADNOR DR","address":"8 RADNOR DR","link":"https://abc.austintexas.gov/web/permit/public-search-other?t_detail=1&t_selected_folderrsn=10371613","tcad_id":"0133760418","location":"    (30.34522747, -97.97958862)","day_issued":"WEDNESDAY","project_id":"10371613","condominium":"No","status_date":"04/22/2010","jurisdiction":"THE HILLS FULL PURPOSE","housing_units":"1","contractor_zip":"78754","contractor_city":"AUSTIN","issuance_method":"Permit Center","contractor_phone":"5123000839","contractor_trade":"Electrical Contractor","number_of_floors":"2","permit_type_desc":"Electrical Permit","fiscal_year_issued":"2010","total_new_add_sqft":"4,648","permit_class_mapped":"Residential","contractor_address_2":"1834  FERGUS","contractor_full_name":"Mark Williams","issued_in_last_30_days":"No","certificate_of_occupancy":"No","property_legal_description":"LOT 584 HILLS OF LAKEWAY PHS 8 THE"},"geometry":{"type":"Point","coordinates":[-97.97958862,30.34522747]}},{"type":"Feature","properties":{"date":"2007-09-21T04:00:00.000Z","year":2007,"description":"New 2 Stry SF res w/att gar  covrd porch & Patio - Elect Serv Only (EUD)\n  Wtr Dist #`17","metadescription":"EP. New. New 2 Stry SF res w/att gar  covrd porch & Patio - Elect Serv Only (EUD)\n  Wtr Dist #`17. Final. 24 FALLING OAKS TRL","address":"24 FALLING OAKS TRL","link":"https://abc.austintexas.gov/web/permit/public-search-other?t_detail=1&t_selected_folderrsn=10074276","tcad_id":"0135760831","location":"    (30.35329825, -97.98117706)","day_issued":"FRIDAY","project_id":"10074276","condominium":"No","status_date":"10/09/2008","jurisdiction":"THE HILLS FULL PURPOSE","housing_units":"2","contractor_zip":"78691-____","contractor_city":"PFLUGERVILLE","issuance_method":"Permit Center","contractor_phone":"5128328900","contractor_trade":"Electrical Contractor","number_of_floors":"2","permit_type_desc":"Electrical Permit","fiscal_year_issued":"2007","total_new_add_sqft":"4,470","permit_class_mapped":"Residential","contractor_address_1":"PO BOX 3289","contractor_full_name":"Bryan Neal","issued_in_last_30_days":"No","certificate_of_occupancy":"No","property_legal_description":"LOT 793-A HILLS OF LAKEWAY PHS 9 AMENDED PLAT OF LOTS 791-793"},"geometry":{"type":"Point","coordinates":[-97.98117706,30.35329825]}},{"type":"Feature","properties":{"date":"2007-07-12T04:00:00.000Z","year":2007,"description":"New 2 Stry SF res w/att gar - covrd porch & patio - Elect Serv Only (EUD)\n  Wtr Dist #17 / PEC Power","metadescription":"EP. New. New 2 Stry SF res w/att gar - covrd porch & patio - Elect Serv Only (EUD)\n  Wtr Dist #17 / PEC Power. Expired. 3 APPLEGREEN CT","address":"3 APPLEGREEN CT","link":"https://abc.austintexas.gov/web/permit/public-search-other?t_detail=1&t_selected_folderrsn=10051542","tcad_id":"0133800921","location":"    (30.34314461, -97.99366404)","day_issued":"THURSDAY","project_id":"10051542","condominium":"No","status_date":"10/09/2008","jurisdiction":"THE HILLS FULL PURPOSE","housing_units":"1","contractor_zip":"78665","contractor_city":"ROUND ROCK","issuance_method":"Permit Center","contractor_phone":"5129920437","contractor_trade":"Electrical Contractor","number_of_floors":"2","permit_type_desc":"Electrical Permit","fiscal_year_issued":"2007","total_new_add_sqft":"2,471","permit_class_mapped":"Residential","contractor_address_2":"3401  SUNRIS","contractor_full_name":"Aaron Gifford","issued_in_last_30_days":"No","certificate_of_occupancy":"No","property_legal_description":"LOT 123 HILLS OF LAKEWAY PHS 2 THE"},"geometry":{"type":"Point","coordinates":[-97.99366404,30.34314461]}},{"type":"Feature","properties":{"date":"2007-05-31T04:00:00.000Z","year":2007,"description":"New 2 Stry Resid W/Att Garage-Porch Elec Srv Eud","metadescription":"EP. New. New 2 Stry Resid W/Att Garage-Porch Elec Srv Eud. Final. 506 LUNA VISTA DR","address":"506 LUNA VISTA DR","link":"https://abc.austintexas.gov/web/permit/public-search-other?t_detail=1&t_selected_folderrsn=10038733","tcad_id":"0135780803","location":"    (30.35299242, -97.98399733)","day_issued":"THURSDAY","project_id":"10038733","condominium":"No","status_date":"10/09/2008","jurisdiction":"THE HILLS FULL PURPOSE","housing_units":"1","contractor_zip":"78942","contractor_city":"Giddings","issuance_method":"Permit Center","contractor_phone":"5122029089","contractor_trade":"Electrical Contractor","number_of_floors":"2","permit_type_desc":"Electrical Permit","fiscal_year_issued":"2007","total_new_add_sqft":"4,500","permit_class_mapped":"Residential","contractor_address_2":"691 S Navarr","contractor_full_name":"Leonard Orocio","issued_in_last_30_days":"No","certificate_of_occupancy":"No","property_legal_description":"LOT 5 BLK A HILLS OF LAKEWAY PHS 10 RESUB OF LOT 3"},"geometry":{"type":"Point","coordinates":[-97.98399733,30.35299242]}},{"type":"Feature","properties":{"date":"2007-05-22T04:00:00.000Z","year":2007,"description":"New 2 Stry Resid W/Att Garage-Porch Elec Srv Eud","metadescription":"EP. New. New 2 Stry Resid W/Att Garage-Porch Elec Srv Eud. Final. 23 WATERFALL DR","address":"23 WATERFALL DR","link":"https://abc.austintexas.gov/web/permit/public-search-other?t_detail=1&t_selected_folderrsn=10035659","tcad_id":"0131780604","location":"    (30.3415852, -97.9864376)","day_issued":"TUESDAY","project_id":"10035659","condominium":"No","status_date":"10/09/2008","jurisdiction":"THE HILLS FULL PURPOSE","housing_units":"1","contractor_zip":"78942","contractor_city":"Giddings","issuance_method":"Permit Center","contractor_phone":"5122029089","contractor_trade":"Electrical Contractor","number_of_floors":"2","permit_type_desc":"Electrical Permit","fiscal_year_issued":"2007","total_new_add_sqft":"3,914","permit_class_mapped":"Residential","contractor_address_2":"691 S Navarr","contractor_full_name":"Leonard Orocio","issued_in_last_30_days":"No","certificate_of_occupancy":"No","property_legal_description":"LOT 466 HILLS OF LAKEWAY PHS 5 AMENDED THE"},"geometry":{"type":"Point","coordinates":[-97.9864376,30.3415852]}},{"type":"Feature","properties":{"date":"2007-04-11T04:00:00.000Z","year":2007,"description":"New 2 Stry SF Res w/att Gar covrd porch/patio - Elect Serv Only EUD","metadescription":"EP. New. New 2 Stry SF Res w/att Gar covrd porch/patio - Elect Serv Only EUD. Final. 3 WINGREEN LOOP","address":"3 WINGREEN LOOP","link":"https://abc.austintexas.gov/web/permit/public-search-other?t_detail=1&t_selected_folderrsn=10022157","tcad_id":"0135760120","location":"    (30.34882467, -97.97823561)","day_issued":"WEDNESDAY","project_id":"10022157","condominium":"No","status_date":"10/09/2008","jurisdiction":"THE HILLS FULL PURPOSE","housing_units":"1","contractor_zip":"78691-____","contractor_city":"PFLUGERVILLE","issuance_method":"Permit Center","contractor_phone":"5128328900","contractor_trade":"Electrical Contractor","number_of_floors":"2","permit_type_desc":"Electrical Permit","fiscal_year_issued":"2007","total_new_add_sqft":"3,101","permit_class_mapped":"Residential","contractor_address_1":"PO BOX 3289","contractor_full_name":"Bryan Neal","issued_in_last_30_days":"No","certificate_of_occupancy":"No","property_legal_description":"LOT 706A HILLS OF LAKEWAY PHS 8 THE AMD PLAT OF LTS 706 & 707"},"geometry":{"type":"Point","coordinates":[-97.97823561,30.34882467]}},{"type":"Feature","properties":{"date":"2006-09-06T04:00:00.000Z","year":2006,"description":"New Sf Resid W/Att Garage Porch Elec Srv Eud","metadescription":"EP. Remodel. New Sf Resid W/Att Garage Porch Elec Srv Eud. Final. 54 LOST MEADOW TRL","address":"54 LOST MEADOW TRL","link":"https://abc.austintexas.gov/web/permit/public-search-other?t_detail=1&t_selected_folderrsn=4384996","tcad_id":"0135760421","location":"    (30.35249701, -97.98007718)","day_issued":"WEDNESDAY","project_id":"4384996","status_date":"03/05/2007","jurisdiction":"THE HILLS FULL PURPOSE","contractor_zip":"76550","contractor_city":"LAMPASAS","issuance_method":"Permit Center","contractor_phone":"5125568702","contractor_trade":"Electrical Contractor","permit_type_desc":"Electrical Permit","fiscal_year_issued":"2006","permit_class_mapped":"Residential","contractor_address_1":"3378 FM 1478","contractor_address_2":"LAMPASAS TX","contractor_full_name":"Russell Jones","issued_in_last_30_days":"No","property_legal_description":"LOT 750 HILLS OF LAKEWAY PHS 9"},"geometry":{"type":"Point","coordinates":[-97.98007718,30.35249701]}},{"type":"Feature","properties":{"date":"2006-08-21T04:00:00.000Z","year":2006,"description":"New 2 Stry Resid W/Att Garage-Porch Elec Srv Eud","metadescription":"EP. Remodel. New 2 Stry Resid W/Att Garage-Porch Elec Srv Eud. Expired. 23 WATERFALL DR","address":"23 WATERFALL DR","link":"https://abc.austintexas.gov/web/permit/public-search-other?t_detail=1&t_selected_folderrsn=4384169","tcad_id":"0131780604","location":"    (30.3415852, -97.9864376)","day_issued":"MONDAY","project_id":"4384169","condominium":"No","status_date":"06/04/2007","jurisdiction":"THE HILLS FULL PURPOSE","housing_units":"0","contractor_zip":"78942","contractor_city":"Giddings","issuance_method":"Permit Center","contractor_phone":"5122029089","contractor_trade":"Electrical Contractor","number_of_floors":"0","permit_type_desc":"Electrical Permit","fiscal_year_issued":"2006","permit_class_mapped":"Residential","remodel_repair_sqft":"3,914","contractor_address_2":"691 S Navarr","contractor_full_name":"Leonard Orocio","issued_in_last_30_days":"No","certificate_of_occupancy":"No","property_legal_description":"LOT 466 HILLS OF LAKEWAY PHS 5 AMENDED THE","electrical_valuation_remodel":"$0.00"},"geometry":{"type":"Point","coordinates":[-97.9864376,30.3415852]}},{"type":"Feature","properties":{"date":"2006-08-21T04:00:00.000Z","year":2006,"description":"New 2 Stry Resid W/Att Garage-Porch Elec Srv Eud","metadescription":"EP. Remodel. New 2 Stry Resid W/Att Garage-Porch Elec Srv Eud. Expired. 506 LUNA VISTA DR","address":"506 LUNA VISTA DR","link":"https://abc.austintexas.gov/web/permit/public-search-other?t_detail=1&t_selected_folderrsn=4384162","tcad_id":"0135780803","location":"    (30.35299242, -97.98399733)","day_issued":"MONDAY","project_id":"4384162","condominium":"No","status_date":"06/01/2007","jurisdiction":"THE HILLS FULL PURPOSE","housing_units":"0","contractor_zip":"78942","contractor_city":"Giddings","issuance_method":"Permit Center","contractor_phone":"5122029089","contractor_trade":"Electrical Contractor","number_of_floors":"0","permit_type_desc":"Electrical Permit","fiscal_year_issued":"2006","permit_class_mapped":"Residential","remodel_repair_sqft":"4,117","contractor_address_2":"691 S Navarr","contractor_full_name":"Leonard Orocio","issued_in_last_30_days":"No","certificate_of_occupancy":"No","property_legal_description":"LOT 5 BLK A HILLS OF LAKEWAY PHS 10 RESUB OF LOT 3","electrical_valuation_remodel":"$0.00"},"geometry":{"type":"Point","coordinates":[-97.98399733,30.35299242]}},{"type":"Feature","properties":{"date":"2006-08-09T04:00:00.000Z","year":2006,"description":"New 2stry Res W/Att Garage Cov Porch (Outside Coa)","metadescription":"PP. Remodel. New 2stry Res W/Att Garage Cov Porch (Outside Coa). VOID. 422 LUNA VISTA DR","address":"422 LUNA VISTA DR","link":"https://abc.austintexas.gov/web/permit/public-search-other?t_detail=1&t_selected_folderrsn=3779610","tcad_id":"0135760942","location":"    (30.35358881, -97.98322489)","day_issued":"WEDNESDAY","project_id":"3779610","condominium":"No","status_date":"09/27/2007","jurisdiction":"THE HILLS FULL PURPOSE","issuance_method":"Permit Center","permit_type_desc":"Plumbing Permit","fiscal_year_issued":"2006","permit_class_mapped":"Residential","remodel_repair_sqft":"4,164","issued_in_last_30_days":"No","certificate_of_occupancy":"No","property_legal_description":"LOT 10A HILLS OF LAKEWAY PHS 10 RSB OF LT 3 AMD PLT OF LTS 9&10 BK A"},"geometry":{"type":"Point","coordinates":[-97.98322489,30.35358881]}},{"type":"Feature","properties":{"date":"2006-08-09T04:00:00.000Z","year":2006,"description":"New 2stry Res W/Att Garage Cov Porch (Outside Coa)","metadescription":"MP. Remodel. New 2stry Res W/Att Garage Cov Porch (Outside Coa). VOID. 422 LUNA VISTA DR","address":"422 LUNA VISTA DR","link":"https://abc.austintexas.gov/web/permit/public-search-other?t_detail=1&t_selected_folderrsn=3425145","tcad_id":"0135760942","location":"    (30.35358881, -97.98322489)","day_issued":"WEDNESDAY","project_id":"3425145","condominium":"No","status_date":"09/27/2007","jurisdiction":"THE HILLS FULL PURPOSE","issuance_method":"Permit Center","permit_type_desc":"Mechanical Permit","fiscal_year_issued":"2006","permit_class_mapped":"Residential","remodel_repair_sqft":"4,164","issued_in_last_30_days":"No","certificate_of_occupancy":"No","property_legal_description":"LOT 10A HILLS OF LAKEWAY PHS 10 RSB OF LT 3 AMD PLT OF LTS 9&10 BK A"},"geometry":{"type":"Point","coordinates":[-97.98322489,30.35358881]}},{"type":"Feature","properties":{"date":"2006-08-09T04:00:00.000Z","year":2006,"description":"New 2stry Res W/Att Garage Cov Porch (Outside Coa) EUD","metadescription":"EP. Remodel. New 2stry Res W/Att Garage Cov Porch (Outside Coa) EUD. Final. 422 LUNA VISTA DR","address":"422 LUNA VISTA DR","link":"https://abc.austintexas.gov/web/permit/public-search-other?t_detail=1&t_selected_folderrsn=4383521","tcad_id":"0135760942","location":"    (30.35358881, -97.98322489)","day_issued":"WEDNESDAY","project_id":"4383521","condominium":"No","status_date":"09/27/2007","jurisdiction":"THE HILLS FULL PURPOSE","housing_units":"0","contractor_zip":"78734","contractor_city":"Lakeway","issuance_method":"Permit Center","contractor_phone":"5127480248","contractor_trade":"Electrical Contractor","number_of_floors":"0","permit_type_desc":"Electrical Permit","fiscal_year_issued":"2006","permit_class_mapped":"Residential","remodel_repair_sqft":"4,164","contractor_address_2":"2121  Lohman","contractor_full_name":"Daniel Hernandez","issued_in_last_30_days":"No","certificate_of_occupancy":"No","property_legal_description":"LOT 10A HILLS OF LAKEWAY PHS 10 RSB OF LT 3 AMD PLT OF LTS 9&10 BK A","electrical_valuation_remodel":"$0.00"},"geometry":{"type":"Point","coordinates":[-97.98322489,30.35358881]}},{"type":"Feature","properties":{"date":"2006-06-12T04:00:00.000Z","year":2006,"description":"New Sf Resid W/Att Garage Porch Elec Srv Eud","metadescription":"EP. Remodel. New Sf Resid W/Att Garage Porch Elec Srv Eud. Final. 514 LUNA VISTA DR","address":"514 LUNA VISTA DR","link":"https://abc.austintexas.gov/web/permit/public-search-other?t_detail=1&t_selected_folderrsn=4380545","tcad_id":"0135780807","location":"    (30.35229479, -97.98464855)","day_issued":"MONDAY","project_id":"4380545","status_date":"03/05/2007","jurisdiction":"THE HILLS FULL PURPOSE","contractor_zip":"78630","contractor_city":"Cedar Park","issuance_method":"Permit Center","contractor_phone":"5129818215","contractor_trade":"Electrical Contractor","permit_type_desc":"Electrical Permit","fiscal_year_issued":"2006","permit_class_mapped":"Residential","contractor_address_1":"P.O.Box 642","contractor_full_name":"Marty R. Reed","issued_in_last_30_days":"No","property_legal_description":"LOT 1 BLK A HILLS OF LAKEWAY PHS 10 RESUB OF LOT 3"},"geometry":{"type":"Point","coordinates":[-97.98464855,30.35229479]}},{"type":"Feature","properties":{"date":"2006-06-02T04:00:00.000Z","year":2006,"description":"New 2stry Resid Watt Garage Porch Elec Srv Eud","metadescription":"EP. Remodel. New 2stry Resid Watt Garage Porch Elec Srv Eud. Final. 4 TORRINGTON LN","address":"4 TORRINGTON LN","link":"https://abc.austintexas.gov/web/permit/public-search-other?t_detail=1&t_selected_folderrsn=4380147","tcad_id":"0131760305","location":"    (30.34068339, -97.9832983)","day_issued":"FRIDAY","project_id":"4380147","status_date":"03/05/2007","jurisdiction":"THE HILLS FULL PURPOSE","contractor_zip":"78654-____","contractor_city":"SPICEWOOD","issuance_method":"Permit Center","contractor_phone":"5122631214","contractor_trade":"Electrical Contractor","permit_type_desc":"Electrical Permit","fiscal_year_issued":"2006","permit_class_mapped":"Residential","contractor_address_1":"PO BOX 449","contractor_full_name":"Jackie D Oliver","issued_in_last_30_days":"No","property_legal_description":"LOT 421 HILLS OF LAKEWAY PHS 4 THE"},"geometry":{"type":"Point","coordinates":[-97.9832983,30.34068339]}},{"type":"Feature","properties":{"date":"2006-05-11T04:00:00.000Z","year":2006,"description":"New 2 Stry Resid W/Att Garage-Porch Elec Srv Eud","metadescription":"EP. Remodel. New 2 Stry Resid W/Att Garage-Porch Elec Srv Eud. Final. 3 VALHALLA CT","address":"3 VALHALLA CT","link":"https://abc.austintexas.gov/web/permit/public-search-other?t_detail=1&t_selected_folderrsn=4379095","tcad_id":"0133780718","location":"    (30.34538803, -97.98444571)","day_issued":"THURSDAY","project_id":"4379095","status_date":"03/19/2007","jurisdiction":"THE HILLS FULL PURPOSE","contractor_zip":"78663","contractor_city":"Round Mounta","issuance_method":"Permit Center","contractor_phone":"8308259016","contractor_trade":"Electrical Contractor","permit_type_desc":"Electrical Permit","fiscal_year_issued":"2006","permit_class_mapped":"Residential","contractor_address_2":"463  Old Mar","contractor_full_name":"Christopher Liesmann","issued_in_last_30_days":"No","property_legal_description":"LOT 348 HILLS OF LAKEWAY PHS 4 THE"},"geometry":{"type":"Point","coordinates":[-97.98444571,30.34538803]}},{"type":"Feature","properties":{"date":"2006-05-04T04:00:00.000Z","year":2006,"description":"New 2 Stry Resid W/Att Garage-Porch Elec Srv Eud","metadescription":"EP. Remodel. New 2 Stry Resid W/Att Garage-Porch Elec Srv Eud. Final. 4 LOST MEADOW TRL","address":"4 LOST MEADOW TRL","link":"https://abc.austintexas.gov/web/permit/public-search-other?t_detail=1&t_selected_folderrsn=4378715","tcad_id":"0135760433","location":"    (30.35123795, -97.97785958)","day_issued":"THURSDAY","project_id":"4378715","status_date":"03/19/2007","jurisdiction":"THE HILLS FULL PURPOSE","contractor_zip":"78683-5069","contractor_city":"Round Rock","issuance_method":"Permit Center","contractor_phone":"5127592200","contractor_trade":"Electrical Contractor","permit_type_desc":"Electrical Permit","fiscal_year_issued":"2006","permit_class_mapped":"Residential","contractor_address_1":"P.O. Box 506","contractor_address_2":"PO  Box 5069","contractor_full_name":"Thomas Roland","issued_in_last_30_days":"No","property_legal_description":"LOT 739-A HILLS OF LAKEWAY PHS 9 REVISED PLAT OF LOTS 739&741"},"geometry":{"type":"Point","coordinates":[-97.97785958,30.35123795]}},{"type":"Feature","properties":{"date":"2006-04-18T04:00:00.000Z","year":2006,"description":"New Sf Resd W/Garage & Covd Porch. Elec Srv Only. Eud.","metadescription":"EP. Remodel. New Sf Resd W/Garage & Covd Porch. Elec Srv Only. Eud.. Final. 135 THE HILLS DR","address":"135 THE HILLS DR","link":"https://abc.austintexas.gov/web/permit/public-search-other?t_detail=1&t_selected_folderrsn=4377911","tcad_id":"0133760428","location":"    (30.34444117, -97.97870411)","day_issued":"TUESDAY","project_id":"4377911","status_date":"03/05/2007","jurisdiction":"THE HILLS FULL PURPOSE","contractor_zip":"78759","contractor_city":"Austin","issuance_method":"Permit Center","contractor_phone":"5123499473","contractor_trade":"Electrical Contractor","permit_type_desc":"Electrical Permit","fiscal_year_issued":"2006","permit_class_mapped":"Residential","contractor_address_1":"6437 SPICEWO","contractor_address_2":"AUSTIN TX  7","contractor_full_name":"Jim Dondlinger","issued_in_last_30_days":"No","property_legal_description":"LOT 574 HILLS OF LAKEWAY PHS 8 THE"},"geometry":{"type":"Point","coordinates":[-97.97870411,30.34444117]}},{"type":"Feature","properties":{"date":"2006-03-22T05:00:00.000Z","year":2006,"description":"New 2 Story Resid With Att Gar Porch And Patio Elec & Plbg Srv Only Eud","metadescription":"EP. Remodel. New 2 Story Resid With Att Gar Porch And Patio Elec & Plbg Srv Only Eud. Final. 28 COTTONDALE RD","address":"28 COTTONDALE RD","link":"https://abc.austintexas.gov/web/permit/public-search-other?t_detail=1&t_selected_folderrsn=4376660","tcad_id":"0135760503","location":"    (30.34855298, -97.97766829)","day_issued":"WEDNESDAY","project_id":"4376660","status_date":"03/05/2007","jurisdiction":"THE HILLS FULL PURPOSE","contractor_zip":"78748","contractor_city":"Austin","issuance_method":"Permit Center","contractor_phone":"5126791505","contractor_trade":"Electrical Contractor","permit_type_desc":"Electrical Permit","fiscal_year_issued":"2006","permit_class_mapped":"Residential","contractor_address_2":"1506  Strick","contractor_full_name":"Lee Fowler","issued_in_last_30_days":"No","property_legal_description":"LOT 662 HILLS OF LAKEWAY PHS 8 THE"},"geometry":{"type":"Point","coordinates":[-97.97766829,30.34855298]}},{"type":"Feature","properties":{"date":"2006-03-03T05:00:00.000Z","year":2006,"description":"New 2stry Sf Res. W/Att Garage-Porch Elec Srv Only-Eud","metadescription":"EP. Remodel. New 2stry Sf Res. W/Att Garage-Porch Elec Srv Only-Eud. Final. 2 HIGHTRAIL WAY","address":"2 HIGHTRAIL WAY","link":"https://abc.austintexas.gov/web/permit/public-search-other?t_detail=1&t_selected_folderrsn=4375782","tcad_id":"0131760701","location":"    (30.34158826, -97.97925253)","day_issued":"FRIDAY","project_id":"4375782","status_date":"03/05/2007","jurisdiction":"THE HILLS FULL PURPOSE","contractor_zip":"78758","contractor_city":"Austin","issuance_method":"Permit Center","contractor_phone":"5127489446","contractor_trade":"Electrical Contractor","permit_type_desc":"Electrical Permit","fiscal_year_issued":"2006","permit_class_mapped":"Residential","contractor_address_2":"817  McPhaul","contractor_full_name":"Eric Wilkins","issued_in_last_30_days":"No","property_legal_description":"LOT 2 HILLS OF LAKEWAY PHS 8-A THE"},"geometry":{"type":"Point","coordinates":[-97.97925253,30.34158826]}},{"type":"Feature","properties":{"date":"2006-01-10T05:00:00.000Z","year":2006,"description":"New 2stry Res W/Att Garage & Porch Elec Srv Only-Eud","metadescription":"EP. Remodel. New 2stry Res W/Att Garage & Porch Elec Srv Only-Eud. Final. 31 WINGREEN LOOP","address":"31 WINGREEN LOOP","link":"https://abc.austintexas.gov/web/permit/public-search-other?t_detail=1&t_selected_folderrsn=4403030","tcad_id":"0133760529","location":"    (30.34689622, -97.98015356)","day_issued":"TUESDAY","project_id":"4403030","status_date":"03/05/2007","jurisdiction":"THE HILLS FULL PURPOSE","contractor_zip":"78620-2391","contractor_city":"Dripping Spr","issuance_method":"Permit Center","contractor_phone":"5127915619","contractor_trade":"Electrical Contractor","permit_type_desc":"Electrical Permit","fiscal_year_issued":"2006","permit_class_mapped":"Residential","contractor_address_1":"P.O. Box 175","contractor_full_name":"Keith Coons","issued_in_last_30_days":"No","property_legal_description":"LOT 681 HILLS OF LAKEWAY PHS 8 THE"},"geometry":{"type":"Point","coordinates":[-97.98015356,30.34689622]}},{"type":"Feature","properties":{"date":"2006-01-10T05:00:00.000Z","year":2006,"description":"New 2stry Res W/Att Garage & Porch Elec Srv Only-Eud","metadescription":"EP. Remodel. New 2stry Res W/Att Garage & Porch Elec Srv Only-Eud. Final. 33 WINGREEN LOOP","address":"33 WINGREEN LOOP","link":"https://abc.austintexas.gov/web/permit/public-search-other?t_detail=1&t_selected_folderrsn=4373129","tcad_id":"0133760526","location":"    (30.34672164, -97.98008171)","day_issued":"TUESDAY","project_id":"4373129","status_date":"03/05/2007","jurisdiction":"THE HILLS FULL PURPOSE","contractor_zip":"78620-2391","contractor_city":"Dripping Spr","issuance_method":"Permit Center","contractor_phone":"5127915619","contractor_trade":"Electrical Contractor","permit_type_desc":"Electrical Permit","fiscal_year_issued":"2006","permit_class_mapped":"Residential","contractor_address_1":"P.O. Box 175","contractor_full_name":"Keith Coons","issued_in_last_30_days":"No","property_legal_description":"LOT 680 HILLS OF LAKEWAY PHS 8 THE"},"geometry":{"type":"Point","coordinates":[-97.98008171,30.34672164]}},{"type":"Feature","properties":{"date":"2005-12-02T05:00:00.000Z","year":2005,"description":"New 2 Stry Resid W/Att Garage-Porch Elec Srv Eud","metadescription":"EP. Remodel. New 2 Stry Resid W/Att Garage-Porch Elec Srv Eud. Final. 504 LUNA VISTA DR","address":"504 LUNA VISTA DR","link":"https://abc.austintexas.gov/web/permit/public-search-other?t_detail=1&t_selected_folderrsn=4371760","tcad_id":"0135780802","location":"    (30.35310714, -97.98380427)","day_issued":"FRIDAY","project_id":"4371760","status_date":"03/19/2007","jurisdiction":"THE HILLS FULL PURPOSE","contractor_zip":"78942","contractor_city":"Giddings","issuance_method":"Permit Center","contractor_phone":"5122029089","contractor_trade":"Electrical Contractor","permit_type_desc":"Electrical Permit","fiscal_year_issued":"2006","permit_class_mapped":"Residential","contractor_address_2":"691 S Navarr","contractor_full_name":"Leonard Orocio","issued_in_last_30_days":"No","property_legal_description":"LOT 6 BLK A HILLS OF LAKEWAY PHS 10 RESUB OF LOT 3"},"geometry":{"type":"Point","coordinates":[-97.98380427,30.35310714]}},{"type":"Feature","properties":{"date":"2005-09-23T04:00:00.000Z","year":2005,"description":"New Sf Resid W/Att Garage-Porch Elec Srv Eud","metadescription":"EP. Remodel. New Sf Resid W/Att Garage-Porch Elec Srv Eud. Expired. 8 WINGREEN LOOP","address":"8 WINGREEN LOOP","link":"https://abc.austintexas.gov/web/permit/public-search-other?t_detail=1&t_selected_folderrsn=4368592","tcad_id":"0135760327","location":"    (30.34933358, -97.97884154)","day_issued":"FRIDAY","project_id":"4368592","status_date":"06/06/2007","jurisdiction":"THE HILLS FULL PURPOSE","contractor_zip":"78942","contractor_city":"Giddings","issuance_method":"Permit Center","contractor_phone":"5122029089","contractor_trade":"Electrical Contractor","permit_type_desc":"Electrical Permit","fiscal_year_issued":"2005","permit_class_mapped":"Residential","contractor_address_2":"691 S Navarr","contractor_full_name":"Leonard Orocio","issued_in_last_30_days":"No","property_legal_description":"LOT 725 HILLS OF LAKEWAY PHS 8 THE"},"geometry":{"type":"Point","coordinates":[-97.97884154,30.34933358]}},{"type":"Feature","properties":{"date":"2005-07-26T04:00:00.000Z","year":2005,"description":"New 2stry Res W/Att Garage & Porch Elec Srv Eud Only","metadescription":"EP. Remodel. New 2stry Res W/Att Garage & Porch Elec Srv Eud Only. Final. 4 FIRWOOD CT","address":"4 FIRWOOD CT","link":"https://abc.austintexas.gov/web/permit/public-search-other?t_detail=1&t_selected_folderrsn=4365740","tcad_id":"0131760502","location":"    (30.33980578, -97.98223212)","day_issued":"TUESDAY","project_id":"4365740","status_date":"03/05/2007","jurisdiction":"THE HILLS FULL PURPOSE","contractor_zip":"78660","contractor_city":"Pflugerville","issuance_method":"Permit Center","contractor_phone":"5122520040","contractor_trade":"Electrical Contractor","permit_type_desc":"Electrical Permit","fiscal_year_issued":"2005","permit_class_mapped":"Residential","contractor_address_1":"2215 INVESTM","contractor_address_2":"PFLUGERVILLE","contractor_full_name":"Ronnie Kruse","issued_in_last_30_days":"No","property_legal_description":"LOT 284 HILLS OF LAKEWAY PHS 4 THE"},"geometry":{"type":"Point","coordinates":[-97.98223212,30.33980578]}},{"type":"Feature","properties":{"date":"2005-06-14T04:00:00.000Z","year":2005,"description":"New 1sty Sf Res. W/Att Garage-Porch Elec Srv Only-Eud","metadescription":"EP. Remodel. New 1sty Sf Res. W/Att Garage-Porch Elec Srv Only-Eud. Final. 512 LUNA VISTA DR","address":"512 LUNA VISTA DR","link":"https://abc.austintexas.gov/web/permit/public-search-other?t_detail=1&t_selected_folderrsn=4363661","tcad_id":"0135780806","location":"    (30.35246652, -97.98456509)","day_issued":"TUESDAY","project_id":"4363661","status_date":"03/05/2007","jurisdiction":"THE HILLS FULL PURPOSE","contractor_zip":"78759","contractor_city":"Austin","issuance_method":"Permit Center","contractor_phone":"5122583645","contractor_trade":"Electrical Contractor","permit_type_desc":"Electrical Permit","fiscal_year_issued":"2005","permit_class_mapped":"Residential","contractor_address_2":"10719  Oak V","contractor_full_name":"Emil W Crow","issued_in_last_30_days":"No","property_legal_description":"LOT 2 BLK A HILLS OF LAKEWAY PHS 10 RESUB OF LOT 3"},"geometry":{"type":"Point","coordinates":[-97.98456509,30.35246652]}},{"type":"Feature","properties":{"date":"2005-05-18T04:00:00.000Z","year":2005,"description":"New Sf Resid W/Att Garage Porch Elec Srv Eud","metadescription":"EP. Remodel. New Sf Resid W/Att Garage Porch Elec Srv Eud. Final. 3 HIGHTRAIL WAY","address":"3 HIGHTRAIL WAY","link":"https://abc.austintexas.gov/web/permit/public-search-other?t_detail=1&t_selected_folderrsn=4362492","tcad_id":"0131760614","location":"    (30.34175893, -97.97866177)","day_issued":"WEDNESDAY","project_id":"4362492","status_date":"06/06/2007","jurisdiction":"THE HILLS FULL PURPOSE","contractor_zip":"78620-2391","contractor_city":"Dripping Spr","issuance_method":"Permit Center","contractor_phone":"5127915619","contractor_trade":"Electrical Contractor","permit_type_desc":"Electrical Permit","master_permit_num":"720015","fiscal_year_issued":"2005","permit_class_mapped":"Residential","contractor_address_1":"P.O. Box 175","contractor_full_name":"Keith Coons","issued_in_last_30_days":"No","property_legal_description":"LOT 617 HILLS OF LAKEWAY PHS 8 THE"},"geometry":{"type":"Point","coordinates":[-97.97866177,30.34175893]}},{"type":"Feature","properties":{"date":"2005-05-18T04:00:00.000Z","year":2005,"description":"New Sf Resid W/Att Garage Porch Elec Srv Eud","metadescription":"BP. Remodel. New Sf Resid W/Att Garage Porch Elec Srv Eud. Final. 3 HIGHTRAIL WAY","address":"3 HIGHTRAIL WAY","link":"https://abc.austintexas.gov/web/permit/public-search-other?t_detail=1&t_selected_folderrsn=720015","tcad_id":"0131760614","location":"    (30.34175893, -97.97866177)","day_issued":"WEDNESDAY","project_id":"720015","condominium":"No","status_date":"06/06/2007","jurisdiction":"THE HILLS FULL PURPOSE","issuance_method":"Permit Center","permit_type_desc":"Building Permit","fiscal_year_issued":"2005","permit_class_mapped":"Residential","issued_in_last_30_days":"No","certificate_of_occupancy":"No","property_legal_description":"LOT 617 HILLS OF LAKEWAY PHS 8 THE"},"geometry":{"type":"Point","coordinates":[-97.97866177,30.34175893]}},{"type":"Feature","properties":{"date":"2005-04-25T04:00:00.000Z","year":2005,"description":"New 2 Stry Resid W/Att Garage-Porch Elec Srv Eud","metadescription":"EP. Remodel. New 2 Stry Resid W/Att Garage-Porch Elec Srv Eud. Final. 41 TIBURON DR","address":"41 TIBURON DR","link":"https://abc.austintexas.gov/web/permit/public-search-other?t_detail=1&t_selected_folderrsn=4361512","tcad_id":"0133780704","location":"    (30.3452827, -97.98395044)","day_issued":"MONDAY","project_id":"4361512","status_date":"03/19/2007","jurisdiction":"THE HILLS FULL PURPOSE","contractor_zip":"78691-____","contractor_city":"PFLUGERVILLE","issuance_method":"Permit Center","contractor_phone":"5128328900","contractor_trade":"Electrical Contractor","permit_type_desc":"Electrical Permit","fiscal_year_issued":"2005","permit_class_mapped":"Residential","contractor_address_1":"PO BOX 3289","contractor_full_name":"Bryan Neal","issued_in_last_30_days":"No","property_legal_description":"LOT 343 HILLS OF LAKEWAY PHS 4 THE"},"geometry":{"type":"Point","coordinates":[-97.98395044,30.3452827]}},{"type":"Feature","properties":{"date":"2005-03-23T05:00:00.000Z","year":2005,"description":"New Sf Resd.W/Attached Garage Covrd Front And Rear Porch Patio Elec Srv Only.  Eud.","metadescription":"EP. Remodel. New Sf Resd.W/Attached Garage Covrd Front And Rear Porch Patio Elec Srv Only.  Eud.. Final. 51 WINGREEN LOOP","address":"51 WINGREEN LOOP","link":"https://abc.austintexas.gov/web/permit/public-search-other?t_detail=1&t_selected_folderrsn=4359992","tcad_id":"0133760727","location":"    (30.34595546, -97.97789661)","day_issued":"WEDNESDAY","project_id":"4359992","status_date":"03/05/2007","jurisdiction":"THE HILLS FULL PURPOSE","contractor_zip":"78734","contractor_city":"Lakeway","issuance_method":"Permit Center","contractor_phone":"5127480248","contractor_trade":"Electrical Contractor","permit_type_desc":"Electrical Permit","fiscal_year_issued":"2005","permit_class_mapped":"Residential","contractor_address_2":"2121  Lohman","contractor_full_name":"Daniel Hernandez","issued_in_last_30_days":"No","property_legal_description":"LOT 649 HILLS OF LAKEWAY PHS 8 THE"},"geometry":{"type":"Point","coordinates":[-97.97789661,30.34595546]}},{"type":"Feature","properties":{"date":"2005-03-17T05:00:00.000Z","year":2005,"description":"New 1-Stry Resid W/Att Garage-Porch Elec Srv Eud","metadescription":"EP. Remodel. New 1-Stry Resid W/Att Garage-Porch Elec Srv Eud. Final. 12 WATERFALL DR","address":"12 WATERFALL DR","link":"https://abc.austintexas.gov/web/permit/public-search-other?t_detail=1&t_selected_folderrsn=4359713","tcad_id":"0131780815","location":"    (30.34090392, -97.98527782)","day_issued":"THURSDAY","project_id":"4359713","status_date":"03/19/2007","jurisdiction":"THE HILLS FULL PURPOSE","contractor_zip":"78626","contractor_city":"Georgetown","issuance_method":"Permit Center","contractor_phone":"5128251891","contractor_trade":"Electrical Contractor","permit_type_desc":"Electrical Permit","fiscal_year_issued":"2005","permit_class_mapped":"Residential","contractor_address_2":"2851  Bell G","contractor_full_name":"Mark Sanders","issued_in_last_30_days":"No","property_legal_description":"LOT 414 HILLS OF LAKEWAY PHS 4 THE"},"geometry":{"type":"Point","coordinates":[-97.98527782,30.34090392]}},{"type":"Feature","properties":{"date":"2005-02-25T05:00:00.000Z","year":2005,"description":"New 2stry Resid W/Att Garage Porch Elec Srv Eud","metadescription":"EP. Remodel. New 2stry Resid W/Att Garage Porch Elec Srv Eud. Final. 36 TIBURON DR","address":"36 TIBURON DR","link":"https://abc.austintexas.gov/web/permit/public-search-other?t_detail=1&t_selected_folderrsn=4358661","tcad_id":"0133760306","location":"    (30.34356537, -97.98193438)","day_issued":"FRIDAY","project_id":"4358661","status_date":"03/05/2007","jurisdiction":"THE HILLS FULL PURPOSE","contractor_zip":"78620-2391","contractor_city":"Dripping Spr","issuance_method":"Permit Center","contractor_phone":"5127915619","contractor_trade":"Electrical Contractor","permit_type_desc":"Electrical Permit","fiscal_year_issued":"2005","permit_class_mapped":"Residential","contractor_address_1":"P.O. Box 175","contractor_full_name":"Keith Coons","issued_in_last_30_days":"No","property_legal_description":"LOT 303 HILLS OF LAKEWAY PHS 4 THE"},"geometry":{"type":"Point","coordinates":[-97.98193438,30.34356537]}},{"type":"Feature","properties":{"date":"2005-02-14T05:00:00.000Z","year":2005,"description":"New Sf Resid W/Att Garage Porch Elec Srv Eud","metadescription":"EP. Remodel. New Sf Resid W/Att Garage Porch Elec Srv Eud. Final. 2 WINDWOOD CT","address":"2 WINDWOOD CT","link":"https://abc.austintexas.gov/web/permit/public-search-other?t_detail=1&t_selected_folderrsn=4358218","tcad_id":"0131760101","location":"    (30.34245078, -97.98309353)","day_issued":"MONDAY","project_id":"4358218","status_date":"03/05/2007","jurisdiction":"THE HILLS FULL PURPOSE","contractor_zip":"78613","contractor_city":"Cedar Park","issuance_method":"Permit Center","contractor_phone":"5128483615","contractor_trade":"Electrical Contractor","permit_type_desc":"Electrical Permit","fiscal_year_issued":"2005","permit_class_mapped":"Residential","contractor_address_2":"2207  Sumac","contractor_full_name":"Quenton Walden","issued_in_last_30_days":"No","property_legal_description":"LOT 458 HILLS OF LAKEWAY PHS 4 THE"},"geometry":{"type":"Point","coordinates":[-97.98309353,30.34245078]}},{"type":"Feature","properties":{"date":"2005-02-07T05:00:00.000Z","year":2005,"description":"New 2stry Sf Res. W/Att Garage-Porch Elec Srv Only-Eud","metadescription":"EP. Remodel. New 2stry Sf Res. W/Att Garage-Porch Elec Srv Only-Eud. Final. 72 TIBURON DR","address":"72 TIBURON DR","link":"https://abc.austintexas.gov/web/permit/public-search-other?t_detail=1&t_selected_folderrsn=4357874","tcad_id":"0133780606","location":"    (30.346271, -97.98475399)","day_issued":"MONDAY","project_id":"4357874","status_date":"03/05/2007","jurisdiction":"THE HILLS FULL PURPOSE","contractor_zip":"78759","contractor_city":"Austin","issuance_method":"Permit Center","contractor_phone":"5122583645","contractor_trade":"Electrical Contractor","permit_type_desc":"Electrical Permit","fiscal_year_issued":"2005","permit_class_mapped":"Residential","contractor_address_2":"10719  Oak V","contractor_full_name":"Emil W Crow","issued_in_last_30_days":"No","property_legal_description":"LOT 321 HILLS OF LAKEWAY PHS 4 THE"},"geometry":{"type":"Point","coordinates":[-97.98475399,30.346271]}},{"type":"Feature","properties":{"date":"2005-02-02T05:00:00.000Z","year":2005,"description":"New 1stry Sf Res. W/Att Garage-Porch Elec Srv Only-Eud","metadescription":"EP. Remodel. New 1stry Sf Res. W/Att Garage-Porch Elec Srv Only-Eud. Final. 4 COTTONDALE RD","address":"4 COTTONDALE RD","link":"https://abc.austintexas.gov/web/permit/public-search-other?t_detail=1&t_selected_folderrsn=4357711","tcad_id":"0133760506","location":"    (30.34688099, -97.97977342)","day_issued":"WEDNESDAY","project_id":"4357711","status_date":"03/05/2007","jurisdiction":"THE HILLS FULL PURPOSE","contractor_zip":"78691-____","contractor_city":"PFLUGERVILLE","issuance_method":"Permit Center","contractor_phone":"5128328900","contractor_trade":"Electrical Contractor","permit_type_desc":"Electrical Permit","fiscal_year_issued":"2005","permit_class_mapped":"Residential","contractor_address_1":"PO BOX 3289","contractor_full_name":"Bryan Neal","issued_in_last_30_days":"No","property_legal_description":"LOT 692 HILLS OF LAKEWAY PHS 8 THE"},"geometry":{"type":"Point","coordinates":[-97.97977342,30.34688099]}},{"type":"Feature","properties":{"date":"2005-01-31T05:00:00.000Z","year":2005,"description":"New 2stry Sf Res. W/Att Garage-Porch Elec Srv Only-Eud","metadescription":"EP. Remodel. New 2stry Sf Res. W/Att Garage-Porch Elec Srv Only-Eud. Final. 4 HEDGEFIELD CT","address":"4 HEDGEFIELD CT","link":"https://abc.austintexas.gov/web/permit/public-search-other?t_detail=1&t_selected_folderrsn=4357556","tcad_id":"0133760450","location":"    (30.34761166, -97.98167403)","day_issued":"MONDAY","project_id":"4357556","status_date":"03/05/2007","jurisdiction":"THE HILLS FULL PURPOSE","contractor_zip":"78691-____","contractor_city":"PFLUGERVILLE","issuance_method":"Permit Center","contractor_phone":"5128328900","contractor_trade":"Electrical Contractor","permit_type_desc":"Electrical Permit","fiscal_year_issued":"2005","permit_class_mapped":"Residential","contractor_address_1":"PO BOX 3289","contractor_full_name":"Bryan Neal","issued_in_last_30_days":"No","property_legal_description":"LOT 860 HILLS OF LAKEWAY PHS 9"},"geometry":{"type":"Point","coordinates":[-97.98167403,30.34761166]}},{"type":"Feature","properties":{"date":"2005-01-11T05:00:00.000Z","year":2005,"description":"New 2stry Resid W/Att Garage Porch Elec Srv Eud Lakeway","metadescription":"EP. Remodel. New 2stry Resid W/Att Garage Porch Elec Srv Eud Lakeway. Final. 16 GLENWAY DR","address":"16 GLENWAY DR","link":"https://abc.austintexas.gov/web/permit/public-search-other?t_detail=1&t_selected_folderrsn=4356680","tcad_id":"0133760102","location":"    (30.34472402, -97.9834789)","day_issued":"TUESDAY","project_id":"4356680","status_date":"03/05/2007","jurisdiction":"THE HILLS FULL PURPOSE","contractor_zip":"78620-2391","contractor_city":"Dripping Spr","issuance_method":"Permit Center","contractor_phone":"5127915619","contractor_trade":"Electrical Contractor","permit_type_desc":"Electrical Permit","fiscal_year_issued":"2005","permit_class_mapped":"Residential","contractor_address_1":"P.O. Box 175","contractor_full_name":"Keith Coons","issued_in_last_30_days":"No","property_legal_description":"LOT 363 HILLS OF LAKEWAY PHS 4 THE"},"geometry":{"type":"Point","coordinates":[-97.9834789,30.34472402]}},{"type":"Feature","properties":{"date":"2004-12-27T05:00:00.000Z","year":2004,"description":"New 2stry Sf Res. W/Att Garage-Porch Elec Srv Only-Eud","metadescription":"EP. Remodel. New 2stry Sf Res. W/Att Garage-Porch Elec Srv Only-Eud. Final. 3 BRADENTON CT","address":"3 BRADENTON CT","link":"https://abc.austintexas.gov/web/permit/public-search-other?t_detail=1&t_selected_folderrsn=4356228","tcad_id":"0131780831","location":"    (30.34134246, -97.98534642)","day_issued":"MONDAY","project_id":"4356228","status_date":"03/05/2007","jurisdiction":"THE HILLS FULL PURPOSE","contractor_zip":"78626","contractor_city":"Georgetown","issuance_method":"Permit Center","contractor_phone":"5128251891","contractor_trade":"Electrical Contractor","permit_type_desc":"Electrical Permit","fiscal_year_issued":"2005","permit_class_mapped":"Residential","contractor_address_2":"2851  Bell G","contractor_full_name":"Mark Sanders","issued_in_last_30_days":"No","property_legal_description":"LOT 410 HILLS OF LAKEWAY PHS 4 THE"},"geometry":{"type":"Point","coordinates":[-97.98534642,30.34134246]}},{"type":"Feature","properties":{"date":"2004-12-14T05:00:00.000Z","year":2004,"description":"New 2stry Resid W/Att Garage Porch Elec Srv Eud","metadescription":"EP. Remodel. New 2stry Resid W/Att Garage Porch Elec Srv Eud. Final. 16 WATERFALL DR","address":"16 WATERFALL DR","link":"https://abc.austintexas.gov/web/permit/public-search-other?t_detail=1&t_selected_folderrsn=4355826","tcad_id":"0131780833","location":"    (30.34159962, -97.98587285)","day_issued":"TUESDAY","project_id":"4355826","status_date":"03/05/2007","jurisdiction":"THE HILLS FULL PURPOSE","contractor_zip":"78654-____","contractor_city":"SPICEWOOD","issuance_method":"Permit Center","contractor_phone":"5122631214","contractor_trade":"Electrical Contractor","permit_type_desc":"Electrical Permit","fiscal_year_issued":"2005","permit_class_mapped":"Residential","contractor_address_1":"PO BOX 449","contractor_full_name":"Jackie D Oliver","issued_in_last_30_days":"No","property_legal_description":"LOT 408-A HILLS OF LAKEWAY PHS 4 THE AMENDED PLAT OF LOTS 407&408"},"geometry":{"type":"Point","coordinates":[-97.98587285,30.34159962]}},{"type":"Feature","properties":{"date":"2004-12-14T05:00:00.000Z","year":2004,"description":"New 2stry Sf Res. W/Att Garage-Porch Only-Eud","metadescription":"EP. Remodel. New 2stry Sf Res. W/Att Garage-Porch Only-Eud. Expired. 11 HIGHTRAIL WAY","address":"11 HIGHTRAIL WAY","link":"https://abc.austintexas.gov/web/permit/public-search-other?t_detail=1&t_selected_folderrsn=4419464","tcad_id":"0131760644","location":"    (30.34092181, -97.97830488)","day_issued":"TUESDAY","project_id":"4419464","status_date":"06/06/2007","jurisdiction":"THE HILLS FULL PURPOSE","contractor_zip":"78669","contractor_city":"Spicewood","issuance_method":"Permit Center","contractor_phone":"5122643179","contractor_trade":"Electrical Contractor","permit_type_desc":"Electrical Permit","fiscal_year_issued":"2005","permit_class_mapped":"Residential","contractor_address_1":"PO BOX 81","contractor_address_2":"SPICEWOOD TX","contractor_full_name":"William Jurek","issued_in_last_30_days":"No","property_legal_description":"LOT 613 HILLS OF LAKEWAY PHS 8 THE"},"geometry":{"type":"Point","coordinates":[-97.97830488,30.34092181]}},{"type":"Feature","properties":{"date":"2004-11-12T05:00:00.000Z","year":2004,"description":"New Resid W/Att Garage Porch Elec Srv Eud","metadescription":"EP. Remodel. New Resid W/Att Garage Porch Elec Srv Eud. Final. 26 COTTONDALE RD","address":"26 COTTONDALE RD","link":"https://abc.austintexas.gov/web/permit/public-search-other?t_detail=1&t_selected_folderrsn=4354610","tcad_id":"0135760502","location":"    (30.34830739, -97.97762355)","day_issued":"FRIDAY","project_id":"4354610","status_date":"03/05/2007","jurisdiction":"THE HILLS FULL PURPOSE","contractor_zip":"78728","contractor_city":"Austin","issuance_method":"Permit Center","contractor_phone":"5122885373","contractor_trade":"Electrical Contractor","permit_type_desc":"Electrical Permit","fiscal_year_issued":"2005","permit_class_mapped":"Residential","contractor_address_1":"2611 W. HOWA","contractor_full_name":"Shane Crawford","issued_in_last_30_days":"No","property_legal_description":"LOT 661 HILLS OF LAKEWAY PHS 8 THE"},"geometry":{"type":"Point","coordinates":[-97.97762355,30.34830739]}},{"type":"Feature","properties":{"date":"2004-11-12T05:00:00.000Z","year":2004,"description":"New 2stry Resid W/Att Garage Porch Elec Srv Eud","metadescription":"EP. Remodel. New 2stry Resid W/Att Garage Porch Elec Srv Eud. Final. 40 COTTONDALE RD","address":"40 COTTONDALE RD","link":"https://abc.austintexas.gov/web/permit/public-search-other?t_detail=1&t_selected_folderrsn=4353913","tcad_id":"0135760405","location":"    (30.3502402, -97.97774125)","day_issued":"FRIDAY","project_id":"4353913","status_date":"03/05/2007","jurisdiction":"THE HILLS FULL PURPOSE","contractor_zip":"78660-____","contractor_city":"PFLUGERVILLE","issuance_method":"Permit Center","contractor_phone":"5122520040","contractor_trade":"Electrical Contractor","permit_type_desc":"Electrical Permit","fiscal_year_issued":"2005","permit_class_mapped":"Residential","contractor_address_2":"821  GRAND A","contractor_full_name":"William B. Crist Jr.","issued_in_last_30_days":"No","property_legal_description":"LOT 734 HILLS OF LAKEWAY PHS 9"},"geometry":{"type":"Point","coordinates":[-97.97774125,30.3502402]}},{"type":"Feature","properties":{"date":"2004-09-28T04:00:00.000Z","year":2004,"description":"New 2stry Resid W/Att Garage Porch Elec Srv Eud","metadescription":"EP. Remodel. New 2stry Resid W/Att Garage Porch Elec Srv Eud. Final. 20 HIGHTRAIL WAY","address":"20 HIGHTRAIL WAY","link":"https://abc.austintexas.gov/web/permit/public-search-other?t_detail=1&t_selected_folderrsn=4353013","tcad_id":"0131760720","location":"    (30.34023132, -97.97919369)","day_issued":"TUESDAY","project_id":"4353013","status_date":"03/05/2007","jurisdiction":"THE HILLS FULL PURPOSE","contractor_zip":"78691-____","contractor_city":"PFLUGERVILLE","issuance_method":"Permit Center","contractor_phone":"5128328900","contractor_trade":"Electrical Contractor","permit_type_desc":"Electrical Permit","fiscal_year_issued":"2004","permit_class_mapped":"Residential","contractor_address_1":"PO BOX 3289","contractor_full_name":"Bryan Neal","issued_in_last_30_days":"No","property_legal_description":"LOT 10A HILLS OF LAKEWAY PHS 8-A THE AMENDED PLAT OF LOTS 10 & 11"},"geometry":{"type":"Point","coordinates":[-97.97919369,30.34023132]}},{"type":"Feature","properties":{"date":"2004-08-13T04:00:00.000Z","year":2004,"description":"New Sf Resid W/Att Garage Porch Elec Srv Eud","metadescription":"EP. Remodel. New Sf Resid W/Att Garage Porch Elec Srv Eud. Final. 21 TIBURON DR","address":"21 TIBURON DR","link":"https://abc.austintexas.gov/web/permit/public-search-other?t_detail=1&t_selected_folderrsn=4351162","tcad_id":"0133760117","location":"    (30.34310742, -97.98275728)","day_issued":"FRIDAY","project_id":"4351162","status_date":"03/05/2007","jurisdiction":"THE HILLS FULL PURPOSE","contractor_zip":"78723","contractor_city":"Austin","issuance_method":"Permit Center","contractor_phone":"5129271675","contractor_trade":"Electrical Contractor","permit_type_desc":"Electrical Permit","fiscal_year_issued":"2004","permit_class_mapped":"Residential","contractor_address_2":"7300  Buckne","contractor_full_name":"David A Thompson","issued_in_last_30_days":"No","property_legal_description":"LOT 378 HILLS OF LAKEWAY PHS 4 THE"},"geometry":{"type":"Point","coordinates":[-97.98275728,30.34310742]}},{"type":"Feature","properties":{"date":"2004-08-12T04:00:00.000Z","year":2004,"description":"New Resid 1stry Sf Res. W/Att Garage-Porch Eud","metadescription":"EP. Remodel. New Resid 1stry Sf Res. W/Att Garage-Porch Eud. Final. 13 RADNOR DR","address":"13 RADNOR DR","link":"https://abc.austintexas.gov/web/permit/public-search-other?t_detail=1&t_selected_folderrsn=4350936","tcad_id":"0133760426","location":"    (30.34474552, -97.97895352)","day_issued":"THURSDAY","project_id":"4350936","status_date":"03/05/2007","jurisdiction":"THE HILLS FULL PURPOSE","contractor_zip":"78660","contractor_city":"Pflugerville","issuance_method":"Permit Center","contractor_phone":"5129994288","contractor_trade":"Electrical Contractor","permit_type_desc":"Electrical Permit","fiscal_year_issued":"2004","permit_class_mapped":"Residential","contractor_address_1":"2017 MAPIR V","contractor_address_2":"PFLUGERVILLE","contractor_full_name":"Todd Ebenhoeh","issued_in_last_30_days":"No","property_legal_description":"LOT 576 HILLS OF LAKEWAY PHS 8 THE"},"geometry":{"type":"Point","coordinates":[-97.97895352,30.34474552]}},{"type":"Feature","properties":{"date":"2004-08-02T04:00:00.000Z","year":2004,"description":"New 2stry Resid W/Att Garage Porch Elec Srv Eud","metadescription":"EP. Remodel. New 2stry Resid W/Att Garage Porch Elec Srv Eud. Final. 22 HIGHTRAIL WAY","address":"22 HIGHTRAIL WAY","link":"https://abc.austintexas.gov/web/permit/public-search-other?t_detail=1&t_selected_folderrsn=4350625","tcad_id":"0131760719","location":"    (30.34025394, -97.97937704)","day_issued":"MONDAY","project_id":"4350625","status_date":"03/05/2007","jurisdiction":"THE HILLS FULL PURPOSE","contractor_zip":"78734","contractor_city":"Lakeway","issuance_method":"Permit Center","contractor_phone":"5127480248","contractor_trade":"Electrical Contractor","permit_type_desc":"Electrical Permit","fiscal_year_issued":"2004","permit_class_mapped":"Residential","contractor_address_2":"2121  Lohman","contractor_full_name":"Daniel Hernandez","issued_in_last_30_days":"No","property_legal_description":"LOT 8A HILLS OF LAKEWAY PHS 8-A THE AMENDED PLAT OF LOTS 8 & 9"},"geometry":{"type":"Point","coordinates":[-97.97937704,30.34025394]}},{"type":"Feature","properties":{"date":"2004-07-20T04:00:00.000Z","year":2004,"description":"New 1stry Sf Res. W/Att Garage-Porch Elec Srv Only-Eud","metadescription":"EP. Remodel. New 1stry Sf Res. W/Att Garage-Porch Elec Srv Only-Eud. Final. 10 PARKSIDE RD","address":"10 PARKSIDE RD","link":"https://abc.austintexas.gov/web/permit/public-search-other?t_detail=1&t_selected_folderrsn=4350018","tcad_id":"0131760617","location":"    (30.3420593, -97.97839443)","day_issued":"TUESDAY","project_id":"4350018","status_date":"03/05/2007","jurisdiction":"THE HILLS FULL PURPOSE","contractor_zip":"78626","contractor_city":"Georgetown","issuance_method":"Permit Center","contractor_phone":"5128251891","contractor_trade":"Electrical Contractor","permit_type_desc":"Electrical Permit","fiscal_year_issued":"2004","permit_class_mapped":"Residential","contractor_address_2":"2851  Bell G","contractor_full_name":"Mark Sanders","issued_in_last_30_days":"No","property_legal_description":"LOT 620 HILLS OF LAKEWAY PHS 8 THE"},"geometry":{"type":"Point","coordinates":[-97.97839443,30.3420593]}},{"type":"Feature","properties":{"date":"2004-06-18T04:00:00.000Z","year":2004,"description":"New 2 Story S/F Resid With Att Gar & Porch Elec Srv Only Eud","metadescription":"BP. Remodel. New 2 Story S/F Resid With Att Gar & Porch Elec Srv Only Eud. Expired. 18 LOST MEADOW TRL","address":"18 LOST MEADOW TRL","link":"https://abc.austintexas.gov/web/permit/public-search-other?t_detail=1&t_selected_folderrsn=710639","tcad_id":"0135761306","location":"    (30.34989657, -97.97969667)","day_issued":"FRIDAY","project_id":"710639","condominium":"No","status_date":"06/06/2007","jurisdiction":"THE HILLS FULL PURPOSE","issuance_method":"Permit Center","permit_type_desc":"Building Permit","fiscal_year_issued":"2004","permit_class_mapped":"Residential","issued_in_last_30_days":"No","certificate_of_occupancy":"No","property_legal_description":"LOT 829 HILLS OF LAKEWAY PHS 9"},"geometry":{"type":"Point","coordinates":[-97.97969667,30.34989657]}},{"type":"Feature","properties":{"date":"2004-06-18T04:00:00.000Z","year":2004,"description":"New 2 Story S/F Resid With Att Gar & Porch Elec Srv Only Eud","metadescription":"EP. Remodel. New 2 Story S/F Resid With Att Gar & Porch Elec Srv Only Eud. Final. 18 LOST MEADOW TRL","address":"18 LOST MEADOW TRL","link":"https://abc.austintexas.gov/web/permit/public-search-other?t_detail=1&t_selected_folderrsn=4348847","tcad_id":"0135761306","location":"    (30.34989657, -97.97969667)","day_issued":"FRIDAY","project_id":"4348847","status_date":"06/06/2007","jurisdiction":"THE HILLS FULL PURPOSE","contractor_zip":"78613","contractor_city":"Cedar Park","issuance_method":"Permit Center","contractor_phone":"5128483615","contractor_trade":"Electrical Contractor","permit_type_desc":"Electrical Permit","master_permit_num":"710639","fiscal_year_issued":"2004","permit_class_mapped":"Residential","contractor_address_2":"2207  Sumac","contractor_full_name":"Quenton Walden","issued_in_last_30_days":"No","property_legal_description":"LOT 829 HILLS OF LAKEWAY PHS 9"},"geometry":{"type":"Point","coordinates":[-97.97969667,30.34989657]}},{"type":"Feature","properties":{"date":"2004-06-18T04:00:00.000Z","year":2004,"description":"New 2 Story S/F Resid With Att Gar & Porch Elec Srv Only Eud","metadescription":"PP. Remodel. New 2 Story S/F Resid With Att Gar & Porch Elec Srv Only Eud. Expired. 18 LOST MEADOW TRL","address":"18 LOST MEADOW TRL","link":"https://abc.austintexas.gov/web/permit/public-search-other?t_detail=1&t_selected_folderrsn=3757758","tcad_id":"0135761306","location":"    (30.34989657, -97.97969667)","day_issued":"FRIDAY","project_id":"3757758","status_date":"06/06/2007","jurisdiction":"THE HILLS FULL PURPOSE","issuance_method":"Permit Center","permit_type_desc":"Plumbing Permit","master_permit_num":"710639","fiscal_year_issued":"2004","permit_class_mapped":"Residential","issued_in_last_30_days":"No","property_legal_description":"LOT 829 HILLS OF LAKEWAY PHS 9"},"geometry":{"type":"Point","coordinates":[-97.97969667,30.34989657]}},{"type":"Feature","properties":{"date":"2004-04-07T04:00:00.000Z","year":2004,"description":"New 2 Story S/F Resid With Att Gar Porch And Patio Elec & Plbg Srv Only Eud","metadescription":"BP. Remodel. New 2 Story S/F Resid With Att Gar Porch And Patio Elec & Plbg Srv Only Eud. Expired. 28 COTTONDALE RD","address":"28 COTTONDALE RD","link":"https://abc.austintexas.gov/web/permit/public-search-other?t_detail=1&t_selected_folderrsn=708421","tcad_id":"0135760503","location":"    (30.34855298, -97.97766829)","day_issued":"WEDNESDAY","project_id":"708421","condominium":"No","status_date":"06/06/2007","jurisdiction":"THE HILLS FULL PURPOSE","issuance_method":"Permit Center","permit_type_desc":"Building Permit","fiscal_year_issued":"2004","permit_class_mapped":"Residential","issued_in_last_30_days":"No","certificate_of_occupancy":"No","property_legal_description":"LOT 662 HILLS OF LAKEWAY PHS 8 THE"},"geometry":{"type":"Point","coordinates":[-97.97766829,30.34855298]}},{"type":"Feature","properties":{"date":"2004-04-07T04:00:00.000Z","year":2004,"description":"New 2 Story S/F Resid With Att Gar Porch And Patio Elec & Plbg Srv Only Eud","metadescription":"PP. Remodel. New 2 Story S/F Resid With Att Gar Porch And Patio Elec & Plbg Srv Only Eud. Expired. 28 COTTONDALE RD","address":"28 COTTONDALE RD","link":"https://abc.austintexas.gov/web/permit/public-search-other?t_detail=1&t_selected_folderrsn=3755798","tcad_id":"0135760503","location":"    (30.34855298, -97.97766829)","day_issued":"WEDNESDAY","project_id":"3755798","status_date":"06/06/2007","jurisdiction":"THE HILLS FULL PURPOSE","issuance_method":"Permit Center","permit_type_desc":"Plumbing Permit","master_permit_num":"708421","fiscal_year_issued":"2004","permit_class_mapped":"Residential","issued_in_last_30_days":"No","property_legal_description":"LOT 662 HILLS OF LAKEWAY PHS 8 THE"},"geometry":{"type":"Point","coordinates":[-97.97766829,30.34855298]}},{"type":"Feature","properties":{"date":"2004-04-07T04:00:00.000Z","year":2004,"description":"New 2 Story S/F Resid With Att Gar Porch And Patio Elec & Plbg Srv Only Eud","metadescription":"EP. Remodel. New 2 Story S/F Resid With Att Gar Porch And Patio Elec & Plbg Srv Only Eud. Expired. 28 COTTONDALE RD","address":"28 COTTONDALE RD","link":"https://abc.austintexas.gov/web/permit/public-search-other?t_detail=1&t_selected_folderrsn=4345910","tcad_id":"0135760503","location":"    (30.34855298, -97.97766829)","day_issued":"WEDNESDAY","project_id":"4345910","status_date":"06/06/2007","jurisdiction":"THE HILLS FULL PURPOSE","contractor_zip":"78630","contractor_city":"CEDAR PARK","issuance_method":"Permit Center","contractor_phone":"5125512163","contractor_trade":"Electrical Contractor","permit_type_desc":"Electrical Permit","master_permit_num":"708421","fiscal_year_issued":"2004","permit_class_mapped":"Residential","contractor_address_1":"P.O. BOX 219","contractor_address_2":"CEDAR PARK T","contractor_full_name":"Leonard Wiegel","issued_in_last_30_days":"No","property_legal_description":"LOT 662 HILLS OF LAKEWAY PHS 8 THE"},"geometry":{"type":"Point","coordinates":[-97.97766829,30.34855298]}},{"type":"Feature","properties":{"date":"2004-02-11T05:00:00.000Z","year":2004,"description":"New 1-Stry Sf Fam Res. W/Att Garage CovD Porch CovD Terrace; Elec Srv Only - Eud","metadescription":"EP. Remodel. New 1-Stry Sf Fam Res. W/Att Garage CovD Porch CovD Terrace; Elec Srv Only - Eud. Final. 6 TIBURON CT","address":"6 TIBURON CT","link":"https://abc.austintexas.gov/web/permit/public-search-other?t_detail=1&t_selected_folderrsn=4342973","tcad_id":"0133760106","location":"    (30.34427742, -97.98327099)","day_issued":"WEDNESDAY","project_id":"4342973","condominium":"No","status_date":"03/05/2007","jurisdiction":"THE HILLS FULL PURPOSE","contractor_zip":"78727","contractor_city":"AUSTIN","issuance_method":"Permit Center","contractor_phone":"5126690240","contractor_trade":"Electrical Contractor","number_of_floors":"1","permit_type_desc":"Electrical Permit","fiscal_year_issued":"2004","permit_class_mapped":"Residential","contractor_address_2":"4601  BROWN","contractor_full_name":"Daniel Rookey","issued_in_last_30_days":"No","certificate_of_occupancy":"No","property_legal_description":"LOT 367 HILLS OF LAKEWAY PHS 4 THE"},"geometry":{"type":"Point","coordinates":[-97.98327099,30.34427742]}},{"type":"Feature","properties":{"date":"2003-02-05T05:00:00.000Z","year":2003,"description":"New 2 Stry Resid W/Attchd Grg Porch  - Outside City - Eud\n**Pending Addtl Info - Specs On Home - 1 Story Or 2? Grg Porch Etc. & Amp. For Meter.**","metadescription":"EP. Remodel. New 2 Stry Resid W/Attchd Grg Porch  - Outside City - Eud\n**Pending Addtl Info - Specs On Home - 1 Story Or 2? Grg Porch Etc. & Amp. For Meter.**. Final. 1 HIGHTRAIL WAY","address":"1 HIGHTRAIL WAY","link":"https://abc.austintexas.gov/web/permit/public-search-other?t_detail=1&t_selected_folderrsn=4331031","tcad_id":"0131760615","location":"    (30.3418495, -97.97895127)","day_issued":"WEDNESDAY","project_id":"4331031","status_date":"03/05/2007","jurisdiction":"THE HILLS FULL PURPOSE","contractor_zip":"78626","contractor_city":"Georgetown","issuance_method":"Permit Center","contractor_phone":"5128251891","contractor_trade":"Electrical Contractor","permit_type_desc":"Electrical Permit","fiscal_year_issued":"2003","permit_class_mapped":"Residential","contractor_address_2":"2851  Bell G","contractor_full_name":"Mark Sanders","issued_in_last_30_days":"No","property_legal_description":"LOT 618 HILLS OF LAKEWAY PHS 8 THE"},"geometry":{"type":"Point","coordinates":[-97.97895127,30.3418495]}}]}
