{"type":"FeatureCollection","features":[{"type":"Feature","properties":{"date":"2023-06-26T04:00:00.000Z","year":2023,"description":"Install new 8kW rooftop solar system and 13.5kW energy storage system for existing residential only.\n\n\nTHE HILLS FULL PURPOSE","metadescription":"EP. Auxiliary Power. Install new 8kW rooftop solar system and 13.5kW energy storage system for existing residential only.\n\n\nTHE HILLS FULL PURPOSE. Final. 13 BUTTERFLY PL","address":"13 Butterfly Place, Austin, TX, 78738, US","link":"https://abc.austintexas.gov/web/permit/public-search-other?t_detail=1&t_selected_folderrsn=13158104","tcad_id":"0135760702","location":"    (30.35097303, -97.98005728)","day_issued":"MONDAY","project_id":"13158104","condominium":"No","status_date":"06/29/2023","jurisdiction":"THE HILLS FULL PURPOSE","housing_units":"1","issuance_method":"Permit Center","contractor_phone":"8005042337","contractor_trade":"Electrical Contractor","number_of_floors":"1","permit_type_desc":"Electrical Permit","fiscal_year_issued":"2023","permit_class_mapped":"Residential","contractor_full_name":"Adrian Buck","issued_in_last_30_days":"No","certificate_of_occupancy":"No","property_legal_description":"LOT 842 HILLS OF LAKEWAY PHS 9","electrical_valuation_remodel":"$73,869.00"},"geometry":{"type":"Point","coordinates":[-97.98005728,30.35097303]}},{"type":"Feature","properties":{"date":"2020-07-12T04:00:00.000Z","year":2020,"description":"Residential Solar PV Installation","metadescription":"EP. Auxiliary Power. Residential Solar PV Installation. Final. 720 ROLLING GREEN DR","address":"720 Rolling Green Drive, Austin, TX, 78734, US","link":"https://abc.austintexas.gov/web/permit/public-search-other?t_detail=1&t_selected_folderrsn=12365635","tcad_id":"0137760405","location":"    (30.3558532, -97.97713165)","day_issued":"SUNDAY","project_id":"12365635","condominium":"No","status_date":"07/14/2020","jurisdiction":"LAKEWAY FULL PURPOSE","housing_units":"1","contractor_zip":"78754","contractor_city":"Austin","issuance_method":"Permit Center","contractor_phone":"5123292117","contractor_trade":"Electrical Contractor","number_of_floors":"1","permit_type_desc":"Electrical Permit","fiscal_year_issued":"2020","permit_class_mapped":"Residential","contractor_address_2":"1250  Capita","contractor_full_name":"Matthew D Suchomel","issued_in_last_30_days":"No","certificate_of_occupancy":"No","property_legal_description":"LOT 2694 LAKEWAY SEC 26","electrical_valuation_remodel":"$11,980.00"},"geometry":{"type":"Point","coordinates":[-97.97713165,30.3558532]}},{"type":"Feature","properties":{"date":"1987-12-01T05:00:00.000Z","year":1987,"description":"Install A/C & Heat - Residential","metadescription":"MP. Remodel. Install A/C & Heat - Residential. Expired. 3 GLENWAY DR","address":"3 Glenway Drive, Austin, TX, 78738, US","link":"https://abc.austintexas.gov/web/permit/public-search-other?t_detail=1&t_selected_folderrsn=3259878","tcad_id":"0133780711","location":"    (30.34440846, -97.98486909)","day_issued":"TUESDAY","project_id":"3259878","condominium":"No","status_date":"06/06/2007","jurisdiction":"THE HILLS FULL PURPOSE","housing_units":"1","issuance_method":"Permit Center","permit_type_desc":"Mechanical Permit","master_permit_num":"4163811","fiscal_year_issued":"1988","permit_class_mapped":"Residential","issued_in_last_30_days":"No","certificate_of_occupancy":"No","property_legal_description":"LOT 336 HILLS OF LAKEWAY PHS 4 THE"},"geometry":{"type":"Point","coordinates":[-97.98486909,30.34440846]}},{"type":"Feature","properties":{"date":"1987-12-01T05:00:00.000Z","year":1987,"description":"Install A/C & Heat - Residential","metadescription":"EP. Remodel. Install A/C & Heat - Residential. Expired. 3 GLENWAY DR","address":"3 Glenway Drive, Austin, TX, 78738, US","link":"https://abc.austintexas.gov/web/permit/public-search-other?t_detail=1&t_selected_folderrsn=4163811","tcad_id":"0133780711","location":"    (30.34440846, -97.98486909)","day_issued":"TUESDAY","project_id":"4163811","condominium":"No","status_date":"06/06/2007","jurisdiction":"THE HILLS FULL PURPOSE","housing_units":"1","issuance_method":"Permit Center","permit_type_desc":"Electrical Permit","fiscal_year_issued":"1988","permit_class_mapped":"Residential","issued_in_last_30_days":"No","certificate_of_occupancy":"No","property_legal_description":"LOT 336 HILLS OF LAKEWAY PHS 4 THE"},"geometry":{"type":"Point","coordinates":[-97.98486909,30.34440846]}},{"type":"Feature","properties":{"date":"1987-02-25T05:00:00.000Z","year":1987,"description":"Electric To Spa (Residential)","metadescription":"MP. Remodel. Electric To Spa (Residential). Expired. 4 TIBURON CT","address":"4 Tiburon Court, Austin, TX, 78738, US","link":"https://abc.austintexas.gov/web/permit/public-search-other?t_detail=1&t_selected_folderrsn=3251369","tcad_id":"0133760105","location":"    (30.34450199, -97.98306893)","day_issued":"WEDNESDAY","project_id":"3251369","condominium":"No","status_date":"06/06/2007","jurisdiction":"THE HILLS FULL PURPOSE","housing_units":"1","issuance_method":"Permit Center","permit_type_desc":"Mechanical Permit","fiscal_year_issued":"1987","permit_class_mapped":"Residential","issued_in_last_30_days":"No","certificate_of_occupancy":"No","property_legal_description":"LOT 366 HILLS OF LAKEWAY PHS 4 THE"},"geometry":{"type":"Point","coordinates":[-97.98306893,30.34450199]}},{"type":"Feature","properties":{"date":"1987-01-26T05:00:00.000Z","year":1987,"description":"Residential Swimming Pool","metadescription":"MP. Remodel. Residential Swimming Pool. Final. 5 HEDGEBROOK CV","address":"5 Hedgebrook Cove, Austin, TX, 78738, US","link":"https://abc.austintexas.gov/web/permit/public-search-other?t_detail=1&t_selected_folderrsn=3250366","tcad_id":"0135780233","location":"    (30.34830969, -97.98434603)","day_issued":"MONDAY","project_id":"3250366","condominium":"No","status_date":"05/22/2007","jurisdiction":"THE HILLS FULL PURPOSE","housing_units":"1","issuance_method":"Permit Center","permit_type_desc":"Mechanical Permit","master_permit_num":"4153161","fiscal_year_issued":"1987","permit_class_mapped":"Residential","issued_in_last_30_days":"No","certificate_of_occupancy":"No","property_legal_description":"LOT 871 HILLS OF LAKEWAY PHS 9"},"geometry":{"type":"Point","coordinates":[-97.98434603,30.34830969]}},{"type":"Feature","properties":{"date":"1987-01-26T05:00:00.000Z","year":1987,"description":"Residential Spa","metadescription":"MP. Remodel. Residential Spa. Final. 5 HEDGEBROOK CV","address":"5 Hedgebrook Cove, Austin, TX, 78738, US","link":"https://abc.austintexas.gov/web/permit/public-search-other?t_detail=1&t_selected_folderrsn=3250367","tcad_id":"0135780233","location":"    (30.34830969, -97.98434603)","day_issued":"MONDAY","project_id":"3250367","condominium":"No","status_date":"05/22/2007","jurisdiction":"THE HILLS FULL PURPOSE","housing_units":"1","issuance_method":"Permit Center","permit_type_desc":"Mechanical Permit","master_permit_num":"4153162","fiscal_year_issued":"1987","permit_class_mapped":"Residential","issued_in_last_30_days":"No","certificate_of_occupancy":"No","property_legal_description":"LOT 871 HILLS OF LAKEWAY PHS 9"},"geometry":{"type":"Point","coordinates":[-97.98434603,30.34830969]}},{"type":"Feature","properties":{"date":"1987-01-26T05:00:00.000Z","year":1987,"description":"Residential Swimming Pool","metadescription":"EP. Remodel. Residential Swimming Pool. Final. 5 HEDGEBROOK CV","address":"5 Hedgebrook Cove, Austin, TX, 78738, US","link":"https://abc.austintexas.gov/web/permit/public-search-other?t_detail=1&t_selected_folderrsn=4153161","tcad_id":"0135780233","location":"    (30.34830969, -97.98434603)","day_issued":"MONDAY","project_id":"4153161","condominium":"No","status_date":"05/22/2007","jurisdiction":"THE HILLS FULL PURPOSE","housing_units":"1","issuance_method":"Permit Center","permit_type_desc":"Electrical Permit","fiscal_year_issued":"1987","permit_class_mapped":"Residential","issued_in_last_30_days":"No","certificate_of_occupancy":"No","property_legal_description":"LOT 871 HILLS OF LAKEWAY PHS 9"},"geometry":{"type":"Point","coordinates":[-97.98434603,30.34830969]}},{"type":"Feature","properties":{"date":"1987-01-26T05:00:00.000Z","year":1987,"description":"Residential Spa","metadescription":"EP. Remodel. Residential Spa. Final. 5 HEDGEBROOK CV","address":"5 Hedgebrook Cove, Austin, TX, 78738, US","link":"https://abc.austintexas.gov/web/permit/public-search-other?t_detail=1&t_selected_folderrsn=4153162","tcad_id":"0135780233","location":"    (30.34830969, -97.98434603)","day_issued":"MONDAY","project_id":"4153162","condominium":"No","status_date":"05/22/2007","jurisdiction":"THE HILLS FULL PURPOSE","housing_units":"1","issuance_method":"Permit Center","permit_type_desc":"Electrical Permit","fiscal_year_issued":"1987","permit_class_mapped":"Residential","issued_in_last_30_days":"No","certificate_of_occupancy":"No","property_legal_description":"LOT 871 HILLS OF LAKEWAY PHS 9"},"geometry":{"type":"Point","coordinates":[-97.98434603,30.34830969]}}]}
