{"type":"FeatureCollection","features":[{"type":"Feature","properties":{"date":"2024-05-23T04:00:00.000Z","year":2024,"description":"Install new roof-mounted solar and energy storage system to existing residence. AE","metadescription":"EP. Auxiliary Power. Install new roof-mounted solar and energy storage system to existing residence. AE. Final. 504 LUNA VISTA DR","address":"504 Luna Vista Drive, Austin, TX, 78738, US","link":"https://abc.austintexas.gov/web/permit/public-search-other?t_detail=1&t_selected_folderrsn=13330714","tcad_id":"0135780802","location":"    (30.35310714, -97.98380427)","day_issued":"THURSDAY","project_id":"13330714","condominium":"No","status_date":"12/10/2024","jurisdiction":"THE HILLS FULL PURPOSE","housing_units":"1","contractor_zip":"78728-____","contractor_city":"AUSTIN","issuance_method":"Permit Center","contractor_phone":"2147246768","contractor_trade":"Electrical Contractor","number_of_floors":"1","permit_type_desc":"Electrical Permit","fiscal_year_issued":"2024","permit_class_mapped":"Residential","contractor_address_2":"2301  SCARBR","contractor_full_name":"Wesley Davis","issued_in_last_30_days":"No","certificate_of_occupancy":"No","property_legal_description":"LOT 6 BLK A HILLS OF LAKEWAY PHS 10 RESUB OF LOT 3","electrical_valuation_remodel":"$43,292.00"},"geometry":{"type":"Point","coordinates":[-97.98380427,30.35310714]}},{"type":"Feature","properties":{"date":"2023-06-26T04:00:00.000Z","year":2023,"description":"Install new 8kW rooftop solar system and 13.5kW energy storage system for existing residential only.\n\n\nTHE HILLS FULL PURPOSE","metadescription":"EP. Auxiliary Power. Install new 8kW rooftop solar system and 13.5kW energy storage system for existing residential only.\n\n\nTHE HILLS FULL PURPOSE. Final. 13 BUTTERFLY PL","address":"13 Butterfly Place, Austin, TX, 78738, US","link":"https://abc.austintexas.gov/web/permit/public-search-other?t_detail=1&t_selected_folderrsn=13158104","tcad_id":"0135760702","location":"    (30.35097303, -97.98005728)","day_issued":"MONDAY","project_id":"13158104","condominium":"No","status_date":"06/29/2023","jurisdiction":"THE HILLS FULL PURPOSE","housing_units":"1","issuance_method":"Permit Center","contractor_phone":"8005042337","contractor_trade":"Electrical Contractor","number_of_floors":"1","permit_type_desc":"Electrical Permit","fiscal_year_issued":"2023","permit_class_mapped":"Residential","contractor_full_name":"Adrian Buck","issued_in_last_30_days":"No","certificate_of_occupancy":"No","property_legal_description":"LOT 842 HILLS OF LAKEWAY PHS 9","electrical_valuation_remodel":"$73,869.00"},"geometry":{"type":"Point","coordinates":[-97.98005728,30.35097303]}},{"type":"Feature","properties":{"date":"2022-08-29T04:00:00.000Z","year":2022,"description":"Install 18 roof mounted solar panels 1 Enphase Encharge 10kWh battery and supply side tap","metadescription":"EP. Auxiliary Power. Install 18 roof mounted solar panels 1 Enphase Encharge 10kWh battery and supply side tap. Final. 203 THE HILLS DR","address":"203 The Hills Drive, Austin, TX, 78738, US","link":"https://abc.austintexas.gov/web/permit/public-search-other?t_detail=1&t_selected_folderrsn=12991802","tcad_id":"0135780222","location":"    (30.35132719, -97.98347343)","day_issued":"MONDAY","project_id":"12991802","condominium":"No","status_date":"03/27/2023","jurisdiction":"THE HILLS FULL PURPOSE","housing_units":"1","contractor_zip":"78247","contractor_city":"san Antonio","issuance_method":"Permit Center","contractor_phone":"512","contractor_trade":"Electrical Contractor","number_of_floors":"1","permit_type_desc":"Electrical Permit","fiscal_year_issued":"2022","permit_class_mapped":"Residential","contractor_address_1":"3540 N Loop","contractor_full_name":"PHILIP MAGUIRE","issued_in_last_30_days":"No","certificate_of_occupancy":"No","property_legal_description":"UNT 1 (LAKESIDE) LAKESIDE AND THE GREENS CONDOMINIUMS PLUS 2.9411% INTEREST IN COMMON AREA","electrical_valuation_remodel":"$41,750.00"},"geometry":{"type":"Point","coordinates":[-97.98347343,30.35132719]}},{"type":"Feature","properties":{"date":"2022-05-19T04:00:00.000Z","year":2022,"description":"Install roof-mounted solar and energy storage system to existing residence","metadescription":"EP. Auxiliary Power. Install roof-mounted solar and energy storage system to existing residence. Final. 410 LUNA VISTA DR","address":"410 Luna Vista Drive, Austin, TX, 78738, US","link":"https://abc.austintexas.gov/web/permit/public-search-other?t_detail=1&t_selected_folderrsn=12933688","tcad_id":"0135760922","location":"    (30.35242165, -97.98241615)","day_issued":"THURSDAY","project_id":"12933688","condominium":"No","status_date":"03/16/2023","jurisdiction":"THE HILLS FULL PURPOSE","housing_units":"1","contractor_zip":"78728-____","contractor_city":"AUSTIN","issuance_method":"Permit Center","contractor_phone":"2147246768","contractor_trade":"Electrical Contractor","number_of_floors":"1","permit_type_desc":"Electrical Permit","fiscal_year_issued":"2022","permit_class_mapped":"Residential","contractor_address_2":"2301  SCARBR","contractor_full_name":"Wesley Davis","issued_in_last_30_days":"No","certificate_of_occupancy":"No","property_legal_description":"LOT 15 BLK A HILLS OF LAKEWAY PHS 10 RESUB OF LOT 3","electrical_valuation_remodel":"$64,656.00"},"geometry":{"type":"Point","coordinates":[-97.98241615,30.35242165]}},{"type":"Feature","properties":{"date":"2021-04-09T04:00:00.000Z","year":2021,"description":"INSTALL ROOF MOUNTED SOLAR AND ENERGY STORAGE SYSTEM TO EXISTING RESIDENCE","metadescription":"EP. Auxiliary Power. INSTALL ROOF MOUNTED SOLAR AND ENERGY STORAGE SYSTEM TO EXISTING RESIDENCE. Final. 64 LOST MEADOW TRL","address":"64 Lost Meadow Trail, Austin, TX, 78738, US","link":"https://abc.austintexas.gov/web/permit/public-search-other?t_detail=1&t_selected_folderrsn=12666686","tcad_id":"0137760806","location":"    (30.35396734, -97.98091973)","day_issued":"FRIDAY","project_id":"12666686","condominium":"No","status_date":"08/29/2022","jurisdiction":"THE HILLS FULL PURPOSE","housing_units":"1","contractor_zip":"78728-____","contractor_city":"AUSTIN","issuance_method":"Permit Center","contractor_phone":"2147246768","contractor_trade":"Electrical Contractor","number_of_floors":"1","permit_type_desc":"Electrical Permit","fiscal_year_issued":"2021","permit_class_mapped":"Residential","contractor_address_2":"2301  SCARBR","contractor_full_name":"Wesley Davis","issued_in_last_30_days":"No","certificate_of_occupancy":"No","property_legal_description":"LOT 759 HILLS OF LAKEWAY PHS 9","electrical_valuation_remodel":"$26,257.00"},"geometry":{"type":"Point","coordinates":[-97.98091973,30.35396734]}},{"type":"Feature","properties":{"date":"2019-06-19T04:00:00.000Z","year":2019,"description":"Installation of rooftop rail-less solar PV 8.375 KW 25 modules/inverters 1 revenue grade meter","metadescription":"EP. Auxiliary Power. Installation of rooftop rail-less solar PV 8.375 KW 25 modules/inverters 1 revenue grade meter. Final. 55 LOST MEADOW TRL","address":"55 Lost Meadow Trail, Austin, TX, 78738, US","link":"https://abc.austintexas.gov/web/permit/public-search-other?t_detail=1&t_selected_folderrsn=12194089","tcad_id":"0135760816","location":"    (30.35258902, -97.980595)","day_issued":"WEDNESDAY","project_id":"12194089","condominium":"No","status_date":"08/02/2019","jurisdiction":"THE HILLS FULL PURPOSE","housing_units":"1","contractor_zip":"78754","contractor_city":"AUSTIN","issuance_method":"Permit Center","contractor_phone":"5122131546","contractor_trade":"Electrical Contractor","number_of_floors":"1","permit_type_desc":"Electrical Permit","fiscal_year_issued":"2019","permit_class_mapped":"Residential","contractor_address_2":"9007  TUSCAN","contractor_full_name":"Matthew E. Franz","issued_in_last_30_days":"No","certificate_of_occupancy":"No","property_legal_description":"LOT 798 HILLS OF LAKEWAY PHS 9","electrical_valuation_remodel":"$6,781.00"},"geometry":{"type":"Point","coordinates":[-97.980595,30.35258902]}},{"type":"Feature","properties":{"date":"2015-03-03T05:00:00.000Z","year":2015,"description":"Installing Roof Mounted Solar PV System Only","metadescription":"EP. Auxiliary Power. Installing Roof Mounted Solar PV System Only. Final. 12 BUTTERFLY PL","address":"12 Butterfly Place, Austin, TX, 78738, US","link":"https://abc.austintexas.gov/web/permit/public-search-other?t_detail=1&t_selected_folderrsn=11303829","tcad_id":"0135761318","location":"    (30.35043984, -97.97947729)","day_issued":"TUESDAY","project_id":"11303829","condominium":"No","status_date":"04/08/2015","jurisdiction":"THE HILLS FULL PURPOSE","housing_units":"1","contractor_zip":"78744","contractor_city":"AUSTIN","issuance_method":"Permit Center","contractor_phone":"8005042337","contractor_trade":"Electrical Contractor","number_of_floors":"1","permit_type_desc":"Electrical Permit","fiscal_year_issued":"2015","permit_class_mapped":"Residential","contractor_address_1":"4111 TODD LN","contractor_address_2":"AUSTIN TX  7","contractor_full_name":"Michael Johnson","issued_in_last_30_days":"No","certificate_of_occupancy":"No","property_legal_description":"LOT 836A HILLS OF LAKEWAY PHS 9 AMD PLT LT 836&AMD-AMD LTS 837&839","electrical_valuation_remodel":"$26,700.00"},"geometry":{"type":"Point","coordinates":[-97.97947729,30.35043984]}}]}
