{"type":"FeatureCollection","features":[{"type":"Feature","properties":{"date":"2026-01-16T00:00:00.000Z","year":2026,"description":"Eplan: Soft-Story seismic retrofit per LABC Chapter 93: Verify proposed work done under garage to ADU conversion permit 25016-10000-28997 using wood shear wall if it meets the minimum requirement of soft story ordinance per LAMC chapter 93**Certificate of COmpliance for Soft Story shall not be issued till Certificate of Occupancy for garage to ADu conversion permit is obtained**","metadescription":"Bldg-Alter/Repair. Apartment. Eplan: Soft-Story seismic retrofit per LABC Chapter 93: Verify proposed work done under garage to ADU conversion permit 25016-10000-28997 using wood shear wall if it meets the minimum requirement of soft story ordinance per LAMC chapter 93**Certificate of COmpliance for Soft Story shall not be issued till Certificate of Occupancy for garage to ADu conversion permit is obtained**. Issued. 3212 S LA CIENEGA AVE","address":"3212 S LA CIENEGA AVE","ct":"2702.00","ev":"N","apc":"South Los Angeles","cpa":"West Adams - Baldwin Hills - Leimert","zone":"C2-1","solar":"N","pin_nbr":"123B173  1043","use_code":"5","status_date":"01/16/2026","permit_group":"Building","refresh_time":"06/10/2026","type_lat_lon":"ADDRESS","business_unit":"Regular Plan Check"},"geometry":{"type":"Point","coordinates":[-118.37852,34.03186]}},{"type":"Feature","properties":{"date":"2025-12-09T00:00:00.000Z","year":2025,"description":"ePlan Convert (e) attached 3-car garage into ADU of (e) 7-unit apartment per GC  66323(a)(3)","metadescription":"Bldg-Alter/Repair. Apartment. ePlan Convert (e) attached 3-car garage into ADU of (e) 7-unit apartment per GC  66323(a)(3). Issued. 3212 S LA CIENEGA AVE 1-8","address":"3212 S LA CIENEGA AVE 1-8","ct":"2702.00","ev":"N","apc":"South Los Angeles","cpa":"West Adams - Baldwin Hills - Leimert","zone":"C2-1","solar":"N","pin_nbr":"123B173  1043","use_code":"1","adu_changed":"1","status_date":"12/09/2025","permit_group":"Building","refresh_time":"06/10/2026","type_lat_lon":"PIN","business_unit":"Expanded Counter Plan Check","square_footage":"484"},"geometry":{"type":"Point","coordinates":[-118.37841009,34.03191901]}},{"type":"Feature","properties":{"date":"2025-10-15T00:00:00.000Z","year":2025,"description":"ADDITION AND MAJOR REMODEL TO EXISTING 1-STORY SINGLE FAMILY DWELLING W/GARAGE, ONLY 1'-7\" OF WALL AND FOUNDATION TO REMAIN.REBUILD AS 2-STORY (73'-1\" X 30' IRREGULAR SHAPE) SINGLE FAMILY DWELLING WITH ATTACHED GARAGE AND ACCESSORY DWELLING UNIT PER LAMC 12.22 A.33 (c) AND (e). NFPA 13D FIRE SPRINKLERS THROUGHOUT.","metadescription":"Bldg-Addition. 1 or 2 Family Dwelling. ADDITION AND MAJOR REMODEL TO EXISTING 1-STORY SINGLE FAMILY DWELLING W/GARAGE, ONLY 1'-7\" OF WALL AND FOUNDATION TO REMAIN.REBUILD AS 2-STORY (73'-1\" X 30' IRREGULAR SHAPE) SINGLE FAMILY DWELLING WITH ATTACHED GARAGE AND ACCESSORY DWELLING UNIT PER LAMC 12.22 A.33 (c) AND (e). NFPA 13D FIRE SPRINKLERS THROUGHOUT.. Issued. 4348-4348 1/2 S NEOSHO AVE","address":"4348-4348 1/2 S NEOSHO AVE","ct":"2753.11","ev":"N","apc":"West Los Angeles","cpa":"Palms - Mar Vista - Del Rey","zone":"R1-1","solar":"N","height":"26.42","pin_nbr":"108B157  1064","use_code":"1","adu_changed":"1","status_date":"10/15/2025","construction":"Type V-B Construction","permit_group":"Building","refresh_time":"06/10/2026","type_lat_lon":"ADDRESS","business_unit":"Regular Plan Check","square_footage":"2990"},"geometry":{"type":"Point","coordinates":[-118.43016,33.99091]}},{"type":"Feature","properties":{"date":"2025-09-16T00:00:00.000Z","year":2025,"description":"Eplan 2-story addition to (E) garage to create 2-story ADU per LAMC 12.22 A.33 (c)-(d) and convert  rest of the garage to storage.","metadescription":"Bldg-Addition. 1 or 2 Family Dwelling. Eplan 2-story addition to (E) garage to create 2-story ADU per LAMC 12.22 A.33 (c)-(d) and convert  rest of the garage to storage.. Issued. 3979 S ALBRIGHT AVE","address":"3979 S ALBRIGHT AVE","ct":"2723.01","ev":"N","apc":"West Los Angeles","cpa":"Palms - Mar Vista - Del Rey","zone":"R1V2","solar":"N","height":"21.9","pin_nbr":"114B161   133","use_code":"1","status_date":"09/16/2025","construction":"Type V-B Construction","permit_group":"Building","refresh_time":"06/10/2026","type_lat_lon":"ADDRESS","business_unit":"Regular Plan Check","square_footage":"1200"},"geometry":{"type":"Point","coordinates":[-118.41797,34.00721]}},{"type":"Feature","properties":{"date":"2025-06-10T00:00:00.000Z","year":2025,"description":"NEW TWO STORY TWO UNIT ACCESSORY DWELLING UNITS PER STATE LAW FOR MULTY FAMILYCA Govt. Code 65852.2(e)(1)(D) and applicable part2 of LAMC 12.22 A.33 (c)-(d), (g","metadescription":"Bldg-New. 1 or 2 Family Dwelling. NEW TWO STORY TWO UNIT ACCESSORY DWELLING UNITS PER STATE LAW FOR MULTY FAMILYCA Govt. Code 65852.2(e)(1)(D) and applicable part2 of LAMC 12.22 A.33 (c)-(d), (g. Issued. 3991-3993 S BEETHOVEN ST","address":"3991-3993 S BEETHOVEN ST","ct":"2722.02","ev":"N","apc":"West Los Angeles","cpa":"Palms - Mar Vista - Del Rey","zone":"RD2-1","solar":"N","height":"18","pin_nbr":"108B153    66","use_code":"1","status_date":"06/10/2025","construction":"Type V-B Construction","permit_group":"Building","refresh_time":"06/10/2026","type_lat_lon":"PIN","business_unit":"Regular Plan Check","square_footage":"2028"},"geometry":{"type":"Point","coordinates":[-118.43870862,33.99559037]}},{"type":"Feature","properties":{"date":"2025-01-31T00:00:00.000Z","year":2025,"description":"Convert (E) detached garage to ADU per CA GCS 66323(a)(1) in the rear of the lot and remove hip roof & replace with shed roof.","metadescription":"Bldg-Alter/Repair. 1 or 2 Family Dwelling. Convert (E) detached garage to ADU per CA GCS 66323(a)(1) in the rear of the lot and remove hip roof & replace with shed roof.. PC Info Complete. 4203 S MOORE ST","address":"4203 S MOORE ST","ct":"2754.00","ev":"N","apc":"West Los Angeles","cpa":"Palms - Mar Vista - Del Rey","zone":"R1-1","solar":"N","height":"12.25","pin_nbr":"108B153   557","use_code":"1","status_date":"03/11/2025","construction":"Type V-N Construction","permit_group":"Building","refresh_time":"06/10/2026","type_lat_lon":"PIN","business_unit":"Expanded Counter Plan Check","square_footage":"384"},"geometry":{"type":"Point","coordinates":[-118.43450392,33.99279946]}},{"type":"Feature","properties":{"date":"2025-01-07T00:00:00.000Z","year":2025,"description":"SUPPLEMENTAL TO: 24014-10000-00875. REVISE NUMBER OF STORIES IN STRUCTURAL INVENTORY TO 1-STORY ADU. REVISE FOUNDATION TO SLAB ON GRADE AND NEW FOOTING TO EXISTING WALL. REVISE DEMO/PROPOSD FLOOR PLANS TO MAKE CLEAR NEW AND EXISTING WALLS, REMOVE WINDOW AT RESTROOM.","metadescription":"Bldg-Alter/Repair. 1 or 2 Family Dwelling. SUPPLEMENTAL TO: 24014-10000-00875. REVISE NUMBER OF STORIES IN STRUCTURAL INVENTORY TO 1-STORY ADU. REVISE FOUNDATION TO SLAB ON GRADE AND NEW FOOTING TO EXISTING WALL. REVISE DEMO/PROPOSD FLOOR PLANS TO MAKE CLEAR NEW AND EXISTING WALLS, REMOVE WINDOW AT RESTROOM.. Permit Finaled. 3949 S ALBRIGHT AVE","address":"3949 S ALBRIGHT AVE","ct":"2723.01","ev":"N","apc":"West Los Angeles","cpa":"Palms - Mar Vista - Del Rey","zone":"R1V2","solar":"N","pin_nbr":"114B161   105","use_code":"1","status_date":"01/14/2025","permit_group":"Building","refresh_time":"06/10/2026","type_lat_lon":"BUILDING","business_unit":"Plan Check at Counter"},"geometry":{"type":"Point","coordinates":[-118.4186154,34.00793202]}},{"type":"Feature","properties":{"date":"2024-12-18T00:00:00.000Z","year":2024,"description":"SUPPLEMENTAL PERMIT TO UPDATE WORK DESCRIPTION:NEW 2-STORY ADU W/ ATTACHED GARAGE  AT REAR OF LOT","metadescription":"Bldg-Alter/Repair. 1 or 2 Family Dwelling. SUPPLEMENTAL PERMIT TO UPDATE WORK DESCRIPTION:NEW 2-STORY ADU W/ ATTACHED GARAGE  AT REAR OF LOT. Permit Finaled. 4248 S NEOSHO AVE","address":"4248 S NEOSHO AVE","ct":"2753.11","ev":"N","apc":"West Los Angeles","cpa":"Palms - Mar Vista - Del Rey","zone":"R1-1","solar":"N","pin_nbr":"108B157   629","use_code":"1","status_date":"12/31/2024","construction":"Type V-B Construction","permit_group":"Building","refresh_time":"06/10/2026","type_lat_lon":"ADDRESS","business_unit":"Plan Check at Counter","square_footage":"1199"},"geometry":{"type":"Point","coordinates":[-118.43047,33.99292]}},{"type":"Feature","properties":{"date":"2024-10-17T00:00:00.000Z","year":2024,"description":"CONVERSION OF (E) GARAGE TO ADU WITH ADDITION. DETACHED ADU PER LAMC 12.22 A.33 (c)-(d).","metadescription":"Bldg-Addition. 1 or 2 Family Dwelling. CONVERSION OF (E) GARAGE TO ADU WITH ADDITION. DETACHED ADU PER LAMC 12.22 A.33 (c)-(d).. CofO Corrected. 3949 S ALBRIGHT AVE","address":"3949 S ALBRIGHT AVE","ct":"2723.01","ev":"N","apc":"West Los Angeles","cpa":"Palms - Mar Vista - Del Rey","zone":"R1V2","solar":"N","height":"13.5","pin_nbr":"114B161   105","use_code":"1","status_date":"11/13/2025","construction":"Type V-B Construction","permit_group":"Building","refresh_time":"06/10/2026","type_lat_lon":"BUILDING","business_unit":"Regular Plan Check","square_footage":"329"},"geometry":{"type":"Point","coordinates":[-118.4186154,34.00793202]}},{"type":"Feature","properties":{"date":"2024-01-31T00:00:00.000Z","year":2024,"description":"*EPLAN* NEW DETACHED 2-STORY ACCESSORY DWELLING UNIT PER LAMC 12.22A.33(c)-(d). NFPA 13D.","metadescription":"Bldg-New. 1 or 2 Family Dwelling. *EPLAN* NEW DETACHED 2-STORY ACCESSORY DWELLING UNIT PER LAMC 12.22A.33(c)-(d). NFPA 13D.. Ready to Issue. 6088 W HARGIS ST","address":"6088 W HARGIS ST","ct":"2702.00","ev":"N","apc":"South Los Angeles","cpa":"West Adams - Baldwin Hills - Leimert","zone":"RD2-1","solar":"N","height":"20.92","pin_nbr":"123B173   930","use_code":"1","status_date":"12/23/2025","construction":"Type V-B Construction","permit_group":"Building","refresh_time":"06/10/2026","type_lat_lon":"PIN","business_unit":"Regular Plan Check","square_footage":"628"},"geometry":{"type":"Point","coordinates":[-118.37715345,34.0322893]}},{"type":"Feature","properties":{"date":"2023-10-10T00:00:00.000Z","year":2023,"description":"ePlan. Conversion with Addition of (E) detatched Garage to Accessory Dwelling Unit per LAMC 12.22 A.33(c)-(d). All work per engineered plans.","metadescription":"Bldg-Addition. 1 or 2 Family Dwelling. ePlan. Conversion with Addition of (E) detatched Garage to Accessory Dwelling Unit per LAMC 12.22 A.33(c)-(d). All work per engineered plans.. CofO Issued. 5934 1/2 W COMEY AVE","address":"5934 1/2 W COMEY AVE","ct":"2702.00","ev":"N","apc":"South Los Angeles","cpa":"West Adams - Baldwin Hills - Leimert","zone":"RD2-1","solar":"N","height":"12","pin_nbr":"123B173   662","use_code":"1","status_date":"04/29/2024","construction":"Type V-B Construction","permit_group":"Building","refresh_time":"06/10/2026","type_lat_lon":"BUILDING","business_unit":"Expanded Counter Plan Check","square_footage":"973.75"},"geometry":{"type":"Point","coordinates":[-118.374508,34.03333231]}},{"type":"Feature","properties":{"date":"2023-07-14T00:00:00.000Z","year":2023,"description":"NEW 2-STORY ADU AT REAR OF LOT","metadescription":"Bldg-New. 1 or 2 Family Dwelling. NEW 2-STORY ADU AT REAR OF LOT. CofO Issued. 4248 S NEOSHO AVE","address":"4248 S NEOSHO AVE","ct":"2753.11","ev":"N","apc":"West Los Angeles","cpa":"Palms - Mar Vista - Del Rey","zone":"R1-1","solar":"N","height":"24","pin_nbr":"108B157   629","use_code":"1","status_date":"12/31/2024","construction":"Type V-B Construction","permit_group":"Building","refresh_time":"06/10/2026","type_lat_lon":"ADDRESS","business_unit":"Regular Plan Check","square_footage":"1199"},"geometry":{"type":"Point","coordinates":[-118.43047,33.99292]}},{"type":"Feature","properties":{"date":"2022-12-14T00:00:00.000Z","year":2022,"description":"CONVERT (E) ATTACHED GARAGE TO ACCESSORY DWELLING UNIT PER GCS 65852.2(e)(1)(C) IN (E) APARTMENT.","metadescription":"Bldg-Alter/Repair. Apartment. CONVERT (E) ATTACHED GARAGE TO ACCESSORY DWELLING UNIT PER GCS 65852.2(e)(1)(C) IN (E) APARTMENT.. CofO Issued. 12441 1/4-1/2 W WASHINGTON PL","address":"12441 1/4-1/2 W WASHINGTON PL","ct":"2722.01","ev":"N","apc":"West Los Angeles","cpa":"Palms - Mar Vista - Del Rey","zone":"R3-1","solar":"N","pin_nbr":"111B157   768","use_code":"5","adu_changed":"1","status_date":"02/10/2025","construction":"Type V-B Construction","permit_group":"Building","refresh_time":"06/10/2026","type_lat_lon":"ADDRESS","business_unit":"Expanded Counter Plan Check","square_footage":"655"},"geometry":{"type":"Point","coordinates":[-118.43177,33.99909]}},{"type":"Feature","properties":{"date":"2022-07-12T00:00:00.000Z","year":2022,"description":"*ePLAN CHECK* CONVERSION OF (E) GARAGE TO (N) ACCESSORY DWELLING UNIT PER GCS 65852.2(e)(1)(A)","metadescription":"Bldg-Alter/Repair. 1 or 2 Family Dwelling. *ePLAN CHECK* CONVERSION OF (E) GARAGE TO (N) ACCESSORY DWELLING UNIT PER GCS 65852.2(e)(1)(A). CofO Issued. 5866 W DAUPHIN AVE","address":"5866 W DAUPHIN AVE","ct":"2702.00","ev":"N","apc":"South Los Angeles","cpa":"West Adams - Baldwin Hills - Leimert","zone":"RD2-1","solar":"N","pin_nbr":"123B173   632","use_code":"1","status_date":"03/10/2023","construction":"Type V-B Construction","permit_group":"Building","refresh_time":"06/10/2026","type_lat_lon":"ADDRESS","business_unit":"Regular Plan Check","square_footage":"738"},"geometry":{"type":"Point","coordinates":[-118.37307,34.03362]}},{"type":"Feature","properties":{"date":"2022-04-06T00:00:00.000Z","year":2022,"description":"CONVERT GARAGE TO 364.77 SQ FT detached ADU per LAMC 12.22 A.33  and GCS 65852.22 OF 2","metadescription":"Bldg-Alter/Repair. 1 or 2 Family Dwelling. CONVERT GARAGE TO 364.77 SQ FT detached ADU per LAMC 12.22 A.33  and GCS 65852.22 OF 2. PC Info Complete. 4213 S MOORE ST","address":"4213 S MOORE ST","ct":"2754.00","ev":"N","apc":"West Los Angeles","cpa":"Palms - Mar Vista - Del Rey","zone":"R1-1","solar":"N","height":"11.75","pin_nbr":"108B153   611","use_code":"1","status_date":"10/26/2023","construction":"Type V-A Construction","permit_group":"Building","refresh_time":"06/10/2026","type_lat_lon":"PIN","business_unit":"Regular Plan Check","square_footage":"364.77"},"geometry":{"type":"Point","coordinates":[-118.43418796,33.99254387]}},{"type":"Feature","properties":{"date":"2021-11-01T00:00:00.000Z","year":2021,"description":"(E) DETACHED GARAGE 406 SQ FT TO BE CONVERTED TO AN ADU (see comment )","metadescription":"Bldg-Alter/Repair. 1 or 2 Family Dwelling. (E) DETACHED GARAGE 406 SQ FT TO BE CONVERTED TO AN ADU (see comment ). CofO Issued. 4231 S MOORE ST","address":"4231 S MOORE ST","ct":"2754.00","ev":"N","apc":"West Los Angeles","cpa":"Palms - Mar Vista - Del Rey","zone":"R1-1","solar":"N","height":"12.5","pin_nbr":"108B153   670","use_code":"1","status_date":"06/17/2025","construction":"Type V-B Construction","permit_group":"Building","refresh_time":"06/10/2026","type_lat_lon":"ADDRESS","business_unit":"Expanded Counter Plan Check","square_footage":"342"},"geometry":{"type":"Point","coordinates":[-118.43374,33.99229]}},{"type":"Feature","properties":{"date":"2021-05-06T00:00:00.000Z","year":2021,"description":"New Detached State Approved ADU per Ordinance and LAMC 12.22 A.33(c)&(d).","metadescription":"Bldg-New. 1 or 2 Family Dwelling. New Detached State Approved ADU per Ordinance and LAMC 12.22 A.33(c)&(d).. Corrections Issued. 4211 S MOORE ST","address":"4211 S MOORE ST","ct":"2754.00","ev":"N","apc":"West Los Angeles","cpa":"Palms - Mar Vista - Del Rey","zone":"R1-1","solar":"N","height":"13.75","pin_nbr":"108B153   593","use_code":"1","status_date":"05/11/2021","construction":"Type V-B Construction","permit_group":"Building","refresh_time":"06/10/2026","type_lat_lon":"ADDRESS","business_unit":"Plan Check at Counter","square_footage":"353"},"geometry":{"type":"Point","coordinates":[-118.43415,33.99269]}},{"type":"Feature","properties":{"date":"2020-12-10T00:00:00.000Z","year":2020,"description":"SUPPLEMENTAL TO PCIS#18014-30000-04601 TO CORRECT ADDRESS FOR DETACHED ADU. NO FEE. DEPARTMENT ERROR.","metadescription":"Bldg-Alter/Repair. 1 or 2 Family Dwelling. SUPPLEMENTAL TO PCIS#18014-30000-04601 TO CORRECT ADDRESS FOR DETACHED ADU. NO FEE. DEPARTMENT ERROR.. Permit Finaled. 4374 S NEOSHO AVE","address":"4374 S NEOSHO AVE","ct":"2753.11","ev":"N","apc":"West Los Angeles","cpa":"Palms - Mar Vista - Del Rey","zone":"R1-1","solar":"N","pin_nbr":"108B157  1197","use_code":"1","status_date":"01/04/2021","permit_group":"Building","refresh_time":"06/10/2026","type_lat_lon":"ADDRESS","business_unit":"Plan Check at Counter"},"geometry":{"type":"Point","coordinates":[-118.43006,33.99018]}},{"type":"Feature","properties":{"date":"2020-06-30T00:00:00.000Z","year":2020,"description":"20'4\"X24'11\" ADDITION TO (E) 45'0\" X 16'0\" DET. GARAGE FOR (N) 2-STORY ADU PER LAMC 12.22 A.33(c) and (d)","metadescription":"Bldg-Addition. 1 or 2 Family Dwelling. 20'4\"X24'11\" ADDITION TO (E) 45'0\" X 16'0\" DET. GARAGE FOR (N) 2-STORY ADU PER LAMC 12.22 A.33(c) and (d). PC Info Complete. 12424 W MITCHELL AVE","address":"12424 W MITCHELL AVE","ct":"2722.01","ev":"N","apc":"West Los Angeles","cpa":"Palms - Mar Vista - Del Rey","zone":"R1V2","solar":"N","height":"21.67","pin_nbr":"111B157   674","use_code":"1","status_date":"07/02/2021","construction":"Type V-B Construction","permit_group":"Building","refresh_time":"06/10/2026","type_lat_lon":"BUILDING","business_unit":"Regular Plan Check","square_footage":"878"},"geometry":{"type":"Point","coordinates":[-118.43143863,33.99954274]}},{"type":"Feature","properties":{"date":"2019-06-20T00:00:00.000Z","year":2019,"description":"(N) TWO STORY BLDG. 1ST STORY 2-CAR GARAGE, 2ND STORY ADU PER SB229 & AB494.","metadescription":"Bldg-New. 1 or 2 Family Dwelling. (N) TWO STORY BLDG. 1ST STORY 2-CAR GARAGE, 2ND STORY ADU PER SB229 & AB494.. CofO Issued. 3915 S ALBRIGHT AVE","address":"3915 S ALBRIGHT AVE","ct":"2723.01","ev":"N","apc":"West Los Angeles","cpa":"Palms - Mar Vista - Del Rey","zone":"R1V2","solar":"N","height":"30","pin_nbr":"114B157   852","use_code":"1","geolocation":"POINT (-118.41929631 34.00853865)","status_date":"07/07/2020","construction":"Type V-B Construction","permit_group":"Building","refresh_time":"06/10/2026","type_lat_lon":"BUILDING","business_unit":"Regular Plan Check","square_footage":"1263"},"geometry":{"type":"Point","coordinates":[-118.41929631,34.00853865]}}]}
