{"type":"FeatureCollection","features":[{"type":"Feature","properties":{"date":"2026-02-23T00:00:00.000Z","year":2026,"description":"NEW CONSTRUCTION OF A 2-STORY DUPLEX WITH ROOF DECKS AND ATTACHED GARAGES PER SB91 OF 2","metadescription":"Bldg-New. 1 or 2 Family Dwelling. NEW CONSTRUCTION OF A 2-STORY DUPLEX WITH ROOF DECKS AND ATTACHED GARAGES PER SB91 OF 2. Issued. 4238-4238 1/2 S CORINTH AVE","address":"4242 Corinth Avenue, CA, Los Angeles, 90066, US","ct":"2751.02","ev":"N","apc":"West Los Angeles","cpa":"Palms - Mar Vista - Del Rey","zone":"R1-1","solar":"N","height":"28.4","pin_nbr":"111B161    82","use_code":"2","status_date":"02/23/2026","construction":"Type V-B Construction","permit_group":"Building","refresh_time":"06/10/2026","type_lat_lon":"ADDRESS","business_unit":"Regular Plan Check","square_footage":"2475"},"geometry":{"type":"Point","coordinates":[-118.41387,34.00285]}},{"type":"Feature","properties":{"date":"2026-01-20T00:00:00.000Z","year":2026,"description":"EPLAN: INSTALL CONCRETE PAD FOR GENERATOR ON ROOFTOP PARKING DECK.","metadescription":"Bldg-Alter/Repair. Commercial. EPLAN: INSTALL CONCRETE PAD FOR GENERATOR ON ROOFTOP PARKING DECK.. PC Info Complete. 9808 W VENICE BLVD","address":"9808 Venice Boulevard, CA, Culver City, 90232, US","ct":"2701.00","ev":"N","apc":"West Los Angeles","cpa":"Palms - Mar Vista - Del Rey","zone":"MU(EC)","solar":"N","pin_nbr":"120B165  1096","use_code":"13","status_date":"03/24/2026","permit_group":"Building","refresh_time":"06/10/2026","type_lat_lon":"ADDRESS","business_unit":"Plan Check at Counter"},"geometry":{"type":"Point","coordinates":[-118.39802,34.02349]}},{"type":"Feature","properties":{"date":"2025-12-19T00:00:00.000Z","year":2025,"description":"Early start Foundation only  permit   for New 8-story, mixed-use building with 362 Units  apartments over 1 level Type IA basement. ( this foundation only permit is for up to 2nd floor deck above the grade & inculding the tower crain foundation)","metadescription":"Bldg-Alter/Repair. Commercial. Early start Foundation only  permit   for New 8-story, mixed-use building with 362 Units  apartments over 1 level Type IA basement. ( this foundation only permit is for up to 2nd floor deck above the grade & inculding the tower crain foundation). Issued. 6501 S SEPULVEDA BLVD","address":"6501 South Sepulveda Boulevard, CA, Los Angeles, 90045, US","ct":"2770.00","ev":"N","apc":"West Los Angeles","cpa":"Westchester - Playa del Rey","zone":"C4-1","solar":"N","pin_nbr":"105B165   961","use_code":"52","status_date":"12/19/2025","permit_group":"Building","refresh_time":"06/10/2026","type_lat_lon":"ADDRESS","business_unit":"Plan Check at Counter"},"geometry":{"type":"Point","coordinates":[-118.39491,33.98072]}},{"type":"Feature","properties":{"date":"2025-11-10T00:00:00.000Z","year":2025,"description":"*eplan* Convert detached 2 car garage and storage room into a 1 story detached ADU per LAMC 12.22A33(b)(1). New roof deck.","metadescription":"Bldg-Addition. 1 or 2 Family Dwelling. *eplan* Convert detached 2 car garage and storage room into a 1 story detached ADU per LAMC 12.22A33(b)(1). New roof deck.. PC Info Complete. 3854 S MCLAUGHLIN AVE","address":"3856 Mclaughlin Avenue, CA, Los Angeles, 90066, US","ct":"2723.01","ev":"N","apc":"West Los Angeles","cpa":"Palms - Mar Vista - Del Rey","zone":"R1V2","solar":"N","height":"13.75","pin_nbr":"114B157  1038","use_code":"1","status_date":"05/05/2026","construction":"Type V-B Construction","permit_group":"Building","refresh_time":"06/10/2026","type_lat_lon":"PIN","business_unit":"Regular Plan Check","square_footage":"594"},"geometry":{"type":"Point","coordinates":[-118.42324529,34.00741013]}},{"type":"Feature","properties":{"date":"2025-08-09T00:00:00.000Z","year":2025,"description":"ePlan. SINGLE STORY ADDITION (438 SF) TO EXISTING SINGLE FAMILY DWELLING, ADD NEW DECK AT REAR- ALL WORK PER WFPP","metadescription":"Bldg-Addition. 1 or 2 Family Dwelling. ePlan. SINGLE STORY ADDITION (438 SF) TO EXISTING SINGLE FAMILY DWELLING, ADD NEW DECK AT REAR- ALL WORK PER WFPP. Issued. 3927 S ALBRIGHT AVE","address":"3927 Albright Avenue, CA, Los Angeles, 90066, US","ct":"2723.01","ev":"N","apc":"West Los Angeles","cpa":"Palms - Mar Vista - Del Rey","zone":"R1V2","solar":"N","pin_nbr":"114B161    89","use_code":"1","status_date":"08/09/2025","construction":"Type V-B Construction","permit_group":"Building","refresh_time":"06/10/2026","type_lat_lon":"ADDRESS","business_unit":"Expanded Counter Plan Check","square_footage":"438"},"geometry":{"type":"Point","coordinates":[-118.41891,34.00845]}},{"type":"Feature","properties":{"date":"2025-07-01T00:00:00.000Z","year":2025,"description":"100% HSAP FOR REVIEW OF FLS, GREEN, ACCESSIBILITY AND STRUCTURAL (SB330/ED1)** SUPPLEMENTAL TO 24010-10000-04799NEW 5 STORY TYPE IIIA WITH ROOF DECK 37 UNITS (29 LI + 7 MI) AFFORDABLE HOUSING APARTMENT, USING 12.22.A.25 INCENTIVES**PC STAFF TO GENERATE GRADING PERMIT APPLICATION UNDER PC NO. B24LA32354**","metadescription":"Bldg-Alter/Repair. Apartment. 100% HSAP FOR REVIEW OF FLS, GREEN, ACCESSIBILITY AND STRUCTURAL (SB330/ED1)** SUPPLEMENTAL TO 24010-10000-04799NEW 5 STORY TYPE IIIA WITH ROOF DECK 37 UNITS (29 LI + 7 MI) AFFORDABLE HOUSING APARTMENT, USING 12.22.A.25 INCENTIVES**PC STAFF TO GENERATE GRADING PERMIT APPLICATION UNDER PC NO. B24LA32354**. Verifications in Progress. 3751 S DELMAS TER","address":"3751 Delmas Terrace, CA, Los Angeles, 90034, US","ct":"2701.02","ev":"N","apc":"West Los Angeles","cpa":"Palms - Mar Vista - Del Rey","zone":"R3-1","solar":"N","pin_nbr":"120B165   864","status_date":"02/18/2026","permit_group":"Building","refresh_time":"06/10/2026","type_lat_lon":"ADDRESS","business_unit":"Regular Plan Check"},"geometry":{"type":"Point","coordinates":[-118.39872,34.02482]}},{"type":"Feature","properties":{"date":"2024-09-12T00:00:00.000Z","year":2024,"description":"Supplemental permit to 22014-30000-04461 to extend the existing front deck and add new front deck stairs.","metadescription":"Bldg-Alter/Repair. 1 or 2 Family Dwelling. Supplemental permit to 22014-30000-04461 to extend the existing front deck and add new front deck stairs.. PC Info Complete. 3732 S MCLAUGHLIN AVE","address":"3732 Mclaughlin Avenue, CA, Los Angeles, 90066, US","ct":"2719.01","ev":"N","apc":"West Los Angeles","cpa":"Palms - Mar Vista - Del Rey","zone":"R1V2","solar":"N","pin_nbr":"114B157   547","use_code":"1","status_date":"09/18/2024","permit_group":"Building","refresh_time":"06/10/2026","type_lat_lon":"ADDRESS","business_unit":"Plan Check at Counter"},"geometry":{"type":"Point","coordinates":[-118.42542,34.00993]}},{"type":"Feature","properties":{"date":"2024-07-18T00:00:00.000Z","year":2024,"description":"Supplemental permit to 22014-30000-04461 to  change attached wood deck to COMPOSITE TREX DECK","metadescription":"Bldg-Alter/Repair. 1 or 2 Family Dwelling. Supplemental permit to 22014-30000-04461 to  change attached wood deck to COMPOSITE TREX DECK. Permit Finaled. 3732 S MCLAUGHLIN AVE","address":"3732 Mclaughlin Avenue, CA, Los Angeles, 90066, US","ct":"2719.01","ev":"N","apc":"West Los Angeles","cpa":"Palms - Mar Vista - Del Rey","zone":"R1V2","solar":"N","pin_nbr":"114B157   547","use_code":"1","status_date":"01/29/2025","permit_group":"Building","refresh_time":"06/10/2026","type_lat_lon":"BUILDING","business_unit":"Plan Check at Counter"},"geometry":{"type":"Point","coordinates":[-118.42535921,34.01002175]}},{"type":"Feature","properties":{"date":"2024-07-01T00:00:00.000Z","year":2024,"description":"Eplan: Supplemental Ref to PCIS#: 23014-10000-02994, to \"Revise Plans to Increase Area of Addition on Ground Floor and Revise Remodel to Create Vaulted Ceiling in Living Room, Demo Fireplace and Windows, Resise Windows and Create Opening for New Windows and Change From Wood Deck to Concrete Patio  of (E) 1-Story SFD\"","metadescription":"Bldg-Addition. 1 or 2 Family Dwelling. Eplan: Supplemental Ref to PCIS#: 23014-10000-02994, to \"Revise Plans to Increase Area of Addition on Ground Floor and Revise Remodel to Create Vaulted Ceiling in Living Room, Demo Fireplace and Windows, Resise Windows and Create Opening for New Windows and Change From Wood Deck to Concrete Patio  of (E) 1-Story SFD\". Permit Finaled. 3857 S BERRYMAN AVE","address":"3857 Berryman Avenue, CA, Los Angeles, 90066, US","ct":"2723.01","ev":"N","apc":"West Los Angeles","cpa":"Palms - Mar Vista - Del Rey","zone":"R1V2","solar":"N","pin_nbr":"114B157   953","use_code":"1","status_date":"02/11/2025","construction":"Type V-B Construction","permit_group":"Building","refresh_time":"06/10/2026","type_lat_lon":"BUILDING","business_unit":"Expanded Counter Plan Check","square_footage":"278"},"geometry":{"type":"Point","coordinates":[-118.42213561,34.00801107]}},{"type":"Feature","properties":{"date":"2023-12-19T00:00:00.000Z","year":2023,"description":"Eplan. ADDITION AND RENOVATION EXISTING 1-STORY S.F.D.,  AND ADDITION OF 398 SQ FT WOOD DECK AT REAR","metadescription":"Bldg-Addition. 1 or 2 Family Dwelling. Eplan. ADDITION AND RENOVATION EXISTING 1-STORY S.F.D.,  AND ADDITION OF 398 SQ FT WOOD DECK AT REAR. CofO Issued. 3857 S BERRYMAN AVE","address":"3857 Berryman Avenue, CA, Los Angeles, 90066, US","ct":"2723.01","ev":"N","apc":"West Los Angeles","cpa":"Palms - Mar Vista - Del Rey","zone":"R1V2","solar":"N","pin_nbr":"114B157   953","use_code":"1","status_date":"02/13/2025","construction":"Type V-B Construction","permit_group":"Building","refresh_time":"06/10/2026","type_lat_lon":"BUILDING","business_unit":"Expanded Counter Plan Check","square_footage":"57"},"geometry":{"type":"Point","coordinates":[-118.42213561,34.00801107]}},{"type":"Feature","properties":{"date":"2023-11-20T00:00:00.000Z","year":2023,"description":"Supplemental to 19010-10000-02497: Revise roof deck layout","metadescription":"Bldg-Alter/Repair. Apartment. Supplemental to 19010-10000-02497: Revise roof deck layout. Permit Finaled. 4339 S BERRYMAN AVE 1-28","address":"4341 1/2 Berryman Avenue, CA, Los Angeles, 90066, US","ct":"2751.02","ev":"N","apc":"West Los Angeles","cpa":"Palms - Mar Vista - Del Rey","zone":"R3-1","solar":"N","pin_nbr":"111B161   407","use_code":"5","status_date":"05/27/2025","permit_group":"Building","refresh_time":"06/10/2026","type_lat_lon":"ADDRESS","business_unit":"Plan Check at Counter"},"geometry":{"type":"Point","coordinates":[-118.41496,34.00058]}},{"type":"Feature","properties":{"date":"2023-07-24T00:00:00.000Z","year":2023,"description":"Supplemental to 19010-10000-05593: Revise open space and revise roof deck","metadescription":"Bldg-Alter/Repair. Apartment. Supplemental to 19010-10000-05593: Revise open space and revise roof deck. Permit Finaled. 4367 S BERRYMAN AVE","address":"4369 3/4 Berryman Avenue, CA, Los Angeles, 90066, US","ct":"2751.02","ev":"N","apc":"West Los Angeles","cpa":"Palms - Mar Vista - Del Rey","zone":"R3-1","solar":"N","pin_nbr":"111B161   460","use_code":"5","status_date":"06/02/2025","permit_group":"Building","refresh_time":"06/10/2026","type_lat_lon":"ADDRESS","business_unit":"Regular Plan Check"},"geometry":{"type":"Point","coordinates":[-118.4142,34.00026]}},{"type":"Feature","properties":{"date":"2019-07-24T00:00:00.000Z","year":2019,"description":"SUPPLEMENTAL PERMIT FOR 18014-20000-07021 TO REVISE FLOOR PLANS OF ACCESSORY DWELLING UNIT & REMOVE 2ND FLOOR DECK","metadescription":"Bldg-Addition. 1 or 2 Family Dwelling. SUPPLEMENTAL PERMIT FOR 18014-20000-07021 TO REVISE FLOOR PLANS OF ACCESSORY DWELLING UNIT & REMOVE 2ND FLOOR DECK. Permit Finaled. 3935 S BLEDSOE AVE","address":"3935 Bledsoe Avenue, CA, Los Angeles, 90066, US","ct":"2723.01","ev":"N","apc":"West Los Angeles","cpa":"Palms - Mar Vista - Del Rey","zone":"R1V2","solar":"N","height":"20.42","pin_nbr":"114B157  1000","use_code":"1","geolocation":"POINT (-118.41961 34.00774)","status_date":"10/20/2020","construction":"Type V-B Construction","permit_group":"Building","refresh_time":"06/10/2026","type_lat_lon":"ADDRESS","business_unit":"Plan Check at Counter","square_footage":"48.31"},"geometry":{"type":"Point","coordinates":[-118.41961,34.00774]}},{"type":"Feature","properties":{"date":"2019-04-09T00:00:00.000Z","year":2019,"description":"Supplemental permit to 18014-40001-01035 to change from flat roof to pitch roof of entry, increase covered porch area, add covered deck, and update title 24.","metadescription":"Bldg-Addition. 1 or 2 Family Dwelling. Supplemental permit to 18014-40001-01035 to change from flat roof to pitch roof of entry, increase covered porch area, add covered deck, and update title 24.. Issued. 4260 S CORINTH AVE","address":"4260 Corinth Avenue, CA, Los Angeles, 90066, US","ct":"2751.02","ev":"N","apc":"West Los Angeles","cpa":"Palms - Mar Vista - Del Rey","zone":"R1-1","solar":"N","pin_nbr":"111B161   124","use_code":"1","geolocation":"POINT (-118.41321877 34.00259458)","status_date":"04/09/2019","construction":"Type V-B Construction","permit_group":"Building","refresh_time":"06/10/2026","type_lat_lon":"BUILDING","business_unit":"Plan Check at Counter","square_footage":"2070"},"geometry":{"type":"Point","coordinates":[-118.41321877,34.00259458]}},{"type":"Feature","properties":{"date":"2019-02-19T00:00:00.000Z","year":2019,"description":"ADDITION AND ALTERATION TO EXISTING 1-STORY TYPE VB SINGLE FAMILY DWELLING PER WOOD FRAME PRESCRIPTIVE PROVISIONS. BATHROOM ADDITION, NEW DECK, BATHROOM REMODEL, DEMOLISH EXISTING FIREPLACE, AND INTERIOR ALTERATION/REPAIR.","metadescription":"Bldg-Addition. 1 or 2 Family Dwelling. ADDITION AND ALTERATION TO EXISTING 1-STORY TYPE VB SINGLE FAMILY DWELLING PER WOOD FRAME PRESCRIPTIVE PROVISIONS. BATHROOM ADDITION, NEW DECK, BATHROOM REMODEL, DEMOLISH EXISTING FIREPLACE, AND INTERIOR ALTERATION/REPAIR.. CofO Issued. 3942 S MINERVA AVE","address":"3942 Minerva Avenue, CA, Los Angeles, 90066, US","ct":"2723.01","ev":"N","apc":"West Los Angeles","cpa":"Palms - Mar Vista - Del Rey","zone":"R1V2","solar":"N","pin_nbr":"114B157  1046","use_code":"1","geolocation":"POINT (-118.42000819 34.00732893)","status_date":"10/16/2019","construction":"Type V-B Construction","permit_group":"Building","refresh_time":"06/10/2026","type_lat_lon":"BUILDING","business_unit":"Plan Check at Counter","square_footage":"26"},"geometry":{"type":"Point","coordinates":[-118.42000819,34.00732893]}},{"type":"Feature","properties":{"date":"2019-02-14T00:00:00.000Z","year":2019,"description":"NEW 65'-7\" X 105'-3\" IRREGULAR 4-STORY, 15-UNIT, APARTMENT WITH ROOF DECK & PARKING GARAGE AT GRADE. FIRE SPRINKLERS REQ'D THROUGH-OUT.","metadescription":"Bldg-New. Apartment. NEW 65'-7\" X 105'-3\" IRREGULAR 4-STORY, 15-UNIT, APARTMENT WITH ROOF DECK & PARKING GARAGE AT GRADE. FIRE SPRINKLERS REQ'D THROUGH-OUT.. CofO Issued. 11500 W CULVER BLVD #1-15","address":"11510 1/2 Culver Boulevard, CA, Los Angeles, 90066, US","ct":"2751.02","ev":"N","apc":"West Los Angeles","cpa":"Palms - Mar Vista - Del Rey","zone":"R3-1","solar":"N","height":"44.92","pin_nbr":"111B161   568","use_code":"5","geolocation":"POINT (-118.41335973 33.99991988)","status_date":"02/18/2022","construction":"Type III-A Construction","permit_group":"Building","refresh_time":"06/10/2026","type_lat_lon":"BUILDING","business_unit":"Regular Plan Check","square_footage":"19245.56"},"geometry":{"type":"Point","coordinates":[-118.41335973,33.99991988]}},{"type":"Feature","properties":{"date":"2018-11-02T00:00:00.000Z","year":2018,"description":"NON-STRUCTURAL ALTERATION TO (E) GROUND FLOOR RECEPTION, GROUND FLOOR LOUNGE, AND 6TH FLOOR OUTDOOR DECK INCLUDING NEW BBQ & GAS FIREPLACE.","metadescription":"Bldg-Alter/Repair. Commercial. NON-STRUCTURAL ALTERATION TO (E) GROUND FLOOR RECEPTION, GROUND FLOOR LOUNGE, AND 6TH FLOOR OUTDOOR DECK INCLUDING NEW BBQ & GAS FIREPLACE.. Permit Finaled. 9901 W WASHINGTON BLVD 1ST FLR &-6TH FLR","address":"1-132, 9901 Washington Boulevard, CA, Culver City, 90232, US","ct":"2699.05","ev":"N","apc":"West Los Angeles","cpa":"Palms - Mar Vista - Del Rey","zone":"(Q)RAS4-1","solar":"N","pin_nbr":"120B165  1311","use_code":"5","geolocation":"POINT (-118.39786 34.02174)","status_date":"06/06/2019","permit_group":"Building","refresh_time":"06/10/2026","type_lat_lon":"ADDRESS","business_unit":"Regular Plan Check"},"geometry":{"type":"Point","coordinates":[-118.39786,34.02174]}},{"type":"Feature","properties":{"date":"2018-09-12T00:00:00.000Z","year":2018,"description":"(1)WINDOW and (1) DOOR CHANGE-OUT (SAME SIZE & TYPE) FOR RESIDENTIAL BUILDINGS. BATHROOM REMODEL COMBINED WITH PLUMBING, AND HVAC FOR RESIDENTIAL BUILDINGS (NO STRUCTURAL CHANGES). KITCHEN REMODEL COMBINED WITH PLUMBING FOR RESIDENTIAL BUILDINGS (NO STRUCTURAL CHANGES).RE-STUCCO (NO NEW WALLS ADDED) FOR SINGLE FAMILY DWELLINGS AND DUPLEXES ONLY.REPLACE DRYWALL (NO NEW WALLS ADDED) FOR SINGLE FAMILY DWELLINGS AND DUPLEX ONLY.  ADD SILL PLATE ANCHOR BOLTS AND PLYWOOD TO CRIPPLE WALLS (IF EXISTING) PER LA CITY STANDARD PLAN #1; NO FOUNDATION REPLACEMENT (EARTHQUAKE HAZARD REDUCTION PER CHAPTER 92 OF THE LOS ANGELES BUILDING CODE). (HOUSES, RESIDENTIAL BUILDINGS UP TO 3 STORIES AND UP TO 4 UNITS).REPLACEMENT OF DAMAGED FRAMING MEMBERS (LESS THAN 10% OF REPLACEMENT COST OF BUILDING) FOR HOUSES AND DUPLEXES (NOT INCLUDING DECKS).WATER DAMAGE, TERMITE DAMAGE, OR DRY ROT REPAIR LESS THAN 10% OF REPLACEMENT COST OF RESIDENTIAL BUILDINGS.","metadescription":"Bldg-Alter/Repair. 1 or 2 Family Dwelling. (1)WINDOW and (1) DOOR CHANGE-OUT (SAME SIZE & TYPE) FOR RESIDENTIAL BUILDINGS. BATHROOM REMODEL COMBINED WITH PLUMBING, AND HVAC FOR RESIDENTIAL BUILDINGS (NO STRUCTURAL CHANGES). KITCHEN REMODEL COMBINED WITH PLUMBING FOR RESIDENTIAL BUILDINGS (NO STRUCTURAL CHANGES).RE-STUCCO (NO NEW WALLS ADDED) FOR SINGLE FAMILY DWELLINGS AND DUPLEXES ONLY.REPLACE DRYWALL (NO NEW WALLS ADDED) FOR SINGLE FAMILY DWELLINGS AND DUPLEX ONLY.  ADD SILL PLATE ANCHOR BOLTS AND PLYWOOD TO CRIPPLE WALLS (IF EXISTING) PER LA CITY STANDARD PLAN #1; NO FOUNDATION REPLACEMENT (EARTHQUAKE HAZARD REDUCTION PER CHAPTER 92 OF THE LOS ANGELES BUILDING CODE). (HOUSES, RESIDENTIAL BUILDINGS UP TO 3 STORIES AND UP TO 4 UNITS).REPLACEMENT OF DAMAGED FRAMING MEMBERS (LESS THAN 10% OF REPLACEMENT COST OF BUILDING) FOR HOUSES AND DUPLEXES (NOT INCLUDING DECKS).WATER DAMAGE, TERMITE DAMAGE, OR DRY ROT REPAIR LESS THAN 10% OF REPLACEMENT COST OF RESIDENTIAL BUILDINGS.. Permit Finaled. 3967 S BLEDSOE AVE","address":"3967 Bledsoe Avenue, CA, Los Angeles, 90066, US","ct":"2723.01","ev":"N","apc":"West Los Angeles","cpa":"Palms - Mar Vista - Del Rey","zone":"R1V2","solar":"N","pin_nbr":"114B157  1109","use_code":"1","geolocation":"POINT (-118.41903 34.00707)","status_date":"08/06/2019","permit_group":"Building","refresh_time":"06/10/2026","type_lat_lon":"ADDRESS","business_unit":"Express Permit"},"geometry":{"type":"Point","coordinates":[-118.41903,34.00707]}},{"type":"Feature","properties":{"date":"2015-04-13T00:00:00.000Z","year":2015,"description":"\"COMPLY WITH DEPARTMENT ORDER effective date 02/08/2012. PERMIT WILL EXPIRE 30 DAYS FROM ISSUANCE DATE\" Remove & replace deck at rear of property serving rear dwelling unit","metadescription":"Bldg-Alter/Repair. Commercial. \"COMPLY WITH DEPARTMENT ORDER effective date 02/08/2012. PERMIT WILL EXPIRE 30 DAYS FROM ISSUANCE DATE\" Remove & replace deck at rear of property serving rear dwelling unit. Permit Expired. 11309-11309 1/2 W VENICE BLVD","address":"11311 Venice Boulevard, CA, Los Angeles, 90066, US","ct":"2719.01","ev":"N","apc":"West Los Angeles","cpa":"Palms - Mar Vista - Del Rey","zone":"C2-1","solar":"N","pin_nbr":"114B157   218","use_code":"2","geolocation":"POINT (-118.42022 34.0115)","status_date":"05/08/2017","permit_group":"Building","refresh_time":"06/10/2026","type_lat_lon":"ADDRESS","business_unit":"Regular Plan Check"},"geometry":{"type":"Point","coordinates":[-118.42022,34.0115]}},{"type":"Feature","properties":{"date":"2015-04-07T00:00:00.000Z","year":2015,"description":"Relocate front door & convert entrance in to a closet.New uncovered entry deck.","metadescription":"Bldg-Alter/Repair. 1 or 2 Family Dwelling. Relocate front door & convert entrance in to a closet.New uncovered entry deck.. Permit Finaled. 3842 S MCLAUGHLIN AVE","address":"3842 Mclaughlin Avenue, CA, Los Angeles, 90066, US","ct":"2723.01","ev":"N","apc":"West Los Angeles","cpa":"Palms - Mar Vista - Del Rey","zone":"R1-1","solar":"N","pin_nbr":"114B157   988","use_code":"1","geolocation":"POINT (-118.4236 34.00765)","status_date":"06/16/2015","permit_group":"Building","refresh_time":"06/10/2026","type_lat_lon":"ADDRESS","business_unit":"Plan Check at Counter"},"geometry":{"type":"Point","coordinates":[-118.4236,34.00765]}},{"type":"Feature","properties":{"date":"2014-06-10T00:00:00.000Z","year":2014,"description":"15' 6\" X 16' 4\"(180 SF) ADDITION TO (E) DWELLING CREATING (N) BATHROOM AND ENLARGING (E) BEDROOM.  13'3\" X 11'9\" DECK ADDITION AND OPEN LATTICE PATIO COVER. INTERIOR REMODEL.","metadescription":"Bldg-Addition. 1 or 2 Family Dwelling. 15' 6\" X 16' 4\"(180 SF) ADDITION TO (E) DWELLING CREATING (N) BATHROOM AND ENLARGING (E) BEDROOM.  13'3\" X 11'9\" DECK ADDITION AND OPEN LATTICE PATIO COVER. INTERIOR REMODEL.. CofO Issued. 3826 S COOLIDGE AVE","address":"3826 Coolidge Avenue, CA, Los Angeles, 90066, US","ct":"2723.01","ev":"N","apc":"West Los Angeles","cpa":"Palms - Mar Vista - Del Rey","zone":"R1-1","solar":"N","pin_nbr":"114B157   869","use_code":"1","geolocation":"POINT (-118.4231333 34.00847453)","status_date":"06/30/2015","construction":"Type V-B Construction","permit_group":"Building","refresh_time":"06/10/2026","type_lat_lon":"BUILDING","business_unit":"Regular Plan Check","square_footage":"1315"},"geometry":{"type":"Point","coordinates":[-118.4231333,34.00847453]}},{"type":"Feature","properties":{"date":"2014-05-20T00:00:00.000Z","year":2014,"description":"KITCHEN & BATHROOM  REMODEL (FOR RESIDENTIAL BUILDINGS; NO STRUCTURAL CHANGES). REPLACE DAMAGED FRAMING MEMBERS (LESS THAN 10% OF REPLACEMENT COST OF BUILDING) FOR HOUSES & DUPLEXES (NOT INCLUDING DECKS).  TERMITE DAMAGE/DRY ROT REPAIR LESS THAN 10% OF REPLACEMENT COST OF BUILDING.","metadescription":"Bldg-Alter/Repair. Apartment. KITCHEN & BATHROOM  REMODEL (FOR RESIDENTIAL BUILDINGS; NO STRUCTURAL CHANGES). REPLACE DAMAGED FRAMING MEMBERS (LESS THAN 10% OF REPLACEMENT COST OF BUILDING) FOR HOUSES & DUPLEXES (NOT INCLUDING DECKS).  TERMITE DAMAGE/DRY ROT REPAIR LESS THAN 10% OF REPLACEMENT COST OF BUILDING.. Permit Finaled. 11355 W WASHINGTON PL 10","address":"11355 Washington Place, CA, Los Angeles, 90066, US","ct":"2723.01","ev":"N","apc":"West Los Angeles","cpa":"Palms - Mar Vista - Del Rey","zone":"R3-1","solar":"N","pin_nbr":"114B161   147","use_code":"5","geolocation":"POINT (-118.41764 34.00679)","status_date":"07/03/2014","permit_group":"Building","refresh_time":"06/10/2026","type_lat_lon":"ADDRESS","business_unit":"Express Permit"},"geometry":{"type":"Point","coordinates":[-118.41764,34.00679]}},{"type":"Feature","properties":{"date":"2014-03-17T00:00:00.000Z","year":2014,"description":"REPLACE DRYWALL (NO NEW WALLS ADDED) SPECIFIC LOCATION: BEDROOM. REPLACE DAMAGED FRAMING MEMBERS (LESS THAN 10% OF REPLACEMENT COST OF BUILDING) FOR HOUSES & DUPLEXES (NOT INCLUDING DECKS).","metadescription":"Bldg-Alter/Repair. Apartment. REPLACE DRYWALL (NO NEW WALLS ADDED) SPECIFIC LOCATION: BEDROOM. REPLACE DAMAGED FRAMING MEMBERS (LESS THAN 10% OF REPLACEMENT COST OF BUILDING) FOR HOUSES & DUPLEXES (NOT INCLUDING DECKS).. Permit Finaled. 3729 S CARDIFF AVE 5","address":"1-5, 3729 South Cardiff Avenue, CA, Los Angeles, 90034, US","ct":"2701.00","ev":"N","apc":"West Los Angeles","cpa":"Palms - Mar Vista - Del Rey","zone":"R3-1","solar":"N","pin_nbr":"120B165  1521","use_code":"35","geolocation":"POINT (-118.39729 34.02625)","status_date":"04/10/2014","permit_group":"Building","refresh_time":"06/10/2026","type_lat_lon":"ADDRESS","business_unit":"Express Permit"},"geometry":{"type":"Point","coordinates":[-118.39729,34.02625]}},{"type":"Feature","properties":{"date":"2014-02-13T00:00:00.000Z","year":2014,"description":"Repair existing attached rear deck and stairs due to water damage.","metadescription":"Bldg-Alter/Repair. Apartment. Repair existing attached rear deck and stairs due to water damage.. Permit Expired. 11339 W VENICE BLVD","address":"11339 Venice Boulevard, CA, Los Angeles, 90066, US","ct":"2719.01","ev":"N","apc":"West Los Angeles","cpa":"Palms - Mar Vista - Del Rey","zone":"R3-1","solar":"N","pin_nbr":"114B157   314","use_code":"5","geolocation":"POINT (-118.421 34.01107)","status_date":"03/09/2016","permit_group":"Building","refresh_time":"06/10/2026","type_lat_lon":"ADDRESS","business_unit":"Plan Check at Counter"},"geometry":{"type":"Point","coordinates":[-118.421,34.01107]}},{"type":"Feature","properties":{"date":"2010-06-02T00:00:00.000Z","year":2010,"description":"CHANGE OUT 12 WINDOW(S) AND 1 DOOR  (SAME SIZE & TYPE FOR RESIDENTIAL BUILDINGS ONLY) DUAL GLAZING, LABELED AND CERTIFIED BY NATIONAL FENESTRATION RATING COUNCIL (NFRC), IS REQUIRED FOR DOORS AND WINDOWS REPLACED IN ALL RESIDENTIAL BUILDINGS, THREE STORIES OR LESS, PER SECTION 152(B) OF TITLE 24.  KITCHEN AND BATHROOM REMODEL COMBINED WITH ELECTRICAL, PLUMBING AND HVAC (FOR RESIDENTIAL BUILDINGS; NO STRUCTURAL CHANGES).  REPLACE DRYWALL (NO NEW WALLS ADDED) SPECIFIC LOCATION: INSIDE HOUSE.  RE-STUCCO; SPECIFIC LOCATION: BACK WALL.  RE-ROOF 10 SQUARES W/CLASS 'A' OR 'B' MATERIALS WEIGHING LESS THAN 6 LBS PER SQ FT.   TEAR OFF EXISTING ROOFING.  MODIFIED BITUMEN.  REPLACE DAMAGED FRAMING MEMBERS (LESS THAN 10% OF REPLACEMENT COST OF BUILDING) FOR HOUSES & DUPLEXES (NOT INCLUDING DECKS). TERMITE DAMAGE/DRY ROT REPAIR LESS THAN 10% OF REPLACEMENT COST OF BUILDING.","metadescription":"Bldg-Alter/Repair. 1 or 2 Family Dwelling. CHANGE OUT 12 WINDOW(S) AND 1 DOOR  (SAME SIZE & TYPE FOR RESIDENTIAL BUILDINGS ONLY) DUAL GLAZING, LABELED AND CERTIFIED BY NATIONAL FENESTRATION RATING COUNCIL (NFRC), IS REQUIRED FOR DOORS AND WINDOWS REPLACED IN ALL RESIDENTIAL BUILDINGS, THREE STORIES OR LESS, PER SECTION 152(B) OF TITLE 24.  KITCHEN AND BATHROOM REMODEL COMBINED WITH ELECTRICAL, PLUMBING AND HVAC (FOR RESIDENTIAL BUILDINGS; NO STRUCTURAL CHANGES).  REPLACE DRYWALL (NO NEW WALLS ADDED) SPECIFIC LOCATION: INSIDE HOUSE.  RE-STUCCO; SPECIFIC LOCATION: BACK WALL.  RE-ROOF 10 SQUARES W/CLASS 'A' OR 'B' MATERIALS WEIGHING LESS THAN 6 LBS PER SQ FT.   TEAR OFF EXISTING ROOFING.  MODIFIED BITUMEN.  REPLACE DAMAGED FRAMING MEMBERS (LESS THAN 10% OF REPLACEMENT COST OF BUILDING) FOR HOUSES & DUPLEXES (NOT INCLUDING DECKS). TERMITE DAMAGE/DRY ROT REPAIR LESS THAN 10% OF REPLACEMENT COST OF BUILDING.. Permit Finaled. 4451 S BERRYMAN AVE","address":"4457 Berryman Avenue, CA, Culver City, 90230, US","ct":"2751.00","ev":"N","apc":"West Los Angeles","cpa":"Palms - Mar Vista - Del Rey","zone":"R1-1","solar":"N","pin_nbr":"111B161   615","use_code":"1","geolocation":"POINT (-118.41199 33.99951)","status_date":"11/17/2010","permit_group":"Building","refresh_time":"06/10/2026","type_lat_lon":"ADDRESS","business_unit":"Express Permit"},"geometry":{"type":"Point","coordinates":[-118.41199,33.99951]}},{"type":"Feature","properties":{"date":"2010-05-19T00:00:00.000Z","year":2010,"description":"SUPPLEMENTAL TO 09014-30002-02572. TO ENCLOSE PORTION OF  REAR DECK BETWEEN KITCHEN AND BEDROOM CLOSET, AND TO ADD A SPIRAL STAIRWAY FOR DECK ACCESS. TO REVISE LOT AREA DRAINAGE.","metadescription":"Bldg-Addition. 1 or 2 Family Dwelling. SUPPLEMENTAL TO 09014-30002-02572. TO ENCLOSE PORTION OF  REAR DECK BETWEEN KITCHEN AND BEDROOM CLOSET, AND TO ADD A SPIRAL STAIRWAY FOR DECK ACCESS. TO REVISE LOT AREA DRAINAGE.. Permit Finaled. 11358 W BIONA DR","address":"11358 Biona Drive, CA, Los Angeles, 90066, US","ct":"2719.00","ev":"N","apc":"West Los Angeles","cpa":"Palms - Mar Vista - Del Rey","zone":"R1-1","solar":"N","pin_nbr":"114B157  1568","use_code":"1","geolocation":"POINT (-118.42186 34.01126)","status_date":"03/31/2011","construction":"Type V-B Construction","permit_group":"Building","refresh_time":"06/10/2026","type_lat_lon":"ADDRESS","business_unit":"Plan Check at Counter","square_footage":"69"},"geometry":{"type":"Point","coordinates":[-118.42186,34.01126]}},{"type":"Feature","properties":{"date":"2010-03-23T00:00:00.000Z","year":2010,"description":"PATCHIING DRYWALL  IN AN EXISTING GARAGE. EXTENDING EXISTING DECK OVER THE GARAGE ROOF. PROVIDING A GUARD RAIL AROUND THE PERIMETER OF THE GARAGE.","metadescription":"Bldg-Addition. 1 or 2 Family Dwelling. PATCHIING DRYWALL  IN AN EXISTING GARAGE. EXTENDING EXISTING DECK OVER THE GARAGE ROOF. PROVIDING A GUARD RAIL AROUND THE PERIMETER OF THE GARAGE.. CofO Issued. 11358 W BIONA DR","address":"11358 Biona Drive, CA, Los Angeles, 90066, US","ct":"2719.00","ev":"N","apc":"West Los Angeles","cpa":"Palms - Mar Vista - Del Rey","zone":"R1-1","solar":"N","pin_nbr":"114B157  1568","use_code":"1","geolocation":"POINT (-118.42186 34.01126)","status_date":"06/14/2011","construction":"Type V-B Construction","permit_group":"Building","refresh_time":"06/10/2026","type_lat_lon":"ADDRESS","business_unit":"Regular Plan Check","square_footage":"0"},"geometry":{"type":"Point","coordinates":[-118.42186,34.01126]}},{"type":"Feature","properties":{"date":"2009-12-07T00:00:00.000Z","year":2009,"description":"NEW WHEELCHAIR LIFT AT UPPER LEVEL PARKING DECK.  REMOVE 2 STANDARD PARKING STALLS, REPLACE WITH 1 HANDICAP PARKING SPACE.","metadescription":"Bldg-Alter/Repair. Commercial. NEW WHEELCHAIR LIFT AT UPPER LEVEL PARKING DECK.  REMOVE 2 STANDARD PARKING STALLS, REPLACE WITH 1 HANDICAP PARKING SPACE.. Permit Expired. 9808 W VENICE BLVD","address":"9808 Venice Boulevard, CA, Culver City, 90232, US","ct":"2701.00","ev":"N","apc":"West Los Angeles","cpa":"Palms - Mar Vista - Del Rey","zone":"C2-1","solar":"N","pin_nbr":"120B165  1104","use_code":"13","geolocation":"POINT (-118.39802 34.02349)","status_date":"07/05/2012","permit_group":"Building","refresh_time":"06/10/2026","type_lat_lon":"ADDRESS","business_unit":"Regular Plan Check","square_footage":"0"},"geometry":{"type":"Point","coordinates":[-118.39802,34.02349]}},{"type":"Feature","properties":{"date":"2009-07-29T00:00:00.000Z","year":2009,"description":"RE-ROOF #18 SQUARES W/CLASS 'A' OR 'B' MATERIALS WEIGHING LESS THAN 6 LBS PER SQ FT.  TEAR OFF EXISTING ROOFING; WITH 1/2\" CDX PLYWOOD (2 INSP REQ'D); FIBERGLASS OR ASPHALT SHINGLES (MAX. 2 OVERLAYS). REPLACE DAMAGED FRAMING MEMBERS (LESS THAN 10% OF REPLACEMENT COST OF BUILDING) FOR HOUSES & DUPLEXES (NOT INCLUDING DECKS).","metadescription":"Bldg-Alter/Repair. 1 or 2 Family Dwelling. RE-ROOF #18 SQUARES W/CLASS 'A' OR 'B' MATERIALS WEIGHING LESS THAN 6 LBS PER SQ FT.  TEAR OFF EXISTING ROOFING; WITH 1/2\" CDX PLYWOOD (2 INSP REQ'D); FIBERGLASS OR ASPHALT SHINGLES (MAX. 2 OVERLAYS). REPLACE DAMAGED FRAMING MEMBERS (LESS THAN 10% OF REPLACEMENT COST OF BUILDING) FOR HOUSES & DUPLEXES (NOT INCLUDING DECKS).. Permit Finaled. 11401 W BARMAN ST","address":"11401 Barman Street, CA, Culver City, 90230, US","ct":"2751.00","ev":"N","apc":"West Los Angeles","cpa":"Palms - Mar Vista - Del Rey","zone":"R1-1","solar":"N","pin_nbr":"111B161   519","use_code":"1","geolocation":"POINT (-118.41064 33.99994)","status_date":"12/30/2009","permit_group":"Building","refresh_time":"06/10/2026","type_lat_lon":"ADDRESS","business_unit":"Express Permit"},"geometry":{"type":"Point","coordinates":[-118.41064,33.99994]}},{"type":"Feature","properties":{"date":"2005-12-01T00:00:00.000Z","year":2005,"description":"ONE STORY ADDITION:ENLARGE LIVING ROOM(13'2\" X 17'5\" irr) & UNCOVERED DECK(10' X 27') @ REAR.","metadescription":"Bldg-Addition. 1 or 2 Family Dwelling. ONE STORY ADDITION:ENLARGE LIVING ROOM(13'2\" X 17'5\" irr) & UNCOVERED DECK(10' X 27') @ REAR.. CofO Issued. 3663 S PURDUE AVE","address":"3663 Purdue Avenue, CA, Los Angeles, 90066, US","ct":"2719.00","ev":"N","apc":"West Los Angeles","cpa":"Palms - Mar Vista - Del Rey","zone":"R1-1","solar":"N","pin_nbr":"114B157    85","use_code":"1","geolocation":"POINT (-118.42354 34.01238)","status_date":"04/04/2006","construction":"Type V-N Construction","permit_group":"Building","refresh_time":"06/10/2026","type_lat_lon":"ADDRESS","business_unit":"Appointment Plan Check","square_footage":"221"},"geometry":{"type":"Point","coordinates":[-118.42354,34.01238]}},{"type":"Feature","properties":{"date":"2005-05-23T00:00:00.000Z","year":2005,"description":"1ST AND 2ND FLOOR ADDITION TO (E) 1 STORY SFD.  NEW ROOF DECK AT 3RD LEVEL.  REMODEL (E) SFD.","metadescription":"Bldg-Addition. 1 or 2 Family Dwelling. 1ST AND 2ND FLOOR ADDITION TO (E) 1 STORY SFD.  NEW ROOF DECK AT 3RD LEVEL.  REMODEL (E) SFD.. CofO Issued. 11424 W BIONA DR","address":"11424 Biona Drive, CA, Los Angeles, 90066, US","ct":"2719.00","ev":"N","apc":"West Los Angeles","cpa":"Palms - Mar Vista - Del Rey","zone":"R1-1","solar":"N","height":"32","pin_nbr":"114B157   402","use_code":"1","geolocation":"POINT (-118.4226 34.01084)","status_date":"12/19/2006","construction":"Type V-N Construction","permit_group":"Building","refresh_time":"06/10/2026","type_lat_lon":"ADDRESS","business_unit":"Regular Plan Check","square_footage":"1120"},"geometry":{"type":"Point","coordinates":[-118.4226,34.01084]}},{"type":"Feature","properties":{"date":"2004-04-22T00:00:00.000Z","year":2004,"description":"Add Family Rm, Dining Rm & W.I. Closet (27.50'x28.5', irr. 634 s.f.)  in the rear; add Bedrm, 2 W.I. closets, 2 Bathrms, Entry & a covered porh(20'x24.5',irr. 351.5s.f.) @ the front of (E) 1-story SFD. Remove existing Rm(121 s.f.)(Total Addn:985.5 s.f.; Habitable space added: 842 s.f.) Remodel kitchen, 2 Bedrms, interior remodel. Add open deck in rear. See Comments.","metadescription":"Bldg-Addition. 1 or 2 Family Dwelling. Add Family Rm, Dining Rm & W.I. Closet (27.50'x28.5', irr. 634 s.f.)  in the rear; add Bedrm, 2 W.I. closets, 2 Bathrms, Entry & a covered porh(20'x24.5',irr. 351.5s.f.) @ the front of (E) 1-story SFD. Remove existing Rm(121 s.f.)(Total Addn:985.5 s.f.; Habitable space added: 842 s.f.) Remodel kitchen, 2 Bedrms, interior remodel. Add open deck in rear. See Comments.. CofO Issued. 3860 S EAST AVE","address":"3860 East Boulevard, CA, Los Angeles, 90066, US","ct":"2723.01","ev":"N","apc":"West Los Angeles","cpa":"Palms - Del Rey - Mar Vista","zone":"R1-1","solar":"N","pin_nbr":"114B157  1133","use_code":"1","geolocation":"POINT (-118.4242299 34.00678529)","status_date":"07/15/2005","construction":"Type V-N Construction","permit_group":"Building","refresh_time":"06/10/2026","type_lat_lon":"PIN","business_unit":"Appointment Plan Check","square_footage":"985.5"},"geometry":{"type":"Point","coordinates":[-118.4242299,34.00678529]}},{"type":"Feature","properties":{"date":"2003-10-14T00:00:00.000Z","year":2003,"description":"NEW 2 CAR GARAGE/STORAGE W/ RECREATION ROOM AND ROOF DECK ABOVE.  21'-0'x40'-6\", 400 SQ FT GARAGE, 415 SQ FT STORAGE RM, 415 SQ FT REC RM.","metadescription":"Bldg-New. 1 or 2 Family Dwelling. NEW 2 CAR GARAGE/STORAGE W/ RECREATION ROOM AND ROOF DECK ABOVE.  21'-0'x40'-6\", 400 SQ FT GARAGE, 415 SQ FT STORAGE RM, 415 SQ FT REC RM.. Permit Finaled. 3854 S EAST AVE","address":"3850 East Boulevard, CA, Los Angeles, 90066, US","ct":"2723.01","ev":"N","apc":"West Los Angeles","cpa":"Palms - Del Rey - Mar Vista","zone":"R1-1","solar":"N","pin_nbr":"114B157  1113","use_code":"7","geolocation":"POINT (-118.42426614 34.00692948)","status_date":"06/06/2005","construction":"Type V-N Construction","permit_group":"Building","refresh_time":"06/10/2026","type_lat_lon":"PIN","business_unit":"Regular Plan Check","square_footage":"415"},"geometry":{"type":"Point","coordinates":[-118.42426614,34.00692948]}},{"type":"Feature","properties":{"date":"2003-04-24T00:00:00.000Z","year":2003,"description":"T/O (E) ROOF DOWN TO WOOD DECK AND APPLY 13 SQS. OF CLASS \"A\" COMP. ASPHALT SHINGLES.  SMOKE DETECTORS REQUIRED.","metadescription":"Bldg-Alter/Repair. 1 or 2 Family Dwelling. T/O (E) ROOF DOWN TO WOOD DECK AND APPLY 13 SQS. OF CLASS \"A\" COMP. ASPHALT SHINGLES.  SMOKE DETECTORS REQUIRED.. Permit Expired. 11410 1/2 W VENICE BLVD","address":"11410 1/2 Venice Boulevard, CA, Los Angeles, 90066, US","ct":"2723.01","ev":"N","apc":"West Los Angeles","cpa":"Palms - Del Rey - Mar Vista","zone":"R3-1","solar":"N","pin_nbr":"114B157   563","use_code":"2","geolocation":"POINT (-118.42166 34.01006)","status_date":"03/26/2007","permit_group":"Building","refresh_time":"06/10/2026","type_lat_lon":"ADDRESS","business_unit":"Express Permit"},"geometry":{"type":"Point","coordinates":[-118.42166,34.01006]}},{"type":"Feature","properties":{"date":"2002-01-29T00:00:00.000Z","year":2002,"description":"Replace existing Magnesite on 2nd floor deck with tile.","metadescription":"Bldg-Alter/Repair. Apartment. Replace existing Magnesite on 2nd floor deck with tile.. Permit Finaled. 4364 S BERRYMAN AVE","address":"4358 Berryman Avenue, CA, Los Angeles, 90066, US","ct":"2751.00","ev":"N","apc":"West Los Angeles","zone":"R3-1","solar":"N","pin_nbr":"111B161   376","use_code":"5","geolocation":"POINT (-118.41415 34.00059)","status_date":"03/19/2002","permit_group":"Building","refresh_time":"06/10/2026","type_lat_lon":"ADDRESS","business_unit":"Plan Check at Counter"},"geometry":{"type":"Point","coordinates":[-118.41415,34.00059]}},{"type":"Feature","properties":{"date":"2002-01-15T00:00:00.000Z","year":2002,"description":"CHANGE OUT 7 WINDOWS AND 3 DOORS (SAME SIZE AND LOCATION).  RE-STUCCO AROUND WINDOWS.RESTORE FRONT DESK INTO ORIGINAL DECK & RESURFACE WITH DEX-O-TEX (PER NATE G.)","metadescription":"Bldg-Alter/Repair. Apartment. CHANGE OUT 7 WINDOWS AND 3 DOORS (SAME SIZE AND LOCATION).  RE-STUCCO AROUND WINDOWS.RESTORE FRONT DESK INTO ORIGINAL DECK & RESURFACE WITH DEX-O-TEX (PER NATE G.). Permit Finaled. 11261 W VENICE BLVD","address":"11261 Venice Boulevard, CA, Los Angeles, 90066, US","ct":"2718.01","ev":"N","apc":"West Los Angeles","zone":"C2-1","solar":"N","pin_nbr":"114B157   118","use_code":"5","geolocation":"POINT (-118.41915 34.01215)","status_date":"03/13/2002","permit_group":"Building","refresh_time":"06/10/2026","type_lat_lon":"ADDRESS","business_unit":"Express Permit"},"geometry":{"type":"Point","coordinates":[-118.41915,34.01215]}},{"type":"Feature","properties":{"date":"2001-10-24T00:00:00.000Z","year":2001,"description":"ADD 17'x21.5' BEDROOM+CLOSET+STUDY RM TO REAR OF (E) 1-STORY SFD. CONVERT (E) DEN TO NEW BATHROOM. ADD 10'x23.5' WOOD DECK (18\"High).","metadescription":"Bldg-Addition. 1 or 2 Family Dwelling. ADD 17'x21.5' BEDROOM+CLOSET+STUDY RM TO REAR OF (E) 1-STORY SFD. CONVERT (E) DEN TO NEW BATHROOM. ADD 10'x23.5' WOOD DECK (18\"High).. Permit Finaled. 3721 S GLOBE AVE","address":"3721 Globe Avenue, CA, Los Angeles, 90066, US","ct":"2718.01","ev":"N","apc":"West Los Angeles","zone":"R1-1","solar":"N","pin_nbr":"117B157   954","use_code":"1","geolocation":"POINT (-118.42014 34.0134)","status_date":"04/24/2002","construction":"Type V-N Construction","permit_group":"Building","refresh_time":"06/10/2026","type_lat_lon":"ADDRESS","business_unit":"Plan Check at Counter","square_footage":"373"},"geometry":{"type":"Point","coordinates":[-118.42014,34.0134]}},{"type":"Feature","properties":{"date":"2001-08-22T00:00:00.000Z","year":2001,"description":"ADDENDUM TO PLANS APPROVED UNDER PERMIT #01016-30000-14551. REPLACE GUARD RAIL AT EXISTING DECK OVER THE GARAGE.","metadescription":"Bldg-Alter/Repair. 1 or 2 Family Dwelling. ADDENDUM TO PLANS APPROVED UNDER PERMIT #01016-30000-14551. REPLACE GUARD RAIL AT EXISTING DECK OVER THE GARAGE.. Permit Finaled. 3754 S SAWTELLE BLVD","address":"3754 Sawtelle Boulevard, CA, Los Angeles, 90066, US","ct":"2718.01","ev":"N","apc":"West Los Angeles","zone":"R3-1","solar":"N","pin_nbr":"114B157    80","use_code":"1","geolocation":"POINT (-118.42022 34.01231)","status_date":"09/25/2001","permit_group":"Building","refresh_time":"06/10/2026","type_lat_lon":"ADDRESS","business_unit":"Plan Check at Counter"},"geometry":{"type":"Point","coordinates":[-118.42022,34.01231]}},{"type":"Feature","properties":{"date":"1999-10-28T00:00:00.000Z","year":1999,"description":"TEAR OFF ROCK ROOF OFF OF CONCRETE DECK. INSTALL BASE 3 ROCK ROOF. 250SQRS","metadescription":"Bldg-Alter/Repair. Commercial. TEAR OFF ROCK ROOF OFF OF CONCRETE DECK. INSTALL BASE 3 ROCK ROOF. 250SQRS. Permit Finaled. 4760 S SEPULVEDA BLVD","address":"4760 Sepulveda Boulevard, CA, Culver City, 90230, US","ct":"2751.00, 7027.00","ev":"N","apc":"West Los Angeles","zone":"C2-1, P-1","solar":"N","pin_nbr":"111B165   108","use_code":"10","geolocation":"POINT (-118.40404 34.00162)","status_date":"01/19/2000","permit_group":"Building","refresh_time":"06/10/2026","type_lat_lon":"ADDRESS","business_unit":"Express Permit"},"geometry":{"type":"Point","coordinates":[-118.40404,34.00162]}},{"type":"Feature","properties":{"date":"1998-03-10T00:00:00.000Z","year":1998,"description":"reroof w/built up rock over 1-exist.layer-deck insp.reqd. to determine compliance w/91.1517.1 exceptions 21sqrs.","metadescription":"Bldg-Alter/Repair. Apartment. reroof w/built up rock over 1-exist.layer-deck insp.reqd. to determine compliance w/91.1517.1 exceptions 21sqrs.. Permit Finaled. 11460 W VENICE BLVD","address":"11460 Venice Boulevard, CA, Los Angeles, 90066, US","ct":"2723.01","ev":"N","apc":"West Los Angeles","solar":"N","pin_nbr":"114B157   663","use_code":"5","geolocation":"POINT (-118.42249 34.00958)","status_date":"10/15/1999","permit_group":"Building","refresh_time":"06/10/2026","type_lat_lon":"ADDRESS","business_unit":"Express Permit"},"geometry":{"type":"Point","coordinates":[-118.42249,34.00958]}},{"type":"Feature","properties":{"date":"1997-05-01T00:00:00.000Z","year":1997,"description":"NEW DECK ATTACHED TO APARTMENT BUILDING","metadescription":"Bldg-Addition. Apartment. NEW DECK ATTACHED TO APARTMENT BUILDING. Permit Finaled. 11339 W VENICE BLVD","address":"11339 Venice Boulevard, CA, Los Angeles, 90066, US","ct":"2719.00","ev":"N","apc":"West Los Angeles","zone":"R3-1","solar":"N","pin_nbr":"114B157   314","use_code":"5","geolocation":"POINT (-118.421 34.01107)","status_date":"06/05/2001","permit_group":"Building","refresh_time":"06/10/2026","type_lat_lon":"ADDRESS","business_unit":"Appointment Plan Check"},"geometry":{"type":"Point","coordinates":[-118.421,34.01107]}}]}
