{"type":"FeatureCollection","features":[{"type":"Feature","properties":{"date":"2026-05-29T00:00:00.000Z","year":2026,"description":"SUPPLEMENTAL PERMIT TO 20014-30000-04373 TO REVISE FOUNDATION PLAN","metadescription":"Bldg-Alter/Repair. 1 or 2 Family Dwelling. SUPPLEMENTAL PERMIT TO 20014-30000-04373 TO REVISE FOUNDATION PLAN. Issued. 11373 W TENINO AVE","address":"11371 Tenino Avenue, CA, Los Angeles, 90066, US","ct":"2751.02","ev":"N","apc":"West Los Angeles","cpa":"Palms - Mar Vista - Del Rey","zone":"R1-1","solar":"N","pin_nbr":"111B161   188","use_code":"1","status_date":"05/29/2026","permit_group":"Building","refresh_time":"06/10/2026","type_lat_lon":"PIN","business_unit":"Plan Check at Counter"},"geometry":{"type":"Point","coordinates":[-118.41397518,34.00202912]}},{"type":"Feature","properties":{"date":"2025-12-19T00:00:00.000Z","year":2025,"description":"Early start Foundation only  permit   for New 8-story, mixed-use building with 362 Units  apartments over 1 level Type IA basement. ( this foundation only permit is for up to 2nd floor deck above the grade & inculding the tower crain foundation)","metadescription":"Bldg-Alter/Repair. Commercial. Early start Foundation only  permit   for New 8-story, mixed-use building with 362 Units  apartments over 1 level Type IA basement. ( this foundation only permit is for up to 2nd floor deck above the grade & inculding the tower crain foundation). Issued. 6501 S SEPULVEDA BLVD","address":"6501 South Sepulveda Boulevard, CA, Los Angeles, 90045, US","ct":"2770.00","ev":"N","apc":"West Los Angeles","cpa":"Westchester - Playa del Rey","zone":"C4-1","solar":"N","pin_nbr":"105B165   961","use_code":"52","status_date":"12/19/2025","permit_group":"Building","refresh_time":"06/10/2026","type_lat_lon":"ADDRESS","business_unit":"Plan Check at Counter"},"geometry":{"type":"Point","coordinates":[-118.39491,33.98072]}},{"type":"Feature","properties":{"date":"2025-08-15T00:00:00.000Z","year":2025,"description":"**EplanPlan check only , plan check only. Supplemental to 21010-10000-01338 for crane  foundation.","metadescription":"Bldg-Alter/Repair. Commercial. **EplanPlan check only , plan check only. Supplemental to 21010-10000-01338 for crane  foundation.. Verifications in Progress. 6501 S SEPULVEDA BLVD","address":"6501 South Sepulveda Boulevard, CA, Los Angeles, 90045, US","ct":"2770.00","ev":"N","apc":"West Los Angeles","cpa":"Westchester - Playa del Rey","zone":"C4-1","solar":"N","pin_nbr":"105B165   615","status_date":"12/26/2025","permit_group":"Building","refresh_time":"06/10/2026","type_lat_lon":"ADDRESS","business_unit":"Regular Plan Check"},"geometry":{"type":"Point","coordinates":[-118.39491,33.98072]}},{"type":"Feature","properties":{"date":"2025-08-07T00:00:00.000Z","year":2025,"description":"REMEDIAL FOUNDATION UNDERPINNING SEISMIC RETROFIT AND 7 (POST AND PIERS) PER ENGINEER DESIGN IN EXISTING SINGLE FAMILY DEWLLING","metadescription":"Bldg-Alter/Repair. 1 or 2 Family Dwelling. REMEDIAL FOUNDATION UNDERPINNING SEISMIC RETROFIT AND 7 (POST AND PIERS) PER ENGINEER DESIGN IN EXISTING SINGLE FAMILY DEWLLING. Issued. 3633 S PURDUE AVE","address":"3633 Purdue Avenue, CA, Los Angeles, 90066, US","ct":"2719.01","ev":"N","apc":"West Los Angeles","cpa":"Palms - Mar Vista - Del Rey","zone":"R1V2","solar":"N","pin_nbr":"117B157  1000","use_code":"1","status_date":"08/07/2025","permit_group":"Building","refresh_time":"06/10/2026","type_lat_lon":"ADDRESS","business_unit":"Plan Check at Counter"},"geometry":{"type":"Point","coordinates":[-118.42359,34.01302]}},{"type":"Feature","properties":{"date":"2025-07-03T00:00:00.000Z","year":2025,"description":"supplemental ref to pcis # 23014-10000-00194,  to revise structural & architectural plans.  increase building height at addition, (n) raised foundation. No change in inventory","metadescription":"Bldg-Alter/Repair. 1 or 2 Family Dwelling. supplemental ref to pcis # 23014-10000-00194,  to revise structural & architectural plans.  increase building height at addition, (n) raised foundation. No change in inventory. Corrections Issued. 11325 W VENICE BLVD","address":"11325 Venice Boulevard, CA, Los Angeles, 90066, US","ct":"2719.01","ev":"N","apc":"West Los Angeles","cpa":"Palms - Mar Vista - Del Rey","zone":"R3-1","solar":"N","pin_nbr":"114B157   260","use_code":"1","status_date":"07/04/2025","permit_group":"Building","refresh_time":"06/10/2026","type_lat_lon":"ADDRESS","business_unit":"Expanded Counter Plan Check"},"geometry":{"type":"Point","coordinates":[-118.4206,34.0113]}},{"type":"Feature","properties":{"date":"2025-01-07T00:00:00.000Z","year":2025,"description":"SUPPLEMENTAL TO: 24014-10000-00875. REVISE NUMBER OF STORIES IN STRUCTURAL INVENTORY TO 1-STORY ADU. REVISE FOUNDATION TO SLAB ON GRADE AND NEW FOOTING TO EXISTING WALL. REVISE DEMO/PROPOSD FLOOR PLANS TO MAKE CLEAR NEW AND EXISTING WALLS, REMOVE WINDOW AT RESTROOM.","metadescription":"Bldg-Alter/Repair. 1 or 2 Family Dwelling. SUPPLEMENTAL TO: 24014-10000-00875. REVISE NUMBER OF STORIES IN STRUCTURAL INVENTORY TO 1-STORY ADU. REVISE FOUNDATION TO SLAB ON GRADE AND NEW FOOTING TO EXISTING WALL. REVISE DEMO/PROPOSD FLOOR PLANS TO MAKE CLEAR NEW AND EXISTING WALLS, REMOVE WINDOW AT RESTROOM.. Permit Finaled. 3949 S ALBRIGHT AVE","address":"3947 Albright Avenue, CA, Los Angeles, 90066, US","ct":"2723.01","ev":"N","apc":"West Los Angeles","cpa":"Palms - Mar Vista - Del Rey","zone":"R1V2","solar":"N","pin_nbr":"114B161   105","use_code":"1","status_date":"01/14/2025","permit_group":"Building","refresh_time":"06/10/2026","type_lat_lon":"BUILDING","business_unit":"Plan Check at Counter"},"geometry":{"type":"Point","coordinates":[-118.4186154,34.00793202]}},{"type":"Feature","properties":{"date":"2023-09-13T00:00:00.000Z","year":2023,"description":"PARTIAL FOUNDATION UNDERPINNING AND SEISMIC RETROFIT PER LABDS STANDARD PLAN NO. 1 TO (E) SFD","metadescription":"Bldg-Alter/Repair. 1 or 2 Family Dwelling. PARTIAL FOUNDATION UNDERPINNING AND SEISMIC RETROFIT PER LABDS STANDARD PLAN NO. 1 TO (E) SFD. Permit Finaled. 3676 S CORINTH AVE","address":"3676 Corinth Avenue, CA, Los Angeles, 90066, US","ct":"2719.01","ev":"N","apc":"West Los Angeles","cpa":"Palms - Mar Vista - Del Rey","zone":"R1V2","solar":"N","pin_nbr":"117B157  1038","use_code":"1","status_date":"11/13/2023","permit_group":"Building","refresh_time":"06/10/2026","type_lat_lon":"ADDRESS","business_unit":"Plan Check at Counter"},"geometry":{"type":"Point","coordinates":[-118.42202,34.01281]}},{"type":"Feature","properties":{"date":"2023-03-17T00:00:00.000Z","year":2023,"description":"remove entire S.F.D. w/ the exception of portion of foundation with 2-story addition to house with attached ADU. ADU per LAMC 12.22 A.33(c) and (e)","metadescription":"Bldg-Addition. 1 or 2 Family Dwelling. remove entire S.F.D. w/ the exception of portion of foundation with 2-story addition to house with attached ADU. ADU per LAMC 12.22 A.33(c) and (e). CofO Issued. 3646-3646 1/2 S CORINTH AVE","address":"3646 Corinth Avenue, CA, Los Angeles, 90066, US","ct":"2719.01","ev":"N","apc":"West Los Angeles","cpa":"Palms - Mar Vista - Del Rey","zone":"R1V2","solar":"N","height":"28","pin_nbr":"117B157   934","use_code":"1","adu_changed":"1","status_date":"09/28/2024","construction":"Type V-B Construction","permit_group":"Building","refresh_time":"06/10/2026","type_lat_lon":"BUILDING","business_unit":"Regular Plan Check","square_footage":"4021"},"geometry":{"type":"Point","coordinates":[-118.42236402,34.01350572]}},{"type":"Feature","properties":{"date":"2023-03-17T00:00:00.000Z","year":2023,"description":"Supplemental Ref to PCIS #:21010-30000-04409, to \"Revise Structural Foundation, Framing Plans and Details to Add Concrete Curb to Accessory Building. Change Size of Wood Beam and Replace Wood Post with Steel Post\"","metadescription":"Bldg-Alter/Repair. 1 or 2 Family Dwelling. Supplemental Ref to PCIS #:21010-30000-04409, to \"Revise Structural Foundation, Framing Plans and Details to Add Concrete Curb to Accessory Building. Change Size of Wood Beam and Replace Wood Post with Steel Post\". Issued. 3922 S EAST BLVD","address":"3926 East Boulevard, CA, Los Angeles, 90066, US","ct":"2723.01","ev":"N","apc":"West Los Angeles","cpa":"Palms - Mar Vista - Del Rey","zone":"R1V2","solar":"N","pin_nbr":"114B157  1265","use_code":"1","status_date":"03/17/2023","permit_group":"Building","refresh_time":"06/10/2026","type_lat_lon":"PIN","business_unit":"Plan Check at Counter"},"geometry":{"type":"Point","coordinates":[-118.42371983,34.00591458]}},{"type":"Feature","properties":{"date":"2021-07-19T00:00:00.000Z","year":2021,"description":"SUPPLEMENTAL TO SOFT STORY PERMIT 21016-10000-01982. CHANGE OF GRADE BEAM/FOUNDATION DETAIL. NO CHANGE IN PLOT PLAN.","metadescription":"Bldg-Alter/Repair. Apartment. SUPPLEMENTAL TO SOFT STORY PERMIT 21016-10000-01982. CHANGE OF GRADE BEAM/FOUNDATION DETAIL. NO CHANGE IN PLOT PLAN.. Permit Finaled. 3731 S WATSEKA AVE","address":"1-9, 3731 Watseka Avenue, CA, Los Angeles, 90034, US","ct":"2701.00","ev":"N","apc":"West Los Angeles","cpa":"Palms - Mar Vista - Del Rey","zone":"R3-1","solar":"N","pin_nbr":"120B165   679","use_code":"5","status_date":"09/22/2021","permit_group":"Building","refresh_time":"06/10/2026","type_lat_lon":"ADDRESS","business_unit":"Regular Plan Check"},"geometry":{"type":"Point","coordinates":[-118.39812,34.02567]}},{"type":"Feature","properties":{"date":"2021-02-02T00:00:00.000Z","year":2021,"description":"SUPPLEMENTAL TO 19010-10000-03293  TO REVISE SIZE OF DUPLEX AT REAR AND UPDATE SITE PLAN, PLOT PLAN, STRUCTURAL INVENTORY, FRAMING, AND FOUNDATION PLAN TO REFLECT CORRECT PROPERTY LINE DIMENSIONS.","metadescription":"Bldg-Alter/Repair. 1 or 2 Family Dwelling. SUPPLEMENTAL TO 19010-10000-03293  TO REVISE SIZE OF DUPLEX AT REAR AND UPDATE SITE PLAN, PLOT PLAN, STRUCTURAL INVENTORY, FRAMING, AND FOUNDATION PLAN TO REFLECT CORRECT PROPERTY LINE DIMENSIONS.. Permit Finaled. 11368-11368 1/2 W CULVER BLVD","address":"11368 Culver Boulevard, CA, Los Angeles, 90066, US","ct":"2751.02","ev":"N","apc":"West Los Angeles","cpa":"Palms - Mar Vista - Del Rey","zone":"R3-1","solar":"N","height":"33.08","pin_nbr":"111B161   341","use_code":"2","status_date":"07/21/2022","construction":"Type V-B Construction","permit_group":"Building","refresh_time":"06/10/2026","type_lat_lon":"BUILDING","business_unit":"Regular Plan Check","square_footage":"2252"},"geometry":{"type":"Point","coordinates":[-118.41230323,34.00106591]}},{"type":"Feature","properties":{"date":"2020-10-29T00:00:00.000Z","year":2020,"description":"SUPPLEMENTAL PERMIT TO 19016 - 10000 - 00194 \"SOFT STORY RETROFIT AS PER LABC CHAPTER 93. INSTALL TWO (N) SCCS.\" REVISE FOUNDATION AND FRAMING DETAILS. REMOVE AND REPLACE COLUMN.","metadescription":"Bldg-Alter/Repair. Apartment. SUPPLEMENTAL PERMIT TO 19016 - 10000 - 00194 \"SOFT STORY RETROFIT AS PER LABC CHAPTER 93. INSTALL TWO (N) SCCS.\" REVISE FOUNDATION AND FRAMING DETAILS. REMOVE AND REPLACE COLUMN.. Permit Finaled. 3753 S BAGLEY AVE","address":"1-8, 3759 Bagley Avenue, CA, Los Angeles, 90034, US","ct":"2701.00","ev":"N","apc":"West Los Angeles","cpa":"Palms - Mar Vista - Del Rey","zone":"R3-1","solar":"N","pin_nbr":"120B165   556","use_code":"5","status_date":"03/12/2021","permit_group":"Building","refresh_time":"06/10/2026","type_lat_lon":"ADDRESS","business_unit":"Plan Check at Counter"},"geometry":{"type":"Point","coordinates":[-118.39594,34.02621]}},{"type":"Feature","properties":{"date":"2020-01-13T00:00:00.000Z","year":2020,"description":"SOFT STORY RETROFIT PER LAMC DIV. 93. INSTALL (N) CMU SHEAR WALL ON SOUTH ELEVATION.SUPPLEMENTAL FOR FOUNDATION DETAIL CHANGE.","metadescription":"Bldg-Alter/Repair. Apartment. SOFT STORY RETROFIT PER LAMC DIV. 93. INSTALL (N) CMU SHEAR WALL ON SOUTH ELEVATION.SUPPLEMENTAL FOR FOUNDATION DETAIL CHANGE.. Permit Finaled. 3752 S HUGHES AVE","address":"1-18, 3752 Hughes Avenue, CA, Los Angeles, 90034, US","ct":"2701.00","ev":"N","apc":"West Los Angeles","cpa":"Palms - Mar Vista - Del Rey","zone":"R3-1","solar":"N","pin_nbr":"120B165   903","use_code":"5","status_date":"05/05/2020","permit_group":"Building","refresh_time":"06/10/2026","type_lat_lon":"ADDRESS","business_unit":"Plan Check at Counter"},"geometry":{"type":"Point","coordinates":[-118.39946,34.0244]}},{"type":"Feature","properties":{"date":"2019-11-14T00:00:00.000Z","year":2019,"description":"SUPPLEMENTAL PERMIT TO 19016 10000 22895 TO REVISE FRAMING AND FOUNDATION DETAILS FOR SOFT STORY RETROFIT AS PER LABC CH 93.","metadescription":"Bldg-Alter/Repair. Apartment. SUPPLEMENTAL PERMIT TO 19016 10000 22895 TO REVISE FRAMING AND FOUNDATION DETAILS FOR SOFT STORY RETROFIT AS PER LABC CH 93.. Permit Finaled. 11449 W VENICE BLVD","address":"11447 Venice Boulevard, CA, Los Angeles, 90066, US","ct":"2719.01","ev":"N","apc":"West Los Angeles","cpa":"Palms - Mar Vista - Del Rey","zone":"R3-1","solar":"N","pin_nbr":"114B157   537","use_code":"5","geolocation":"POINT (-118.42293 34.00995)","status_date":"03/31/2020","permit_group":"Building","refresh_time":"06/10/2026","type_lat_lon":"ADDRESS","business_unit":"Plan Check at Counter"},"geometry":{"type":"Point","coordinates":[-118.42293,34.00995]}},{"type":"Feature","properties":{"date":"2019-09-11T00:00:00.000Z","year":2019,"description":"SUPPLEMENTAL PERMIT TO REVISE FOUNDATION PLAN","metadescription":"Bldg-Alter/Repair. 1 or 2 Family Dwelling. SUPPLEMENTAL PERMIT TO REVISE FOUNDATION PLAN. Permit Finaled. 3960 S BLEDSOE AVE","address":"3956 Bledsoe Avenue, CA, Los Angeles, 90066, US","ct":"2723.01","ev":"N","apc":"West Los Angeles","cpa":"Palms - Mar Vista - Del Rey","zone":"R1V2","solar":"N","pin_nbr":"114B161   126","use_code":"1","geolocation":"POINT (-118.41864424 34.00743592)","status_date":"04/10/2020","permit_group":"Building","refresh_time":"06/10/2026","type_lat_lon":"BUILDING","business_unit":"Plan Check at Counter"},"geometry":{"type":"Point","coordinates":[-118.41864424,34.00743592]}},{"type":"Feature","properties":{"date":"2019-06-11T00:00:00.000Z","year":2019,"description":"Add sill plate anchors bolts and cripple wall plywood per L.A. City Std. Plan #1; no foundation replacement (EQ hazard reduction per Chapter 92).","metadescription":"Bldg-Alter/Repair. 1 or 2 Family Dwelling. Add sill plate anchors bolts and cripple wall plywood per L.A. City Std. Plan #1; no foundation replacement (EQ hazard reduction per Chapter 92).. Permit Finaled. 11422 W BARMAN ST","address":"11422 Barman Street, CA, Culver City, 90230, US","ct":"2751.02","ev":"N","apc":"West Los Angeles","cpa":"Palms - Mar Vista - Del Rey","zone":"R1-1","solar":"N","pin_nbr":"111B161   608","use_code":"1","geolocation":"POINT (-118.4107 33.99949)","status_date":"06/17/2019","permit_group":"Building","refresh_time":"06/10/2026","type_lat_lon":"ADDRESS","business_unit":"Express Permit"},"geometry":{"type":"Point","coordinates":[-118.4107,33.99949]}},{"type":"Feature","properties":{"date":"2019-04-24T00:00:00.000Z","year":2019,"description":"Add sill plate anchors bolts and cripple wall plywood per L.A. City Std. Plan #1; no foundation replacement (EQ hazard reduction per Chapter 92).","metadescription":"Bldg-Alter/Repair. 1 or 2 Family Dwelling. Add sill plate anchors bolts and cripple wall plywood per L.A. City Std. Plan #1; no foundation replacement (EQ hazard reduction per Chapter 92).. Permit Expired. 3654 S COOLIDGE AVE","address":"3654 Coolidge Avenue, CA, Los Angeles, 90066, US","ct":"2719.01","ev":"N","apc":"West Los Angeles","cpa":"Palms - Mar Vista - Del Rey","zone":"R1V2","solar":"N","pin_nbr":"114B157   203","use_code":"1","geolocation":"POINT (-118.42523 34.01172)","status_date":"12/18/2023","permit_group":"Building","refresh_time":"06/10/2026","type_lat_lon":"ADDRESS","business_unit":"Express Permit"},"geometry":{"type":"Point","coordinates":[-118.42523,34.01172]}},{"type":"Feature","properties":{"date":"2019-02-22T00:00:00.000Z","year":2019,"description":"Add sill plate anchors bolts and cripple wall plywood per L.A. City Std. Plan #1; no foundation replacement (EQ hazard reduction per Chapter 92).","metadescription":"Bldg-Alter/Repair. 1 or 2 Family Dwelling. Add sill plate anchors bolts and cripple wall plywood per L.A. City Std. Plan #1; no foundation replacement (EQ hazard reduction per Chapter 92).. Permit Finaled. 11371 W CULVER BLVD","address":"11371 Culver Boulevard, CA, Los Angeles, 90066, US","ct":"2751.02","ev":"N","apc":"West Los Angeles","cpa":"Palms - Mar Vista - Del Rey","zone":"R1-1","solar":"N","pin_nbr":"111B161   273","use_code":"1","geolocation":"POINT (-118.41305 34.0014)","status_date":"03/08/2019","permit_group":"Building","refresh_time":"06/10/2026","type_lat_lon":"ADDRESS","business_unit":"Express Permit"},"geometry":{"type":"Point","coordinates":[-118.41305,34.0014]}},{"type":"Feature","properties":{"date":"2019-01-11T00:00:00.000Z","year":2019,"description":"Supplemental to 18014-30000-03173 to revise foundation plans/details due to site conditions.","metadescription":"Bldg-Alter/Repair. 1 or 2 Family Dwelling. Supplemental to 18014-30000-03173 to revise foundation plans/details due to site conditions.. Permit Finaled. 11440 W VICTORIA AVE","address":"11440 Victoria Avenue, CA, Los Angeles, 90066, US","ct":"2719.01","ev":"N","apc":"West Los Angeles","cpa":"Palms - Mar Vista - Del Rey","zone":"R1V2","solar":"N","pin_nbr":"114B157   278","use_code":"1","geolocation":"POINT (-118.42398 34.01135)","status_date":"02/25/2020","permit_group":"Building","refresh_time":"06/10/2026","type_lat_lon":"ADDRESS","business_unit":"Plan Check at Counter"},"geometry":{"type":"Point","coordinates":[-118.42398,34.01135]}},{"type":"Feature","properties":{"date":"2019-01-02T00:00:00.000Z","year":2019,"description":"Add sill plate anchors bolts and cripple wall plywood per L.A. City Std. Plan #1; no foundation replacement (EQ hazard reduction per Chapter 92).","metadescription":"Bldg-Alter/Repair. 1 or 2 Family Dwelling. Add sill plate anchors bolts and cripple wall plywood per L.A. City Std. Plan #1; no foundation replacement (EQ hazard reduction per Chapter 92).. Permit Finaled. 3929 S COOLIDGE AVE","address":"3925 Coolidge Avenue, CA, Los Angeles, 90066, US","ct":"2723.01","ev":"N","apc":"West Los Angeles","cpa":"Palms - Mar Vista - Del Rey","zone":"R1V2","solar":"N","pin_nbr":"114B157  1169","use_code":"1","geolocation":"POINT (-118.42211 34.0067)","status_date":"01/19/2019","permit_group":"Building","refresh_time":"06/10/2026","type_lat_lon":"ADDRESS","business_unit":"Express Permit"},"geometry":{"type":"Point","coordinates":[-118.42211,34.0067]}},{"type":"Feature","properties":{"date":"2018-10-23T00:00:00.000Z","year":2018,"description":"Add sill plate anchors bolts and cripple wall plywood per L.A. City Std. Plan #1; no foundation replacement (EQ hazard reduction per Chapter 92).","metadescription":"Bldg-Alter/Repair. 1 or 2 Family Dwelling. Add sill plate anchors bolts and cripple wall plywood per L.A. City Std. Plan #1; no foundation replacement (EQ hazard reduction per Chapter 92).. Permit Finaled. 11360 W MATTESON AVE","address":"11360 Matteson Avenue, CA, Los Angeles, 90066, US","ct":"2723.01","ev":"N","apc":"West Los Angeles","cpa":"Palms - Mar Vista - Del Rey","zone":"R1V2","solar":"N","pin_nbr":"114B157   823","use_code":"1","geolocation":"POINT (-118.41947 34.00885)","status_date":"11/19/2018","permit_group":"Building","refresh_time":"06/10/2026","type_lat_lon":"ADDRESS","business_unit":"Express Permit"},"geometry":{"type":"Point","coordinates":[-118.41947,34.00885]}},{"type":"Feature","properties":{"date":"2018-09-12T00:00:00.000Z","year":2018,"description":"(1)WINDOW and (1) DOOR CHANGE-OUT (SAME SIZE & TYPE) FOR RESIDENTIAL BUILDINGS. BATHROOM REMODEL COMBINED WITH PLUMBING, AND HVAC FOR RESIDENTIAL BUILDINGS (NO STRUCTURAL CHANGES). KITCHEN REMODEL COMBINED WITH PLUMBING FOR RESIDENTIAL BUILDINGS (NO STRUCTURAL CHANGES).RE-STUCCO (NO NEW WALLS ADDED) FOR SINGLE FAMILY DWELLINGS AND DUPLEXES ONLY.REPLACE DRYWALL (NO NEW WALLS ADDED) FOR SINGLE FAMILY DWELLINGS AND DUPLEX ONLY.  ADD SILL PLATE ANCHOR BOLTS AND PLYWOOD TO CRIPPLE WALLS (IF EXISTING) PER LA CITY STANDARD PLAN #1; NO FOUNDATION REPLACEMENT (EARTHQUAKE HAZARD REDUCTION PER CHAPTER 92 OF THE LOS ANGELES BUILDING CODE). (HOUSES, RESIDENTIAL BUILDINGS UP TO 3 STORIES AND UP TO 4 UNITS).REPLACEMENT OF DAMAGED FRAMING MEMBERS (LESS THAN 10% OF REPLACEMENT COST OF BUILDING) FOR HOUSES AND DUPLEXES (NOT INCLUDING DECKS).WATER DAMAGE, TERMITE DAMAGE, OR DRY ROT REPAIR LESS THAN 10% OF REPLACEMENT COST OF RESIDENTIAL BUILDINGS.","metadescription":"Bldg-Alter/Repair. 1 or 2 Family Dwelling. (1)WINDOW and (1) DOOR CHANGE-OUT (SAME SIZE & TYPE) FOR RESIDENTIAL BUILDINGS. BATHROOM REMODEL COMBINED WITH PLUMBING, AND HVAC FOR RESIDENTIAL BUILDINGS (NO STRUCTURAL CHANGES). KITCHEN REMODEL COMBINED WITH PLUMBING FOR RESIDENTIAL BUILDINGS (NO STRUCTURAL CHANGES).RE-STUCCO (NO NEW WALLS ADDED) FOR SINGLE FAMILY DWELLINGS AND DUPLEXES ONLY.REPLACE DRYWALL (NO NEW WALLS ADDED) FOR SINGLE FAMILY DWELLINGS AND DUPLEX ONLY.  ADD SILL PLATE ANCHOR BOLTS AND PLYWOOD TO CRIPPLE WALLS (IF EXISTING) PER LA CITY STANDARD PLAN #1; NO FOUNDATION REPLACEMENT (EARTHQUAKE HAZARD REDUCTION PER CHAPTER 92 OF THE LOS ANGELES BUILDING CODE). (HOUSES, RESIDENTIAL BUILDINGS UP TO 3 STORIES AND UP TO 4 UNITS).REPLACEMENT OF DAMAGED FRAMING MEMBERS (LESS THAN 10% OF REPLACEMENT COST OF BUILDING) FOR HOUSES AND DUPLEXES (NOT INCLUDING DECKS).WATER DAMAGE, TERMITE DAMAGE, OR DRY ROT REPAIR LESS THAN 10% OF REPLACEMENT COST OF RESIDENTIAL BUILDINGS.. Permit Finaled. 3967 S BLEDSOE AVE","address":"3967 Bledsoe Avenue, CA, Los Angeles, 90066, US","ct":"2723.01","ev":"N","apc":"West Los Angeles","cpa":"Palms - Mar Vista - Del Rey","zone":"R1V2","solar":"N","pin_nbr":"114B157  1109","use_code":"1","geolocation":"POINT (-118.41903 34.00707)","status_date":"08/06/2019","permit_group":"Building","refresh_time":"06/10/2026","type_lat_lon":"ADDRESS","business_unit":"Express Permit"},"geometry":{"type":"Point","coordinates":[-118.41903,34.00707]}},{"type":"Feature","properties":{"date":"2017-09-14T00:00:00.000Z","year":2017,"description":"Add sill plate anchors bolts and cripple wall plywood per L.A. City Std. Plan #1; no foundation replacement (EQ hazard reduction per Chapter 92).","metadescription":"Bldg-Alter/Repair. 1 or 2 Family Dwelling. Add sill plate anchors bolts and cripple wall plywood per L.A. City Std. Plan #1; no foundation replacement (EQ hazard reduction per Chapter 92).. Permit Finaled. 11339 W VENICE BLVD","address":"11339 Venice Boulevard, CA, Los Angeles, 90066, US","ct":"2719.01","ev":"N","apc":"West Los Angeles","cpa":"Palms - Mar Vista - Del Rey","zone":"R3-1","solar":"N","pin_nbr":"114B157   314","use_code":"2","geolocation":"POINT (-118.421 34.01107)","status_date":"10/06/2017","permit_group":"Building","refresh_time":"06/10/2026","type_lat_lon":"ADDRESS","business_unit":"Express Permit"},"geometry":{"type":"Point","coordinates":[-118.421,34.01107]}},{"type":"Feature","properties":{"date":"2017-02-27T00:00:00.000Z","year":2017,"description":"Add sill plate anchors bolts and cripple wall plywood per L.A. City Std. Plan #1; no foundation replacement (EQ hazard reduction per Chapter 92).","metadescription":"Bldg-Alter/Repair. 1 or 2 Family Dwelling. Add sill plate anchors bolts and cripple wall plywood per L.A. City Std. Plan #1; no foundation replacement (EQ hazard reduction per Chapter 92).. Permit Finaled. 11122 W GREENLAWN AVE","address":"11122 Greenlawn Avenue, CA, Culver City, 90230, US","ct":"2751.01","ev":"N","apc":"West Los Angeles","cpa":"Palms - Mar Vista - Del Rey","zone":"R1-1","solar":"N","pin_nbr":"111B165    66","use_code":"1","geolocation":"POINT (-118.40241 34.00256)","status_date":"03/28/2017","permit_group":"Building","refresh_time":"06/10/2026","type_lat_lon":"ADDRESS","business_unit":"Express Permit"},"geometry":{"type":"Point","coordinates":[-118.40241,34.00256]}},{"type":"Feature","properties":{"date":"2016-11-16T00:00:00.000Z","year":2016,"description":"SUPPLEMENTAL TO 16014-30000-03134 TO MODIFY FLOOR PLAN TO INCREASE CEILING HEIGHT AT FIRST FLOOR FROM 8'-0\" TO 9'-0\" AND INCLUDE EXTRA POWDER ROOM IN FIRST FLOOR AND ADD BATHROOM IN SECOND FLOOR.  NO CHANGE IN FLOOR AREA OR SETBACKS.  FOUNDATION CHANGES TO SOUTHWEST PORTION OF HOME TO REPLACE EXISTING SHALLOW FOOTINGS WITH DEEPER FOOTINGS.  ALL CHANGES PER STRUCTURAL ENGINEERS SPECIFICATIONS.***NO PLOT PLAN REQUIRED***","metadescription":"Bldg-Alter/Repair. 1 or 2 Family Dwelling. SUPPLEMENTAL TO 16014-30000-03134 TO MODIFY FLOOR PLAN TO INCREASE CEILING HEIGHT AT FIRST FLOOR FROM 8'-0\" TO 9'-0\" AND INCLUDE EXTRA POWDER ROOM IN FIRST FLOOR AND ADD BATHROOM IN SECOND FLOOR.  NO CHANGE IN FLOOR AREA OR SETBACKS.  FOUNDATION CHANGES TO SOUTHWEST PORTION OF HOME TO REPLACE EXISTING SHALLOW FOOTINGS WITH DEEPER FOOTINGS.  ALL CHANGES PER STRUCTURAL ENGINEERS SPECIFICATIONS.***NO PLOT PLAN REQUIRED***. Permit Finaled. 3910 S BERRYMAN AVE","address":"3910 Berryman Avenue, CA, Los Angeles, 90066, US","ct":"2723.01","ev":"N","apc":"West Los Angeles","cpa":"Palms - Mar Vista - Del Rey","zone":"R1-1","solar":"N","pin_nbr":"114B157  1001","use_code":"1","geolocation":"POINT (-118.42137159 34.0076349)","status_date":"11/30/2018","permit_group":"Building","refresh_time":"06/10/2026","type_lat_lon":"BUILDING","business_unit":"Plan Check at Counter"},"geometry":{"type":"Point","coordinates":[-118.42137159,34.0076349]}},{"type":"Feature","properties":{"date":"2016-11-16T00:00:00.000Z","year":2016,"description":"Add sill plate anchors bolts and cripple wall plywood per L.A. City Std. Plan #1; no foundation replacement (EQ hazard reduction per Chapter 92).","metadescription":"Bldg-Alter/Repair. 1 or 2 Family Dwelling. Add sill plate anchors bolts and cripple wall plywood per L.A. City Std. Plan #1; no foundation replacement (EQ hazard reduction per Chapter 92).. Permit Finaled. 3861 S MINERVA AVE","address":"3861 Minerva Avenue, CA, Los Angeles, 90066, US","ct":"2723.01","ev":"N","apc":"West Los Angeles","cpa":"Palms - Mar Vista - Del Rey","zone":"R1-1","solar":"N","pin_nbr":"114B157   906","use_code":"1","geolocation":"POINT (-118.42126 34.00839)","status_date":"12/02/2016","permit_group":"Building","refresh_time":"06/10/2026","type_lat_lon":"ADDRESS","business_unit":"Express Permit"},"geometry":{"type":"Point","coordinates":[-118.42126,34.00839]}},{"type":"Feature","properties":{"date":"2016-08-01T00:00:00.000Z","year":2016,"description":"Add sill plate anchors bolts and cripple wall plywood per L.A. City Std. Plan #1; no foundation replacement (EQ hazard reduction per Chapter 92).","metadescription":"Bldg-Alter/Repair. 1 or 2 Family Dwelling. Add sill plate anchors bolts and cripple wall plywood per L.A. City Std. Plan #1; no foundation replacement (EQ hazard reduction per Chapter 92).. Permit Finaled. 3833 S BLEDSOE AVE","address":"3835 Bledsoe Avenue, CA, Los Angeles, 90066, US","ct":"2723.01","ev":"N","apc":"West Los Angeles","cpa":"Palms - Mar Vista - Del Rey","zone":"R1-1","solar":"N","pin_nbr":"114B157   680","use_code":"1","geolocation":"POINT (-118.42093 34.00953)","status_date":"08/16/2016","permit_group":"Building","refresh_time":"06/10/2026","type_lat_lon":"ADDRESS","business_unit":"Express Permit"},"geometry":{"type":"Point","coordinates":[-118.42093,34.00953]}},{"type":"Feature","properties":{"date":"2016-07-12T00:00:00.000Z","year":2016,"description":"Add sill plate anchors bolts and cripple wall plywood per L.A. City Std. Plan #1; no foundation replacement (EQ hazard reduction per Chapter 92).","metadescription":"Bldg-Alter/Repair. 1 or 2 Family Dwelling. Add sill plate anchors bolts and cripple wall plywood per L.A. City Std. Plan #1; no foundation replacement (EQ hazard reduction per Chapter 92).. Permit Finaled. 11433 W BARMAN ST","address":"11429 Barman Street, CA, Culver City, 90230, US","ct":"2751.02","ev":"N","apc":"West Los Angeles","cpa":"Palms - Mar Vista - Del Rey","zone":"R1-1","solar":"N","pin_nbr":"111B161   607","use_code":"1","geolocation":"POINT (-118.41102 33.99942)","status_date":"07/25/2016","permit_group":"Building","refresh_time":"06/10/2026","type_lat_lon":"ADDRESS","business_unit":"Express Permit"},"geometry":{"type":"Point","coordinates":[-118.41102,33.99942]}},{"type":"Feature","properties":{"date":"2016-05-31T00:00:00.000Z","year":2016,"description":"Add sill plate anchor bolts, add plywood to cripple walls (if existing), and replace foundation (20') per L.A. City Standard Plan #1 (Earthquake hazard reduction per Chapter 92 of the Los Angeles Building Code).  (Houses, residential buildings up to 3 stories and up to 4 units).","metadescription":"Bldg-Alter/Repair. 1 or 2 Family Dwelling. Add sill plate anchor bolts, add plywood to cripple walls (if existing), and replace foundation (20') per L.A. City Standard Plan #1 (Earthquake hazard reduction per Chapter 92 of the Los Angeles Building Code).  (Houses, residential buildings up to 3 stories and up to 4 units).. Permit Finaled. 3926 S BLEDSOE AVE","address":"3926 Bledsoe Avenue, CA, Los Angeles, 90066, US","ct":"2723.01","ev":"N","apc":"West Los Angeles","cpa":"Palms - Mar Vista - Del Rey","zone":"R1-1","solar":"N","pin_nbr":"114B157   923","use_code":"1","geolocation":"POINT (-118.41951 34.00812)","status_date":"06/23/2016","permit_group":"Building","refresh_time":"06/10/2026","type_lat_lon":"ADDRESS","business_unit":"Express Permit"},"geometry":{"type":"Point","coordinates":[-118.41951,34.00812]}},{"type":"Feature","properties":{"date":"2016-04-05T00:00:00.000Z","year":2016,"description":"ADD SILL PLATE ANCHOR BOLTS AND CRIPPLE WALL PLYWOOD PER LA CITY STANDARD PLAN #1; NO FOUNDATION REPLACEMENT (EARTHQUAKE HAZARD REDUCTION PER CHAPTER 92 OF THE LOS ANGELES BUILDING CODE). (HOUSES, RESIDENTIAL BUILDINGS UP TO 3 STORIES AND UP TO 4 UNITS).","metadescription":"Bldg-Alter/Repair. 1 or 2 Family Dwelling. ADD SILL PLATE ANCHOR BOLTS AND CRIPPLE WALL PLYWOOD PER LA CITY STANDARD PLAN #1; NO FOUNDATION REPLACEMENT (EARTHQUAKE HAZARD REDUCTION PER CHAPTER 92 OF THE LOS ANGELES BUILDING CODE). (HOUSES, RESIDENTIAL BUILDINGS UP TO 3 STORIES AND UP TO 4 UNITS).. Permit Finaled. 11453 W BIONA DR","address":"11453 Biona Drive, CA, Los Angeles, 90066, US","ct":"2719.01","ev":"N","apc":"West Los Angeles","cpa":"Palms - Mar Vista - Del Rey","zone":"R1-1","solar":"N","pin_nbr":"114B157   449","use_code":"1","geolocation":"POINT (-118.42367 34.01052)","status_date":"04/20/2016","permit_group":"Building","refresh_time":"06/10/2026","type_lat_lon":"ADDRESS","business_unit":"Express Permit"},"geometry":{"type":"Point","coordinates":[-118.42367,34.01052]}},{"type":"Feature","properties":{"date":"2015-12-10T00:00:00.000Z","year":2015,"description":"Add sill plate anchors bolts and cripple wall plywood per L.A. City Std. Plan #1; no foundation replacement (EQ hazard reduction per Chapter 92).","metadescription":"Bldg-Alter/Repair. 1 or 2 Family Dwelling. Add sill plate anchors bolts and cripple wall plywood per L.A. City Std. Plan #1; no foundation replacement (EQ hazard reduction per Chapter 92).. Permit Finaled. 3972 S COOLIDGE AVE","address":"3972 Coolidge Avenue, CA, Los Angeles, 90066, US","ct":"2723.01","ev":"N","apc":"West Los Angeles","cpa":"Palms - Mar Vista - Del Rey","zone":"R1-1","solar":"N","pin_nbr":"114B157  1295","use_code":"1","geolocation":"POINT (-118.4211 34.00577)","status_date":"12/28/2015","permit_group":"Building","refresh_time":"06/10/2026","type_lat_lon":"ADDRESS","business_unit":"Express Permit"},"geometry":{"type":"Point","coordinates":[-118.4211,34.00577]}},{"type":"Feature","properties":{"date":"2015-11-06T00:00:00.000Z","year":2015,"description":"FOUNDATION ONLYPERMIT FOR A NEW 86 UNIT APARTMENT BUILDING WITH FIVE STORY WOOD TYPE IIIA OVER ONE LEVEL TYPE I-A APARTMENT LEVEL OVER ON GRADE TYPE I-A PARKING LEVEL AND ONE SUBTERANEAN TYPE IAPARKING GARAGE).  7 Very Low Income Units.","metadescription":"Bldg-Alter/Repair. Apartment. FOUNDATION ONLYPERMIT FOR A NEW 86 UNIT APARTMENT BUILDING WITH FIVE STORY WOOD TYPE IIIA OVER ONE LEVEL TYPE I-A APARTMENT LEVEL OVER ON GRADE TYPE I-A PARKING LEVEL AND ONE SUBTERANEAN TYPE IAPARKING GARAGE).  7 Very Low Income Units.. Permit Finaled. 3838 S DUNN DR 1-86","address":"1-128, 3838 Dunn Drive, CA, Culver City, 90232, US","ct":"2699.05","ev":"N","apc":"West Los Angeles","cpa":"Palms - Mar Vista - Del Rey","zone":"R5P-1","solar":"N","pin_nbr":"120B165  1293","use_code":"5","geolocation":"POINT (-118.39885 34.02219)","status_date":"01/26/2018","permit_group":"Building","refresh_time":"06/10/2026","type_lat_lon":"ADDRESS","business_unit":"Regular Plan Check"},"geometry":{"type":"Point","coordinates":[-118.39885,34.02219]}},{"type":"Feature","properties":{"date":"2015-08-06T00:00:00.000Z","year":2015,"description":"supplemental to permit no. 15014-10000-00544: revise foundation plan due to field finding.","metadescription":"Bldg-Alter/Repair. 1 or 2 Family Dwelling. supplemental to permit no. 15014-10000-00544: revise foundation plan due to field finding.. Permit Finaled. 4343 S CORINTH AVE","address":"4343 Corinth Avenue, CA, Culver City, 90230, US","ct":"2751.02","ev":"N","apc":"West Los Angeles","cpa":"Palms - Mar Vista - Del Rey","zone":"R1-1","solar":"N","pin_nbr":"111B161   379","use_code":"1","geolocation":"POINT (-118.41125584 34.00083488)","status_date":"07/20/2016","permit_group":"Building","refresh_time":"06/10/2026","type_lat_lon":"BUILDING","business_unit":"Plan Check at Counter"},"geometry":{"type":"Point","coordinates":[-118.41125584,34.00083488]}},{"type":"Feature","properties":{"date":"2015-06-24T00:00:00.000Z","year":2015,"description":"Add sill plate anchors bolts and cripple wall plywood per L.A. City Std. Plan #1; no foundation replacement (EQ hazard reduction per Chapter 92).","metadescription":"Bldg-Alter/Repair. 1 or 2 Family Dwelling. Add sill plate anchors bolts and cripple wall plywood per L.A. City Std. Plan #1; no foundation replacement (EQ hazard reduction per Chapter 92).. Permit Finaled. 3867 S MINERVA AVE","address":"3867 Minerva Avenue, CA, Los Angeles, 90066, US","ct":"2723.01","ev":"N","apc":"West Los Angeles","cpa":"Palms - Mar Vista - Del Rey","zone":"R1-1","solar":"N","pin_nbr":"114B157   924","use_code":"1","geolocation":"POINT (-118.42116 34.00827)","status_date":"07/08/2015","permit_group":"Building","refresh_time":"06/10/2026","type_lat_lon":"ADDRESS","business_unit":"Express Permit"},"geometry":{"type":"Point","coordinates":[-118.42116,34.00827]}},{"type":"Feature","properties":{"date":"2014-10-31T00:00:00.000Z","year":2014,"description":"Add sill plate anchors bolts and cripple wall plywood per L.A. City Std. Plan #1; no foundation replacement (EQ hazard reduction per Chapter 92).","metadescription":"Bldg-Alter/Repair. 1 or 2 Family Dwelling. Add sill plate anchors bolts and cripple wall plywood per L.A. City Std. Plan #1; no foundation replacement (EQ hazard reduction per Chapter 92).. Permit Finaled. 3708 S COOLIDGE AVE","address":"3708 Coolidge Avenue, CA, Los Angeles, 90066, US","ct":"2719.01","ev":"N","apc":"West Los Angeles","cpa":"Palms - Mar Vista - Del Rey","zone":"R1-1","solar":"N","pin_nbr":"114B157   361","use_code":"1","geolocation":"POINT (-118.42511 34.011)","status_date":"11/06/2014","permit_group":"Building","refresh_time":"06/10/2026","type_lat_lon":"ADDRESS","business_unit":"Express Permit"},"geometry":{"type":"Point","coordinates":[-118.42511,34.011]}},{"type":"Feature","properties":{"date":"2014-09-23T00:00:00.000Z","year":2014,"description":"Voluntary upgrade to foundation. Upgrade bolting according to enginner detail.","metadescription":"Bldg-Alter/Repair. Apartment. Voluntary upgrade to foundation. Upgrade bolting according to enginner detail.. Permit Finaled. 11316 W VICTORIA AVE","address":"11316 Victoria Avenue, CA, Los Angeles, 90066, US","ct":"2719.01","ev":"N","apc":"West Los Angeles","cpa":"Palms - Mar Vista - Del Rey","zone":"R3-1","solar":"N","pin_nbr":"117B157  1083","use_code":"5","geolocation":"POINT (-118.42156 34.01271)","status_date":"10/08/2014","permit_group":"Building","refresh_time":"06/10/2026","type_lat_lon":"ADDRESS","business_unit":"Plan Check at Counter"},"geometry":{"type":"Point","coordinates":[-118.42156,34.01271]}},{"type":"Feature","properties":{"date":"2014-06-25T00:00:00.000Z","year":2014,"description":"Add sill plate anchors bolts and cripple wall plywood per L.A. City Std. Plan #1; no foundation replacement (EQ hazard reduction per Chapter 92).","metadescription":"Bldg-Alter/Repair. 1 or 2 Family Dwelling. Add sill plate anchors bolts and cripple wall plywood per L.A. City Std. Plan #1; no foundation replacement (EQ hazard reduction per Chapter 92).. Permit Finaled. 4438 S BERRYMAN AVE","address":"4442 Berryman Avenue, CA, Culver City, 90230, US","ct":"2751.02","ev":"N","apc":"West Los Angeles","cpa":"Palms - Mar Vista - Del Rey","zone":"R1-1","solar":"N","pin_nbr":"111B161   509","use_code":"1","geolocation":"POINT (-118.41225 33.99982)","status_date":"07/03/2014","permit_group":"Building","refresh_time":"06/10/2026","type_lat_lon":"ADDRESS","business_unit":"Express Permit"},"geometry":{"type":"Point","coordinates":[-118.41225,33.99982]}},{"type":"Feature","properties":{"date":"2014-01-08T00:00:00.000Z","year":2014,"description":"Kitchen remodel for residential buildings (no structural changes).  Add sill plate anchor bolts and cripple wall plywood per LA City Standard Plan #1; no foundation replacement (Earthquake hazard reduction per Chapter 92 of the Los Angeles Building Code). (Houses, residential buildings up to 3 stories and up to 4 units).","metadescription":"Bldg-Alter/Repair. 1 or 2 Family Dwelling. Kitchen remodel for residential buildings (no structural changes).  Add sill plate anchor bolts and cripple wall plywood per LA City Standard Plan #1; no foundation replacement (Earthquake hazard reduction per Chapter 92 of the Los Angeles Building Code). (Houses, residential buildings up to 3 stories and up to 4 units).. Permit Expired. 3910 S MCLAUGHLIN AVE","address":"3910 Mclaughlin Avenue, CA, Los Angeles, 90066, US","ct":"2723.01","ev":"N","apc":"West Los Angeles","cpa":"Palms - Mar Vista - Del Rey","zone":"R1-1","solar":"N","pin_nbr":"114B157  1134","use_code":"1","geolocation":"POINT (-118.42294 34.00681)","status_date":"02/02/2016","permit_group":"Building","refresh_time":"06/10/2026","type_lat_lon":"ADDRESS","business_unit":"Express Permit"},"geometry":{"type":"Point","coordinates":[-118.42294,34.00681]}},{"type":"Feature","properties":{"date":"2013-04-02T00:00:00.000Z","year":2013,"description":"Add sill plate anchors bolts and cripple wall plywood per L.A. City Std. Plan #1; no foundation replacement (EQ hazard reduction per Chapter 92).","metadescription":"Bldg-Alter/Repair. 1 or 2 Family Dwelling. Add sill plate anchors bolts and cripple wall plywood per L.A. City Std. Plan #1; no foundation replacement (EQ hazard reduction per Chapter 92).. Permit Finaled. 11318 W BIONA DR","address":"11318 Biona Drive, CA, Los Angeles, 90066, US","ct":"2719.00","ev":"N","apc":"West Los Angeles","cpa":"Palms - Mar Vista - Del Rey","zone":"R1-1","solar":"N","pin_nbr":"114B157   185","use_code":"1","geolocation":"POINT (-118.42086 34.01182)","status_date":"04/09/2013","permit_group":"Building","refresh_time":"06/10/2026","type_lat_lon":"ADDRESS","business_unit":"Express Permit"},"geometry":{"type":"Point","coordinates":[-118.42086,34.01182]}},{"type":"Feature","properties":{"date":"2013-03-04T00:00:00.000Z","year":2013,"description":"Add sill plate anchors bolts and cripple wall plywood per L.A. City Std. Plan #1; no foundation replacement (EQ hazard reduction per Chapter 92).","metadescription":"Bldg-Alter/Repair. 1 or 2 Family Dwelling. Add sill plate anchors bolts and cripple wall plywood per L.A. City Std. Plan #1; no foundation replacement (EQ hazard reduction per Chapter 92).. Permit Finaled. 11809 S JUNIETTE ST","address":"11809 Juniette Street, CA, Culver City, 90230, US","ct":"2756.01","ev":"N","apc":"West Los Angeles","cpa":"Palms - Mar Vista - Del Rey","zone":"R1-1","solar":"N","pin_nbr":"105B165   174","use_code":"1","geolocation":"POINT (-118.40251466 33.98692743)","status_date":"04/26/2013","permit_group":"Building","refresh_time":"06/10/2026","type_lat_lon":"PIN","business_unit":"Express Permit"},"geometry":{"type":"Point","coordinates":[-118.40251466,33.98692743]}},{"type":"Feature","properties":{"date":"2012-07-17T00:00:00.000Z","year":2012,"description":"SUPPLEMENTAL PERMIT FOR 12014-30000-00410 TO REVISE FOUNDATION DETAIL","metadescription":"Bldg-Alter/Repair. 1 or 2 Family Dwelling. SUPPLEMENTAL PERMIT FOR 12014-30000-00410 TO REVISE FOUNDATION DETAIL. Permit Finaled. 3957 S MCLAUGHLIN AVE","address":"3957 Mclaughlin Avenue, CA, Los Angeles, 90066, US","ct":"2723.01","ev":"N","apc":"West Los Angeles","cpa":"Palms - Mar Vista - Del Rey","zone":"R1-1","solar":"N","pin_nbr":"114B157  1337","use_code":"1","geolocation":"POINT (-118.42233 34.00557)","status_date":"05/23/2013","permit_group":"Building","refresh_time":"06/10/2026","type_lat_lon":"ADDRESS","business_unit":"Plan Check at Counter"},"geometry":{"type":"Point","coordinates":[-118.42233,34.00557]}},{"type":"Feature","properties":{"date":"2012-05-08T00:00:00.000Z","year":2012,"description":"VOLUNTARY FOUNDATION BOLTING WITH SHEAR WALL OVER 48\" PER ENGINEER'S DESIGN AND STANDARD PLAN #1","metadescription":"Bldg-Alter/Repair. 1 or 2 Family Dwelling. VOLUNTARY FOUNDATION BOLTING WITH SHEAR WALL OVER 48\" PER ENGINEER'S DESIGN AND STANDARD PLAN #1. Permit Finaled. 4325 S COOLIDGE AVE","address":"4325 Coolidge Avenue, CA, Los Angeles, 90066, US","ct":"2751.00","ev":"N","apc":"West Los Angeles","cpa":"Palms - Mar Vista - Del Rey","zone":"R1-1","solar":"N","pin_nbr":"111B161   534","use_code":"1","geolocation":"POINT (-118.41619 33.99998)","status_date":"05/15/2012","permit_group":"Building","refresh_time":"06/10/2026","type_lat_lon":"ADDRESS","business_unit":"Plan Check at Counter"},"geometry":{"type":"Point","coordinates":[-118.41619,33.99998]}},{"type":"Feature","properties":{"date":"2011-11-28T00:00:00.000Z","year":2011,"description":"ADD SILL PLATE ANCHOR BOLTS & CRIPPLE WALL PLYWOOD AND REPLACE FOUNDATION PER LA CITY STANDARD PLAN #1. (EQ HAZARD REDUCTION PER CHAPTER 92 OF THE LA BLDG.CODE-HOUSES & RESIDENTIAL BLDGS UP TO 3 STORIES AND UP TO 4 UNITS.","metadescription":"Bldg-Alter/Repair. 1 or 2 Family Dwelling. ADD SILL PLATE ANCHOR BOLTS & CRIPPLE WALL PLYWOOD AND REPLACE FOUNDATION PER LA CITY STANDARD PLAN #1. (EQ HAZARD REDUCTION PER CHAPTER 92 OF THE LA BLDG.CODE-HOUSES & RESIDENTIAL BLDGS UP TO 3 STORIES AND UP TO 4 UNITS.. Issued. 3946 S COOLIDGE AVE","address":"3946 Coolidge Avenue, CA, Los Angeles, 90066, US","ct":"2723.01","ev":"N","apc":"West Los Angeles","cpa":"Palms - Mar Vista - Del Rey","zone":"R1-1","solar":"N","pin_nbr":"114B157  1198","use_code":"1","geolocation":"POINT (-118.42157 34.00637)","status_date":"11/28/2011","permit_group":"Building","refresh_time":"06/10/2026","type_lat_lon":"ADDRESS","business_unit":"Express Permit"},"geometry":{"type":"Point","coordinates":[-118.42157,34.00637]}},{"type":"Feature","properties":{"date":"2011-09-14T00:00:00.000Z","year":2011,"description":"Add sill plate anchor bolts and cripple wall plywood per L.A. City Std. Plan #1; no foundation replacement (EQ hazard reduction per Chapter 92).","metadescription":"Bldg-Alter/Repair. 1 or 2 Family Dwelling. Add sill plate anchor bolts and cripple wall plywood per L.A. City Std. Plan #1; no foundation replacement (EQ hazard reduction per Chapter 92).. Permit Finaled. 3962 S BERRYMAN AVE","address":"3962 Berryman Avenue, CA, Los Angeles, 90066, US","ct":"2723.01","ev":"N","apc":"West Los Angeles","cpa":"Palms - Mar Vista - Del Rey","zone":"R1-1","solar":"N","pin_nbr":"114B157  1194","use_code":"1","geolocation":"POINT (-118.42049 34.00639)","status_date":"09/22/2011","permit_group":"Building","refresh_time":"06/10/2026","type_lat_lon":"ADDRESS","business_unit":"Express Permit"},"geometry":{"type":"Point","coordinates":[-118.42049,34.00639]}},{"type":"Feature","properties":{"date":"2011-06-17T00:00:00.000Z","year":2011,"description":"Add sill plate anchor bolts and cripple wall plywood per L.A. City Std. Plan #1; no foundation replacement (EQ hazard reduction per Chapter 92).","metadescription":"Bldg-Alter/Repair. 1 or 2 Family Dwelling. Add sill plate anchor bolts and cripple wall plywood per L.A. City Std. Plan #1; no foundation replacement (EQ hazard reduction per Chapter 92).. Permit Expired. 3833 S BERRYMAN AVE","address":"3833 Berryman Avenue, CA, Los Angeles, 90066, US","ct":"2723.01","ev":"N","apc":"West Los Angeles","cpa":"Palms - Mar Vista - Del Rey","zone":"R1-1","solar":"N","pin_nbr":"114B157   860","use_code":"1","geolocation":"POINT (-118.42256 34.00866)","status_date":"07/10/2013","permit_group":"Building","refresh_time":"06/10/2026","type_lat_lon":"ADDRESS","business_unit":"Express Permit"},"geometry":{"type":"Point","coordinates":[-118.42256,34.00866]}},{"type":"Feature","properties":{"date":"2008-12-17T00:00:00.000Z","year":2008,"description":"ANCHOR BOLTS AND FOUNDATION SYSTEM FOR 3-BIOTRICKLING FILTER VESSELS,  14' DIAMETER X 25' HEIGHT","metadescription":"Nonbldg-Addition. Commercial. ANCHOR BOLTS AND FOUNDATION SYSTEM FOR 3-BIOTRICKLING FILTER VESSELS,  14' DIAMETER X 25' HEIGHT. Permit Finaled. 6000 W JEFFERSON BLVD","address":"5974 Jefferson Boulevard, CA, Los Angeles, 90016, US","ct":"2360.00","ev":"N","apc":"South Los Angeles","cpa":"West Adams - Baldwin Hills - Leimert","zone":"M1-1VL","solar":"N","pin_nbr":"117B169     5","use_code":"23","geolocation":"POINT (-118.37884 34.02089)","status_date":"01/14/2009","permit_group":"Building","refresh_time":"06/10/2026","type_lat_lon":"ADDRESS","business_unit":"Regular Plan Check","square_footage":"0"},"geometry":{"type":"Point","coordinates":[-118.37884,34.02089]}},{"type":"Feature","properties":{"date":"2007-11-16T00:00:00.000Z","year":2007,"description":"Add sill plate anchor bolts, cripple wall plywood and replace foundation per L.A. City Std. Plan #1 (EQ hazard reduction per Chapter 92).","metadescription":"Bldg-Alter/Repair. 1 or 2 Family Dwelling. Add sill plate anchor bolts, cripple wall plywood and replace foundation per L.A. City Std. Plan #1 (EQ hazard reduction per Chapter 92).. Permit Finaled. 11342 W VICTORIA AVE","address":"11350 Victoria Avenue, CA, Los Angeles, 90066, US","ct":"2719.00","ev":"N","apc":"West Los Angeles","cpa":"Palms - Mar Vista - Del Rey","zone":"R1-1","solar":"N","pin_nbr":"114B157    77","use_code":"1","geolocation":"POINT (-118.4222 34.01236)","status_date":"10/06/2008","permit_group":"Building","refresh_time":"06/10/2026","type_lat_lon":"ADDRESS","business_unit":"Express Permit"},"geometry":{"type":"Point","coordinates":[-118.4222,34.01236]}},{"type":"Feature","properties":{"date":"2007-02-13T00:00:00.000Z","year":2007,"description":"Add sill plate anchor bolts and cripple wall plywood per LA City Standard Plan#1; no foundation replacement (EQ hazard reduction per Chapter 92 of the Los Angeles Building Code). (Houses, residential buildings up to 3 stories and up to 4 units).  Voluntary Work.","metadescription":"Bldg-Alter/Repair. 1 or 2 Family Dwelling. Add sill plate anchor bolts and cripple wall plywood per LA City Standard Plan#1; no foundation replacement (EQ hazard reduction per Chapter 92 of the Los Angeles Building Code). (Houses, residential buildings up to 3 stories and up to 4 units).  Voluntary Work.. Permit Finaled. 3846 S COOLIDGE AVE","address":"3846 Coolidge Avenue, CA, Los Angeles, 90066, US","ct":"2723.01","ev":"N","apc":"West Los Angeles","cpa":"Palms - Mar Vista - Del Rey","zone":"R1-1","solar":"N","pin_nbr":"114B157   943","use_code":"1","geolocation":"POINT (-118.42286 34.008)","status_date":"02/26/2007","permit_group":"Building","refresh_time":"06/10/2026","type_lat_lon":"ADDRESS","business_unit":"Express Permit"},"geometry":{"type":"Point","coordinates":[-118.42286,34.008]}},{"type":"Feature","properties":{"date":"2006-07-17T00:00:00.000Z","year":2006,"description":"RESIDENTIAL KITCHEN AND BATHROOM REMODEL-REPAIR/REPLACE ONLY. NO CHANGES IN WALLS OR OPENINGS. EQ HAZARD REDUCTION: FOUNDATION ANCHOR BOLTING/CRIPPLE WALL BRACING PER LA CITY STANDARD PLAN. TEAR OFF EXISITING ROOFING. RE-ROOF WITH CLASS 'A' ASPHALT SHINGLES (MAX 2 OVERLAY TOTAL) WITH 1/2\" CDX PLYWOOD. 13 SQ. RE-STUCCO/SANDBLAST ENTIRE BUILDING. DRYWALL/PLASTER PATCH AND PAINT. REPAIR/REPLACE MASONRY CHIMNEY PRE FAB UNIT PER LA CITY STANDARD DETAIL. REPLACE DAMAMGED LIVING ROOM CEILING JOIST , 2X4'S IN INTERIOR WALLS WITHIN THE ENTIRE HOUSE. WITH SAME SIZE AND SPACING (LESS THAN 10% DAMAGE).","metadescription":"Bldg-Alter/Repair. 1 or 2 Family Dwelling. RESIDENTIAL KITCHEN AND BATHROOM REMODEL-REPAIR/REPLACE ONLY. NO CHANGES IN WALLS OR OPENINGS. EQ HAZARD REDUCTION: FOUNDATION ANCHOR BOLTING/CRIPPLE WALL BRACING PER LA CITY STANDARD PLAN. TEAR OFF EXISITING ROOFING. RE-ROOF WITH CLASS 'A' ASPHALT SHINGLES (MAX 2 OVERLAY TOTAL) WITH 1/2\" CDX PLYWOOD. 13 SQ. RE-STUCCO/SANDBLAST ENTIRE BUILDING. DRYWALL/PLASTER PATCH AND PAINT. REPAIR/REPLACE MASONRY CHIMNEY PRE FAB UNIT PER LA CITY STANDARD DETAIL. REPLACE DAMAMGED LIVING ROOM CEILING JOIST , 2X4'S IN INTERIOR WALLS WITHIN THE ENTIRE HOUSE. WITH SAME SIZE AND SPACING (LESS THAN 10% DAMAGE).. Permit Finaled. 11818 W PACIFIC AVE","address":"11818 Pacific Avenue, CA, Los Angeles, 90066, US","ct":"2723.01","ev":"N","apc":"West Los Angeles","cpa":"Palms - Mar Vista - Del Rey","zone":"R1-1","solar":"N","pin_nbr":"114B157  1126","use_code":"1","geolocation":"POINT (-118.4251 34.00698)","status_date":"06/12/2008","permit_group":"Building","refresh_time":"06/10/2026","type_lat_lon":"ADDRESS","business_unit":"Express Permit"},"geometry":{"type":"Point","coordinates":[-118.4251,34.00698]}},{"type":"Feature","properties":{"date":"2005-10-31T00:00:00.000Z","year":2005,"description":"ADD SILL PLATE ANCHOR BOLTS AND CRIPPLE WALL PLYWOOD PER LA CITY STANDARD PLAN#1;  NO FOUNDATION REPLACEMENT.","metadescription":"Bldg-Alter/Repair. Apartment. ADD SILL PLATE ANCHOR BOLTS AND CRIPPLE WALL PLYWOOD PER LA CITY STANDARD PLAN#1;  NO FOUNDATION REPLACEMENT.. Permit Finaled. 11465 W VENICE BLVD","address":"11463 Venice Boulevard, CA, Los Angeles, 90066, US","ct":"2719.00","ev":"N","apc":"West Los Angeles","cpa":"Palms - Mar Vista - Del Rey","zone":"R3-1","solar":"N","pin_nbr":"114B157   576","use_code":"5","geolocation":"POINT (-118.4232 34.0098)","status_date":"11/28/2005","permit_group":"Building","refresh_time":"06/10/2026","type_lat_lon":"ADDRESS","business_unit":"Express Permit"},"geometry":{"type":"Point","coordinates":[-118.4232,34.0098]}},{"type":"Feature","properties":{"date":"2005-10-31T00:00:00.000Z","year":2005,"description":"ADD SILL PLATE ANCHOR BOLTS AND CRIPPLE WAL PLYWOOD PER LA CITY STANDARD PLAN #1;  NO FOUNDATION REPLACEMENT.","metadescription":"Bldg-Alter/Repair. Apartment. ADD SILL PLATE ANCHOR BOLTS AND CRIPPLE WAL PLYWOOD PER LA CITY STANDARD PLAN #1;  NO FOUNDATION REPLACEMENT.. Permit Finaled. 11473 W VENICE BLVD","address":"11471 Venice Boulevard, CA, Los Angeles, 90066, US","ct":"2719.00","ev":"N","apc":"West Los Angeles","cpa":"Palms - Mar Vista - Del Rey","zone":"R3-1","solar":"N","pin_nbr":"114B157   592","use_code":"5","geolocation":"POINT (-118.42333 34.00972)","status_date":"11/28/2005","permit_group":"Building","refresh_time":"06/10/2026","type_lat_lon":"ADDRESS","business_unit":"Express Permit"},"geometry":{"type":"Point","coordinates":[-118.42333,34.00972]}},{"type":"Feature","properties":{"date":"2004-12-13T00:00:00.000Z","year":2004,"description":"Add sill plate anchor bolts and cripple wall plywood per L.A. City Std. Plan #1; no foundation replacement (EQ hazard reduction per Chapter 92).","metadescription":"Bldg-Alter/Repair. 1 or 2 Family Dwelling. Add sill plate anchor bolts and cripple wall plywood per L.A. City Std. Plan #1; no foundation replacement (EQ hazard reduction per Chapter 92).. Permit Finaled. 3844 S EAST AVE","address":"3844 East Boulevard, CA, Los Angeles, 90066, US","ct":"2723.01","ev":"N","apc":"West Los Angeles","cpa":"Palms - Mar Vista - Del Rey","zone":"R1-1","solar":"N","pin_nbr":"114B157  1064","use_code":"1","geolocation":"POINT (-118.42433297 34.0072366)","status_date":"12/22/2004","permit_group":"Building","refresh_time":"06/10/2026","type_lat_lon":"PIN","business_unit":"Express Permit"},"geometry":{"type":"Point","coordinates":[-118.42433297,34.0072366]}},{"type":"Feature","properties":{"date":"2004-10-08T00:00:00.000Z","year":2004,"description":"FOUNDATION ONLY FOR NEW 115 RESIDENTIAL UNITS OVER PARKING GARAGE @ BASEMENT.","metadescription":"Nonbldg-New. Apartment. FOUNDATION ONLY FOR NEW 115 RESIDENTIAL UNITS OVER PARKING GARAGE @ BASEMENT.. Permit Finaled. 10001 W VENICE BLVD","address":"10001 Venice Boulevard, CA, Los Angeles, 90034, US","ct":"2699.01","ev":"N","hl":"YES","apc":"West Los Angeles","zone":"C2-1","solar":"N","pin_nbr":"120B165  1174","use_code":"23","geolocation":"POINT (-118.40008 34.02303)","status_date":"09/21/2007","permit_group":"Building","refresh_time":"06/10/2026","type_lat_lon":"ADDRESS","business_unit":"Plan Check at Counter"},"geometry":{"type":"Point","coordinates":[-118.40008,34.02303]}},{"type":"Feature","properties":{"date":"2004-10-05T00:00:00.000Z","year":2004,"description":"Add sill plate anchor bolts and cripple wall plywood per L.A. City Std. Plan #1; no foundation replacement (EQ hazard reduction per Chapter 92).","metadescription":"Bldg-Alter/Repair. 1 or 2 Family Dwelling. Add sill plate anchor bolts and cripple wall plywood per L.A. City Std. Plan #1; no foundation replacement (EQ hazard reduction per Chapter 92).. Permit Finaled. 3959 S MINERVA AVE","address":"3959 Minerva Avenue, CA, Los Angeles, 90066, US","ct":"2723.01","ev":"N","apc":"West Los Angeles","cpa":"Palms - Mar Vista - Del Rey","zone":"R1-1","solar":"N","pin_nbr":"114B157  1153","use_code":"1","geolocation":"POINT (-118.42 34.00681)","status_date":"10/20/2004","permit_group":"Building","refresh_time":"06/10/2026","type_lat_lon":"ADDRESS","business_unit":"Express Permit"},"geometry":{"type":"Point","coordinates":[-118.42,34.00681]}},{"type":"Feature","properties":{"date":"2004-06-07T00:00:00.000Z","year":2004,"description":"Add sill plate anchor bolts and cripple wall plywood per L.A. City Std. Plan #1; no foundation replacement (EQ hazard reduction per Chapter 92).","metadescription":"Bldg-Alter/Repair. 1 or 2 Family Dwelling. Add sill plate anchor bolts and cripple wall plywood per L.A. City Std. Plan #1; no foundation replacement (EQ hazard reduction per Chapter 92).. Permit Finaled. 3840 S BERRYMAN AVE","address":"3840 Berryman Avenue, CA, Los Angeles, 90066, US","ct":"2723.01","ev":"N","apc":"West Los Angeles","cpa":"Palms - Del Rey - Mar Vista","zone":"R1-1","solar":"N","pin_nbr":"114B157   856","use_code":"1","geolocation":"POINT (-118.42217 34.00852)","status_date":"06/09/2004","permit_group":"Building","refresh_time":"06/10/2026","type_lat_lon":"ADDRESS","business_unit":"Express Permit"},"geometry":{"type":"Point","coordinates":[-118.42217,34.00852]}},{"type":"Feature","properties":{"date":"2004-02-23T00:00:00.000Z","year":2004,"description":"Anchor bolting/bracing foundation per L.A. City standard plan.","metadescription":"Bldg-Alter/Repair. 1 or 2 Family Dwelling. Anchor bolting/bracing foundation per L.A. City standard plan.. Permit Finaled. 3959 S COOLIDGE AVE","address":"3959 Coolidge Avenue, CA, Los Angeles, 90066, US","ct":"2723.01","ev":"N","apc":"West Los Angeles","cpa":"Palms - Del Rey - Mar Vista","zone":"R1-1","solar":"N","pin_nbr":"114B157  1288","use_code":"1","geolocation":"POINT (-118.42153 34.00596)","status_date":"03/15/2004","permit_group":"Building","refresh_time":"06/10/2026","type_lat_lon":"ADDRESS","business_unit":"Express Permit"},"geometry":{"type":"Point","coordinates":[-118.42153,34.00596]}},{"type":"Feature","properties":{"date":"2004-01-12T00:00:00.000Z","year":2004,"description":"SEISMIC RETROFIT; FOUNDATION ANCHOR BOLTING/CRIPPLE WALL BRACING PER LA CITY STANDARD PLAN.  COMPLIES WITH MGD 109 PROPERTY TAX EXCLUSION. (MAXIMUM 4 UNIT BLDGS.)","metadescription":"Bldg-Alter/Repair. 1 or 2 Family Dwelling. SEISMIC RETROFIT; FOUNDATION ANCHOR BOLTING/CRIPPLE WALL BRACING PER LA CITY STANDARD PLAN.  COMPLIES WITH MGD 109 PROPERTY TAX EXCLUSION. (MAXIMUM 4 UNIT BLDGS.). Permit Finaled. 3957 S ALBRIGHT AVE","address":"3957 Albright Avenue, CA, Los Angeles, 90066, US","ct":"2723.01","ev":"N","apc":"West Los Angeles","cpa":"Palms - Del Rey - Mar Vista","zone":"R1-1","solar":"N","pin_nbr":"114B161   114","use_code":"1","geolocation":"POINT (-118.41836 34.00777)","status_date":"01/13/2004","permit_group":"Building","refresh_time":"06/10/2026","type_lat_lon":"ADDRESS","business_unit":"Express Permit"},"geometry":{"type":"Point","coordinates":[-118.41836,34.00777]}},{"type":"Feature","properties":{"date":"2003-04-16T00:00:00.000Z","year":2003,"description":"change 3 windows and 1 doors, same size and location.  seismic retrofit; foundation anchor bolting/cripple wall bracing per LA City Std. Plan.  residential kitchen and bathroom, and laundry room  remodel - repair/replace only.  no changes in walls or openings.   electrical, plumbing(repipe and replace), and hvac combined.  tear off existing roofing.  reroof with class A fiberglass or asphalt shingles(max 2 overlays total) with 1/2\" cdx plywood.  30sqrs.  drywall/plaster patch and paint.  replace(dry rot, water, termite) damaged(roof rafter, joist or other) with same size and spacing(less than 10% damage)","metadescription":"Bldg-Alter/Repair. 1 or 2 Family Dwelling. change 3 windows and 1 doors, same size and location.  seismic retrofit; foundation anchor bolting/cripple wall bracing per LA City Std. Plan.  residential kitchen and bathroom, and laundry room  remodel - repair/replace only.  no changes in walls or openings.   electrical, plumbing(repipe and replace), and hvac combined.  tear off existing roofing.  reroof with class A fiberglass or asphalt shingles(max 2 overlays total) with 1/2\" cdx plywood.  30sqrs.  drywall/plaster patch and paint.  replace(dry rot, water, termite) damaged(roof rafter, joist or other) with same size and spacing(less than 10% damage). Permit Finaled. 3922 S COOLIDGE AVE","address":"3922 Coolidge Avenue, CA, Los Angeles, 90066, US","ct":"2723.01","ev":"N","apc":"West Los Angeles","cpa":"Palms - Del Rey - Mar Vista","zone":"R1-1","solar":"N","pin_nbr":"114B157  1114","use_code":"1","geolocation":"POINT (-118.42201 34.00692)","status_date":"08/28/2003","permit_group":"Building","refresh_time":"06/10/2026","type_lat_lon":"ADDRESS","business_unit":"Express Permit"},"geometry":{"type":"Point","coordinates":[-118.42201,34.00692]}},{"type":"Feature","properties":{"date":"2002-12-27T00:00:00.000Z","year":2002,"description":"ANCHOR BOLTING AND FOUNDATION RETROFIT PER L.A. STANDARD PLAN DETAIL.","metadescription":"Bldg-Alter/Repair. 1 or 2 Family Dwelling. ANCHOR BOLTING AND FOUNDATION RETROFIT PER L.A. STANDARD PLAN DETAIL.. Permit Finaled. 3739 S CARDIFF AVE","address":"3739 Cardiff Avenue, CA, Los Angeles, 90034, US","ct":"2701.00","ev":"N","hl":"YES","apc":"West Los Angeles","zone":"R3-1","solar":"N","pin_nbr":"120B165   597","use_code":"1","geolocation":"POINT (-118.39703 34.02607)","status_date":"01/03/2003","permit_group":"Building","refresh_time":"06/10/2026","type_lat_lon":"ADDRESS","business_unit":"Express Permit"},"geometry":{"type":"Point","coordinates":[-118.39703,34.02607]}},{"type":"Feature","properties":{"date":"2002-07-08T00:00:00.000Z","year":2002,"description":"Supplemental to permit # 02014-30000-03737 to include replacement of a beam over the kitchen and additiona new posts and pad foundation.,  NO ADDITIONAL SQUARE FOOTAGE.","metadescription":"Bldg-Alter/Repair. 1 or 2 Family Dwelling. Supplemental to permit # 02014-30000-03737 to include replacement of a beam over the kitchen and additiona new posts and pad foundation.,  NO ADDITIONAL SQUARE FOOTAGE.. Permit Finaled. 3708 S COOLIDGE AVE","address":"3708 Coolidge Avenue, CA, Los Angeles, 90066, US","ct":"2719.00","ev":"N","apc":"West Los Angeles","zone":"R1-1","solar":"N","pin_nbr":"114B157  1551","use_code":"1","geolocation":"POINT (-118.42511 34.011)","status_date":"08/15/2003","construction":"Type V-N Construction","permit_group":"Building","refresh_time":"06/10/2026","type_lat_lon":"ADDRESS","business_unit":"Plan Check at Counter","square_footage":"57"},"geometry":{"type":"Point","coordinates":[-118.42511,34.011]}},{"type":"Feature","properties":{"date":"2001-07-16T00:00:00.000Z","year":2001,"description":"Anchor Bolting/Bracing Foundation Per L.A. Standard Plan Number One.","metadescription":"Bldg-Alter/Repair. 1 or 2 Family Dwelling. Anchor Bolting/Bracing Foundation Per L.A. Standard Plan Number One.. Permit Finaled. 3943 S MCLAUGHLIN AVE","address":"3943 Mclaughlin Avenue, CA, Los Angeles, 90066, US","ct":"2723.01","ev":"N","apc":"West Los Angeles","zone":"R1-1","solar":"N","pin_nbr":"114B157  1291","use_code":"1","geolocation":"POINT (-118.42259 34.00592)","status_date":"07/26/2001","permit_group":"Building","refresh_time":"06/10/2026","type_lat_lon":"ADDRESS","business_unit":"Express Permit"},"geometry":{"type":"Point","coordinates":[-118.42259,34.00592]}},{"type":"Feature","properties":{"date":"2000-01-21T00:00:00.000Z","year":2000,"description":"1-story addition to master bedroom (approx. 4'x12'-4\"). Revise foundation plan of 99014-30000-07293 to add the option of using the raised foundation system (all work per Type V Sheet).","metadescription":"Bldg-Addition. 1 or 2 Family Dwelling. 1-story addition to master bedroom (approx. 4'x12'-4\"). Revise foundation plan of 99014-30000-07293 to add the option of using the raised foundation system (all work per Type V Sheet).. Permit Finaled. 3958 S MCLAUGHLIN AVE","address":"3958 Mclaughlin Avenue, CA, Los Angeles, 90066, US","ct":"2723.01","ev":"N","apc":"West Los Angeles","zone":"R1-1","solar":"N","pin_nbr":"114B157  1310","use_code":"1","geolocation":"POINT (-118.42205 34.00568)","status_date":"07/25/2000","construction":"Type V-N Construction","permit_group":"Building","refresh_time":"06/10/2026","type_lat_lon":"ADDRESS","business_unit":"Plan Check at Counter","square_footage":"49.32"},"geometry":{"type":"Point","coordinates":[-118.42205,34.00568]}},{"type":"Feature","properties":{"date":"1999-08-26T00:00:00.000Z","year":1999,"description":"FOUNDATION BOLTING PER LA CITY STANDARD PLAN. FULL COMPLIANCE W/ DIVISION 92- CERTIFIED COST $3860 COMPLIES WITH MGD 109 FOR PROPERTY TAX EXCLUSION.","metadescription":"Bldg-Alter/Repair. 1 or 2 Family Dwelling. FOUNDATION BOLTING PER LA CITY STANDARD PLAN. FULL COMPLIANCE W/ DIVISION 92- CERTIFIED COST $3860 COMPLIES WITH MGD 109 FOR PROPERTY TAX EXCLUSION.. Permit Closed. 3967 S COOLIDGE AVE","address":"3967 Coolidge Avenue, CA, Los Angeles, 90066, US","ct":"2723.01","ev":"N","apc":"West Los Angeles","solar":"N","pin_nbr":"114B157  1315","use_code":"1","geolocation":"POINT (-118.42138 34.00576)","status_date":"09/15/1999","permit_group":"Building","refresh_time":"06/10/2026","type_lat_lon":"ADDRESS","business_unit":"Express Permit"},"geometry":{"type":"Point","coordinates":[-118.42138,34.00576]}},{"type":"Feature","properties":{"date":"1999-03-15T00:00:00.000Z","year":1999,"description":"voluntary foundation retrofit per L. A. std plan.","metadescription":"Bldg-Alter/Repair. 1 or 2 Family Dwelling. voluntary foundation retrofit per L. A. std plan.. Permit Closed. 4745 S ST NICOLAS AVE","address":"4745 St Nicolas Avenue, CA, Culver City, 90230, US","ct":"2751.00","ev":"N","apc":"West Los Angeles","solar":"N","pin_nbr":"111B165    28","use_code":"1","geolocation":"POINT (-118.40268 34.00328)","status_date":"08/18/1999","permit_group":"Building","refresh_time":"06/10/2026","type_lat_lon":"ADDRESS","business_unit":"Express Permit"},"geometry":{"type":"Point","coordinates":[-118.40268,34.00328]}},{"type":"Feature","properties":{"date":"1998-04-27T00:00:00.000Z","year":1998,"description":"VOLUNTARY FOUNDATION RETROFIT PER LA. STD PLAN #1","metadescription":"Bldg-Alter/Repair. 1 or 2 Family Dwelling. VOLUNTARY FOUNDATION RETROFIT PER LA. STD PLAN #1. Permit Closed. 3923 S BLEDSOE AVE","address":"3923 Bledsoe Avenue, CA, Los Angeles, 90066, US","ct":"2723.01","ev":"N","apc":"West Los Angeles","solar":"N","pin_nbr":"114B157   948","use_code":"1","geolocation":"POINT (-118.41983 34.00811)","status_date":"08/09/1999","permit_group":"Building","refresh_time":"06/10/2026","type_lat_lon":"ADDRESS","business_unit":"Plan Check at Counter"},"geometry":{"type":"Point","coordinates":[-118.41983,34.00811]}},{"type":"Feature","properties":{"date":"1997-04-28T00:00:00.000Z","year":1997,"description":"USE OF LAND FOR PARKING (PERMIT INCLUDES PLAN CHECK FOR LIGHTING POLE FOUNDATIONS)","metadescription":"Nonbldg-New. Commercial. USE OF LAND FOR PARKING (PERMIT INCLUDES PLAN CHECK FOR LIGHTING POLE FOUNDATIONS). Permit Closed. 6000 W JEFFERSON BLVD","address":"5974 Jefferson Boulevard, CA, Los Angeles, 90016, US","ct":"2360.00","ev":"N","apc":"South Los Angeles","zone":"M1-1","solar":"N","pin_nbr":"117B173   162","use_code":"61","geolocation":"POINT (-118.37884 34.02089)","status_date":"10/10/1998","permit_group":"Building","refresh_time":"06/10/2026","type_lat_lon":"ADDRESS","business_unit":"Plan Check at Counter"},"geometry":{"type":"Point","coordinates":[-118.37884,34.02089]}},{"type":"Feature","properties":{"date":"1997-01-30T00:00:00.000Z","year":1997,"description":"FOUNDATION BOLTING per l. a. city standards","metadescription":"Bldg-Alter/Repair. 1 or 2 Family Dwelling. FOUNDATION BOLTING per l. a. city standards. Permit Closed. 11359 W BIONA DR","address":"11359 Biona Drive, CA, Los Angeles, 90066, US","ct":"2719.00","ev":"N","apc":"West Los Angeles","solar":"N","pin_nbr":"114B157   241","use_code":"1","geolocation":"POINT (-118.42197 34.01143)","status_date":"02/05/1997","permit_group":"Building","refresh_time":"06/10/2026","type_lat_lon":"ADDRESS","business_unit":"Plan Check at Counter"},"geometry":{"type":"Point","coordinates":[-118.42197,34.01143]}},{"type":"Feature","properties":{"date":"1996-12-04T00:00:00.000Z","year":1996,"description":"Uderpin a portion of (E) foundation per site plan","metadescription":"Bldg-Alter/Repair. 1 or 2 Family Dwelling. Uderpin a portion of (E) foundation per site plan. Permit Closed. 3676 S CORINTH AVE","address":"3676 Corinth Avenue, CA, Los Angeles, 90066, US","ct":"2719.00","ev":"N","apc":"West Los Angeles","zone":"R1-1","solar":"N","pin_nbr":"117B157  1038","use_code":"1","geolocation":"POINT (-118.42202 34.01281)","status_date":"10/30/1999","permit_group":"Building","refresh_time":"06/10/2026","type_lat_lon":"ADDRESS","business_unit":"Plan Check at Counter"},"geometry":{"type":"Point","coordinates":[-118.42202,34.01281]}}]}
