{"type":"FeatureCollection","features":[{"type":"Feature","properties":{"date":"2025-01-23T00:00:00.000Z","year":2025,"description":"SUPPLEMENTAL TO 24014-20000-04197 TO RELOCATE (E) PORCH WALL AND REVISE PLANS, NO CHANGE TO ROOF PLAN OR EXTERIOR LAYOUT","metadescription":"Bldg-Alter/Repair. 1 or 2 Family Dwelling. SUPPLEMENTAL TO 24014-20000-04197 TO RELOCATE (E) PORCH WALL AND REVISE PLANS, NO CHANGE TO ROOF PLAN OR EXTERIOR LAYOUT. Permit Finaled. 2495 S GLENCOE AVE","address":"2495 S GLENCOE AVE","ct":"2738.00","ev":"N","apc":"West Los Angeles","cpa":"Venice","zone":"R1V2","solar":"N","pin_nbr":"108B149   435","use_code":"1","status_date":"04/10/2025","permit_group":"Building","refresh_time":"06/10/2026","type_lat_lon":"BUILDING","business_unit":"Plan Check at Counter"},"geometry":{"type":"Point","coordinates":[-118.44568508,33.99425796]}},{"type":"Feature","properties":{"date":"2011-04-18T00:00:00.000Z","year":2011,"description":"MAJOR STRUCTURAL REMODEL OF (E) SFD (demolish existing single family dwelling maintining only a few stud walls ) ADDITION OF 497SF...RELOCATE KITCHEN & LAUNDRY ROOM...REMODEL (E) BATHROOM...(N) MASTER BEDROOM/BATH...(N) COVERED PORCH AND BACK PATIO...","metadescription":"Bldg-Addition. 1 or 2 Family Dwelling. MAJOR STRUCTURAL REMODEL OF (E) SFD (demolish existing single family dwelling maintining only a few stud walls ) ADDITION OF 497SF...RELOCATE KITCHEN & LAUNDRY ROOM...REMODEL (E) BATHROOM...(N) MASTER BEDROOM/BATH...(N) COVERED PORCH AND BACK PATIO.... CofO Issued. 2494 S GLENCOE AVE","address":"2494 S GLENCOE AVE","ct":"2738.00","ev":"N","apc":"West Los Angeles","cpa":"Venice","zone":"R1-1","solar":"N","pin_nbr":"108B153   232","use_code":"1","geolocation":"POINT (-118.44535 33.99445)","status_date":"10/28/2011","construction":"Type V-B Construction","permit_group":"Building","refresh_time":"06/10/2026","type_lat_lon":"ADDRESS","business_unit":"Regular Plan Check","square_footage":"1286"},"geometry":{"type":"Point","coordinates":[-118.44535,33.99445]}},{"type":"Feature","properties":{"date":"2010-12-16T00:00:00.000Z","year":2010,"description":"TWO STORY ADDITION & REMODEL:ADD 327 SQ FT TO (E) 1st FLOOR & ADD 1,340 SQ FT 2nd FLOOR.NEW PRE FAB FIREPLACE.ADD NEW COVERED FRONT PORCH(9'2\" X 14').","metadescription":"Bldg-Addition. 1 or 2 Family Dwelling. TWO STORY ADDITION & REMODEL:ADD 327 SQ FT TO (E) 1st FLOOR & ADD 1,340 SQ FT 2nd FLOOR.NEW PRE FAB FIREPLACE.ADD NEW COVERED FRONT PORCH(9'2\" X 14').. CofO Issued. 4240 S NEOSHO AVE","address":"4240 S NEOSHO AVE","ct":"2753.11","ev":"N","apc":"West Los Angeles","cpa":"Palms - Mar Vista - Del Rey","zone":"R1-1","solar":"N","height":"27","pin_nbr":"108B157   575","use_code":"1","geolocation":"POINT (-118.43051 33.99321)","status_date":"01/10/2013","construction":"Type V-B Construction","permit_group":"Building","refresh_time":"06/10/2026","type_lat_lon":"ADDRESS","business_unit":"Regular Plan Check","square_footage":"1667"},"geometry":{"type":"Point","coordinates":[-118.43051,33.99321]}},{"type":"Feature","properties":{"date":"2006-03-14T00:00:00.000Z","year":2006,"description":"Residential remodel: Enclose porch. Wall construction according to Std. Type V.","metadescription":"Bldg-Alter/Repair. 1 or 2 Family Dwelling. Residential remodel: Enclose porch. Wall construction according to Std. Type V.. CofO Issued. 4261 S MOORE ST","address":"4261 S MOORE ST","ct":"2754.00","ev":"N","apc":"West Los Angeles","cpa":"Palms - Mar Vista - Del Rey","zone":"R1-1","solar":"N","pin_nbr":"108B153   800","use_code":"1","geolocation":"POINT (-118.43295 33.99171)","status_date":"07/31/2007","construction":"Type V-N Construction","permit_group":"Building","refresh_time":"06/10/2026","type_lat_lon":"ADDRESS","business_unit":"Plan Check at Counter","square_footage":"72"},"geometry":{"type":"Point","coordinates":[-118.43295,33.99171]}},{"type":"Feature","properties":{"date":"2002-01-04T00:00:00.000Z","year":2002,"description":"Remodel and Addition:remove bedroom to add to the  garage resulting in a 3-car garage. Remodel the front porch and provide a 2 x 6 addition. Work inlcude reframe front roof creating a gable. Final structure 4-bedrm, 3 bath SFD, w/ library and 3-car garage.","metadescription":"Bldg-Addition. 1 or 2 Family Dwelling. Remodel and Addition:remove bedroom to add to the  garage resulting in a 3-car garage. Remodel the front porch and provide a 2 x 6 addition. Work inlcude reframe front roof creating a gable. Final structure 4-bedrm, 3 bath SFD, w/ library and 3-car garage.. Permit Finaled. 3937 S ALBRIGHT AVE","address":"3937 S ALBRIGHT AVE","ct":"2723.01","ev":"N","apc":"West Los Angeles","zone":"R1-1","solar":"N","pin_nbr":"114B161    97","use_code":"1","geolocation":"POINT (-118.41873 34.00823)","status_date":"07/30/2002","construction":"Type V-N Construction","permit_group":"Building","refresh_time":"06/10/2026","type_lat_lon":"ADDRESS","business_unit":"Plan Check at Counter","square_footage":"12"},"geometry":{"type":"Point","coordinates":[-118.41873,34.00823]}},{"type":"Feature","properties":{"date":"2001-08-10T00:00:00.000Z","year":2001,"description":"FRAME NEW GABLE ROOF OVER EX'G SHED ROOF ON 18'X26' REAR PORTION OF HOUSE AND REROOF ENTIRE HOUSE WITH CLASS B MIN FIRE RETARDANT ROOFING OVER 1/2\" CDX PLYWOOD. REPLACE EXISTING FRAMING OVER FRONT PORCH. REMOVE MASONARY FIREPLACE AND FRAME-IN OPENING PER TYPE V SHEET.","metadescription":"Bldg-Alter/Repair. 1 or 2 Family Dwelling. FRAME NEW GABLE ROOF OVER EX'G SHED ROOF ON 18'X26' REAR PORTION OF HOUSE AND REROOF ENTIRE HOUSE WITH CLASS B MIN FIRE RETARDANT ROOFING OVER 1/2\" CDX PLYWOOD. REPLACE EXISTING FRAMING OVER FRONT PORCH. REMOVE MASONARY FIREPLACE AND FRAME-IN OPENING PER TYPE V SHEET.. Permit Expired. 3260 S CATTARAUGUS AVE","address":"3260 S CATTARAUGUS AVE","ct":"2702.00","ev":"N","apc":"South Los Angeles","zone":"RD2-1","solar":"N","pin_nbr":"123B169  1145","use_code":"1","geolocation":"POINT (-118.38145 34.03104)","status_date":"03/30/2006","permit_group":"Building","refresh_time":"06/10/2026","type_lat_lon":"ADDRESS","business_unit":"Plan Check at Counter"},"geometry":{"type":"Point","coordinates":[-118.38145,34.03104]}},{"type":"Feature","properties":{"date":"1999-12-21T00:00:00.000Z","year":1999,"description":"Expand/remodel Bedrm&family Rm(12.42'x32.75',irr.252s.f.);replace8 win dows,rebuild(E)portion(256s.f)of family Rm&front porch(includ. ftings, framing,roof;add Bathrm within(E) space,3(N)skylights,remodel kitchen. Add parapet on Bldg perimeter.Combined:Electrical/plumbing/HVAC.","metadescription":"Bldg-Addition. 1 or 2 Family Dwelling. Expand/remodel Bedrm&family Rm(12.42'x32.75',irr.252s.f.);replace8 win dows,rebuild(E)portion(256s.f)of family Rm&front porch(includ. ftings, framing,roof;add Bathrm within(E) space,3(N)skylights,remodel kitchen. Add parapet on Bldg perimeter.Combined:Electrical/plumbing/HVAC.. CofO Issued. 4111 S MOORE ST","address":"4111 S MOORE ST","ct":"2754.00","ev":"N","apc":"West Los Angeles","zone":"R1-1","solar":"N","pin_nbr":"108B153   360","use_code":"1","geolocation":"POINT (-118.43563 33.99389)","status_date":"03/28/2008","construction":"Type V-N Construction","permit_group":"Building","refresh_time":"06/10/2026","type_lat_lon":"ADDRESS","business_unit":"Plan Check at Counter","square_footage":"252"},"geometry":{"type":"Point","coordinates":[-118.43563,33.99389]}}]}
