{"type":"FeatureCollection","features":[{"type":"Feature","properties":{"date":"2026-06-01T00:00:00.000Z","year":2026,"description":"EPLANTEMPORARY SHORING FOR PROPOSED APARTMENT WITH BASEMENT","metadescription":"Nonbldg-New. Apartment. EPLANTEMPORARY SHORING FOR PROPOSED APARTMENT WITH BASEMENT. Quality Review Completed. 12701 W WASHINGTON PL","address":"12701 W WASHINGTON PL","ct":"2722.02","ev":"N","apc":"West Los Angeles","cpa":"Palms - Mar Vista - Del Rey","zone":"C2-1","solar":"N","pin_nbr":"111B153  1159","use_code":"23","status_date":"06/09/2026","permit_group":"Building","refresh_time":"06/10/2026","type_lat_lon":"ADDRESS","business_unit":"Regular Plan Check"},"geometry":{"type":"Point","coordinates":[-118.4351,33.99722]}},{"type":"Feature","properties":{"date":"2022-12-21T00:00:00.000Z","year":2022,"description":"ePlan : TEMPORARY SHORING WITH SOLDIER PILES & LAGGING  FOR NEW 7 STORY 207 UNITS (19 ELI = 9%) AFFORDABLE HOUSING APARTMENT TO INCLUDE 4 STORY TYPE IIIA APARTMENT OVER 3 STORY TYPE IA APARTMENT/ LIVE WORK OVER 2 LEVEL SUBTERRENEAN PARKING,","metadescription":"Nonbldg-New. Apartment. ePlan : TEMPORARY SHORING WITH SOLDIER PILES & LAGGING  FOR NEW 7 STORY 207 UNITS (19 ELI = 9%) AFFORDABLE HOUSING APARTMENT TO INCLUDE 4 STORY TYPE IIIA APARTMENT OVER 3 STORY TYPE IA APARTMENT/ LIVE WORK OVER 2 LEVEL SUBTERRENEAN PARKING,. Quality Review Completed. 10003 W WASHINGTON BLVD","address":"10003 W WASHINGTON BLVD","ct":"2699.05","ev":"N","apc":"West Los Angeles","cpa":"Palms - Mar Vista - Del Rey","zone":"C2-1","solar":"N","pin_nbr":"120B165  1359","use_code":"23","status_date":"03/02/2023","permit_group":"Building","refresh_time":"06/10/2026","type_lat_lon":"ADDRESS","business_unit":"Plan Check at Counter"},"geometry":{"type":"Point","coordinates":[-118.3985,34.02122]}},{"type":"Feature","properties":{"date":"2022-12-21T00:00:00.000Z","year":2022,"description":"ePlan : TEMPORARY SHORING WITH SOLDIER PILES & LAGGING  FOR NEW 7 STORY 207 UNITS (19 ELI = 9%) AFFORDABLE HOUSING APARTMENT TO INCLUDE 4 STORY TYPE IIIA APARTMENT OVER 3 STORY TYPE IA APARTMENT/ LIVE WORK OVER 2 LEVEL SUBTERRENEAN PARKING,","metadescription":"Nonbldg-New. Apartment. ePlan : TEMPORARY SHORING WITH SOLDIER PILES & LAGGING  FOR NEW 7 STORY 207 UNITS (19 ELI = 9%) AFFORDABLE HOUSING APARTMENT TO INCLUDE 4 STORY TYPE IIIA APARTMENT OVER 3 STORY TYPE IA APARTMENT/ LIVE WORK OVER 2 LEVEL SUBTERRENEAN PARKING,. Quality Review Completed. 10003 W WASHINGTON BLVD","address":"10003 W WASHINGTON BLVD","ct":"2699.05","ev":"N","apc":"West Los Angeles","cpa":"Palms - Mar Vista - Del Rey","zone":"C2-1","solar":"N","pin_nbr":"120B165  1359","use_code":"23","status_date":"03/02/2023","permit_group":"Building","refresh_time":"06/10/2026","type_lat_lon":"ADDRESS","business_unit":"Regular Plan Check"},"geometry":{"type":"Point","coordinates":[-118.3985,34.02122]}}]}
