{"type":"FeatureCollection","features":[{"type":"Feature","properties":{"date":"2022-09-07T00:00:00.000Z","year":2022,"description":"(N) ADDITION  AND CONVERT (E) DETACHED STORAGE ROOM AND GARAGE TO ACCESSORY DWELLING UNIT PER LAMC 12.22 A.33(c) and (d)","metadescription":"Bldg-Addition. 1 or 2 Family Dwelling. (N) ADDITION  AND CONVERT (E) DETACHED STORAGE ROOM AND GARAGE TO ACCESSORY DWELLING UNIT PER LAMC 12.22 A.33(c) and (d). CofO Issued. 1265 S INDIANA ST","address":"1263 South Indiana Street, CA, Los Angeles, 90023, US","ct":"2049.20","ev":"N","apc":"East Los Angeles","cpa":"Boyle Heights","zone":"R2-1-CUGU","solar":"N","pin_nbr":"118-5A229 188","use_code":"1","status_date":"07/08/2024","construction":"Type V-B Construction","permit_group":"Building","refresh_time":"06/10/2026","type_lat_lon":"PIN","business_unit":"Expanded Counter Plan Check","square_footage":"341"},"geometry":{"type":"Point","coordinates":[-118.19253627,34.01701305]}},{"type":"Feature","properties":{"date":"2004-04-20T00:00:00.000Z","year":2004,"description":"Revise permit 04020-30000-01305 to add an additional 7' to length of wall.  reestablish front yard setback per projecting buildings (see comments.)","metadescription":"Nonbldg-New. 1 or 2 Family Dwelling. Revise permit 04020-30000-01305 to add an additional 7' to length of wall.  reestablish front yard setback per projecting buildings (see comments.). Permit Finaled. 1259 S INDIANA ST","address":"1253 South Indiana Street, CA, Los Angeles, 90023, US","ct":"2049.20","ev":"N","apc":"East Los Angeles","cpa":"Boyle Heights","zone":"R2-1","solar":"N","pin_nbr":"118-5A229 181","use_code":"23","geolocation":"POINT (-118.19241 34.01716)","status_date":"04/27/2004","permit_group":"Building","refresh_time":"06/10/2026","type_lat_lon":"ADDRESS","business_unit":"Plan Check at Counter"},"geometry":{"type":"Point","coordinates":[-118.19241,34.01716]}},{"type":"Feature","properties":{"date":"2004-01-05T00:00:00.000Z","year":2004,"description":"Addition of 2 bedrooms and bathroom/laundry room.  Enlarge dining room.  (32'-10 x 22'-4\")  + 722 s.f.","metadescription":"Bldg-Addition. 1 or 2 Family Dwelling. Addition of 2 bedrooms and bathroom/laundry room.  Enlarge dining room.  (32'-10 x 22'-4\")  + 722 s.f.. Permit Finaled. 1249 S INDIANA ST","address":"1249 South Indiana Street, CA, Los Angeles, 90023, US","ct":"2049.20","ev":"N","apc":"East Los Angeles","cpa":"Boyle Heights","zone":"R2-1","solar":"N","height":"18","pin_nbr":"118-5A229 167","use_code":"1","geolocation":"POINT (-118.19242 34.01738)","status_date":"09/15/2004","construction":"Type V-N Construction","permit_group":"Building","refresh_time":"06/10/2026","type_lat_lon":"ADDRESS","business_unit":"Plan Check at Counter","square_footage":"722"},"geometry":{"type":"Point","coordinates":[-118.19242,34.01738]}},{"type":"Feature","properties":{"date":"2000-07-11T00:00:00.000Z","year":2000,"description":"NEW HOUSE ADDITION 131.5 SQ. FT. @ REAR, EXTEND (E) BEDROOM, ADD BATHROOM & CLOSET","metadescription":"Bldg-Addition. 1 or 2 Family Dwelling. NEW HOUSE ADDITION 131.5 SQ. FT. @ REAR, EXTEND (E) BEDROOM, ADD BATHROOM & CLOSET. Permit Finaled. 1229 S LA PUERTA ST","address":"1225 La Puerta Street, CA, Los Angeles, 90023, US","ct":"2049.00","ev":"N","apc":"East Los Angeles","zone":"R2-1","solar":"N","pin_nbr":"118-5A229 134","use_code":"1","geolocation":"POINT (-118.19342 34.01792)","status_date":"11/30/2000","construction":"Type V-N Construction","permit_group":"Building","refresh_time":"06/10/2026","type_lat_lon":"ADDRESS","business_unit":"Plan Check at Counter","square_footage":"131.5"},"geometry":{"type":"Point","coordinates":[-118.19342,34.01792]}},{"type":"Feature","properties":{"date":"1999-05-21T00:00:00.000Z","year":1999,"description":"New 2nd story addition to single family dwelling (883 s.f.)","metadescription":"Bldg-Addition. 1 or 2 Family Dwelling. New 2nd story addition to single family dwelling (883 s.f.). Permit Finaled. 1233 S LA PUERTA ST","address":"1233 La Puerta Street, CA, Los Angeles, 90023, US","ct":"2049.10","ev":"N","apc":"East Los Angeles","zone":"R2-1","solar":"N","pin_nbr":"118-5A229 141","use_code":"1","geolocation":"POINT (-118.19341 34.01781)","status_date":"03/20/2002","permit_group":"Building","refresh_time":"06/10/2026","type_lat_lon":"ADDRESS","business_unit":"Appointment Plan Check"},"geometry":{"type":"Point","coordinates":[-118.19341,34.01781]}}]}
