{"type":"FeatureCollection","features":[{"type":"Feature","properties":{"date":"2024-05-01T00:00:00.000Z","year":2024,"description":"CHANGE OF USE FROM  (E) WAREHOUSE TO (N) OFFICE BLDG W/ 15 OFFICES **ePlan**","metadescription":"Bldg-Alter/Repair. Commercial. CHANGE OF USE FROM  (E) WAREHOUSE TO (N) OFFICE BLDG W/ 15 OFFICES **ePlan**. Verifications in Progress. 1320 S LA PUERTA ST","address":"1320 La Puerta Street, CA, Los Angeles, 90023, US","ct":"2049.20","ev":"N","apc":"East Los Angeles","cpa":"Boyle Heights","zone":"MR1-1-CUGU","solar":"N","pin_nbr":"118-5A229 210","use_code":"13","status_date":"05/01/2025","construction":"Type V-B Construction","permit_group":"Building","refresh_time":"06/10/2026","type_lat_lon":"ADDRESS","business_unit":"Regular Plan Check"},"geometry":{"type":"Point","coordinates":[-118.1931,34.01671]}},{"type":"Feature","properties":{"date":"2020-02-26T00:00:00.000Z","year":2020,"description":"PROPOSED USE OF LAND FOR AUTOMOBILE PARKING.","metadescription":"Nonbldg-New. Commercial. PROPOSED USE OF LAND FOR AUTOMOBILE PARKING.. Verifications in Progress. 3810 E NOAKES ST","address":"3820 East Noakes Street, CA, Los Angeles, 90023, US","ct":"2049.20","ev":"N","apc":"East Los Angeles","cpa":"Boyle Heights","zone":"M3-1-CUGU","solar":"N","pin_nbr":"117A229    16","use_code":"8","status_date":"05/05/2020","permit_group":"Building","refresh_time":"06/10/2026","type_lat_lon":"PIN","business_unit":"Regular Plan Check"},"geometry":{"type":"Point","coordinates":[-118.19302355,34.01357324]}},{"type":"Feature","properties":{"date":"2018-05-17T00:00:00.000Z","year":2018,"description":"Supplemental to 17010-10000-00857 for fire riser bracing","metadescription":"Bldg-Alter/Repair. Commercial. Supplemental to 17010-10000-00857 for fire riser bracing. Permit Finaled. 1400 S LOS PALOS ST","address":"1400 South Los Palos Street, CA, Los Angeles, 90023, US","ct":"2049.20","ev":"N","apc":"East Los Angeles","cpa":"Boyle Heights","zone":"M3-1-CUGU","solar":"N","pin_nbr":"117A229     8","use_code":"22","geolocation":"POINT (-118.19353102 34.01550578)","status_date":"08/02/2018","permit_group":"Building","refresh_time":"06/10/2026","type_lat_lon":"BUILDING","business_unit":"Plan Check at Counter"},"geometry":{"type":"Point","coordinates":[-118.19353102,34.01550578]}},{"type":"Feature","properties":{"date":"2018-04-27T00:00:00.000Z","year":2018,"description":"Supplemental to 17010-10000-00857 for bathroom an locker room revisions at level 1 and 2","metadescription":"Bldg-Alter/Repair. Commercial. Supplemental to 17010-10000-00857 for bathroom an locker room revisions at level 1 and 2. Permit Finaled. 1400 S LOS PALOS ST","address":"1400 South Los Palos Street, CA, Los Angeles, 90023, US","ct":"2049.20","ev":"N","apc":"East Los Angeles","cpa":"Boyle Heights","zone":"M3-1-CUGU","solar":"N","pin_nbr":"117A229     8","use_code":"13","geolocation":"POINT (-118.19353102 34.01550578)","status_date":"05/18/2018","permit_group":"Building","refresh_time":"06/10/2026","type_lat_lon":"BUILDING","business_unit":"Plan Check at Counter"},"geometry":{"type":"Point","coordinates":[-118.19353102,34.01550578]}},{"type":"Feature","properties":{"date":"2018-03-02T00:00:00.000Z","year":2018,"description":"supplemental ref to pcis # 17010-10000-00857, for deferred submital-fabricate and install roof trusses, girders in the office, dock, equipment room and freezer.no permit fee- fee already charged under original permit.","metadescription":"Bldg-Alter/Repair. Commercial. supplemental ref to pcis # 17010-10000-00857, for deferred submital-fabricate and install roof trusses, girders in the office, dock, equipment room and freezer.no permit fee- fee already charged under original permit.. Permit Finaled. 1400 S LOS PALOS ST","address":"1400 South Los Palos Street, CA, Los Angeles, 90023, US","ct":"2049.20","ev":"N","apc":"East Los Angeles","cpa":"Boyle Heights","zone":"M3-1-CUGU","solar":"N","pin_nbr":"117A229     8","use_code":"13","geolocation":"POINT (-118.19353102 34.01550578)","status_date":"03/06/2018","permit_group":"Building","refresh_time":"06/10/2026","type_lat_lon":"BUILDING","business_unit":"Regular Plan Check"},"geometry":{"type":"Point","coordinates":[-118.19353102,34.01550578]}},{"type":"Feature","properties":{"date":"2017-09-14T00:00:00.000Z","year":2017,"description":"Supplemental to 17010-10000-00857 for slab on grade reinforcement revisions","metadescription":"Bldg-Alter/Repair. Commercial. Supplemental to 17010-10000-00857 for slab on grade reinforcement revisions. Permit Finaled. 1400 S LOS PALOS ST","address":"1400 South Los Palos Street, CA, Los Angeles, 90023, US","ct":"2049.20","ev":"N","apc":"East Los Angeles","cpa":"Boyle Heights","zone":"M3-1-CUGU","solar":"N","pin_nbr":"117A229     8","use_code":"22","geolocation":"POINT (-118.19353102 34.01550578)","status_date":"05/18/2018","permit_group":"Building","refresh_time":"06/10/2026","type_lat_lon":"BUILDING","business_unit":"Plan Check at Counter"},"geometry":{"type":"Point","coordinates":[-118.19353102,34.01550578]}},{"type":"Feature","properties":{"date":"2017-09-01T00:00:00.000Z","year":2017,"description":"Supplemental to 17010-10000-00857 to remove the \"Precast Concrete Panels\" from Deferred Submittal List","metadescription":"Bldg-Alter/Repair. Commercial. Supplemental to 17010-10000-00857 to remove the \"Precast Concrete Panels\" from Deferred Submittal List. Permit Finaled. 1400 S LOS PALOS ST","address":"1400 South Los Palos Street, CA, Los Angeles, 90023, US","ct":"2049.20","ev":"N","apc":"East Los Angeles","cpa":"Boyle Heights","zone":"M3-1-CUGU","solar":"N","pin_nbr":"117A229     8","use_code":"22","geolocation":"POINT (-118.19353102 34.01550578)","status_date":"03/06/2018","permit_group":"Building","refresh_time":"06/10/2026","type_lat_lon":"BUILDING","business_unit":"Plan Check at Counter"},"geometry":{"type":"Point","coordinates":[-118.19353102,34.01550578]}},{"type":"Feature","properties":{"date":"2017-07-31T00:00:00.000Z","year":2017,"description":"New Warehouse and Office bldg","metadescription":"Bldg-New. Commercial. New Warehouse and Office bldg. CofO Issued. 1400 S LOS PALOS ST","address":"1400 South Los Palos Street, CA, Los Angeles, 90023, US","ct":"2049.20","ev":"N","apc":"East Los Angeles","cpa":"Boyle Heights","zone":"M3-1-CUGU","solar":"N","height":"73","pin_nbr":"117A229     8","use_code":"22","geolocation":"POINT (-118.19353102 34.01550578)","status_date":"08/20/2018","construction":"Type II-B Construction","permit_group":"Building","refresh_time":"06/10/2026","type_lat_lon":"BUILDING","business_unit":"Regular Plan Check","square_footage":"490935"},"geometry":{"type":"Point","coordinates":[-118.19353102,34.01550578]}},{"type":"Feature","properties":{"date":"2017-05-30T00:00:00.000Z","year":2017,"description":"SUPPLEMENTAL TO  #17030-10000-02206 TO CHANGE OWNER INFORMATION","metadescription":"Bldg-Alter/Repair. Commercial. SUPPLEMENTAL TO  #17030-10000-02206 TO CHANGE OWNER INFORMATION. Permit Finaled. 3820 E UNION PACIFIC AVE","address":"3815 East Union Pacific Avenue, CA, Los Angeles, 90023, US","ct":"2049.20","ev":"N","apc":"East Los Angeles","cpa":"Boyle Heights","zone":"M3-1-CUGU","solar":"N","pin_nbr":"117A229     8","use_code":"22","geolocation":"POINT (-118.19256 34.01638)","status_date":"05/22/2018","permit_group":"Building","refresh_time":"06/10/2026","type_lat_lon":"ADDRESS","business_unit":"Express Permit"},"geometry":{"type":"Point","coordinates":[-118.19256,34.01638]}},{"type":"Feature","properties":{"date":"2017-05-30T00:00:00.000Z","year":2017,"description":"SUPPLEMENTAL TO #16019-10000-05577 TO CHANGE OWNER INFORMATION","metadescription":"Bldg-Alter/Repair. Commercial. SUPPLEMENTAL TO #16019-10000-05577 TO CHANGE OWNER INFORMATION. Permit Finaled. 3820 E UNION PACIFIC AVE","address":"3815 East Union Pacific Avenue, CA, Los Angeles, 90023, US","ct":"2049.20","ev":"N","apc":"East Los Angeles","cpa":"Boyle Heights","zone":"M3-1-CUGU","solar":"N","pin_nbr":"117A229     8","use_code":"22","geolocation":"POINT (-118.19256 34.01638)","status_date":"05/03/2018","permit_group":"Building","refresh_time":"06/10/2026","type_lat_lon":"ADDRESS","business_unit":"Express Permit"},"geometry":{"type":"Point","coordinates":[-118.19256,34.01638]}},{"type":"Feature","properties":{"date":"2017-05-22T00:00:00.000Z","year":2017,"description":"GRADING ASSOCIATED WITH CONSTRUCTION OF A 490,397 SF COLD STORAGE WAREHOUSE BUILDING AND ASSOCIATED SITE WORK; CUT 41,644 CY FILL 41,644 CY OX 75,524 CY","metadescription":"Grading. Commercial. GRADING ASSOCIATED WITH CONSTRUCTION OF A 490,397 SF COLD STORAGE WAREHOUSE BUILDING AND ASSOCIATED SITE WORK; CUT 41,644 CY FILL 41,644 CY OX 75,524 CY. Permit Finaled. 3820 E UNION PACIFIC AVE","address":"3815 East Union Pacific Avenue, CA, Los Angeles, 90023, US","ct":"2049.20","ev":"N","apc":"East Los Angeles","cpa":"Boyle Heights","zone":"M3-1-CUGU","solar":"N","pin_nbr":"117A229     8","use_code":"60","geolocation":"POINT (-118.19256 34.01638)","status_date":"06/12/2018","permit_group":"Building","refresh_time":"06/10/2026","type_lat_lon":"ADDRESS","business_unit":"Regular Plan Check"},"geometry":{"type":"Point","coordinates":[-118.19256,34.01638]}},{"type":"Feature","properties":{"date":"2017-05-09T00:00:00.000Z","year":2017,"description":"SUPP. TO 16019-10000-05577 TO REVISE WORK DESCRIPTION. REMOVE \"HANDWRECK METHOD ONLY\" IN WORK DESCRIPTION OF ORIGINAL PERMIT. NO CHANGE IN PLOT PLAN","metadescription":"Bldg-Demolition. Commercial. SUPP. TO 16019-10000-05577 TO REVISE WORK DESCRIPTION. REMOVE \"HANDWRECK METHOD ONLY\" IN WORK DESCRIPTION OF ORIGINAL PERMIT. NO CHANGE IN PLOT PLAN. Permit Finaled. 3820 E UNION PACIFIC AVE","address":"3815 East Union Pacific Avenue, CA, Los Angeles, 90023, US","ct":"2049.20","ev":"N","apc":"East Los Angeles","cpa":"Boyle Heights","zone":"M3-1-CUGU","solar":"N","pin_nbr":"117A229     8","use_code":"22","geolocation":"POINT (-118.19256 34.01638)","status_date":"05/03/2018","construction":"Type I-A Construction","permit_group":"Building","refresh_time":"06/10/2026","type_lat_lon":"ADDRESS","business_unit":"Plan Check at Counter"},"geometry":{"type":"Point","coordinates":[-118.19256,34.01638]}},{"type":"Feature","properties":{"date":"2017-04-13T00:00:00.000Z","year":2017,"description":"Demo existing industrial building, approx. 626000 SF.  Handwreck method only.  Sewer Cap Required and Fence and Canopy are Required.","metadescription":"Bldg-Demolition. Commercial. Demo existing industrial building, approx. 626000 SF.  Handwreck method only.  Sewer Cap Required and Fence and Canopy are Required.. Permit Finaled. 3820 E UNION PACIFIC AVE","address":"3815 East Union Pacific Avenue, CA, Los Angeles, 90023, US","ct":"2049.20","ev":"N","apc":"East Los Angeles","cpa":"Boyle Heights","zone":"M3-1-CUGU","solar":"N","pin_nbr":"117A229     8","use_code":"22","geolocation":"POINT (-118.19256 34.01638)","status_date":"05/03/2018","construction":"Type I-A Construction","permit_group":"Building","refresh_time":"06/10/2026","type_lat_lon":"ADDRESS","business_unit":"Plan Check at Counter","square_footage":"0"},"geometry":{"type":"Point","coordinates":[-118.19256,34.01638]}},{"type":"Feature","properties":{"date":"1996-10-31T00:00:00.000Z","year":1996,"description":"Remove 8-9000gal and 1-2000gal underground tanks and backfill to 90% relative compaction.","metadescription":"Grading. Commercial. Remove 8-9000gal and 1-2000gal underground tanks and backfill to 90% relative compaction.. Permit Closed. 3820 E UNION PACIFIC AVE","address":"3815 East Union Pacific Avenue, CA, Los Angeles, 90023, US","ct":"2049.00","ev":"N","apc":"East Los Angeles","solar":"N","pin_nbr":"117A229     8","use_code":"60","geolocation":"POINT (-118.19256 34.01638)","status_date":"03/26/1999","permit_group":"Building","refresh_time":"06/10/2026","type_lat_lon":"ADDRESS","business_unit":"Plan Check at Counter"},"geometry":{"type":"Point","coordinates":[-118.19256,34.01638]}}]}
