{"type":"FeatureCollection","features":[{"type":"Feature","properties":{"date":"2025-06-04T00:00:00.000Z","year":2025,"description":"Excavation of lead-impacted soils to maximum depth of 18\" below ground surface and off-site disposal. Placement and compactio of clean soil mix, re-landscape in-kind. Vol 84 CY","metadescription":"Grading. 1 or 2 Family Dwelling. Excavation of lead-impacted soils to maximum depth of 18\" below ground surface and off-site disposal. Placement and compactio of clean soil mix, re-landscape in-kind. Vol 84 CY. Permit Finaled. 1304 S PRADO ST","address":"1304 Prado Street, CA, Los Angeles, 90023, US","ct":"2049.20","ev":"N","apc":"East Los Angeles","cpa":"Boyle Heights","zone":"R2-1-CUGU","solar":"N","pin_nbr":"118-5A229 184","use_code":"60","status_date":"06/24/2025","permit_group":"Building","refresh_time":"06/10/2026","type_lat_lon":"ADDRESS","business_unit":"Regular Plan Check"},"geometry":{"type":"Point","coordinates":[-118.19409,34.01715]}},{"type":"Feature","properties":{"date":"2019-07-18T00:00:00.000Z","year":2019,"description":"Excavation of lead-impacted soil to a maximum depth of 18 inches below grade and off-site disposal. Placement and compaction of clean soil mix, re-landscape in kind.","metadescription":"Grading. 1 or 2 Family Dwelling. Excavation of lead-impacted soil to a maximum depth of 18 inches below grade and off-site disposal. Placement and compaction of clean soil mix, re-landscape in kind.. Permit Finaled. 1249 S INDIANA ST","address":"1249 South Indiana Street, CA, Los Angeles, 90023, US","ct":"2049.20","ev":"N","apc":"East Los Angeles","cpa":"Boyle Heights","zone":"R2-1-CUGU","solar":"N","pin_nbr":"118-5A229 167","use_code":"60","geolocation":"POINT (-118.19242 34.01738)","status_date":"12/16/2019","permit_group":"Building","refresh_time":"06/10/2026","type_lat_lon":"ADDRESS","business_unit":"Regular Plan Check"},"geometry":{"type":"Point","coordinates":[-118.19242,34.01738]}}]}
