{"type":"FeatureCollection","features":[{"type":"Feature","properties":{"date":"2022-09-07T00:00:00.000Z","year":2022,"description":"(N) ADDITION  AND CONVERT (E) DETACHED STORAGE ROOM AND GARAGE TO ACCESSORY DWELLING UNIT PER LAMC 12.22 A.33(c) and (d)","metadescription":"Bldg-Addition. 1 or 2 Family Dwelling. (N) ADDITION  AND CONVERT (E) DETACHED STORAGE ROOM AND GARAGE TO ACCESSORY DWELLING UNIT PER LAMC 12.22 A.33(c) and (d). CofO Issued. 1265 S INDIANA ST","address":"1263 South Indiana Street, CA, Los Angeles, 90023, US","ct":"2049.20","ev":"N","apc":"East Los Angeles","cpa":"Boyle Heights","zone":"R2-1-CUGU","solar":"N","pin_nbr":"118-5A229 188","use_code":"1","status_date":"07/08/2024","construction":"Type V-B Construction","permit_group":"Building","refresh_time":"06/10/2026","type_lat_lon":"PIN","business_unit":"Expanded Counter Plan Check","square_footage":"341"},"geometry":{"type":"Point","coordinates":[-118.19253627,34.01701305]}},{"type":"Feature","properties":{"date":"2000-06-30T00:00:00.000Z","year":2000,"description":"REVISE PERMIT ISSUED IN 1992 FOR GARAGE. BUILD CARPORT instead GARAGE WAS NEVER BUILT.(18x20)","metadescription":"Bldg-New. 1 or 2 Family Dwelling. REVISE PERMIT ISSUED IN 1992 FOR GARAGE. BUILD CARPORT instead GARAGE WAS NEVER BUILT.(18x20). Permit Finaled. 1312 S LA PUERTA ST","address":"1312 La Puerta Street, CA, Los Angeles, 90023, US","ct":"2049.00","ev":"N","apc":"East Los Angeles","zone":"R2-1","solar":"N","pin_nbr":"118-5A229 196","use_code":"7","geolocation":"POINT (-118.1931 34.01693)","status_date":"12/19/2000","construction":"Type V-N Construction","permit_group":"Building","refresh_time":"06/10/2026","type_lat_lon":"ADDRESS","business_unit":"Plan Check at Counter","square_footage":"360"},"geometry":{"type":"Point","coordinates":[-118.1931,34.01693]}}]}
