{"type":"FeatureCollection","features":[{"type":"Feature","properties":{"date":"2018-03-02T00:00:00.000Z","year":2018,"description":"supplemental ref to pcis # 17010-10000-00857, for deferred submital-fabricate and install roof trusses, girders in the office, dock, equipment room and freezer.no permit fee- fee already charged under original permit.","metadescription":"Bldg-Alter/Repair. Commercial. supplemental ref to pcis # 17010-10000-00857, for deferred submital-fabricate and install roof trusses, girders in the office, dock, equipment room and freezer.no permit fee- fee already charged under original permit.. Permit Finaled. 1400 S LOS PALOS ST","address":"1400 South Los Palos Street, CA, Los Angeles, 90023, US","ct":"2049.20","ev":"N","apc":"East Los Angeles","cpa":"Boyle Heights","zone":"M3-1-CUGU","solar":"N","pin_nbr":"117A229     8","use_code":"13","geolocation":"POINT (-118.19353102 34.01550578)","status_date":"03/06/2018","permit_group":"Building","refresh_time":"06/10/2026","type_lat_lon":"BUILDING","business_unit":"Regular Plan Check"},"geometry":{"type":"Point","coordinates":[-118.19353102,34.01550578]}},{"type":"Feature","properties":{"date":"2003-06-24T00:00:00.000Z","year":2003,"description":"TEAR OFF, REPLACE WOOD AND REROOF W/ COMP SHING.","metadescription":"Bldg-Alter/Repair. 1 or 2 Family Dwelling. TEAR OFF, REPLACE WOOD AND REROOF W/ COMP SHING.. Permit Expired. 1245 S LA PUERTA ST","address":"1245 La Puerta Street, CA, Los Angeles, 90023, US","ct":"2049.20","ev":"N","apc":"East Los Angeles","cpa":"Boyle Heights","zone":"R2-1","solar":"N","pin_nbr":"118-5A229 162","use_code":"1","geolocation":"POINT (-118.19341 34.01748)","status_date":"03/26/2007","permit_group":"Building","refresh_time":"06/10/2026","type_lat_lon":"ADDRESS","business_unit":"Express Permit"},"geometry":{"type":"Point","coordinates":[-118.19341,34.01748]}},{"type":"Feature","properties":{"date":"2003-03-21T00:00:00.000Z","year":2003,"description":"REPLACE SHINGLES ON ROOF.","metadescription":"Bldg-Alter/Repair. 1 or 2 Family Dwelling. REPLACE SHINGLES ON ROOF.. Permit Finaled. 1237 S LA PUERTA ST","address":"1237 La Puerta Street, CA, Los Angeles, 90023, US","ct":"2049.20","ev":"N","apc":"East Los Angeles","cpa":"Boyle Heights","zone":"R2-1","solar":"N","pin_nbr":"118-5A229 148","use_code":"1","geolocation":"POINT (-118.19341 34.0177)","status_date":"04/02/2003","permit_group":"Building","refresh_time":"06/10/2026","type_lat_lon":"ADDRESS","business_unit":"Express Permit"},"geometry":{"type":"Point","coordinates":[-118.19341,34.0177]}},{"type":"Feature","properties":{"date":"2001-06-28T00:00:00.000Z","year":2001,"description":"REVISE WORK DESCRIPTION TO INCLUDE REFRAME ROOF PER TYPE V SHEET.","metadescription":"Bldg-Alter/Repair. 1 or 2 Family Dwelling. REVISE WORK DESCRIPTION TO INCLUDE REFRAME ROOF PER TYPE V SHEET.. Permit Finaled. 1240 S LA PUERTA ST","address":"1236 La Puerta Street, CA, Los Angeles, 90023, US","ct":"2049.10","ev":"N","apc":"East Los Angeles","zone":"R2-1","solar":"N","pin_nbr":"118-5A229 147","use_code":"1","geolocation":"POINT (-118.1931 34.0177)","status_date":"06/25/2008","permit_group":"Building","refresh_time":"06/10/2026","type_lat_lon":"ADDRESS","business_unit":"Express Permit"},"geometry":{"type":"Point","coordinates":[-118.1931,34.0177]}},{"type":"Feature","properties":{"date":"2001-05-18T00:00:00.000Z","year":2001,"description":"CHANGE-OUT (7) WINDOWS & (1) DOOR -SAME SIZE & LOCATION, REROOFING WITH PLYWOOD & SHINGLES, PLASTER & STUCCO.","metadescription":"Bldg-Alter/Repair. 1 or 2 Family Dwelling. CHANGE-OUT (7) WINDOWS & (1) DOOR -SAME SIZE & LOCATION, REROOFING WITH PLYWOOD & SHINGLES, PLASTER & STUCCO.. Permit Expired. 1240 S LA PUERTA ST","address":"1236 La Puerta Street, CA, Los Angeles, 90023, US","ct":"2049.10","ev":"N","apc":"East Los Angeles","zone":"R2-1","solar":"N","pin_nbr":"118-5A229 147","use_code":"1","geolocation":"POINT (-118.1931 34.0177)","status_date":"03/12/2007","permit_group":"Building","refresh_time":"06/10/2026","type_lat_lon":"ADDRESS","business_unit":"Express Permit"},"geometry":{"type":"Point","coordinates":[-118.1931,34.0177]}},{"type":"Feature","properties":{"date":"2000-09-20T00:00:00.000Z","year":2000,"description":"REROOF - 14 SQS. TEAROFF, OVER EXISTING SHEETING. 25 YR COMP. SHINGLES CLASS 'A'.","metadescription":"Bldg-Alter/Repair. 1 or 2 Family Dwelling. REROOF - 14 SQS. TEAROFF, OVER EXISTING SHEETING. 25 YR COMP. SHINGLES CLASS 'A'.. Permit Finaled. 1246 S LA PUERTA ST","address":"1246 La Puerta Street, CA, Los Angeles, 90023, US","ct":"2049.10","ev":"N","apc":"East Los Angeles","zone":"R2-1","solar":"N","pin_nbr":"118-5A229 161","use_code":"1","geolocation":"POINT (-118.1931 34.01748)","status_date":"10/05/2009","permit_group":"Building","refresh_time":"06/10/2026","type_lat_lon":"ADDRESS","business_unit":"Express Permit"},"geometry":{"type":"Point","coordinates":[-118.1931,34.01748]}}]}
