{"type":"FeatureCollection","features":[{"type":"Feature","properties":{"date":"2017-12-27T00:00:00.000Z","year":2017,"description":"SUPPLEMENAL TO CORRECT WORK DESCRIPTION TO:Install (4) non-illuminated channel letter wall signs;  (4)  104'-1\"(W) x 10'-0\"(H) SIGN, \"PREFERRED FREEZER SERVICES \"BIG BEAR\"\"  (46.16' ABOVE GRADE; 50.83' ABOVE GRADE; 49.08' ABOVE GRADE; 52.16' ABOVE GRADE )NO FEE DEPARTMENT ERROR","metadescription":"Sign. Onsite. SUPPLEMENAL TO CORRECT WORK DESCRIPTION TO:Install (4) non-illuminated channel letter wall signs;  (4)  104'-1\"(W) x 10'-0\"(H) SIGN, \"PREFERRED FREEZER SERVICES \"BIG BEAR\"\"  (46.16' ABOVE GRADE; 50.83' ABOVE GRADE; 49.08' ABOVE GRADE; 52.16' ABOVE GRADE )NO FEE DEPARTMENT ERROR. Permit Finaled. 3820 E UNION PACIFIC AVE","address":"3815 East Union Pacific Avenue, CA, Los Angeles, 90023, US","ct":"2049.20","ev":"N","apc":"East Los Angeles","cpa":"Boyle Heights","zone":"M3-1-CUGU","solar":"N","pin_nbr":"117A229     8","use_code":"19","geolocation":"POINT (-118.19256 34.01638)","status_date":"04/24/2018","permit_group":"Building","refresh_time":"06/10/2026","type_lat_lon":"ADDRESS","business_unit":"Plan Check at Counter"},"geometry":{"type":"Point","coordinates":[-118.19256,34.01638]}},{"type":"Feature","properties":{"date":"2017-12-19T00:00:00.000Z","year":2017,"description":"*** S P I  ONLY *** Install (4) non-illuminated channel letter wall signs;  (4)  104'-1\"(W) x 10'-0\"(H) SIGN, \"PREFERRED FREEZER SERVICES \"BIG BEAR\"\" (XXXX sf, 46.16' ABOVE GRADE; 50.83' ABOVE GRADE; 49.08' ABOVE GRADE; 52.16' ABOVE GRADE );","metadescription":"Sign. Onsite. *** S P I  ONLY *** Install (4) non-illuminated channel letter wall signs;  (4)  104'-1\"(W) x 10'-0\"(H) SIGN, \"PREFERRED FREEZER SERVICES \"BIG BEAR\"\" (XXXX sf, 46.16' ABOVE GRADE; 50.83' ABOVE GRADE; 49.08' ABOVE GRADE; 52.16' ABOVE GRADE );. Permit Closed. 3820 E UNION PACIFIC AVE","address":"3815 East Union Pacific Avenue, CA, Los Angeles, 90023, US","ct":"2049.20","ev":"N","apc":"East Los Angeles","cpa":"Boyle Heights","zone":"M3-1-CUGU","solar":"N","pin_nbr":"117A229     8","use_code":"19","geolocation":"POINT (-118.19256 34.01638)","status_date":"04/24/2018","permit_group":"Building","refresh_time":"06/10/2026","type_lat_lon":"ADDRESS","business_unit":"Plan Check at Counter"},"geometry":{"type":"Point","coordinates":[-118.19256,34.01638]}}]}
