{"type":"FeatureCollection","features":[{"type":"Feature","properties":{"date":"2024-07-26T12:18:08.000Z","year":2024,"description":"revision to 202212229020. correct and clarify incorrect hazardous classified information at med gas room shown on elec sheet note 2. medical gas stored at med gas room (oxygent and nitrous oxide is not identified as flammable anesthtics per code definition and not listed on explosion control req per","metadescription":"8. revision to 202212229020. correct and clarify incorrect hazardous classified information at med gas room shown on elec sheet note 2. medical gas stored at med gas room (oxygent and nitrous oxide is not identified as flammable anesthtics per code definition and not listed on explosion control req per. complete. 1635","address":"1635","adu":"N","lot":"034","plansets":"2","data_as_of":"2025 Jan 29 11:55:00 PM","filed_date":"06/13/2024 11:25:38 AM","street_name":"Divisadero","point_source":"eas_address_point","revised_cost":"1","street_suffix":"St","data_loaded_at":"2025 Jan 30 03:34:26 AM","existing_units":"0","proposed_units":"0","existing_occupancy":"B,I-2.1,S-2","proposed_occupancy":"B,I-2.1,S-2","current_status_date":"11/20/2024 10:16:17 AM","supervisor_district":"5","primary_address_flag":"Y","permit_type_definition":"otc alterations permit","last_permit_activity_date":"07/26/2024 12:02:29 PM","existing_construction_type":"1","number_of_existing_stories":"6","number_of_proposed_stories":"6","proposed_construction_type":"1","application_submission_method":"in-house","neighborhoods_analysis_boundaries":"Japantown","existing_construction_type_description":"constr type 1","proposed_construction_type_description":"constr type 1"},"geometry":{"type":"Point","coordinates":[-122.439965271,37.784646371]}},{"type":"Feature","properties":{"date":"2024-03-27T12:02:33.000Z","year":2024,"description":"5th fl, suite #500 (phase 2)- demo exsisting suite. new expansion of embryology lab, new medical gas lines, added pacu, new exam room, enlarged waiting room & radiation protection of exam room. new hvac electrical & plumbing","metadescription":"8. 5th fl, suite #500 (phase 2)- demo exsisting suite. new expansion of embryology lab, new medical gas lines, added pacu, new exam room, enlarged waiting room & radiation protection of exam room. new hvac electrical & plumbing. issued. 150","address":"150","adu":"N","lot":"021","plansets":"2","data_as_of":"2025 Jan 29 11:55:00 PM","filed_date":"01/31/2024 09:20:01 AM","street_name":"Spear","point_source":"eas_address_point","revised_cost":"800,000","street_suffix":"St","data_loaded_at":"2025 Jan 30 03:34:26 AM","existing_occupancy":"B","proposed_occupancy":"B","current_status_date":"03/27/2024 12:02:33 PM","supervisor_district":"6","primary_address_flag":"Y","permit_type_definition":"otc alterations permit","last_permit_activity_date":"03/27/2024 11:39:18 AM","existing_construction_type":"1","number_of_existing_stories":"18","number_of_proposed_stories":"18","proposed_construction_type":"1","application_submission_method":"in-house","neighborhoods_analysis_boundaries":"Financial District/South Beach","existing_construction_type_description":"constr type 1","proposed_construction_type_description":"constr type 1"},"geometry":{"type":"Point","coordinates":[-122.393613861,37.791753391]}},{"type":"Feature","properties":{"date":"2023-06-07T14:25:29.000Z","year":2023,"description":"emergency gas repair and sidewalk repair (within property line). gas piping repair by others. usa# 2023060102679","metadescription":"8. emergency gas repair and sidewalk repair (within property line). gas piping repair by others. usa# 2023060102679. complete. 520","address":"520","adu":"N","lot":"002","plansets":"0","data_as_of":"2025 Jan 29 11:55:00 PM","filed_date":"06/02/2023 09:56:11 AM","street_name":"Castro","point_source":"eas_address_point","revised_cost":"1,000","street_suffix":"St","data_loaded_at":"2025 Jan 30 03:34:26 AM","existing_units":"2","proposed_units":"2","existing_occupancy":"R-3,M","proposed_occupancy":"R-3,M","current_status_date":"07/05/2023 09:16:58 AM","supervisor_district":"8","permit_type_definition":"otc alterations permit","last_permit_activity_date":"06/07/2023 02:18:11 PM","existing_construction_type":"5","number_of_existing_stories":"2","number_of_proposed_stories":"2","proposed_construction_type":"5","application_submission_method":"in-house","neighborhoods_analysis_boundaries":"Castro/Upper Market","existing_construction_type_description":"wood frame (5)","proposed_construction_type_description":"wood frame (5)"},"geometry":{"type":"Point","coordinates":[-122.435327771,37.76050236]}},{"type":"Feature","properties":{"date":"2023-06-07T14:25:29.000Z","year":2023,"description":"emergency gas repair and sidewalk repair (within property line). gas piping repair by others. usa# 2023060102679","metadescription":"8. emergency gas repair and sidewalk repair (within property line). gas piping repair by others. usa# 2023060102679. complete. 518","address":"518","adu":"N","lot":"002","plansets":"0","data_as_of":"2025 Jan 29 11:55:00 PM","filed_date":"06/02/2023 09:56:11 AM","street_name":"Castro","point_source":"eas_address_point","revised_cost":"1,000","street_suffix":"St","data_loaded_at":"2025 Jan 30 03:34:26 AM","existing_units":"2","proposed_units":"2","existing_occupancy":"R-3,M","proposed_occupancy":"R-3,M","current_status_date":"07/05/2023 09:16:58 AM","supervisor_district":"8","primary_address_flag":"Y","permit_type_definition":"otc alterations permit","last_permit_activity_date":"06/07/2023 02:18:11 PM","existing_construction_type":"5","number_of_existing_stories":"2","number_of_proposed_stories":"2","proposed_construction_type":"5","application_submission_method":"in-house","neighborhoods_analysis_boundaries":"Castro/Upper Market","existing_construction_type_description":"wood frame (5)","proposed_construction_type_description":"wood frame (5)"},"geometry":{"type":"Point","coordinates":[-122.435327771,37.76050236]}},{"type":"Feature","properties":{"date":"2023-06-02T12:38:25.000Z","year":2023,"description":"installation of medical gas piping system for oxygen at verterinary clinic.","metadescription":"8. installation of medical gas piping system for oxygen at verterinary clinic.. issued. 2343","address":"2343","adu":"N","lot":"001A","unit":"0","plansets":"2","data_as_of":"2025 Jan 29 11:55:00 PM","filed_date":"05/31/2023 12:19:43 PM","street_name":"Fillmore","point_source":"eas_address_point","revised_cost":"80,000","street_suffix":"St","data_loaded_at":"2025 Jan 30 03:34:26 AM","existing_occupancy":"B","proposed_occupancy":"B","current_status_date":"06/02/2023 12:38:25 PM","supervisor_district":"2","primary_address_flag":"Y","permit_type_definition":"otc alterations permit","last_permit_activity_date":"06/02/2023 12:31:58 PM","existing_construction_type":"5","number_of_existing_stories":"2","number_of_proposed_stories":"2","proposed_construction_type":"5","application_submission_method":"in-house","neighborhoods_analysis_boundaries":"Pacific Heights","existing_construction_type_description":"wood frame (5)","proposed_construction_type_description":"wood frame (5)"},"geometry":{"type":"Point","coordinates":[-122.434625125,37.79128374]}},{"type":"Feature","properties":{"date":"2023-02-15T11:03:09.000Z","year":2023,"description":"installation of medical gas in new pet care facility. ref to t.i. 202112224898","metadescription":"8. installation of medical gas in new pet care facility. ref to t.i. 202112224898. issued. 3820","address":"3820","adu":"N","lot":"077","unit":"101","plansets":"2","data_as_of":"2025 Jan 29 11:55:00 PM","filed_date":"08/08/2022 12:23:09 PM","street_name":"24th","point_source":"eas_address_point","revised_cost":"8,000","street_suffix":"St","data_loaded_at":"2025 Jan 30 03:34:26 AM","existing_units":"4","proposed_units":"4","existing_occupancy":"B,R-2","proposed_occupancy":"B,R-2","current_status_date":"02/15/2023 11:03:09 AM","supervisor_district":"8","primary_address_flag":"Y","permit_type_definition":"otc alterations permit","last_permit_activity_date":"02/15/2023 11:00:39 AM","existing_construction_type":"1","number_of_existing_stories":"4","number_of_proposed_stories":"4","proposed_construction_type":"1","application_submission_method":"in-house","neighborhoods_analysis_boundaries":"Noe Valley","existing_construction_type_description":"constr type 1","proposed_construction_type_description":"constr type 1"},"geometry":{"type":"Point","coordinates":[-122.427991622,37.751788583]}},{"type":"Feature","properties":{"date":"2022-11-18T11:20:29.000Z","year":2022,"description":"installation of medgas cabinet, piping & scavenger system for medical gas system (oxygen)","metadescription":"8. installation of medgas cabinet, piping & scavenger system for medical gas system (oxygen). complete. 1650","address":"1650","adu":"N","lot":"012","plansets":"2","data_as_of":"2025 Jan 29 11:55:00 PM","filed_date":"11/17/2022 09:38:33 AM","street_name":"Pacific","point_source":"eas_address_point","revised_cost":"53,000","street_suffix":"Av","data_loaded_at":"2025 Jan 30 03:34:26 AM","existing_occupancy":"B","proposed_occupancy":"B","current_status_date":"07/12/2023 12:35:16 PM","supervisor_district":"3","primary_address_flag":"Y","permit_type_definition":"otc alterations permit","last_permit_activity_date":"11/18/2022 11:01:34 AM","existing_construction_type":"3","number_of_existing_stories":"2","number_of_proposed_stories":"2","proposed_construction_type":"3","application_submission_method":"in-house","neighborhoods_analysis_boundaries":"Russian Hill","existing_construction_type_description":"constr type 3","proposed_construction_type_description":"constr type 3"},"geometry":{"type":"Point","coordinates":[-122.422569097,37.795156798]}},{"type":"Feature","properties":{"date":"2022-07-26T13:02:49.000Z","year":2022,"description":"installation of medical gas system to vet clinic.","metadescription":"8. installation of medical gas system to vet clinic.. complete. 401","address":"401","adu":"N","lot":"016","plansets":"2","data_as_of":"2025 Jan 29 11:55:00 PM","filed_date":"04/19/2022 03:25:16 PM","street_name":"Divisadero","point_source":"eas_address_point","revised_cost":"30,000","street_suffix":"St","data_loaded_at":"2025 Jan 30 03:34:26 AM","existing_occupancy":"B","proposed_occupancy":"B","current_status_date":"10/24/2022 09:15:02 AM","supervisor_district":"5","primary_address_flag":"Y","permit_type_definition":"otc alterations permit","last_permit_activity_date":"07/26/2022 01:01:12 PM","existing_construction_type":"5","number_of_existing_stories":"3","number_of_proposed_stories":"3","proposed_construction_type":"5","application_submission_method":"in-house","neighborhoods_analysis_boundaries":"Hayes Valley","existing_construction_type_description":"wood frame (5)","proposed_construction_type_description":"wood frame (5)"},"geometry":{"type":"Point","coordinates":[-122.437875227,37.773364067]}},{"type":"Feature","properties":{"date":"2022-04-15T15:20:01.000Z","year":2022,"description":"interior t.i. including accessible restroom, non bearing walls, lighting, hvac system ductwork, electrical outlets, four dental chairs. does not include medical gas.","metadescription":"8. interior t.i. including accessible restroom, non bearing walls, lighting, hvac system ductwork, electrical outlets, four dental chairs. does not include medical gas.. complete. 1600","address":"1600","adu":"N","lot":"002","plansets":"2","data_as_of":"2025 Jan 29 11:55:00 PM","filed_date":"03/17/2022 12:18:08 PM","street_name":"18th","point_source":"eas_address_point","revised_cost":"200,000","street_suffix":"St","data_loaded_at":"2025 Jan 30 03:34:26 AM","existing_units":"0","proposed_units":"0","existing_occupancy":"B","proposed_occupancy":"B","current_status_date":"04/19/2023 11:40:53 AM","supervisor_district":"10","primary_address_flag":"Y","permit_type_definition":"otc alterations permit","last_permit_activity_date":"04/15/2022 03:12:53 PM","existing_construction_type":"2","number_of_existing_stories":"1","number_of_proposed_stories":"1","proposed_construction_type":"2","application_submission_method":"in-house","neighborhoods_analysis_boundaries":"Potrero Hill","existing_construction_type_description":"constr type 2","proposed_construction_type_description":"constr type 2"},"geometry":{"type":"Point","coordinates":[-122.398723553,37.762564968]}},{"type":"Feature","properties":{"date":"2022-02-15T13:47:26.000Z","year":2022,"description":"no removal of wall -rev 202110059854. elec: grounding & bonding for main elec. gas piping ground electrode conductor. smoke alarm bri commmon areas. gfci kitchen/bathroom, backyard/ replaceable in-use cover. lower unit as well. remodel br/lr ref e202112067153. plumbing hose bibs/ vacuum breakers...","metadescription":"8. no removal of wall -rev 202110059854. elec: grounding & bonding for main elec. gas piping ground electrode conductor. smoke alarm bri commmon areas. gfci kitchen/bathroom, backyard/ replaceable in-use cover. lower unit as well. remodel br/lr ref e202112067153. plumbing hose bibs/ vacuum breakers.... complete. 3253","address":"3253","adu":"N","lot":"026","plansets":"0","data_as_of":"2025 Jan 29 11:55:00 PM","filed_date":"02/14/2022 03:37:55 PM","street_name":"Harrison","point_source":"eas_address_point","revised_cost":"55,000","street_suffix":"St","data_loaded_at":"2025 Jan 30 03:34:26 AM","existing_units":"2","proposed_units":"2","existing_occupancy":"R-3","proposed_occupancy":"R-3","current_status_date":"04/07/2022 09:56:27 AM","supervisor_district":"9","primary_address_flag":"Y","permit_type_definition":"otc alterations permit","last_permit_activity_date":"02/15/2022 01:43:09 PM","existing_construction_type":"5","number_of_existing_stories":"3","number_of_proposed_stories":"3","proposed_construction_type":"5","application_submission_method":"in-house","neighborhoods_analysis_boundaries":"Bernal Heights","existing_construction_type_description":"wood frame (5)","proposed_construction_type_description":"wood frame (5)"},"geometry":{"type":"Point","coordinates":[-122.411243645,37.745974345]}},{"type":"Feature","properties":{"date":"2022-01-21T11:23:00.000Z","year":2022,"description":"administrative revision permit to pa# 202108025538 to clarify gas piping, sensors & signage associated w/work under referenced permit.","metadescription":"8. administrative revision permit to pa# 202108025538 to clarify gas piping, sensors & signage associated w/work under referenced permit.. issued. 1800","address":"1800","adu":"N","lot":"008","plansets":"2","data_as_of":"2025 Jan 29 11:55:00 PM","filed_date":"12/21/2021 12:18:22 PM","street_name":"Owens","point_source":"eas_address_point","revised_cost":"1","street_suffix":"St","data_loaded_at":"2025 Jan 30 03:34:26 AM","fire_only_permit":"Y","existing_occupancy":"B","proposed_occupancy":"B","current_status_date":"01/21/2022 11:23:00 AM","supervisor_district":"6","primary_address_flag":"Y","permit_type_definition":"otc alterations permit","last_permit_activity_date":"01/21/2022 11:16:26 AM","existing_construction_type":"1","number_of_existing_stories":"12","number_of_proposed_stories":"12","proposed_construction_type":"1","application_submission_method":"in-house","neighborhoods_analysis_boundaries":"Potrero Hill","existing_construction_type_description":"constr type 1","proposed_construction_type_description":"constr type 1"},"geometry":{"type":"Point","coordinates":[-122.392594578,37.765150599]}},{"type":"Feature","properties":{"date":"2021-11-29T13:41:23.000Z","year":2021,"description":"minor spot replace front siding in kind, replace rear/side siding with hardie, replace front door with extg opening, rplace rear door. replace water service and the main, gas piping for gas meter relocation.","metadescription":"8. minor spot replace front siding in kind, replace rear/side siding with hardie, replace front door with extg opening, rplace rear door. replace water service and the main, gas piping for gas meter relocation.. complete. 216","address":"216","adu":"N","lot":"009","plansets":"0","data_as_of":"2025 Jan 29 11:55:00 PM","filed_date":"11/29/2021 11:55:07 AM","street_name":"Montana","point_source":"eas_address_point","revised_cost":"35,000","street_suffix":"St","data_loaded_at":"2025 Jan 30 03:34:26 AM","existing_units":"1","proposed_units":"1","existing_occupancy":"R-3","proposed_occupancy":"R-3","current_status_date":"03/24/2022 02:39:57 PM","supervisor_district":"11","primary_address_flag":"Y","permit_type_definition":"otc alterations permit","last_permit_activity_date":"11/29/2021 01:32:34 PM","existing_construction_type":"5","number_of_existing_stories":"2","number_of_proposed_stories":"2","proposed_construction_type":"5","application_submission_method":"in-house","neighborhoods_analysis_boundaries":"Oceanview/Merced/Ingleside","existing_construction_type_description":"wood frame (5)","proposed_construction_type_description":"wood frame (5)"},"geometry":{"type":"Point","coordinates":[-122.459879741,37.716855835]}},{"type":"Feature","properties":{"date":"2021-08-26T14:57:35.000Z","year":2021,"description":"unit 201: install 02 (oxygen) & n20 (nitrous oxide) medical gas system in dental office","metadescription":"8. unit 201: install 02 (oxygen) & n20 (nitrous oxide) medical gas system in dental office. issued. 2801","address":"2801","adu":"N","lot":"040","plansets":"2","data_as_of":"2025 Jan 29 11:55:00 PM","filed_date":"08/26/2021 11:25:02 AM","street_name":"Folsom","point_source":"eas_address_point","revised_cost":"43,502","street_suffix":"St","data_loaded_at":"2025 Jan 30 03:34:26 AM","existing_occupancy":"B","proposed_occupancy":"B","current_status_date":"08/26/2021 02:57:35 PM","supervisor_district":"9","primary_address_flag":"Y","permit_type_definition":"otc alterations permit","last_permit_activity_date":"08/26/2021 02:47:28 PM","existing_construction_type":"5","number_of_existing_stories":"2","number_of_proposed_stories":"2","proposed_construction_type":"5","application_submission_method":"in-house","neighborhoods_analysis_boundaries":"Mission","existing_construction_type_description":"wood frame (5)","proposed_construction_type_description":"wood frame (5)"},"geometry":{"type":"Point","coordinates":[-122.413729405,37.752363598]}},{"type":"Feature","properties":{"date":"2021-07-19T09:34:08.000Z","year":2021,"description":"plumbing - furnish & install new gas piping to exterior hearth. structural - install new rebar & concrete for exterior hearth. new outdoor hearth with insert, emergency shutoff, full glass guards with vents, shutdown timer and fire extinguisher.","metadescription":"8. plumbing - furnish & install new gas piping to exterior hearth. structural - install new rebar & concrete for exterior hearth. new outdoor hearth with insert, emergency shutoff, full glass guards with vents, shutdown timer and fire extinguisher.. issued. 650","address":"650","adu":"N","lot":"002","plansets":"2","data_as_of":"2025 Jan 29 11:55:00 PM","filed_date":"10/27/2020 11:02:29 AM","street_name":"Davis","point_source":"eas_address_point","revised_cost":"60,000","street_suffix":"St","data_loaded_at":"2025 Jan 30 03:34:26 AM","existing_units":"53","proposed_units":"53","existing_occupancy":"B,M,R-2","proposed_occupancy":"B,M,R-2","current_status_date":"07/19/2021 09:34:08 AM","supervisor_district":"3","primary_address_flag":"Y","permit_type_definition":"otc alterations permit","last_permit_activity_date":"07/19/2021 09:33:43 AM","existing_construction_type":"1","number_of_existing_stories":"4","number_of_proposed_stories":"4","proposed_construction_type":"1","application_submission_method":"in-house","neighborhoods_analysis_boundaries":"Financial District/South Beach","existing_construction_type_description":"constr type 1","proposed_construction_type_description":"constr type 1"},"geometry":{"type":"Point","coordinates":[-122.398451307,37.798366954]}},{"type":"Feature","properties":{"date":"2021-07-12T08:48:15.000Z","year":2021,"description":"suite (#1212): new ups inverter unit & scrub sink. replacing sink to medical gas cabinet, providing new flooring; updated scope to eliminate portion of work related to previously propose medical gas cabinet work, dmj 03/12/2021;","metadescription":"8. suite (#1212): new ups inverter unit & scrub sink. replacing sink to medical gas cabinet, providing new flooring; updated scope to eliminate portion of work related to previously propose medical gas cabinet work, dmj 03/12/2021;. complete. 450","address":"450","adu":"N","lot":"006","plansets":"2","data_as_of":"2025 Jan 29 11:55:00 PM","filed_date":"12/08/2020 07:29:22 AM","street_name":"Sutter","point_source":"eas_address_point","revised_cost":"130,000","street_suffix":"St","data_loaded_at":"2025 Jan 30 03:34:26 AM","existing_occupancy":"B,M,S-2","proposed_occupancy":"B,M,S-2","current_status_date":"12/29/2021 08:57:16 AM","supervisor_district":"3","primary_address_flag":"Y","permit_type_definition":"otc alterations permit","last_permit_activity_date":"07/12/2021 08:47:29 AM","existing_construction_type":"1","number_of_existing_stories":"26","number_of_proposed_stories":"26","proposed_construction_type":"1","application_submission_method":"in-house","neighborhoods_analysis_boundaries":"Financial District/South Beach","existing_construction_type_description":"constr type 1","proposed_construction_type_description":"constr type 1"},"geometry":{"type":"Point","coordinates":[-122.40783434,37.789656743]}},{"type":"Feature","properties":{"date":"2021-07-09T15:52:03.000Z","year":2021,"description":"up to code water heater(vent conector and flue) and single wall vent. correct gas piping. correct for laundry up dating laundry room. replace sewer drain line 5' long on side hallway cut concrete.","metadescription":"8. up to code water heater(vent conector and flue) and single wall vent. correct gas piping. correct for laundry up dating laundry room. replace sewer drain line 5' long on side hallway cut concrete.. complete. 366","address":"366","adu":"N","lot":"058","plansets":"0","data_as_of":"2025 Jan 29 11:55:00 PM","filed_date":"07/09/2021 03:29:28 PM","street_name":"Lexington","point_source":"eas_address_point","revised_cost":"800","street_suffix":"St","data_loaded_at":"2025 Jan 30 03:34:26 AM","existing_units":"2","proposed_units":"2","existing_occupancy":"R-3","proposed_occupancy":"R-3","current_status_date":"07/26/2022 09:09:43 AM","supervisor_district":"9","primary_address_flag":"Y","permit_type_definition":"otc alterations permit","last_permit_activity_date":"07/09/2021 03:31:49 PM","existing_construction_type":"5","number_of_existing_stories":"3","number_of_proposed_stories":"3","proposed_construction_type":"5","application_submission_method":"in-house","neighborhoods_analysis_boundaries":"Mission","existing_construction_type_description":"wood frame (5)","proposed_construction_type_description":"wood frame (5)"},"geometry":{"type":"Point","coordinates":[-122.420587233,37.757464215]}},{"type":"Feature","properties":{"date":"2021-03-17T13:31:30.000Z","year":2021,"description":"unit #109: interior improvements for new surgery center. work includes lighting, non-bearing & bearing walls, mechanical, electrical, and plumbing work, medical gas plumbing & scavenger venting system. existing building accessibility is up to current access codes.","metadescription":"8. unit #109: interior improvements for new surgery center. work includes lighting, non-bearing & bearing walls, mechanical, electrical, and plumbing work, medical gas plumbing & scavenger venting system. existing building accessibility is up to current access codes.. complete. 1545","address":"1545","adu":"N","lot":"016","plansets":"2","data_as_of":"2025 Jan 29 11:55:00 PM","filed_date":"09/25/2020 04:10:00 PM","street_name":"Pine","point_source":"eas_address_point","revised_cost":"138,000","street_suffix":"St","data_loaded_at":"2025 Jan 30 03:34:26 AM","existing_units":"100","proposed_units":"100","existing_occupancy":"M,B,R-2","proposed_occupancy":"M,B,R-2","current_status_date":"11/10/2021 05:19:56 PM","supervisor_district":"3","primary_address_flag":"Y","permit_type_definition":"otc alterations permit","last_permit_activity_date":"03/17/2021 01:30:40 PM","existing_construction_type":"1","number_of_existing_stories":"12","number_of_proposed_stories":"12","proposed_construction_type":"1","application_submission_method":"in-house","neighborhoods_analysis_boundaries":"Nob Hill","existing_construction_type_description":"constr type 1","proposed_construction_type_description":"constr type 1"},"geometry":{"type":"Point","coordinates":[-122.421172338,37.789400346]}},{"type":"Feature","properties":{"date":"2020-09-03T07:56:04.000Z","year":2020,"description":"priority processing, mayor dir 17-02, plumbing work for future building under pa #201808066535, plumbing work in these plans includes the following work; domesticd water; reclaimed water (grey and rainwater); drain, waste and vent (incl condensak drains): natural gas piping.","metadescription":"3. priority processing, mayor dir 17-02, plumbing work for future building under pa #201808066535, plumbing work in these plans includes the following work; domesticd water; reclaimed water (grey and rainwater); drain, waste and vent (incl condensak drains): natural gas piping.. complete. 434","address":"434","adu":"N","lot":"090","plansets":"2","data_as_of":"2025 Jan 31 11:55:01 PM","filed_date":"06/13/2020 07:55:58 AM","street_name":"Minna","point_source":"eas_address_point","revised_cost":"20,000","street_suffix":"St","data_loaded_at":"2025 Feb 01 03:33:46 AM","proposed_units":"302","proposed_occupancy":"R-2,S-2,M,A-2,A-3","current_status_date":"09/29/2022 02:58:32 PM","supervisor_district":"6","permit_type_definition":"additions alterations or repairs","last_permit_activity_date":"09/03/2020 07:55:52 AM","number_of_proposed_stories":"21","proposed_construction_type":"1","application_submission_method":"in-house","neighborhoods_analysis_boundaries":"South of Market","proposed_construction_type_description":"constr type 1"},"geometry":{"type":"Point","coordinates":[-122.407044613,37.781800736]}},{"type":"Feature","properties":{"date":"2020-09-03T07:56:04.000Z","year":2020,"description":"priority processing, mayor dir 17-02, plumbing work for future building under pa #201808066535, plumbing work in these plans includes the following work; domesticd water; reclaimed water (grey and rainwater); drain, waste and vent (incl condensak drains): natural gas piping.","metadescription":"3. priority processing, mayor dir 17-02, plumbing work for future building under pa #201808066535, plumbing work in these plans includes the following work; domesticd water; reclaimed water (grey and rainwater); drain, waste and vent (incl condensak drains): natural gas piping.. complete. 434","address":"434","adu":"N","lot":"091","plansets":"2","data_as_of":"2025 Jan 31 11:55:01 PM","filed_date":"06/13/2020 07:55:58 AM","street_name":"Minna","point_source":"eas_address_point","revised_cost":"20,000","street_suffix":"St","data_loaded_at":"2025 Feb 01 03:33:46 AM","proposed_units":"302","proposed_occupancy":"R-2,S-2,M,A-2,A-3","current_status_date":"09/29/2022 02:58:32 PM","supervisor_district":"6","permit_type_definition":"additions alterations or repairs","last_permit_activity_date":"09/03/2020 07:55:52 AM","number_of_proposed_stories":"21","proposed_construction_type":"1","application_submission_method":"in-house","neighborhoods_analysis_boundaries":"South of Market","proposed_construction_type_description":"constr type 1"},"geometry":{"type":"Point","coordinates":[-122.407044613,37.781800736]}},{"type":"Feature","properties":{"date":"2020-09-03T07:56:04.000Z","year":2020,"description":"priority processing, mayor dir 17-02, plumbing work for future building under pa #201808066535, plumbing work in these plans includes the following work; domesticd water; reclaimed water (grey and rainwater); drain, waste and vent (incl condensak drains): natural gas piping.","metadescription":"3. priority processing, mayor dir 17-02, plumbing work for future building under pa #201808066535, plumbing work in these plans includes the following work; domesticd water; reclaimed water (grey and rainwater); drain, waste and vent (incl condensak drains): natural gas piping.. complete. 434","address":"434","adu":"N","lot":"089","plansets":"2","data_as_of":"2025 Jan 31 11:55:01 PM","filed_date":"06/13/2020 07:55:58 AM","street_name":"Minna","point_source":"eas_address_point","revised_cost":"20,000","street_suffix":"St","data_loaded_at":"2025 Feb 01 03:33:46 AM","proposed_units":"302","proposed_occupancy":"R-2,S-2,M,A-2,A-3","current_status_date":"09/29/2022 02:58:32 PM","supervisor_district":"6","primary_address_flag":"Y","permit_type_definition":"additions alterations or repairs","last_permit_activity_date":"09/03/2020 07:55:52 AM","number_of_proposed_stories":"21","proposed_construction_type":"1","application_submission_method":"in-house","neighborhoods_analysis_boundaries":"South of Market","proposed_construction_type_description":"constr type 1"},"geometry":{"type":"Point","coordinates":[-122.407044613,37.781800736]}},{"type":"Feature","properties":{"date":"2020-08-18T08:23:42.000Z","year":2020,"description":"clear nov 202046221 dated 7/29/20. submit lead and absbestos test report. demolish ceiling and wall for running boiler/gas piping ceiling 2800 sq ft wall 58 lf","metadescription":"8. clear nov 202046221 dated 7/29/20. submit lead and absbestos test report. demolish ceiling and wall for running boiler/gas piping ceiling 2800 sq ft wall 58 lf. expired. 1555","address":"1555","adu":"N","lot":"028A","plansets":"0","data_as_of":"2025 Jan 29 11:55:00 PM","filed_date":"08/18/2020 08:08:00 AM","street_name":"Oak","point_source":"eas_address_point","revised_cost":"7,000","street_suffix":"St","data_loaded_at":"2025 Jan 30 03:34:26 AM","existing_units":"12","proposed_units":"12","existing_occupancy":"R-2","proposed_occupancy":"R-2","current_status_date":"11/19/2024 10:18:07 AM","supervisor_district":"5","primary_address_flag":"Y","permit_type_definition":"otc alterations permit","last_permit_activity_date":"08/18/2020 08:22:28 AM","existing_construction_type":"5","number_of_existing_stories":"4","number_of_proposed_stories":"4","proposed_construction_type":"5","application_submission_method":"in-house","neighborhoods_analysis_boundaries":"Haight Ashbury","existing_construction_type_description":"wood frame (5)","proposed_construction_type_description":"wood frame (5)"},"geometry":{"type":"Point","coordinates":[-122.444816421,37.771900297]}},{"type":"Feature","properties":{"date":"2018-12-06T13:00:24.000Z","year":2018,"description":"revision to pa #201803294961. added 02/c02 sensor with strobe per sffd comments during final medigas inspection. location is medical gas storage room 573.","metadescription":"8. revision to pa #201803294961. added 02/c02 sensor with strobe per sffd comments during final medigas inspection. location is medical gas storage room 573.. complete. 150","address":"150","adu":"N","lot":"021","plansets":"2","data_as_of":"2025 Jan 29 11:55:00 PM","filed_date":"12/06/2018 10:02:24 AM","street_name":"Spear","point_source":"eas_address_point","revised_cost":"3,000","street_suffix":"St","data_loaded_at":"2025 Jan 30 03:34:26 AM","existing_occupancy":"B","proposed_occupancy":"B","current_status_date":"06/04/2019 03:54:43 PM","supervisor_district":"6","primary_address_flag":"Y","permit_type_definition":"otc alterations permit","last_permit_activity_date":"12/06/2018 12:52:47 PM","existing_construction_type":"1","number_of_existing_stories":"18","number_of_proposed_stories":"18","proposed_construction_type":"1","application_submission_method":"in-house","neighborhoods_analysis_boundaries":"Financial District/South Beach","existing_construction_type_description":"constr type 1","proposed_construction_type_description":"constr type 1"},"geometry":{"type":"Point","coordinates":[-122.393613861,37.791753391]}},{"type":"Feature","properties":{"date":"2018-10-25T15:45:28.000Z","year":2018,"description":"documentation of extg medical gas closet at 2nd floor for extg tenant suite on 3rd floor.( no proposed, no exterior work, no oshpd)n/a for maher","metadescription":"8. documentation of extg medical gas closet at 2nd floor for extg tenant suite on 3rd floor.( no proposed, no exterior work, no oshpd)n/a for maher. complete. 450","address":"450","adu":"N","lot":"006","plansets":"2","data_as_of":"2025 Jan 29 11:55:00 PM","filed_date":"10/25/2018 03:06:50 PM","street_name":"Sutter","point_source":"eas_address_point","revised_cost":"1","street_suffix":"St","data_loaded_at":"2025 Jan 30 03:34:26 AM","existing_units":"0","proposed_units":"0","existing_occupancy":"B,M,S-3","proposed_occupancy":"B,M,S-3","current_status_date":"12/31/2018 01:40:42 PM","supervisor_district":"3","primary_address_flag":"Y","permit_type_definition":"otc alterations permit","last_permit_activity_date":"10/25/2018 03:38:25 PM","existing_construction_type":"1","number_of_existing_stories":"26","number_of_proposed_stories":"26","proposed_construction_type":"1","application_submission_method":"in-house","neighborhoods_analysis_boundaries":"Financial District/South Beach","existing_construction_type_description":"constr type 1","proposed_construction_type_description":"constr type 1"},"geometry":{"type":"Point","coordinates":[-122.40783434,37.789656743]}},{"type":"Feature","properties":{"date":"2018-10-05T11:24:16.000Z","year":2018,"description":"for fire dept documentation of ( e ) medical gas closet on 2nd fl for e tenant suite on 3rd fl . no work","metadescription":"8. for fire dept documentation of ( e ) medical gas closet on 2nd fl for e tenant suite on 3rd fl . no work. cancelled. 450","address":"450","adu":"N","lot":"006","plansets":"2","data_as_of":"2025 Jan 29 11:55:00 PM","filed_date":"10/05/2018 09:52:53 AM","street_name":"Sutter","point_source":"eas_address_point","revised_cost":"1","street_suffix":"St","data_loaded_at":"2025 Jan 30 03:34:26 AM","existing_units":"0","proposed_units":"0","existing_occupancy":"B,M,S-3","proposed_occupancy":"B,M,S-3","current_status_date":"12/27/2018 04:22:00 PM","supervisor_district":"3","primary_address_flag":"Y","permit_type_definition":"otc alterations permit","last_permit_activity_date":"10/05/2018 11:14:34 AM","existing_construction_type":"1","number_of_existing_stories":"26","number_of_proposed_stories":"26","proposed_construction_type":"1","application_submission_method":"in-house","neighborhoods_analysis_boundaries":"Financial District/South Beach","existing_construction_type_description":"constr type 1","proposed_construction_type_description":"constr type 1"},"geometry":{"type":"Point","coordinates":[-122.40783434,37.789656743]}},{"type":"Feature","properties":{"date":"2018-08-14T11:35:49.000Z","year":2018,"description":"unit 3: to comply with nov #2018779251, item 3-repair deteriorated drainage pipes @ exterior, item 4-provide approved waste/vent & gas piping to washer/dryer, repair dryroy as required in-kind","metadescription":"8. unit 3: to comply with nov #2018779251, item 3-repair deteriorated drainage pipes @ exterior, item 4-provide approved waste/vent & gas piping to washer/dryer, repair dryroy as required in-kind. complete. 2080","address":"2080","adu":"N","lot":"016B","plansets":"0","data_as_of":"2025 Jan 29 11:55:00 PM","filed_date":"08/14/2018 11:30:14 AM","street_name":"Vallejo","point_source":"eas_address_point","revised_cost":"8,000","street_suffix":"St","data_loaded_at":"2025 Jan 30 03:34:26 AM","existing_units":"7","proposed_units":"7","existing_occupancy":"R-2","proposed_occupancy":"R-2","current_status_date":"07/25/2019 03:16:40 PM","supervisor_district":"2","primary_address_flag":"Y","permit_type_definition":"otc alterations permit","last_permit_activity_date":"08/14/2018 11:32:24 AM","existing_construction_type":"3","number_of_existing_stories":"1","number_of_proposed_stories":"1","proposed_construction_type":"3","application_submission_method":"in-house","neighborhoods_analysis_boundaries":"Marina","existing_construction_type_description":"constr type 3","proposed_construction_type_description":"constr type 3"},"geometry":{"type":"Point","coordinates":[-122.431535839,37.795966229]}},{"type":"Feature","properties":{"date":"2018-07-10T00:00:00.000Z","year":2018,"description":"installation of medical gas piping for dental office oxygen & nitrous oxice","metadescription":"8. installation of medical gas piping for dental office oxygen & nitrous oxice. filed. 1682","address":"1682","adu":"N","lot":"027","plansets":"2","data_as_of":"2025 Jan 29 11:55:00 PM","filed_date":"07/10/2018 11:29:21 AM","street_name":"Pine","point_source":"eas_address_point","revised_cost":"0","street_suffix":"St","data_loaded_at":"2025 Jan 30 03:34:26 AM","existing_units":"259","proposed_units":"259","existing_occupancy":"B,R-2","proposed_occupancy":"B,R-2","current_status_date":"07/10/2018 11:29:21 AM","supervisor_district":"2","primary_address_flag":"Y","permit_type_definition":"otc alterations permit","last_permit_activity_date":"07/10/2018 11:32:37 AM","existing_construction_type":"1","number_of_existing_stories":"13","number_of_proposed_stories":"13","proposed_construction_type":"1","application_submission_method":"in-house","neighborhoods_analysis_boundaries":"Western Addition","existing_construction_type_description":"constr type 1","proposed_construction_type_description":"constr type 1"},"geometry":{"type":"Point","coordinates":[-122.42309272,37.789422642]}},{"type":"Feature","properties":{"date":"2018-07-10T00:00:00.000Z","year":2018,"description":"installation of medical gas piping for dental office oxygen & nitrous oxide","metadescription":"8. installation of medical gas piping for dental office oxygen & nitrous oxide. filed. 1690","address":"1690","adu":"N","lot":"026","plansets":"2","data_as_of":"2025 Jan 29 11:55:00 PM","filed_date":"07/10/2018 11:20:20 AM","street_name":"Pine","point_source":"eas_address_point","revised_cost":"0","street_suffix":"St","data_loaded_at":"2025 Jan 30 03:34:26 AM","existing_units":"259","proposed_units":"259","existing_occupancy":"R-2,B,M","proposed_occupancy":"R-2,B,M","current_status_date":"07/10/2018 11:20:20 AM","supervisor_district":"2","primary_address_flag":"Y","permit_type_definition":"otc alterations permit","last_permit_activity_date":"07/10/2018 11:23:41 AM","existing_construction_type":"1","number_of_existing_stories":"13","number_of_proposed_stories":"13","proposed_construction_type":"1","application_submission_method":"in-house","neighborhoods_analysis_boundaries":"Western Addition","existing_construction_type_description":"constr type 1","proposed_construction_type_description":"constr type 1"},"geometry":{"type":"Point","coordinates":[-122.423617757,37.789362342]}},{"type":"Feature","properties":{"date":"2017-02-28T15:36:23.000Z","year":2017,"description":"revision 201604225529. show location of medical gas on 4/f","metadescription":"8. revision 201604225529. show location of medical gas on 4/f. issued. 1580","address":"1580","adu":"N","lot":"005","plansets":"2","data_as_of":"2025 Jan 29 11:55:00 PM","filed_date":"02/09/2017 01:46:22 PM","street_name":"Valencia","point_source":"eas_address_point","revised_cost":"1","street_suffix":"St","data_loaded_at":"2025 Jan 30 03:34:26 AM","existing_units":"0","proposed_units":"0","existing_occupancy":"B","proposed_occupancy":"B","current_status_date":"02/28/2017 03:36:23 PM","supervisor_district":"9","primary_address_flag":"Y","permit_type_definition":"otc alterations permit","last_permit_activity_date":"02/28/2017 03:34:20 PM","existing_construction_type":"1","number_of_existing_stories":"8","number_of_proposed_stories":"8","proposed_construction_type":"1","application_submission_method":"in-house","neighborhoods_analysis_boundaries":"Bernal Heights","existing_construction_type_description":"constr type 1","proposed_construction_type_description":"constr type 1"},"geometry":{"type":"Point","coordinates":[-122.420338972,37.74685466]}},{"type":"Feature","properties":{"date":"2016-12-15T13:13:23.000Z","year":2016,"description":"construct tenant improvement of new dental office creating new non-bearing partition walls, operatories, doctors office & related support areas with new gypsum board ceiling/soffits plus 1 ada accessible restroom/no medical gas piping. maher na","metadescription":"8. construct tenant improvement of new dental office creating new non-bearing partition walls, operatories, doctors office & related support areas with new gypsum board ceiling/soffits plus 1 ada accessible restroom/no medical gas piping. maher na. complete. 109","address":"109","adu":"N","lot":"004","plansets":"2","data_as_of":"2025 Jan 29 11:55:00 PM","filed_date":"08/17/2016 10:32:38 AM","street_name":"Stevenson","point_source":"eas_address_point","revised_cost":"260,000","street_suffix":"St","data_loaded_at":"2025 Jan 30 03:34:26 AM","existing_units":"0","proposed_units":"0","existing_occupancy":"B","proposed_occupancy":"B","current_status_date":"10/10/2017 03:58:00 PM","supervisor_district":"6","primary_address_flag":"Y","permit_type_definition":"otc alterations permit","last_permit_activity_date":"12/15/2016 01:06:21 PM","existing_construction_type":"5","number_of_existing_stories":"6","number_of_proposed_stories":"6","proposed_construction_type":"5","application_submission_method":"in-house","neighborhoods_analysis_boundaries":"Financial District/South Beach","existing_construction_type_description":"wood frame (5)","proposed_construction_type_description":"wood frame (5)"},"geometry":{"type":"Point","coordinates":[-122.400957931,37.788587353]}},{"type":"Feature","properties":{"date":"2016-02-03T13:35:50.000Z","year":2016,"description":"revision to 2015-1007-9043 - change g0.10 infringement statement added, building data; a0.10 - added smoke management system notes; a0.20 - added medigas signages; a0.32, a0.30 - added hazardous material management tag; a0.32 - added medical gas code analysis; a2.20 - updated plan wall legend;","metadescription":"8. revision to 2015-1007-9043 - change g0.10 infringement statement added, building data; a0.10 - added smoke management system notes; a0.20 - added medigas signages; a0.32, a0.30 - added hazardous material management tag; a0.32 - added medical gas code analysis; a2.20 - updated plan wall legend;. complete. 1","address":"1","adu":"N","lot":"017","unit":"1","plansets":"2","data_as_of":"2025 Jan 29 11:55:00 PM","filed_date":"02/01/2016 08:27:35 AM","street_name":"Daniel Burnham","point_source":"eas_address_point","revised_cost":"1","street_suffix":"Ct","data_loaded_at":"2025 Jan 30 03:34:26 AM","existing_units":"239","proposed_units":"239","existing_occupancy":"B,R-2","proposed_occupancy":"B,R-2","current_status_date":"09/27/2016 03:56:18 PM","supervisor_district":"2","primary_address_flag":"Y","permit_type_definition":"otc alterations permit","last_permit_activity_date":"02/03/2016 01:28:30 PM","existing_construction_type":"1","number_of_existing_stories":"17","number_of_proposed_stories":"17","proposed_construction_type":"1","application_submission_method":"in-house","neighborhoods_analysis_boundaries":"Western Addition","existing_construction_type_description":"constr type 1","proposed_construction_type_description":"constr type 1"},"geometry":{"type":"Point","coordinates":[-122.422490793,37.78675523]}},{"type":"Feature","properties":{"date":"2016-02-03T13:15:47.000Z","year":2016,"description":"tenant improvement to include (n) mechanical, plumbing & electrical per plans. scope also includes new medical gas system and 14 new fsds","metadescription":"3. tenant improvement to include (n) mechanical, plumbing & electrical per plans. scope also includes new medical gas system and 14 new fsds. complete. 1","address":"1","adu":"N","lot":"017","unit":"1","plansets":"2","data_as_of":"2025 Jan 29 11:55:00 PM","filed_date":"12/01/2015 11:09:16 AM","street_name":"Daniel Burnham","point_source":"eas_address_point","revised_cost":"150,000","street_suffix":"Ct","data_loaded_at":"2025 Jan 30 03:34:26 AM","existing_units":"239","proposed_units":"239","existing_occupancy":"B,R-2","proposed_occupancy":"B,R-2","current_status_date":"09/27/2016 03:48:26 PM","supervisor_district":"2","primary_address_flag":"Y","permit_type_definition":"additions alterations or repairs","last_permit_activity_date":"02/03/2016 01:10:29 PM","existing_construction_type":"1","number_of_existing_stories":"17","number_of_proposed_stories":"17","proposed_construction_type":"1","application_submission_method":"in-house","neighborhoods_analysis_boundaries":"Western Addition","existing_construction_type_description":"constr type 1","proposed_construction_type_description":"constr type 1"},"geometry":{"type":"Point","coordinates":[-122.422490793,37.78675523]}},{"type":"Feature","properties":{"date":"2015-10-23T00:00:00.000Z","year":2015,"description":"gas piping modification serviceing (e) mechanical gas equipment in bld. - no new gas equipment. install 4 gas pressure regulators on roof.- not visible from street. maher na","metadescription":"8. gas piping modification serviceing (e) mechanical gas equipment in bld. - no new gas equipment. install 4 gas pressure regulators on roof.- not visible from street. maher na. withdrawn. 200","address":"200","adu":"N","lot":"004","plansets":"2","data_as_of":"2025 Jan 29 11:55:00 PM","filed_date":"10/23/2015 09:25:22 AM","street_name":"Kansas","point_source":"eas_address_point","revised_cost":"0","street_suffix":"St","data_loaded_at":"2025 Jan 30 03:34:26 AM","existing_occupancy":"B,M","proposed_occupancy":"B,M","current_status_date":"01/12/2016 07:42:36 AM","supervisor_district":"6","primary_address_flag":"Y","permit_type_definition":"otc alterations permit","last_permit_activity_date":"01/12/2016 07:41:59 AM","existing_construction_type":"3","number_of_existing_stories":"2","number_of_proposed_stories":"2","proposed_construction_type":"3","application_submission_method":"in-house","neighborhoods_analysis_boundaries":"Mission Bay","existing_construction_type_description":"constr type 3","proposed_construction_type_description":"constr type 3"},"geometry":{"type":"Point","coordinates":[-122.404214459,37.766730531]}},{"type":"Feature","properties":{"date":"2015-10-08T09:29:44.000Z","year":2015,"description":"installation of 14 down draft bbq tables, grease exhaust air and make-up air system and gas piping. ref. t.i. appl. 2015.0410.3376.","metadescription":"8. installation of 14 down draft bbq tables, grease exhaust air and make-up air system and gas piping. ref. t.i. appl. 2015.0410.3376.. expired. 1358","address":"1358","adu":"N","lot":"030","plansets":"2","data_as_of":"2025 Jan 29 11:55:00 PM","filed_date":"06/09/2015 12:17:03 PM","street_name":"09th","point_source":"eas_address_point","revised_cost":"15,000","street_suffix":"Av","data_loaded_at":"2025 Jan 30 03:34:26 AM","existing_units":"2","proposed_units":"2","existing_occupancy":"A-2,R-3","proposed_occupancy":"A-2,R-3","current_status_date":"12/02/2021 11:24:22 AM","supervisor_district":"7","primary_address_flag":"Y","permit_type_definition":"otc alterations permit","last_permit_activity_date":"10/08/2015 09:15:07 AM","existing_construction_type":"5","number_of_existing_stories":"3","number_of_proposed_stories":"3","proposed_construction_type":"5","application_submission_method":"in-house","neighborhoods_analysis_boundaries":"Inner Sunset","existing_construction_type_description":"wood frame (5)","proposed_construction_type_description":"wood frame (5)"},"geometry":{"type":"Point","coordinates":[-122.465910354,37.7630189]}},{"type":"Feature","properties":{"date":"2015-08-31T12:52:39.000Z","year":2015,"description":"strap water heater, change windows, gas piping to furnace (back window only) u factor 0.32 max, windows are not visible from street.","metadescription":"8. strap water heater, change windows, gas piping to furnace (back window only) u factor 0.32 max, windows are not visible from street.. issued. 1246","address":"1246","adu":"N","lot":"009B","plansets":"0","data_as_of":"2025 Jan 29 11:55:00 PM","filed_date":"08/31/2015 12:47:06 PM","street_name":"Gilman","point_source":"eas_address_point","revised_cost":"2,100","street_suffix":"Av","data_loaded_at":"2025 Jan 30 03:34:26 AM","existing_units":"1","proposed_units":"1","existing_occupancy":"R-3","proposed_occupancy":"R-3","current_status_date":"08/31/2015 12:52:39 PM","supervisor_district":"10","primary_address_flag":"Y","permit_type_definition":"otc alterations permit","last_permit_activity_date":"08/31/2015 12:50:10 PM","existing_construction_type":"5","number_of_existing_stories":"2","number_of_proposed_stories":"2","proposed_construction_type":"5","application_submission_method":"in-house","neighborhoods_analysis_boundaries":"Bayview Hunters Point","existing_construction_type_description":"wood frame (5)","proposed_construction_type_description":"wood frame (5)"},"geometry":{"type":"Point","coordinates":[-122.392588252,37.721060328]}},{"type":"Feature","properties":{"date":"2015-06-03T11:54:00.000Z","year":2015,"description":"suite 205c: adding medical gas system (piping) for oxygen and vacuum. ref. appl. # 2015.0501.5088. maher n/a.","metadescription":"8. suite 205c: adding medical gas system (piping) for oxygen and vacuum. ref. appl. # 2015.0501.5088. maher n/a.. complete. 1","address":"1","adu":"N","lot":"046","unit":"205","plansets":"2","data_as_of":"2025 Jan 29 11:55:00 PM","filed_date":"06/03/2015 10:44:33 AM","street_name":"Daniel Burnham","point_source":"eas_address_point","revised_cost":"52,000","street_suffix":"Ct","data_loaded_at":"2025 Jan 30 03:34:26 AM","existing_units":"239","proposed_units":"239","fire_only_permit":"Y","existing_occupancy":"B,R-2","proposed_occupancy":"B,R-2","current_status_date":"10/13/2015 11:26:27 AM","supervisor_district":"2","primary_address_flag":"Y","permit_type_definition":"otc alterations permit","last_permit_activity_date":"06/03/2015 11:49:42 AM","existing_construction_type":"1","number_of_existing_stories":"17","number_of_proposed_stories":"17","proposed_construction_type":"1","application_submission_method":"in-house","neighborhoods_analysis_boundaries":"Western Addition","existing_construction_type_description":"constr type 1","proposed_construction_type_description":"constr type 1"},"geometry":{"type":"Point","coordinates":[-122.422490793,37.78675523]}},{"type":"Feature","properties":{"date":"2015-05-04T08:26:59.000Z","year":2015,"description":"installation of new hot water boiler. new gas piping, flue, supply and return piping to extg system infrastructure. ref app#201208227981.","metadescription":"8. installation of new hot water boiler. new gas piping, flue, supply and return piping to extg system infrastructure. ref app#201208227981.. issued. 420","address":"420","adu":"N","lot":"026","plansets":"2","data_as_of":"2025 Jan 29 11:55:00 PM","filed_date":"04/21/2015 10:53:00 AM","street_name":"Montgomery","point_source":"eas_address_point","revised_cost":"140,000","street_suffix":"St","data_loaded_at":"2025 Jan 30 03:34:26 AM","existing_occupancy":"B","proposed_occupancy":"B","current_status_date":"05/04/2015 08:26:59 AM","supervisor_district":"3","primary_address_flag":"Y","permit_type_definition":"otc alterations permit","last_permit_activity_date":"05/04/2015 08:23:50 AM","existing_construction_type":"2","number_of_existing_stories":"12","number_of_proposed_stories":"12","proposed_construction_type":"2","application_submission_method":"in-house","neighborhoods_analysis_boundaries":"Financial District/South Beach","existing_construction_type_description":"constr type 2","proposed_construction_type_description":"constr type 2"},"geometry":{"type":"Point","coordinates":[-122.402749698,37.793315627]}},{"type":"Feature","properties":{"date":"2014-09-22T15:31:03.000Z","year":2014,"description":"install kitchen hoods, ventilation and heating system. install gas piping. ref. appl. #2014.0428.4360. maher n/a.","metadescription":"8. install kitchen hoods, ventilation and heating system. install gas piping. ref. appl. #2014.0428.4360. maher n/a.. complete. 2200","address":"2200","adu":"N","lot":"006","plansets":"2","data_as_of":"2025 Jan 29 11:55:00 PM","filed_date":"08/08/2014 02:09:45 PM","street_name":"Jerrold","point_source":"eas_address_point","revised_cost":"50,000","street_suffix":"Av","data_loaded_at":"2025 Jan 30 03:34:26 AM","existing_occupancy":"B,S-2","proposed_occupancy":"B,S-2","current_status_date":"10/29/2014 04:13:34 PM","supervisor_district":"10","primary_address_flag":"Y","permit_type_definition":"otc alterations permit","last_permit_activity_date":"09/22/2014 03:25:53 PM","existing_construction_type":"4","number_of_existing_stories":"1","number_of_proposed_stories":"1","proposed_construction_type":"4","application_submission_method":"in-house","neighborhoods_analysis_boundaries":"Bayview Hunters Point","existing_construction_type_description":"constr type 4","proposed_construction_type_description":"constr type 4"},"geometry":{"type":"Point","coordinates":[-122.398861518,37.745608422]}},{"type":"Feature","properties":{"date":"2013-08-30T00:00:00.000Z","year":2013,"description":"4/f- provide installation of medical gas system as per refernece drawing pa#201307232560","metadescription":"8. 4/f- provide installation of medical gas system as per refernece drawing pa#201307232560. cancelled. 450","address":"450","adu":"N","lot":"006","plansets":"0","data_as_of":"2025 Jan 29 11:55:00 PM","filed_date":"08/30/2013 02:08:33 PM","street_name":"Sutter","point_source":"eas_address_point","revised_cost":"0","street_suffix":"St","data_loaded_at":"2025 Jan 30 03:34:26 AM","existing_units":"0","proposed_units":"0","fire_only_permit":"Y","existing_occupancy":"B,M,S-2","proposed_occupancy":"B,M,S-2","current_status_date":"09/01/2023 02:45:19 PM","supervisor_district":"3","primary_address_flag":"Y","permit_type_definition":"otc alterations permit","last_permit_activity_date":"08/30/2013 02:15:20 PM","existing_construction_type":"1","number_of_existing_stories":"26","number_of_proposed_stories":"26","proposed_construction_type":"1","application_submission_method":"in-house","neighborhoods_analysis_boundaries":"Financial District/South Beach","existing_construction_type_description":"constr type 1","proposed_construction_type_description":"constr type 1"},"geometry":{"type":"Point","coordinates":[-122.40783434,37.789656743]}},{"type":"Feature","properties":{"date":"2013-07-25T14:21:52.000Z","year":2013,"description":"4th floor-medical gas installation for new medical offices, tip# 201211274929","metadescription":"8. 4th floor-medical gas installation for new medical offices, tip# 201211274929. issued. 1580","address":"1580","adu":"N","lot":"001","plansets":"2","data_as_of":"2025 Jan 29 11:55:00 PM","filed_date":"07/05/2013 11:07:08 AM","street_name":"Valencia","point_source":"eas_address_point","revised_cost":"5,000","street_suffix":"St","data_loaded_at":"2025 Jan 30 03:34:26 AM","existing_units":"0","proposed_units":"0","existing_occupancy":"B","proposed_occupancy":"B","current_status_date":"07/25/2013 02:21:52 PM","supervisor_district":"9","primary_address_flag":"Y","permit_type_definition":"otc alterations permit","last_permit_activity_date":"07/25/2013 02:14:57 PM","existing_construction_type":"1","number_of_existing_stories":"8","number_of_proposed_stories":"8","proposed_construction_type":"1","application_submission_method":"in-house","neighborhoods_analysis_boundaries":"Bernal Heights","existing_construction_type_description":"constr type 1","proposed_construction_type_description":"constr type 1"},"geometry":{"type":"Point","coordinates":[-122.420338972,37.74685466]}},{"type":"Feature","properties":{"date":"2013-04-09T00:00:00.000Z","year":2013,"description":"legalize extg 273 sq ft bedroom & 1/2 bath. upgrade elect. service/wiring to 200 amp. bond, strap & correct tprv piping;bond water heater water & gas piping. add gfci recept. @ extg kchn & extg bathrooms. install photo elect. smoke alarms 6 hard wired & interconnected. add one co alarm @ grg/bsmt","metadescription":"8. legalize extg 273 sq ft bedroom & 1/2 bath. upgrade elect. service/wiring to 200 amp. bond, strap & correct tprv piping;bond water heater water & gas piping. add gfci recept. @ extg kchn & extg bathrooms. install photo elect. smoke alarms 6 hard wired & interconnected. add one co alarm @ grg/bsmt. filed. 2825","address":"2825","adu":"N","lot":"035","plansets":"2","data_as_of":"2025 Jan 29 11:55:00 PM","filed_date":"04/09/2013 02:24:19 PM","street_name":"Santiago","point_source":"eas_address_point","revised_cost":"49,000","street_suffix":"St","data_loaded_at":"2025 Jan 30 03:34:26 AM","existing_units":"1","proposed_units":"1","existing_occupancy":"R-3","proposed_occupancy":"R-3","current_status_date":"04/09/2013 02:24:19 PM","supervisor_district":"4","primary_address_flag":"Y","permit_type_definition":"otc alterations permit","last_permit_activity_date":"04/11/2013 02:40:28 PM","existing_construction_type":"5","number_of_existing_stories":"1","number_of_proposed_stories":"1","proposed_construction_type":"5","application_submission_method":"in-house","neighborhoods_analysis_boundaries":"Sunset/Parkside","existing_construction_type_description":"wood frame (5)","proposed_construction_type_description":"wood frame (5)"},"geometry":{"type":"Point","coordinates":[-122.497724597,37.743705442]}},{"type":"Feature","properties":{"date":"2013-03-26T09:42:01.000Z","year":2013,"description":"medical gas piping for 02 and n20 on second floor. total of 1,056 cu ft nitrous oxide, 498 cu ft oxygen to be kept in 1-hour rated enclosure vented independently to light well. sffd compressed gas storage permit required.","metadescription":"8. medical gas piping for 02 and n20 on second floor. total of 1,056 cu ft nitrous oxide, 498 cu ft oxygen to be kept in 1-hour rated enclosure vented independently to light well. sffd compressed gas storage permit required.. cancelled. 522","address":"522","adu":"N","lot":"005","plansets":"2","data_as_of":"2025 Jan 29 11:55:00 PM","filed_date":"03/20/2013 01:42:45 PM","street_name":"Sutter","point_source":"eas_address_point","revised_cost":"9,000","street_suffix":"St","data_loaded_at":"2025 Jan 30 03:34:26 AM","existing_units":"0","proposed_units":"0","existing_occupancy":"B,M","proposed_occupancy":"B,M","current_status_date":"04/01/2013 12:00:00 AM","supervisor_district":"3","primary_address_flag":"Y","permit_type_definition":"otc alterations permit","last_permit_activity_date":"03/26/2013 09:35:22 AM","existing_construction_type":"3","number_of_existing_stories":"3","number_of_proposed_stories":"3","proposed_construction_type":"3","application_submission_method":"in-house","neighborhoods_analysis_boundaries":"Nob Hill","existing_construction_type_description":"constr type 3","proposed_construction_type_description":"constr type 3"},"geometry":{"type":"Point","coordinates":[-122.409070624,37.789451486]}},{"type":"Feature","properties":{"date":"2012-05-08T16:26:28.000Z","year":2012,"description":"new emergency power system, 5 generator sets, walls & other 2-hr. construction enclosure 5 radiators,fuel oil system, hvac system, steam boilers, dearator tank, gas piping, 380 gallon fuel-oil day tank","metadescription":"3. new emergency power system, 5 generator sets, walls & other 2-hr. construction enclosure 5 radiators,fuel oil system, hvac system, steam boilers, dearator tank, gas piping, 380 gallon fuel-oil day tank. issued. 1001","address":"1001","adu":"N","lot":"001","plansets":"2","data_as_of":"2025 Jan 29 11:55:00 PM","filed_date":"03/03/2010 10:45:42 AM","street_name":"Potrero","point_source":"eas_address_point","revised_cost":"3,885","street_suffix":"Av","data_loaded_at":"2025 Jan 30 03:34:26 AM","fire_only_permit":"Y","existing_occupancy":"I-2","proposed_occupancy":"I-2","current_status_date":"05/08/2012 04:26:28 PM","supervisor_district":"10","primary_address_flag":"Y","permit_type_definition":"additions alterations or repairs","last_permit_activity_date":"05/08/2012 04:24:15 PM","existing_construction_type":"1","number_of_existing_stories":"1","number_of_proposed_stories":"1","proposed_construction_type":"1","application_submission_method":"in-house","neighborhoods_analysis_boundaries":"Mission","existing_construction_type_description":"constr type 1","proposed_construction_type_description":"constr type 1"},"geometry":{"type":"Point","coordinates":[-122.40538989,37.755382811]}},{"type":"Feature","properties":{"date":"2012-01-06T00:00:00.000Z","year":2012,"description":"2nd floor-rpessure relief piep from tank room to exterior of building (medical gas vent)","metadescription":"8. 2nd floor-rpessure relief piep from tank room to exterior of building (medical gas vent). filed. 1635","address":"1635","adu":"N","lot":"034","plansets":"2","data_as_of":"2025 Jan 29 11:55:00 PM","filed_date":"01/06/2012 09:31:00 AM","street_name":"Divisadero","point_source":"eas_address_point","revised_cost":"0","street_suffix":"St","data_loaded_at":"2025 Jan 30 03:34:26 AM","existing_units":"0","proposed_units":"0","existing_occupancy":"B,I-2","proposed_occupancy":"B,I-2","current_status_date":"01/06/2012 09:31:00 AM","supervisor_district":"5","primary_address_flag":"Y","permit_type_definition":"otc alterations permit","last_permit_activity_date":"01/06/2012 10:27:24 AM","existing_construction_type":"2","number_of_existing_stories":"6","number_of_proposed_stories":"6","proposed_construction_type":"2","application_submission_method":"in-house","neighborhoods_analysis_boundaries":"Japantown","existing_construction_type_description":"constr type 2","proposed_construction_type_description":"constr type 2"},"geometry":{"type":"Point","coordinates":[-122.439965271,37.784646371]}},{"type":"Feature","properties":{"date":"2011-09-19T14:58:19.000Z","year":2011,"description":"revision to app 201008098368. work for 2 vertical duct through 2 hour shaft and new exhaust fan. application 201109023788 is for horizontail tenant work only- 2 hour wrapped ducting from medical gas room- no fsd req. relocate o/a ducts.delete 4 fire dampers.","metadescription":"8. revision to app 201008098368. work for 2 vertical duct through 2 hour shaft and new exhaust fan. application 201109023788 is for horizontail tenant work only- 2 hour wrapped ducting from medical gas room- no fsd req. relocate o/a ducts.delete 4 fire dampers.. complete. 1600","address":"1600","adu":"N","lot":"051","plansets":"2","data_as_of":"2025 Jan 29 11:55:00 PM","filed_date":"09/02/2011 09:04:34 AM","street_name":"Webster","point_source":"eas_address_point","revised_cost":"1","street_suffix":"St","data_loaded_at":"2025 Jan 30 03:34:26 AM","existing_units":"48","proposed_units":"48","existing_occupancy":"M,R-2,S-3","proposed_occupancy":"M,R-2,S-3","current_status_date":"10/19/2011 12:00:00 AM","supervisor_district":"5","primary_address_flag":"Y","permit_type_definition":"otc alterations permit","last_permit_activity_date":"09/19/2011 02:52:37 PM","existing_construction_type":"2","number_of_existing_stories":"5","number_of_proposed_stories":"5","proposed_construction_type":"2","application_submission_method":"in-house","neighborhoods_analysis_boundaries":"Japantown","existing_construction_type_description":"constr type 2","proposed_construction_type_description":"constr type 2"},"geometry":{"type":"Point","coordinates":[-122.431158093,37.785592395]}},{"type":"Feature","properties":{"date":"2011-09-02T08:43:15.000Z","year":2011,"description":"replace existing kitchen cabinets, add new counter top circuits, install new sink/faucet, install new gas piping, install new sub panel and rewire unit, replace existing heater with new, 95% furnace to comply with his nov 200232315","metadescription":"8. replace existing kitchen cabinets, add new counter top circuits, install new sink/faucet, install new gas piping, install new sub panel and rewire unit, replace existing heater with new, 95% furnace to comply with his nov 200232315. complete. 55","address":"55","adu":"N","lot":"022","plansets":"0","data_as_of":"2025 Jan 29 11:55:00 PM","filed_date":"09/02/2011 08:24:01 AM","street_name":"Collingwood","point_source":"eas_address_point","revised_cost":"18,000","street_suffix":"St","data_loaded_at":"2025 Jan 30 03:34:26 AM","existing_units":"3","proposed_units":"3","existing_occupancy":"R-2","proposed_occupancy":"R-2","current_status_date":"02/27/2012 12:00:00 AM","supervisor_district":"8","primary_address_flag":"Y","permit_type_definition":"otc alterations permit","last_permit_activity_date":"09/02/2011 08:27:28 AM","existing_construction_type":"5","number_of_existing_stories":"3","number_of_proposed_stories":"3","proposed_construction_type":"5","application_submission_method":"in-house","neighborhoods_analysis_boundaries":"Castro/Upper Market","existing_construction_type_description":"wood frame (5)","proposed_construction_type_description":"wood frame (5)"},"geometry":{"type":"Point","coordinates":[-122.435868069,37.761575387]}},{"type":"Feature","properties":{"date":"2011-05-11T11:27:40.000Z","year":2011,"description":"change of use from vacant real estate office to new dental office. replace partition walls, install new plumbing and electrical for dental equipments, install new push auto door opener for equivalent facilitation. medical gas system under separate permit.","metadescription":"8. change of use from vacant real estate office to new dental office. replace partition walls, install new plumbing and electrical for dental equipments, install new push auto door opener for equivalent facilitation. medical gas system under separate permit.. complete. 44","address":"44","adu":"N","lot":"044","plansets":"2","data_as_of":"2025 Jan 29 11:55:00 PM","filed_date":"05/10/2011 02:09:50 PM","street_name":"Monterey","point_source":"eas_address_point","revised_cost":"60,000","street_suffix":"Bl","data_loaded_at":"2025 Jan 30 03:34:26 AM","existing_units":"1","proposed_units":"1","existing_occupancy":"R-3,B","proposed_occupancy":"R-3,B","current_status_date":"03/22/2012 12:00:00 AM","supervisor_district":"7","primary_address_flag":"Y","permit_type_definition":"otc alterations permit","last_permit_activity_date":"05/11/2011 11:23:17 AM","existing_construction_type":"5","number_of_existing_stories":"2","number_of_proposed_stories":"2","proposed_construction_type":"5","application_submission_method":"in-house","neighborhoods_analysis_boundaries":"West of Twin Peaks","existing_construction_type_description":"wood frame (5)","proposed_construction_type_description":"wood frame (5)"},"geometry":{"type":"Point","coordinates":[-122.436049395,37.732014726]}},{"type":"Feature","properties":{"date":"2010-08-12T12:48:41.000Z","year":2010,"description":"install standby generator at roof. provide natural gas piping to the generator. install electrical conduits & wiring to generator.","metadescription":"3. install standby generator at roof. provide natural gas piping to the generator. install electrical conduits & wiring to generator.. issued. 450","address":"450","adu":"N","lot":"003","plansets":"2","data_as_of":"2025 Jan 29 11:55:00 PM","filed_date":"05/05/2010 12:22:39 PM","street_name":"Irwin","point_source":"eas_address_point","revised_cost":"35,000","street_suffix":"St","data_loaded_at":"2025 Jan 30 03:34:26 AM","existing_units":"0","proposed_units":"0","existing_occupancy":"B","proposed_occupancy":"B","current_status_date":"08/12/2010 12:48:41 PM","supervisor_district":"6","primary_address_flag":"Y","permit_type_definition":"additions alterations or repairs","last_permit_activity_date":"07/20/2010 04:01:45 PM","existing_construction_type":"2","number_of_existing_stories":"2","number_of_proposed_stories":"2","proposed_construction_type":"2","application_submission_method":"in-house","neighborhoods_analysis_boundaries":"Mission Bay","existing_construction_type_description":"constr type 2","proposed_construction_type_description":"constr type 2"},"geometry":{"type":"Point","coordinates":[-122.39843065,37.7682494]}},{"type":"Feature","properties":{"date":"2010-04-27T12:24:05.000Z","year":2010,"description":"remove sheetrock to get to 3/4 gas piping. enlarge gas to 1\" to laundry room for new tankless hot water heater and new gas fireplace insert in old coal box fireplace. reinstall sheetrock.","metadescription":"8. remove sheetrock to get to 3/4 gas piping. enlarge gas to 1\" to laundry room for new tankless hot water heater and new gas fireplace insert in old coal box fireplace. reinstall sheetrock.. expired. 7","address":"7","adu":"N","lot":"008A","plansets":"0","data_as_of":"2025 Jan 29 11:55:00 PM","filed_date":"04/27/2010 11:55:11 AM","street_name":"Beaver","point_source":"eas_address_point","revised_cost":"2,380","street_suffix":"St","data_loaded_at":"2025 Jan 30 03:34:26 AM","existing_units":"1","proposed_units":"1","existing_occupancy":"R-3","proposed_occupancy":"R-3","current_status_date":"08/22/2012 12:00:00 AM","supervisor_district":"8","primary_address_flag":"Y","permit_type_definition":"otc alterations permit","last_permit_activity_date":"04/27/2010 12:14:38 PM","existing_construction_type":"5","number_of_existing_stories":"3","number_of_proposed_stories":"3","proposed_construction_type":"5","application_submission_method":"in-house","neighborhoods_analysis_boundaries":"Castro/Upper Market","existing_construction_type_description":"wood frame (5)","proposed_construction_type_description":"wood frame (5)"},"geometry":{"type":"Point","coordinates":[-122.433618456,37.764906648]}},{"type":"Feature","properties":{"date":"2009-12-07T09:18:27.000Z","year":2009,"description":"install 2 radiant heaters and gas piping for outside deck connectewd to (e) gas pipe in the property. pa# 2008.06.03.3570 for reference to ti work.","metadescription":"8. install 2 radiant heaters and gas piping for outside deck connectewd to (e) gas pipe in the property. pa# 2008.06.03.3570 for reference to ti work.. issued. 2211","address":"2211","adu":"N","lot":"034","plansets":"2","data_as_of":"2025 Jan 29 11:55:00 PM","filed_date":"10/23/2009 11:02:48 AM","street_name":"Mission","point_source":"eas_address_point","revised_cost":"1,500","street_suffix":"St","data_loaded_at":"2025 Jan 30 03:34:26 AM","existing_units":"2","proposed_units":"2","existing_occupancy":"A-2,R-3","proposed_occupancy":"A-2,R-3","current_status_date":"12/07/2009 09:18:27 AM","supervisor_district":"9","primary_address_flag":"Y","permit_type_definition":"otc alterations permit","last_permit_activity_date":"12/07/2009 09:09:48 AM","existing_construction_type":"5","number_of_existing_stories":"3","number_of_proposed_stories":"3","proposed_construction_type":"5","application_submission_method":"in-house","neighborhoods_analysis_boundaries":"Mission","existing_construction_type_description":"wood frame (5)","proposed_construction_type_description":"wood frame (5)"},"geometry":{"type":"Point","coordinates":[-122.418976226,37.761549257]}},{"type":"Feature","properties":{"date":"2008-11-26T14:01:48.000Z","year":2008,"description":"add new generator and steel platform, 100 kw 30. new gas piping, electrical supply with transfer switch on existing roof.","metadescription":"3. add new generator and steel platform, 100 kw 30. new gas piping, electrical supply with transfer switch on existing roof.. issued. 633","address":"633","adu":"N","lot":"003","plansets":"2","data_as_of":"2025 Jan 29 11:55:00 PM","filed_date":"10/14/2008 10:03:18 AM","street_name":"Battery","point_source":"eas_address_point","revised_cost":"35,000","street_suffix":"St","data_loaded_at":"2025 Jan 30 03:34:26 AM","existing_units":"0","proposed_units":"0","existing_occupancy":"B","proposed_occupancy":"B","current_status_date":"11/26/2008 02:01:48 PM","supervisor_district":"3","primary_address_flag":"Y","permit_type_definition":"additions alterations or repairs","last_permit_activity_date":"11/26/2008 01:59:37 PM","existing_construction_type":"3","number_of_existing_stories":"6","number_of_proposed_stories":"6","proposed_construction_type":"3","application_submission_method":"in-house","neighborhoods_analysis_boundaries":"Chinatown","existing_construction_type_description":"constr type 3","proposed_construction_type_description":"constr type 3"},"geometry":{"type":"Point","coordinates":[-122.40116134,37.797147443]}},{"type":"Feature","properties":{"date":"2007-12-20T14:21:22.000Z","year":2007,"description":"3r-4732-provide smoke detectors. install applicable grounding &bonding for main elec service.install bonding for hot&cold water heater,bond conductor betwn interior gas piping sys,additional receptacle in kitchen,pressure balance value.supply risers to...","metadescription":"8. 3r-4732-provide smoke detectors. install applicable grounding &bonding for main elec service.install bonding for hot&cold water heater,bond conductor betwn interior gas piping sys,additional receptacle in kitchen,pressure balance value.supply risers to.... issued. 75","address":"75","adu":"N","lot":"025","plansets":"0","data_as_of":"2025 Jan 29 11:55:00 PM","filed_date":"12/20/2007 02:07:21 PM","street_name":"Grattan","point_source":"eas_address_point","revised_cost":"200","street_suffix":"St","data_loaded_at":"2025 Jan 30 03:34:26 AM","existing_units":"6","proposed_units":"6","existing_occupancy":"R-1","proposed_occupancy":"R-1","current_status_date":"12/20/2007 02:21:22 PM","supervisor_district":"8","primary_address_flag":"Y","permit_type_definition":"otc alterations permit","last_permit_activity_date":"12/20/2007 02:15:25 PM","existing_construction_type":"5","number_of_existing_stories":"3","number_of_proposed_stories":"3","proposed_construction_type":"5","application_submission_method":"in-house","neighborhoods_analysis_boundaries":"Haight Ashbury","existing_construction_type_description":"wood frame (5)","proposed_construction_type_description":"wood frame (5)"},"geometry":{"type":"Point","coordinates":[-122.449334907,37.763942175]}},{"type":"Feature","properties":{"date":"2005-12-20T16:17:32.000Z","year":2005,"description":"construct prep kitchen in (e) storage area. install gas piping/fir wall area w/5/8\" gyp roch. exhaust hood, duct/blower & fire suppresion under seperate permit.","metadescription":"8. construct prep kitchen in (e) storage area. install gas piping/fir wall area w/5/8\" gyp roch. exhaust hood, duct/blower & fire suppresion under seperate permit.. issued. 2526","address":"2526","adu":"N","lot":"005","plansets":"2","data_as_of":"2025 Jan 29 11:55:00 PM","filed_date":"12/20/2005 04:10:13 PM","street_name":"Mission","point_source":"eas_address_point","revised_cost":"25,000","street_suffix":"St","data_loaded_at":"2025 Jan 30 03:34:26 AM","existing_units":"0","proposed_units":"0","existing_occupancy":"A-3","proposed_occupancy":"A-3","current_status_date":"12/20/2005 04:17:32 PM","supervisor_district":"9","primary_address_flag":"Y","permit_type_definition":"otc alterations permit","last_permit_activity_date":"12/20/2005 04:14:43 PM","existing_construction_type":"3","number_of_existing_stories":"2","number_of_proposed_stories":"2","proposed_construction_type":"3","application_submission_method":"in-house","neighborhoods_analysis_boundaries":"Mission","existing_construction_type_description":"constr type 3","proposed_construction_type_description":"constr type 3"},"geometry":{"type":"Point","coordinates":[-122.4190414,37.75651749]}},{"type":"Feature","properties":{"date":"2004-12-22T13:26:12.000Z","year":2004,"description":"replace furnace and ductwork - 1st floor, modify gas piping, new exhaust fan","metadescription":"8. replace furnace and ductwork - 1st floor, modify gas piping, new exhaust fan. expired. 367","address":"367","adu":"N","lot":"009","plansets":"2","data_as_of":"2025 Jan 29 11:55:00 PM","filed_date":"12/22/2004 01:13:08 PM","street_name":"09th","point_source":"eas_address_point","revised_cost":"13,500","street_suffix":"St","data_loaded_at":"2025 Jan 30 03:34:26 AM","existing_units":"0","proposed_units":"0","existing_occupancy":"M","proposed_occupancy":"M","current_status_date":"03/28/2007 12:00:00 AM","supervisor_district":"6","primary_address_flag":"Y","permit_type_definition":"otc alterations permit","last_permit_activity_date":"12/22/2004 01:16:03 PM","existing_construction_type":"4","number_of_existing_stories":"2","number_of_proposed_stories":"2","proposed_construction_type":"4","application_submission_method":"in-house","neighborhoods_analysis_boundaries":"South of Market","existing_construction_type_description":"constr type 4","proposed_construction_type_description":"constr type 4"},"geometry":{"type":"Point","coordinates":[-122.410346264,37.773102072]}},{"type":"Feature","properties":{"date":"2003-11-21T16:41:26.000Z","year":2003,"description":"5/f- provide mech/elec/plmg/medical gas systems per plan.fire alarm/sprin/generator seperate permit","metadescription":"3. 5/f- provide mech/elec/plmg/medical gas systems per plan.fire alarm/sprin/generator seperate permit. complete. 450","address":"450","adu":"N","lot":"006","plansets":"2","data_as_of":"2025 Jan 29 11:55:00 PM","filed_date":"07/11/2003 03:16:21 PM","street_name":"Sutter","point_source":"eas_address_point","revised_cost":"100,000","street_suffix":"St","data_loaded_at":"2025 Jan 30 03:34:26 AM","existing_units":"0","proposed_units":"0","existing_occupancy":"B,M,S-3","proposed_occupancy":"B,M,S-3","current_status_date":"01/10/2005 12:00:00 AM","supervisor_district":"3","primary_address_flag":"Y","permit_type_definition":"additions alterations or repairs","last_permit_activity_date":"11/21/2003 04:40:45 PM","existing_construction_type":"1","number_of_existing_stories":"26","number_of_proposed_stories":"26","proposed_construction_type":"1","application_submission_method":"in-house","neighborhoods_analysis_boundaries":"Financial District/South Beach","existing_construction_type_description":"constr type 1","proposed_construction_type_description":"constr type 1"},"geometry":{"type":"Point","coordinates":[-122.40783434,37.789656743]}},{"type":"Feature","properties":{"date":"2003-07-21T16:14:06.000Z","year":2003,"description":"construct support and framing for roof mounted generator, anchorage details at medical gas closet","metadescription":"3. construct support and framing for roof mounted generator, anchorage details at medical gas closet. complete. 450","address":"450","adu":"N","lot":"006","plansets":"2","data_as_of":"2025 Jan 29 11:55:00 PM","filed_date":"07/15/2003 10:41:43 AM","street_name":"Sutter","point_source":"eas_address_point","revised_cost":"70,000","street_suffix":"St","data_loaded_at":"2025 Jan 30 03:34:26 AM","existing_units":"0","proposed_units":"0","existing_occupancy":"B,M,S-3","proposed_occupancy":"B,M,S-3","current_status_date":"01/10/2005 12:00:00 AM","supervisor_district":"3","primary_address_flag":"Y","permit_type_definition":"additions alterations or repairs","last_permit_activity_date":"07/21/2003 02:31:11 PM","existing_construction_type":"1","number_of_existing_stories":"26","number_of_proposed_stories":"26","proposed_construction_type":"1","application_submission_method":"in-house","neighborhoods_analysis_boundaries":"Financial District/South Beach","existing_construction_type_description":"constr type 1","proposed_construction_type_description":"constr type 1"},"geometry":{"type":"Point","coordinates":[-122.40783434,37.789656743]}},{"type":"Feature","properties":{"date":"2002-06-05T14:55:49.000Z","year":2002,"description":"interior courtyard, plaza level, exterior elec. ltg. & gas piping, remove/replace storm drain","metadescription":"8. interior courtyard, plaza level, exterior elec. ltg. & gas piping, remove/replace storm drain. complete. 88","address":"88","adu":"N","lot":"001","plansets":"2","data_as_of":"2025 Jan 29 11:55:00 PM","filed_date":"06/05/2002 02:44:36 PM","street_name":"King","point_source":"eas_address_point","revised_cost":"18,000","street_suffix":"St","data_loaded_at":"2025 Jan 30 03:34:26 AM","existing_units":"244","proposed_units":"244","existing_occupancy":"R-1,S-3,M","proposed_occupancy":"R-1,S-3,M","current_status_date":"08/05/2003 12:00:00 AM","supervisor_district":"6","primary_address_flag":"Y","permit_type_definition":"otc alterations permit","last_permit_activity_date":"06/05/2002 02:53:13 PM","existing_construction_type":"1","number_of_existing_stories":"14","number_of_proposed_stories":"14","proposed_construction_type":"1","application_submission_method":"in-house","neighborhoods_analysis_boundaries":"Mission Bay","existing_construction_type_description":"constr type 1","proposed_construction_type_description":"constr type 1"},"geometry":{"type":"Point","coordinates":[-122.389624981,37.780630229]}},{"type":"Feature","properties":{"date":"2002-05-20T11:40:11.000Z","year":2002,"description":"repair stucco at facade in dkind ,repair gas piping,repair sidewalk","metadescription":"8. repair stucco at facade in dkind ,repair gas piping,repair sidewalk. complete. 2367","address":"2367","adu":"N","lot":"005","plansets":"2","data_as_of":"2025 Jan 29 11:55:00 PM","filed_date":"05/20/2002 11:32:08 AM","street_name":"26th","point_source":"eas_address_point","revised_cost":"4,000","street_suffix":"Av","data_loaded_at":"2025 Jan 30 03:34:26 AM","existing_units":"1","proposed_units":"1","existing_occupancy":"R-3","proposed_occupancy":"R-3","current_status_date":"07/19/2002 12:00:00 AM","supervisor_district":"4","primary_address_flag":"Y","permit_type_definition":"otc alterations permit","last_permit_activity_date":"05/20/2002 11:38:21 AM","existing_construction_type":"5","number_of_existing_stories":"2","number_of_proposed_stories":"2","proposed_construction_type":"5","application_submission_method":"in-house","neighborhoods_analysis_boundaries":"Sunset/Parkside","existing_construction_type_description":"wood frame (5)","proposed_construction_type_description":"wood frame (5)"},"geometry":{"type":"Point","coordinates":[-122.483563857,37.743329633]}},{"type":"Feature","properties":{"date":"2000-10-31T14:08:36.000Z","year":2000,"description":"voluntary seismic ugrade as descri in drawings s1,s2 related prep work involving ex gas piping,ducti","metadescription":"3. voluntary seismic ugrade as descri in drawings s1,s2 related prep work involving ex gas piping,ducti. expired. 2225","address":"2225","adu":"N","lot":"031","plansets":"2","data_as_of":"2025 Jan 29 11:55:00 PM","filed_date":"08/25/2000 02:07:58 PM","street_name":"Folsom","point_source":"eas_address_point","revised_cost":"250,000","street_suffix":"St","data_loaded_at":"2025 Jan 30 03:34:26 AM","existing_units":"0","proposed_units":"0","existing_occupancy":"B,S-3","proposed_occupancy":"B,S-3","current_status_date":"02/13/2002 12:00:00 AM","supervisor_district":"9","primary_address_flag":"Y","permit_type_definition":"additions alterations or repairs","last_permit_activity_date":"10/30/2000 03:29:16 PM","existing_construction_type":"2","number_of_existing_stories":"1","number_of_proposed_stories":"1","proposed_construction_type":"2","application_submission_method":"in-house","neighborhoods_analysis_boundaries":"Mission","existing_construction_type_description":"constr type 2","proposed_construction_type_description":"constr type 2"},"geometry":{"type":"Point","coordinates":[-122.414344624,37.761179408]}},{"type":"Feature","properties":{"date":"2000-04-07T14:47:40.000Z","year":2000,"description":"radiant heating, capper piping, gas piping","metadescription":"8. radiant heating, capper piping, gas piping. expired. 85","address":"85","adu":"N","lot":"021","plansets":"0","data_as_of":"2025 Jan 29 11:55:00 PM","filed_date":"04/07/2000 02:43:05 PM","street_name":"Natoma","point_source":"eas_address_point","revised_cost":"70,000","street_suffix":"St","data_loaded_at":"2025 Jan 30 03:34:26 AM","existing_units":"6","proposed_units":"6","existing_occupancy":"R-1","proposed_occupancy":"R-1","current_status_date":"04/07/2001 02:47:40 PM","supervisor_district":"6","primary_address_flag":"Y","permit_type_definition":"otc alterations permit","last_permit_activity_date":"04/07/2000 02:47:23 PM","existing_construction_type":"5","number_of_existing_stories":"3","number_of_proposed_stories":"3","proposed_construction_type":"5","application_submission_method":"in-house","neighborhoods_analysis_boundaries":"Financial District/South Beach","existing_construction_type_description":"wood frame (5)","proposed_construction_type_description":"wood frame (5)"},"geometry":{"type":"Point","coordinates":[-122.398350768,37.7874482]}},{"type":"Feature","properties":{"date":"2000-03-24T12:55:54.000Z","year":2000,"description":"placing kitchen hood and extend gas piping","metadescription":"8. placing kitchen hood and extend gas piping. expired. 552","address":"552","adu":"N","lot":"014","plansets":"2","data_as_of":"2025 Jan 29 11:55:00 PM","filed_date":"03/24/2000 12:49:38 PM","street_name":"Jones","point_source":"eas_address_point","revised_cost":"5,000","street_suffix":"St","data_loaded_at":"2025 Jan 30 03:34:26 AM","existing_units":"40","proposed_units":"40","existing_occupancy":"B,R-1","proposed_occupancy":"B,R-1","current_status_date":"07/24/2000 12:55:54 PM","supervisor_district":"5","primary_address_flag":"Y","permit_type_definition":"otc alterations permit","last_permit_activity_date":"03/24/2000 12:54:03 PM","existing_construction_type":"3","number_of_existing_stories":"7","number_of_proposed_stories":"7","proposed_construction_type":"3","application_submission_method":"in-house","neighborhoods_analysis_boundaries":"Tenderloin","existing_construction_type_description":"constr type 3","proposed_construction_type_description":"constr type 3"},"geometry":{"type":"Point","coordinates":[-122.412958333,37.786566435]}},{"type":"Feature","properties":{"date":"1999-07-08T00:00:00.000Z","year":1999,"description":"repl water & gas piping units b&d,new forced air furnace","metadescription":"8. repl water & gas piping units b&d,new forced air furnace. expired. 1703","address":"1703","adu":"N","lot":"005","plansets":"0","data_as_of":"2025 Jan 29 11:55:00 PM","filed_date":"07/08/1999 12:00:00 AM","street_name":"Gough","point_source":"eas_address_point","street_suffix":"St","data_loaded_at":"2025 Jan 30 03:34:26 AM","existing_units":"4","proposed_units":"4","existing_occupancy":"R-1","proposed_occupancy":"R-1","current_status_date":"04/06/2000 12:00:00 AM","supervisor_district":"2","primary_address_flag":"Y","permit_type_definition":"otc alterations permit","last_permit_activity_date":"07/08/1999 12:00:00 AM","existing_construction_type":"5","number_of_existing_stories":"2","number_of_proposed_stories":"2","proposed_construction_type":"5","application_submission_method":"in-house","neighborhoods_analysis_boundaries":"Pacific Heights","existing_construction_type_description":"wood frame (5)","proposed_construction_type_description":"wood frame (5)"},"geometry":{"type":"Point","coordinates":[-122.425771805,37.789171174]}},{"type":"Feature","properties":{"date":"1997-09-09T00:00:00.000Z","year":1997,"description":"baseboard heating system/piping/flue/gas piping/elect work","metadescription":"8. baseboard heating system/piping/flue/gas piping/elect work. complete. 465","address":"465","adu":"N","lot":"059","plansets":"0","data_as_of":"2025 Jan 29 11:55:00 PM","filed_date":"09/09/1997 12:00:00 AM","street_name":"10th","point_source":"eas_address_point","street_suffix":"St","data_loaded_at":"2025 Jan 30 03:34:26 AM","existing_units":"18","proposed_units":"18","existing_occupancy":"R-1","proposed_occupancy":"R-1","current_status_date":"06/19/1998 12:00:00 AM","supervisor_district":"6","primary_address_flag":"Y","permit_type_definition":"otc alterations permit","last_permit_activity_date":"09/09/1997 12:00:00 AM","existing_construction_type":"5","number_of_existing_stories":"3","number_of_proposed_stories":"3","proposed_construction_type":"5","application_submission_method":"in-house","neighborhoods_analysis_boundaries":"South of Market","existing_construction_type_description":"wood frame (5)","proposed_construction_type_description":"wood frame (5)"},"geometry":{"type":"Point","coordinates":[-122.410053595,37.770952395]}},{"type":"Feature","properties":{"date":"1989-08-01T00:00:00.000Z","year":1989,"description":"duct furnace/gas piping","metadescription":"3. duct furnace/gas piping. expired. 799","address":"799","adu":"N","lot":"023","plansets":"2","data_as_of":"2025 Jan 29 11:55:00 PM","filed_date":"07/18/1989 12:00:00 AM","street_name":"Beach","point_source":"eas_address_point","street_suffix":"St","data_loaded_at":"2025 Jan 30 03:34:26 AM","existing_units":"0","proposed_units":"0","existing_occupancy":"B-2","proposed_occupancy":"B-2","current_status_date":"02/21/1991 12:00:00 AM","supervisor_district":"2","primary_address_flag":"Y","permit_type_definition":"additions alterations or repairs","last_permit_activity_date":"07/31/1989 12:00:00 AM","existing_construction_type":"5","number_of_existing_stories":"1","number_of_proposed_stories":"1","proposed_construction_type":"5","application_submission_method":"in-house","neighborhoods_analysis_boundaries":"Russian Hill","existing_construction_type_description":"wood frame (5)","proposed_construction_type_description":"wood frame (5)"},"geometry":{"type":"Point","coordinates":[-122.42201022,37.806375585]}},{"type":"Feature","properties":{"date":"1989-08-01T00:00:00.000Z","year":1989,"description":"duct furnace/gas piping","metadescription":"3. duct furnace/gas piping. expired. 799","address":"799","adu":"N","lot":"012","plansets":"2","data_as_of":"2025 Jan 29 11:55:00 PM","filed_date":"07/18/1989 12:00:00 AM","street_name":"Beach","point_source":"eas_address_point","street_suffix":"St","data_loaded_at":"2025 Jan 30 03:34:26 AM","existing_units":"0","proposed_units":"0","existing_occupancy":"B-2","proposed_occupancy":"B-2","current_status_date":"02/21/1991 12:00:00 AM","supervisor_district":"2","permit_type_definition":"additions alterations or repairs","last_permit_activity_date":"07/31/1989 12:00:00 AM","existing_construction_type":"5","number_of_existing_stories":"1","number_of_proposed_stories":"1","proposed_construction_type":"5","application_submission_method":"in-house","neighborhoods_analysis_boundaries":"Russian Hill","existing_construction_type_description":"wood frame (5)","proposed_construction_type_description":"wood frame (5)"},"geometry":{"type":"Point","coordinates":[-122.42201022,37.806375585]}},{"type":"Feature","properties":{"date":"1985-11-26T00:00:00.000Z","year":1985,"description":"replace forced air furnace, reconnect electrical, gas piping","metadescription":"8. replace forced air furnace, reconnect electrical, gas piping. expired. 255","address":"255","adu":"N","lot":"015","plansets":"0","data_as_of":"2025 Jan 29 11:55:00 PM","filed_date":"11/26/1985 12:00:00 AM","street_name":"San Benito","point_source":"eas_address_point","street_suffix":"Wy","data_loaded_at":"2025 Jan 30 03:34:26 AM","existing_units":"1","proposed_units":"1","existing_occupancy":"R-3","proposed_occupancy":"R-3","current_status_date":"01/07/1987 12:00:00 AM","supervisor_district":"7","primary_address_flag":"Y","permit_type_definition":"otc alterations permit","existing_construction_type":"5","number_of_existing_stories":"3","number_of_proposed_stories":"3","proposed_construction_type":"5","application_submission_method":"in-house","neighborhoods_analysis_boundaries":"West of Twin Peaks","existing_construction_type_description":"wood frame (5)","proposed_construction_type_description":"wood frame (5)"},"geometry":{"type":"Point","coordinates":[-122.466664261,37.732203087]}},{"type":"Feature","properties":{"date":"1985-11-01T00:00:00.000Z","year":1985,"description":"remove gas stove and gas piping back","metadescription":"8. remove gas stove and gas piping back. complete. 2473","address":"2473","adu":"N","lot":"012A","plansets":"0","data_as_of":"2025 Jan 29 11:55:00 PM","filed_date":"11/01/1985 12:00:00 AM","street_name":"14th","point_source":"eas_address_point","street_suffix":"Av","data_loaded_at":"2025 Jan 30 03:34:26 AM","existing_units":"1","proposed_units":"1","existing_occupancy":"R-3","proposed_occupancy":"R-3","current_status_date":"03/03/1986 12:00:00 AM","supervisor_district":"7","primary_address_flag":"Y","permit_type_definition":"otc alterations permit","existing_construction_type":"5","number_of_existing_stories":"2","number_of_proposed_stories":"2","proposed_construction_type":"5","application_submission_method":"in-house","neighborhoods_analysis_boundaries":"West of Twin Peaks","existing_construction_type_description":"wood frame (5)","proposed_construction_type_description":"wood frame (5)"},"geometry":{"type":"Point","coordinates":[-122.470494344,37.741928037]}},{"type":"Feature","properties":{"date":"1985-03-27T00:00:00.000Z","year":1985,"description":"remove kitchen sink & piping & gas piping in badement kitche","metadescription":"3. remove kitchen sink & piping & gas piping in badement kitche. expired. 51","address":"51","adu":"N","lot":"039","plansets":"0","data_as_of":"2025 Jan 29 11:55:00 PM","filed_date":"03/14/1985 12:00:00 AM","street_name":"Douglass","point_source":"eas_address_point","street_suffix":"St","data_loaded_at":"2025 Jan 30 03:34:26 AM","existing_units":"2","proposed_units":"2","existing_occupancy":"R-3","proposed_occupancy":"R-3","current_status_date":"03/04/1986 12:00:00 AM","supervisor_district":"8","primary_address_flag":"Y","permit_type_definition":"additions alterations or repairs","last_permit_activity_date":"03/22/1985 12:00:00 AM","existing_construction_type":"5","number_of_existing_stories":"3","number_of_proposed_stories":"3","proposed_construction_type":"5","application_submission_method":"in-house","neighborhoods_analysis_boundaries":"Castro/Upper Market","existing_construction_type_description":"wood frame (5)","proposed_construction_type_description":"wood frame (5)"},"geometry":{"type":"Point","coordinates":[-122.439191437,37.76287484]}}]}
