{"type":"FeatureCollection","features":[{"type":"Feature","properties":{"date":"2024-12-19T00:00:00.000Z","year":2024,"description":"ref 202410042332- fire only sprinkler and underground fire water connection","metadescription":"8. ref 202410042332- fire only sprinkler and underground fire water connection. filed. 2400","address":"2400","adu":"N","lot":"043","plansets":"2","data_as_of":"2025 Jan 29 11:55:00 PM","filed_date":"12/19/2024 12:30:23 PM","street_name":"Green","point_source":"eas_address_point","revised_cost":"0","street_suffix":"St","data_loaded_at":"2025 Jan 30 03:34:26 AM","existing_units":"1","proposed_units":"1","fire_only_permit":"Y","existing_occupancy":"R-3","proposed_occupancy":"R-3","current_status_date":"12/19/2024 12:30:23 PM","supervisor_district":"2","primary_address_flag":"Y","permit_type_definition":"otc alterations permit","last_permit_activity_date":"12/20/2024 10:45:50 AM","existing_construction_type":"5","number_of_existing_stories":"3","number_of_proposed_stories":"3","proposed_construction_type":"5","application_submission_method":"in-house","neighborhoods_analysis_boundaries":"Marina","existing_construction_type_description":"wood frame (5)","proposed_construction_type_description":"wood frame (5)"},"geometry":{"type":"Point","coordinates":[-122.438787733,37.79588271]}},{"type":"Feature","properties":{"date":"2024-05-22T00:00:00.000Z","year":2024,"description":"install new fire pump based on sprinkler system demand. install new 6\" backflow preventor within 25' of city water connection. install ner wprinkler system riser with control valve assemblies up the outside of the building.","metadescription":"3. install new fire pump based on sprinkler system demand. install new 6\" backflow preventor within 25' of city water connection. install ner wprinkler system riser with control valve assemblies up the outside of the building.. filed. 1750","address":"1750","adu":"N","lot":"021","unit":"0","plansets":"2","data_as_of":"2025 Jan 29 11:55:00 PM","filed_date":"05/22/2024 12:32:57 PM","street_name":"Taylor","point_source":"eas_address_point","street_suffix":"St","data_loaded_at":"2025 Jan 30 03:34:26 AM","existing_units":"74","proposed_units":"74","fire_only_permit":"Y","existing_occupancy":"R-2","proposed_occupancy":"R-2","current_status_date":"05/22/2024 12:32:57 PM","supervisor_district":"3","primary_address_flag":"Y","permit_type_definition":"additions alterations or repairs","last_permit_activity_date":"06/10/2024 05:47:21 AM","existing_construction_type":"1","number_of_existing_stories":"23","number_of_proposed_stories":"23","proposed_construction_type":"1","application_submission_method":"in-house","neighborhoods_analysis_boundaries":"Nob Hill","existing_construction_type_description":"constr type 1","proposed_construction_type_description":"constr type 1"},"geometry":{"type":"Point","coordinates":[-122.413205388,37.798607158]}},{"type":"Feature","properties":{"date":"2023-02-24T13:49:15.000Z","year":2023,"description":"revision to pa#202201276791. routing of water connection to the city main relocation per water department. see sheet fp-2.","metadescription":"8. revision to pa#202201276791. routing of water connection to the city main relocation per water department. see sheet fp-2.. complete. 2552","address":"2552","adu":"N","lot":"021","plansets":"2","data_as_of":"2025 Jan 29 11:55:00 PM","filed_date":"02/24/2023 11:06:59 AM","street_name":"Baker","point_source":"eas_address_point","revised_cost":"1","street_suffix":"St","data_loaded_at":"2025 Jan 30 03:34:26 AM","existing_units":"1","proposed_units":"1","fire_only_permit":"Y","existing_occupancy":"R-3","proposed_occupancy":"R-3","current_status_date":"10/30/2023 07:36:55 AM","supervisor_district":"2","primary_address_flag":"Y","permit_type_definition":"otc alterations permit","last_permit_activity_date":"02/24/2023 01:43:05 PM","existing_construction_type":"5","number_of_existing_stories":"3","number_of_proposed_stories":"3","proposed_construction_type":"5","application_submission_method":"in-house","neighborhoods_analysis_boundaries":"Pacific Heights","existing_construction_type_description":"wood frame (5)","proposed_construction_type_description":"wood frame (5)"},"geometry":{"type":"Point","coordinates":[-122.444889731,37.794709655]}},{"type":"Feature","properties":{"date":"2022-09-15T11:29:14.000Z","year":2022,"description":"provide new fire water connection to designated outlet of the ambient collection system unit (by others) and add (1) fire sprinkler under said unit to maintain proper floor coverage. all other system components are not in scope and are to remain as existing. ref pa# 200908265612.","metadescription":"8. provide new fire water connection to designated outlet of the ambient collection system unit (by others) and add (1) fire sprinkler under said unit to maintain proper floor coverage. all other system components are not in scope and are to remain as existing. ref pa# 200908265612.. complete. 750","address":"750","adu":"N","lot":"009","plansets":"2","data_as_of":"2025 Jan 29 11:55:00 PM","filed_date":"09/15/2022 10:14:02 AM","street_name":"Phelps","point_source":"eas_address_point","revised_cost":"10,000","street_suffix":"St","data_loaded_at":"2025 Jan 30 03:34:26 AM","existing_units":"0","proposed_units":"0","fire_only_permit":"Y","existing_occupancy":"F-1","proposed_occupancy":"F-1","current_status_date":"02/03/2023 08:37:09 AM","supervisor_district":"10","primary_address_flag":"Y","permit_type_definition":"otc alterations permit","last_permit_activity_date":"09/15/2022 11:19:07 AM","existing_construction_type":"1","number_of_existing_stories":"2","number_of_proposed_stories":"2","proposed_construction_type":"1","application_submission_method":"in-house","neighborhoods_analysis_boundaries":"Bayview Hunters Point","existing_construction_type_description":"constr type 1","proposed_construction_type_description":"constr type 1"},"geometry":{"type":"Point","coordinates":[-122.390964663,37.740536302]}},{"type":"Feature","properties":{"date":"2021-08-24T11:17:42.000Z","year":2021,"description":"revision to pa #201802080751. reduce size of sliding doors. reconfigure window openings @ rec rm. reconfigure power rm. remove (p) skylight over living rm pop out. revise fireplace opening. reconfigure roof drainage & front yard drainage. add gas, electrical & water connection for rear yard. shower","metadescription":"3. revision to pa #201802080751. reduce size of sliding doors. reconfigure window openings @ rec rm. reconfigure power rm. remove (p) skylight over living rm pop out. revise fireplace opening. reconfigure roof drainage & front yard drainage. add gas, electrical & water connection for rear yard. shower. complete. 46","address":"46","adu":"N","lot":"023","plansets":"2","data_as_of":"2025 Jan 29 11:55:00 PM","filed_date":"12/20/2020 09:21:34 AM","street_name":"Stillings","point_source":"eas_address_point","revised_cost":"3,500","street_suffix":"Av","data_loaded_at":"2025 Jan 30 03:34:26 AM","existing_units":"1","proposed_units":"1","existing_occupancy":"R-3","proposed_occupancy":"R-3","current_status_date":"08/25/2021 12:47:59 PM","supervisor_district":"8","primary_address_flag":"Y","permit_type_definition":"additions alterations or repairs","structural_notification":"Y","last_permit_activity_date":"08/24/2021 11:17:39 AM","existing_construction_type":"5","number_of_existing_stories":"1","number_of_proposed_stories":"3","proposed_construction_type":"5","application_submission_method":"in-house","neighborhoods_analysis_boundaries":"West of Twin Peaks","existing_construction_type_description":"wood frame (5)","proposed_construction_type_description":"wood frame (5)"},"geometry":{"type":"Point","coordinates":[-122.441597735,37.734595358]}},{"type":"Feature","properties":{"date":"2021-03-09T12:20:33.000Z","year":2021,"description":"install two (2) new 8\" underground fire service 5'-0 stubouts. underground fire line installation and review for approval of new water connection.","metadescription":"8. install two (2) new 8\" underground fire service 5'-0 stubouts. underground fire line installation and review for approval of new water connection.. issued. 645","address":"645","adu":"N","lot":"037","plansets":"2","data_as_of":"2025 Jan 29 11:55:00 PM","filed_date":"02/04/2021 05:17:37 PM","street_name":"05th","point_source":"eas_address_point","revised_cost":"20,000","street_suffix":"St","data_loaded_at":"2025 Jan 30 03:34:26 AM","existing_units":"0","proposed_units":"0","fire_only_permit":"Y","existing_occupancy":"B,M,S-2,A-3","proposed_occupancy":"B,M,S-2,A-3","current_status_date":"03/09/2021 12:20:33 PM","supervisor_district":"6","primary_address_flag":"Y","permit_type_definition":"otc alterations permit","last_permit_activity_date":"03/09/2021 12:20:22 PM","existing_construction_type":"1","number_of_existing_stories":"15","number_of_proposed_stories":"15","proposed_construction_type":"1","application_submission_method":"in-house","neighborhoods_analysis_boundaries":"South of Market","existing_construction_type_description":"constr type 1","proposed_construction_type_description":"constr type 1"},"geometry":{"type":"Point","coordinates":[-122.397667816,37.776789746]}},{"type":"Feature","properties":{"date":"2021-03-09T12:20:33.000Z","year":2021,"description":"install two (2) new 8\" underground fire service 5'-0 stubouts. underground fire line installation and review for approval of new water connection.","metadescription":"8. install two (2) new 8\" underground fire service 5'-0 stubouts. underground fire line installation and review for approval of new water connection.. issued. 88","address":"88","adu":"N","lot":"037","plansets":"2","data_as_of":"2025 Jan 29 11:55:00 PM","filed_date":"02/04/2021 05:17:37 PM","street_name":"Bluxome","point_source":"eas_address_point","revised_cost":"20,000","street_suffix":"St","data_loaded_at":"2025 Jan 30 03:34:26 AM","existing_units":"0","proposed_units":"0","fire_only_permit":"Y","existing_occupancy":"B,M,S-2,A-3","proposed_occupancy":"B,M,S-2,A-3","current_status_date":"03/09/2021 12:20:33 PM","supervisor_district":"6","permit_type_definition":"otc alterations permit","last_permit_activity_date":"03/09/2021 12:20:22 PM","existing_construction_type":"1","number_of_existing_stories":"15","number_of_proposed_stories":"15","proposed_construction_type":"1","application_submission_method":"in-house","neighborhoods_analysis_boundaries":"South of Market","existing_construction_type_description":"constr type 1","proposed_construction_type_description":"constr type 1"},"geometry":{"type":"Point","coordinates":[-122.397910874,37.776232134]}},{"type":"Feature","properties":{"date":"2019-05-29T14:51:04.000Z","year":2019,"description":"revision to pa 2016-1213-4760 to fire water service connection. revision to clarity riser location & rating into building","metadescription":"8. revision to pa 2016-1213-4760 to fire water service connection. revision to clarity riser location & rating into building. complete. 470","address":"470","adu":"N","lot":"009","unit":"0","plansets":"2","data_as_of":"2025 Jan 29 11:55:00 PM","filed_date":"05/29/2019 01:51:16 PM","street_name":"West Portal","point_source":"eas_address_point","revised_cost":"1","street_suffix":"Av","data_loaded_at":"2025 Jan 30 03:34:26 AM","existing_units":"0","proposed_units":"0","fire_only_permit":"Y","existing_occupancy":"E","proposed_occupancy":"E","current_status_date":"09/29/2021 01:53:29 PM","supervisor_district":"7","permit_type_definition":"otc alterations permit","last_permit_activity_date":"05/29/2019 02:44:39 PM","existing_construction_type":"2","number_of_existing_stories":"1","number_of_proposed_stories":"1","proposed_construction_type":"2","application_submission_method":"in-house","neighborhoods_analysis_boundaries":"West of Twin Peaks","existing_construction_type_description":"constr type 2","proposed_construction_type_description":"constr type 2"},"geometry":{"type":"Point","coordinates":[-122.471202656,37.736017097]}},{"type":"Feature","properties":{"date":"2019-05-29T14:51:04.000Z","year":2019,"description":"revision to pa 2016-1213-4760 to fire water service connection. revision to clarity riser location & rating into building","metadescription":"8. revision to pa 2016-1213-4760 to fire water service connection. revision to clarity riser location & rating into building. complete. 470","address":"470","adu":"N","lot":"008","plansets":"2","data_as_of":"2025 Jan 29 11:55:00 PM","filed_date":"05/29/2019 01:51:16 PM","street_name":"West Portal","point_source":"eas_address_point","revised_cost":"1","street_suffix":"Av","data_loaded_at":"2025 Jan 30 03:34:26 AM","existing_units":"0","proposed_units":"0","fire_only_permit":"Y","existing_occupancy":"E","proposed_occupancy":"E","current_status_date":"09/29/2021 01:53:29 PM","supervisor_district":"7","primary_address_flag":"Y","permit_type_definition":"otc alterations permit","last_permit_activity_date":"05/29/2019 02:44:39 PM","existing_construction_type":"2","number_of_existing_stories":"1","number_of_proposed_stories":"1","proposed_construction_type":"2","application_submission_method":"in-house","neighborhoods_analysis_boundaries":"West of Twin Peaks","existing_construction_type_description":"constr type 2","proposed_construction_type_description":"constr type 2"},"geometry":{"type":"Point","coordinates":[-122.471202656,37.736017097]}},{"type":"Feature","properties":{"date":"2018-03-28T10:53:12.000Z","year":2018,"description":"8th/9th flr -provide and install a new crah unit to cool telco equip. hot tap new chilled water connection to serve new crah unit. new ele and controls for new crah unit","metadescription":"8. 8th/9th flr -provide and install a new crah unit to cool telco equip. hot tap new chilled water connection to serve new crah unit. new ele and controls for new crah unit. complete. 611","address":"611","adu":"N","lot":"087","plansets":"2","data_as_of":"2025 Jan 29 11:55:00 PM","filed_date":"02/08/2018 12:20:42 PM","street_name":"Folsom","point_source":"eas_address_point","revised_cost":"100,000","street_suffix":"St","data_loaded_at":"2025 Jan 30 03:34:26 AM","existing_occupancy":"B","proposed_occupancy":"B","current_status_date":"11/15/2018 03:09:08 PM","supervisor_district":"6","primary_address_flag":"Y","permit_type_definition":"otc alterations permit","last_permit_activity_date":"03/28/2018 10:49:21 AM","existing_construction_type":"1","number_of_existing_stories":"9","number_of_proposed_stories":"9","proposed_construction_type":"1","application_submission_method":"in-house","neighborhoods_analysis_boundaries":"Financial District/South Beach","existing_construction_type_description":"constr type 1","proposed_construction_type_description":"constr type 1"},"geometry":{"type":"Point","coordinates":[-122.396536309,37.784979901]}},{"type":"Feature","properties":{"date":"2014-10-02T00:00:00.000Z","year":2014,"description":"underground water connection. n/a for maher","metadescription":"8. underground water connection. n/a for maher. filed. 1263","address":"1263","adu":"N","lot":"076","plansets":"2","data_as_of":"2025 Jan 29 11:55:00 PM","filed_date":"10/02/2014 09:01:40 AM","street_name":"Mission","point_source":"eas_address_point","revised_cost":"0","street_suffix":"St","data_loaded_at":"2025 Jan 30 03:34:26 AM","existing_units":"0","proposed_units":"0","existing_occupancy":"B,M","proposed_occupancy":"B,M","current_status_date":"10/02/2014 09:01:40 AM","supervisor_district":"6","primary_address_flag":"Y","permit_type_definition":"otc alterations permit","last_permit_activity_date":"10/06/2014 09:12:20 AM","existing_construction_type":"1","number_of_existing_stories":"3","number_of_proposed_stories":"3","proposed_construction_type":"1","application_submission_method":"in-house","neighborhoods_analysis_boundaries":"South of Market","existing_construction_type_description":"constr type 1","proposed_construction_type_description":"constr type 1"},"geometry":{"type":"Point","coordinates":[-122.414028244,37.776572317]}},{"type":"Feature","properties":{"date":"2014-08-04T11:45:07.000Z","year":2014,"description":"remodel of 1st fl, mezz fl & 2nd fl; addition of 3rd fl, new elevator and structural. the mechanical, electrical & plumbing upgrades, (n) pg&e service & transformer, (n) fire sprinkler & fire water connection. (permit for fire sprinkler & fire water connection are to be submitted on separate permits","metadescription":"3. remodel of 1st fl, mezz fl & 2nd fl; addition of 3rd fl, new elevator and structural. the mechanical, electrical & plumbing upgrades, (n) pg&e service & transformer, (n) fire sprinkler & fire water connection. (permit for fire sprinkler & fire water connection are to be submitted on separate permits. issued. 680","address":"680","adu":"N","lot":"018","plansets":"2","data_as_of":"2025 Jan 29 11:55:00 PM","filed_date":"04/15/2013 10:09:56 AM","street_name":"Filbert","point_source":"eas_address_point","revised_cost":"5,500,000","street_suffix":"St","data_loaded_at":"2025 Jan 30 03:34:26 AM","existing_units":"0","proposed_units":"0","existing_occupancy":"A-3,B,E","proposed_occupancy":"A-3,B,E","current_status_date":"08/04/2014 11:45:07 AM","supervisor_district":"3","primary_address_flag":"Y","permit_type_definition":"additions alterations or repairs","structural_notification":"Y","last_permit_activity_date":"08/04/2014 11:42:35 AM","existing_construction_type":"3","number_of_existing_stories":"2","number_of_proposed_stories":"3","proposed_construction_type":"3","application_submission_method":"in-house","neighborhoods_analysis_boundaries":"North Beach","existing_construction_type_description":"constr type 3","proposed_construction_type_description":"constr type 3"},"geometry":{"type":"Point","coordinates":[-122.410698619,37.801482543]}},{"type":"Feature","properties":{"date":"2011-05-18T10:17:05.000Z","year":2011,"description":"new fire sprinkler system in garage and basement. work includes new 2\" underground and 3' back flow preventer. (underground and new water connection) to comply with nov 201188680 dated 1/19/11","metadescription":"8. new fire sprinkler system in garage and basement. work includes new 2\" underground and 3' back flow preventer. (underground and new water connection) to comply with nov 201188680 dated 1/19/11. issued. 1219","address":"1219","adu":"N","lot":"027","unit":"0","plansets":"2","data_as_of":"2025 Jan 29 11:55:00 PM","filed_date":"04/21/2011 11:46:40 AM","street_name":"Page","point_source":"eas_address_point","revised_cost":"20,000","street_suffix":"St","data_loaded_at":"2025 Jan 30 03:34:26 AM","existing_units":"3","proposed_units":"3","fire_only_permit":"Y","existing_occupancy":"R-2","proposed_occupancy":"R-2","current_status_date":"05/18/2011 10:17:05 AM","supervisor_district":"5","primary_address_flag":"Y","permit_type_definition":"otc alterations permit","last_permit_activity_date":"05/18/2011 09:57:33 AM","existing_construction_type":"5","number_of_existing_stories":"3","number_of_proposed_stories":"3","proposed_construction_type":"5","application_submission_method":"in-house","neighborhoods_analysis_boundaries":"Haight Ashbury","existing_construction_type_description":"wood frame (5)","proposed_construction_type_description":"wood frame (5)"},"geometry":{"type":"Point","coordinates":[-122.441142807,37.77144723]}},{"type":"Feature","properties":{"date":"2011-05-18T10:17:05.000Z","year":2011,"description":"new fire sprinkler system in garage and basement. work includes new 2\" underground and 3' back flow preventer. (underground and new water connection) to comply with nov 201188680 dated 1/19/11","metadescription":"8. new fire sprinkler system in garage and basement. work includes new 2\" underground and 3' back flow preventer. (underground and new water connection) to comply with nov 201188680 dated 1/19/11. issued. 1223","address":"1223","adu":"N","lot":"027","unit":"0","plansets":"2","data_as_of":"2025 Jan 29 11:55:00 PM","filed_date":"04/21/2011 11:46:40 AM","street_name":"Page","point_source":"eas_address_point","revised_cost":"20,000","street_suffix":"St","data_loaded_at":"2025 Jan 30 03:34:26 AM","existing_units":"3","proposed_units":"3","fire_only_permit":"Y","existing_occupancy":"R-2","proposed_occupancy":"R-2","current_status_date":"05/18/2011 10:17:05 AM","supervisor_district":"5","permit_type_definition":"otc alterations permit","last_permit_activity_date":"05/18/2011 09:57:33 AM","existing_construction_type":"5","number_of_existing_stories":"3","number_of_proposed_stories":"3","proposed_construction_type":"5","application_submission_method":"in-house","neighborhoods_analysis_boundaries":"Haight Ashbury","existing_construction_type_description":"wood frame (5)","proposed_construction_type_description":"wood frame (5)"},"geometry":{"type":"Point","coordinates":[-122.441142807,37.77144723]}},{"type":"Feature","properties":{"date":"2009-10-05T14:27:45.000Z","year":2009,"description":"remodel the kitchen-cabinets, shower tile, no electrical, plumbing and water tap will be changed. no lighting work","metadescription":"8. remodel the kitchen-cabinets, shower tile, no electrical, plumbing and water tap will be changed. no lighting work. complete. 2908","address":"2908","adu":"N","lot":"031","plansets":"0","data_as_of":"2025 Jan 29 11:55:00 PM","filed_date":"10/05/2009 02:20:42 PM","street_name":"Santiago","point_source":"eas_address_point","revised_cost":"9,000","street_suffix":"St","data_loaded_at":"2025 Jan 30 03:34:26 AM","existing_units":"1","proposed_units":"1","existing_occupancy":"R-3","proposed_occupancy":"R-3","current_status_date":"02/16/2010 12:00:00 AM","supervisor_district":"4","primary_address_flag":"Y","permit_type_definition":"otc alterations permit","last_permit_activity_date":"10/05/2009 02:22:30 PM","existing_construction_type":"5","number_of_existing_stories":"2","number_of_proposed_stories":"2","proposed_construction_type":"5","application_submission_method":"in-house","neighborhoods_analysis_boundaries":"Sunset/Parkside","existing_construction_type_description":"wood frame (5)","proposed_construction_type_description":"wood frame (5)"},"geometry":{"type":"Point","coordinates":[-122.49861159,37.744127051]}},{"type":"Feature","properties":{"date":"2008-10-09T12:08:43.000Z","year":2008,"description":"replace kitchen cabinets, countertop, stove, dishwasher electrical & water connection org. replace tile, toilet & vanity electrical & water connection org.","metadescription":"8. replace kitchen cabinets, countertop, stove, dishwasher electrical & water connection org. replace tile, toilet & vanity electrical & water connection org.. complete. 479","address":"479","adu":"N","lot":"017","plansets":"0","data_as_of":"2025 Jan 29 11:55:00 PM","filed_date":"10/09/2008 12:02:55 PM","street_name":"21st","point_source":"eas_address_point","revised_cost":"10,000","street_suffix":"Av","data_loaded_at":"2025 Jan 30 03:34:26 AM","existing_units":"1","proposed_units":"1","existing_occupancy":"R-3","proposed_occupancy":"R-3","current_status_date":"12/03/2008 12:00:00 AM","supervisor_district":"1","primary_address_flag":"Y","permit_type_definition":"otc alterations permit","last_permit_activity_date":"10/09/2008 12:06:25 PM","existing_construction_type":"5","number_of_existing_stories":"2","number_of_proposed_stories":"2","proposed_construction_type":"5","application_submission_method":"in-house","neighborhoods_analysis_boundaries":"Outer Richmond","existing_construction_type_description":"wood frame (5)","proposed_construction_type_description":"wood frame (5)"},"geometry":{"type":"Point","coordinates":[-122.480669096,37.778764632]}},{"type":"Feature","properties":{"date":"2006-10-19T11:46:19.000Z","year":2006,"description":"for 8\" fire sprinkler underground supply to existing building to get water connection from san francisco water department.","metadescription":"8. for 8\" fire sprinkler underground supply to existing building to get water connection from san francisco water department.. expired. 418","address":"418","adu":"N","lot":"006","plansets":"2","data_as_of":"2025 Jan 29 11:55:00 PM","filed_date":"10/19/2006 11:40:03 AM","street_name":"Jessie","point_source":"eas_address_point","revised_cost":"7,500","street_suffix":"St","data_loaded_at":"2025 Jan 30 03:34:26 AM","existing_units":"25","proposed_units":"25","existing_occupancy":"R-1,A2.1,U-1,S-1","proposed_occupancy":"R-1,A2.1,U-1,S-1","current_status_date":"04/24/2009 12:00:00 AM","supervisor_district":"6","primary_address_flag":"Y","permit_type_definition":"otc alterations permit","last_permit_activity_date":"10/19/2006 11:43:46 AM","existing_construction_type":"2","number_of_existing_stories":"9","number_of_proposed_stories":"9","proposed_construction_type":"2","application_submission_method":"in-house","neighborhoods_analysis_boundaries":"South of Market","existing_construction_type_description":"constr type 2","proposed_construction_type_description":"constr type 2"},"geometry":{"type":"Point","coordinates":[-122.40790483,37.782976765]}},{"type":"Feature","properties":{"date":"2003-03-28T16:08:57.000Z","year":2003,"description":"complete building fire sprinkler system including city water connection,main riser,flr distribution","metadescription":"3. complete building fire sprinkler system including city water connection,main riser,flr distribution. issued. 1001","address":"1001","adu":"N","lot":"003","unit":"0","plansets":"2","data_as_of":"2025 Jan 29 11:55:00 PM","filed_date":"09/05/2002 04:06:10 PM","street_name":"Grant","point_source":"eas_address_point","revised_cost":"68,000","street_suffix":"Av","data_loaded_at":"2025 Jan 30 03:34:26 AM","existing_units":"88","proposed_units":"88","existing_occupancy":"M,R-1","proposed_occupancy":"M,R-1","current_status_date":"03/28/2003 04:08:57 PM","supervisor_district":"3","primary_address_flag":"Y","permit_type_definition":"additions alterations or repairs","last_permit_activity_date":"02/20/2003 02:14:34 PM","existing_construction_type":"3","number_of_existing_stories":"5","number_of_proposed_stories":"5","proposed_construction_type":"3","application_submission_method":"in-house","neighborhoods_analysis_boundaries":"Chinatown","existing_construction_type_description":"constr type 3","proposed_construction_type_description":"constr type 3"},"geometry":{"type":"Point","coordinates":[-122.406877293,37.796161089]}},{"type":"Feature","properties":{"date":"2002-10-22T13:21:52.000Z","year":2002,"description":"install fire sprinkler throughout inlcuding water connection","metadescription":"3. install fire sprinkler throughout inlcuding water connection. expired. 201","address":"201","adu":"N","lot":"018","plansets":"2","data_as_of":"2025 Jan 29 11:55:00 PM","filed_date":"08/30/2002 03:04:59 PM","street_name":"Guerrero","point_source":"eas_address_point","revised_cost":"24,000","street_suffix":"St","data_loaded_at":"2025 Jan 30 03:34:26 AM","existing_units":"3","proposed_units":"3","existing_occupancy":"R-1","proposed_occupancy":"R-1","current_status_date":"06/24/2003 12:00:00 AM","supervisor_district":"9","primary_address_flag":"Y","permit_type_definition":"additions alterations or repairs","last_permit_activity_date":"10/16/2002 11:56:28 AM","existing_construction_type":"5","number_of_existing_stories":"4","number_of_proposed_stories":"4","proposed_construction_type":"5","application_submission_method":"in-house","neighborhoods_analysis_boundaries":"Mission","existing_construction_type_description":"wood frame (5)","proposed_construction_type_description":"wood frame (5)"},"geometry":{"type":"Point","coordinates":[-122.424220319,37.767858079]}}]}
