{"type":"FeatureCollection","features":[{"type":"Feature","properties":{"date":"2016-12-20T05:00:00.000Z","year":2016,"description":"Install new Irrigation only to existing residence.","metadescription":"PP. Irrigation. Install new Irrigation only to existing residence.. Withdrawn. 19313 SMITH GIN ST","address":"19313 SMITH GIN ST","link":"https://abc.austintexas.gov/web/permit/public-search-other?t_detail=1&t_selected_folderrsn=11646742","tcad_id":"0239750519","location":"    (30.35365598, -97.51286076)","day_issued":"TUESDAY","project_id":"11646742","condominium":"No","status_date":"01/10/2017","jurisdiction":"MANOR FULL PURPOSE","issuance_method":"Online","permit_type_desc":"Plumbing Permit","fiscal_year_issued":"2017","permit_class_mapped":"Residential","issued_in_last_30_days":"No","certificate_of_occupancy":"No","plumbing_valuation_remodel":"$5,250.00","property_legal_description":"LOT 21 BLK F PRESIDENTIAL GLEN PHS 1A"},"geometry":{"type":"Point","coordinates":[-97.51286076,30.35365598]}}]}
