{"type":"FeatureCollection","features":[{"type":"Feature","properties":{"date":"2026-04-27T00:00:00.000Z","year":2026,"description":"eplanla: addition & conversion of (e) detached garage into a (n) 1-story ordinance detached accessory dwelling unit per LAMC 12.22A.33(b)(1),(c),(d),(h), & (k), work per engineer","metadescription":"Bldg-Addition. 1 or 2 Family Dwelling. eplanla: addition & conversion of (e) detached garage into a (n) 1-story ordinance detached accessory dwelling unit per LAMC 12.22A.33(b)(1),(c),(d),(h), & (k), work per engineer. Corrections Issued. 3719 N WINCHESTER AVE","address":"3719 Winchester Avenue, CA, Los Angeles, 90032, US","ct":"2015.01","ev":"N","apc":"East Los Angeles","cpa":"Northeast Los Angeles","zone":"R1-1","solar":"N","pin_nbr":"144A239    78","use_code":"1","status_date":"05/04/2026","construction":"Type V-B Construction","permit_group":"Building","refresh_time":"06/10/2026","type_lat_lon":"ADDRESS","business_unit":"Expanded Counter Plan Check","square_footage":"727"},"geometry":{"type":"Point","coordinates":[-118.16061,34.08829]}},{"type":"Feature","properties":{"date":"2025-08-05T00:00:00.000Z","year":2025,"description":"eplan EXISTING GARAGE (331.53 SF) CONVERSION + ADDITION (68.53 SF)  TO NEW 1 STORY DETACHED ADU (400 SF)","metadescription":"Bldg-Addition. 1 or 2 Family Dwelling. eplan EXISTING GARAGE (331.53 SF) CONVERSION + ADDITION (68.53 SF)  TO NEW 1 STORY DETACHED ADU (400 SF). Corrections Issued. 3708 N LOWELL AVE","address":"3708 Lowell Avenue, CA, Los Angeles, 90032, US","ct":"2015.01","ev":"N","apc":"East Los Angeles","cpa":"Northeast Los Angeles","zone":"R1-1","solar":"N","height":"11.42","pin_nbr":"144A237   281","use_code":"1","status_date":"08/12/2025","construction":"Type V-B Construction","permit_group":"Building","refresh_time":"06/10/2026","type_lat_lon":"ADDRESS","business_unit":"Expanded Counter Plan Check","square_footage":"400"},"geometry":{"type":"Point","coordinates":[-118.16229,34.08793]}},{"type":"Feature","properties":{"date":"2024-12-24T00:00:00.000Z","year":2024,"description":"SFD ADDITION PER WFPP","metadescription":"Bldg-Addition. 1 or 2 Family Dwelling. SFD ADDITION PER WFPP. CofO Issued. 3721 N LOWELL AVE","address":"3721 Lowell Avenue, CA, Los Angeles, 90032, US","ct":"2015.01","ev":"N","apc":"East Los Angeles","cpa":"Northeast Los Angeles","zone":"R1-1","solar":"N","pin_nbr":"144A237   249","use_code":"1","status_date":"03/20/2025","construction":"Type V-B Construction","permit_group":"Building","refresh_time":"06/10/2026","type_lat_lon":"BUILDING","business_unit":"Plan Check at Counter","square_footage":"169"},"geometry":{"type":"Point","coordinates":[-118.16269963,34.08827056]}},{"type":"Feature","properties":{"date":"2024-04-12T00:00:00.000Z","year":2024,"description":"Propsoed 9'-4\" x 48'-5\" addition to exsting SFD.","metadescription":"Bldg-Addition. 1 or 2 Family Dwelling. Propsoed 9'-4\" x 48'-5\" addition to exsting SFD.. Issued. 4338 N MAYCREST AVE","address":"4332 North Maycrest Avenue, CA, Los Angeles, 90032, US","ct":"2011.20","ev":"N","apc":"East Los Angeles","cpa":"Northeast Los Angeles","zone":"R1-1","solar":"N","height":"13.33","pin_nbr":"147A239   275","use_code":"1","status_date":"04/12/2024","construction":"Type V-B Construction","permit_group":"Building","refresh_time":"06/10/2026","type_lat_lon":"ADDRESS","business_unit":"Expanded Counter Plan Check","square_footage":"2299"},"geometry":{"type":"Point","coordinates":[-118.16117,34.09525]}},{"type":"Feature","properties":{"date":"2023-12-20T00:00:00.000Z","year":2023,"description":"EPLAN: 377 SF IRREGULAR SHAPED ADDITION & REMODEL TO (E) DUPLEX, ALL WORK PER ENG.\" COMPLY WITH DEPARTMENT ORDER effective date 09/20/2023. PERMIT WILL EXPIRE 30 DAYS FROM ISSUANCE DATE\"SEE COMMENTS","metadescription":"Bldg-Addition. 1 or 2 Family Dwelling. EPLAN: 377 SF IRREGULAR SHAPED ADDITION & REMODEL TO (E) DUPLEX, ALL WORK PER ENG.\" COMPLY WITH DEPARTMENT ORDER effective date 09/20/2023. PERMIT WILL EXPIRE 30 DAYS FROM ISSUANCE DATE\"SEE COMMENTS. Verifications in Progress. 5484 E NEWTONIA DR","address":"5484 Newtonia Drive, CA, Los Angeles, 90032, US","ct":"2011.20","ev":"N","apc":"East Los Angeles","cpa":"Northeast Los Angeles","zone":"R1-1","solar":"N","pin_nbr":"147A239   236","use_code":"2","status_date":"02/02/2024","construction":"Type V-B Construction","permit_group":"Building","refresh_time":"06/10/2026","type_lat_lon":"ADDRESS","business_unit":"Expanded Counter Plan Check","square_footage":"377"},"geometry":{"type":"Point","coordinates":[-118.16,34.09604]}},{"type":"Feature","properties":{"date":"2022-06-10T00:00:00.000Z","year":2022,"description":"17' X 16'-3\" IRREG SHAPED ADDITION TO ADD NEW BEDROOM AND REMODEL (E) BATHROOM.","metadescription":"Bldg-Addition. 1 or 2 Family Dwelling. 17' X 16'-3\" IRREG SHAPED ADDITION TO ADD NEW BEDROOM AND REMODEL (E) BATHROOM.. CofO Issued. 4325 N ALPHA ST","address":"4325 Alpha Street, CA, Los Angeles, 90032, US","ct":"2011.20","ev":"N","apc":"East Los Angeles","cpa":"Northeast Los Angeles","zone":"R1-1","solar":"N","pin_nbr":"147A239   280","use_code":"1","status_date":"02/24/2023","construction":"Type V-B Construction","permit_group":"Building","refresh_time":"06/10/2026","type_lat_lon":"BUILDING","business_unit":"Expanded Counter Plan Check","square_footage":"224"},"geometry":{"type":"Point","coordinates":[-118.15965154,34.09518729]}},{"type":"Feature","properties":{"date":"2022-05-06T00:00:00.000Z","year":2022,"description":"Addition to single family dwelling to enlarge bedroom and add bathroom.","metadescription":"Bldg-Addition. 1 or 2 Family Dwelling. Addition to single family dwelling to enlarge bedroom and add bathroom.. CofO Issued. 3823 N WINCHESTER AVE","address":"3823 Winchester Avenue, CA, Los Angeles, 90032, US","ct":"2015.01","ev":"N","apc":"East Los Angeles","cpa":"Northeast Los Angeles","zone":"PF-1","solar":"N","pin_nbr":"144A239    42","use_code":"1","status_date":"10/22/2022","construction":"Type V-B Construction","permit_group":"Building","refresh_time":"06/10/2026","type_lat_lon":"BUILDING","business_unit":"Expanded Counter Plan Check","square_footage":"1519"},"geometry":{"type":"Point","coordinates":[-118.16071957,34.08963305]}},{"type":"Feature","properties":{"date":"2019-08-13T00:00:00.000Z","year":2019,"description":"Convert existing detached garage to accessory dwelling unit per AB494 and SB229 and new 20'x 41'-6\" ground floor addition to accessory dwelling unit","metadescription":"Bldg-Addition. 1 or 2 Family Dwelling. Convert existing detached garage to accessory dwelling unit per AB494 and SB229 and new 20'x 41'-6\" ground floor addition to accessory dwelling unit. CofO Issued. 3715 N LOWELL AVE","address":"3715 Lowell Avenue, CA, Los Angeles, 90032, US","ct":"2015.01","ev":"N","apc":"East Los Angeles","cpa":"Northeast Los Angeles","zone":"R1-1","solar":"N","pin_nbr":"144A237   257","use_code":"1","geolocation":"POINT (-118.16262 34.08811)","status_date":"08/31/2020","construction":"Type V-B Construction","permit_group":"Building","refresh_time":"06/10/2026","type_lat_lon":"ADDRESS","business_unit":"Regular Plan Check","square_footage":"993"},"geometry":{"type":"Point","coordinates":[-118.16262,34.08811]}},{"type":"Feature","properties":{"date":"2017-06-09T00:00:00.000Z","year":2017,"description":"grading for new 2-story addition to (e) 1-story sfd, and garage; creating a duplex.","metadescription":"Grading. 1 or 2 Family Dwelling. grading for new 2-story addition to (e) 1-story sfd, and garage; creating a duplex.. Permit Finaled. 5468-5468 1/2 E NEWTONIA DR","address":"5468 1/2 Newtonia Drive, CA, Los Angeles, 90032, US","ct":"2011.20","ev":"N","apc":"East Los Angeles","cpa":"Northeast Los Angeles","zone":"R3-1","solar":"N","pin_nbr":"147A239   239","use_code":"70","geolocation":"POINT (-118.16041 34.09593)","status_date":"04/06/2018","permit_group":"Building","refresh_time":"06/10/2026","type_lat_lon":"ADDRESS","business_unit":"Regular Plan Check"},"geometry":{"type":"Point","coordinates":[-118.16041,34.09593]}},{"type":"Feature","properties":{"date":"2017-06-09T00:00:00.000Z","year":2017,"description":"NEW 2 STORY ADDITION WITH ATTACHED 2 CAR GARAGE TO (E) 1-STORY SFD; CREATING A DUPLEX AND PROVIDE 2 OPEN PARKING STALL (TANDEM PARKING)","metadescription":"Bldg-Addition. 1 or 2 Family Dwelling. NEW 2 STORY ADDITION WITH ATTACHED 2 CAR GARAGE TO (E) 1-STORY SFD; CREATING A DUPLEX AND PROVIDE 2 OPEN PARKING STALL (TANDEM PARKING). Issued. 5468-5468 1/2 E NEWTONIA DR","address":"5468 1/2 Newtonia Drive, CA, Los Angeles, 90032, US","ct":"2011.20","ev":"N","apc":"East Los Angeles","cpa":"Northeast Los Angeles","zone":"R3-1","solar":"N","height":"26.67","pin_nbr":"147A239   239","use_code":"2","geolocation":"POINT (-118.16041 34.09593)","status_date":"06/09/2017","construction":"Type V-B Construction","permit_group":"Building","refresh_time":"06/10/2026","type_lat_lon":"ADDRESS","business_unit":"Regular Plan Check","square_footage":"1848"},"geometry":{"type":"Point","coordinates":[-118.16041,34.09593]}},{"type":"Feature","properties":{"date":"2017-05-26T00:00:00.000Z","year":2017,"description":"ADDITION TO GARAGE FOR NEW TANDAM 2-CAR GARAGE.","metadescription":"Bldg-Addition. 1 or 2 Family Dwelling. ADDITION TO GARAGE FOR NEW TANDAM 2-CAR GARAGE.. CofO Issued. 4313 N MAYCREST AVE","address":"4313 Maycrest Avenue, CA, Los Angeles, 90032, US","ct":"2011.20","ev":"N","apc":"East Los Angeles","cpa":"Northeast Los Angeles","zone":"R1-1","solar":"N","height":"12","pin_nbr":"145-5A237  29","use_code":"7","geolocation":"POINT (-118.16145 34.09465)","status_date":"02/26/2018","construction":"Type V-B Construction","permit_group":"Building","refresh_time":"06/10/2026","type_lat_lon":"ADDRESS","business_unit":"Regular Plan Check","square_footage":"0"},"geometry":{"type":"Point","coordinates":[-118.16145,34.09465]}},{"type":"Feature","properties":{"date":"2017-05-26T00:00:00.000Z","year":2017,"description":"ONE STORY GROUND FLOOR ADDITION AT REAR OF SFD (FAMILY ROOM).","metadescription":"Bldg-Addition. 1 or 2 Family Dwelling. ONE STORY GROUND FLOOR ADDITION AT REAR OF SFD (FAMILY ROOM).. CofO Issued. 4313 N MAYCREST AVE","address":"4313 Maycrest Avenue, CA, Los Angeles, 90032, US","ct":"2011.20","ev":"N","apc":"East Los Angeles","cpa":"Northeast Los Angeles","zone":"R1-1","solar":"N","height":"16.75","pin_nbr":"145-5A237  29","use_code":"1","geolocation":"POINT (-118.1616105 34.0946302)","status_date":"02/26/2018","construction":"Type V-B Construction","permit_group":"Building","refresh_time":"06/10/2026","type_lat_lon":"BUILDING","business_unit":"Regular Plan Check","square_footage":"800"},"geometry":{"type":"Point","coordinates":[-118.1616105,34.0946302]}},{"type":"Feature","properties":{"date":"2014-04-30T00:00:00.000Z","year":2014,"description":"PROPOSED ADD (15'-6\" X 26') DECK WITH PATIO COVER TO EXISTING DUPLEX.","metadescription":"Bldg-Addition. 1 or 2 Family Dwelling. PROPOSED ADD (15'-6\" X 26') DECK WITH PATIO COVER TO EXISTING DUPLEX.. CofO Issued. 5369 1/2 E HUNTINGTON DR NORTH","address":"5365 Huntington Drive, CA, Los Angeles, 90032, US","ct":"2011.20","ev":"N","hl":"YES","apc":"East Los Angeles","cpa":"Northeast Los Angeles","zone":"[Q]RD1.5-1D","solar":"N","pin_nbr":"145-5A237 189","use_code":"2","geolocation":"POINT (-118.16372 34.09189)","status_date":"08/12/2014","construction":"Type V-B Construction","permit_group":"Building","refresh_time":"06/10/2026","type_lat_lon":"ADDRESS","business_unit":"Plan Check at Counter","square_footage":"1453"},"geometry":{"type":"Point","coordinates":[-118.16372,34.09189]}},{"type":"Feature","properties":{"date":"2011-04-22T00:00:00.000Z","year":2011,"description":"PROPOSED 22' X 32'-3\" KITCHEN/NOOK/MASTER BDR/MBATH AND CLOSET ADDITION TO REAR OF (E) SFD.  INCLUDES INTERIOR REMODEL AND RELATED ELECTRICAL, PLUMBING AND HVAC WORK.  CONVENTIONAL FRAMING PER TYPE V SHEET.","metadescription":"Bldg-Addition. 1 or 2 Family Dwelling. PROPOSED 22' X 32'-3\" KITCHEN/NOOK/MASTER BDR/MBATH AND CLOSET ADDITION TO REAR OF (E) SFD.  INCLUDES INTERIOR REMODEL AND RELATED ELECTRICAL, PLUMBING AND HVAC WORK.  CONVENTIONAL FRAMING PER TYPE V SHEET.. CofO Issued. 4323 N MAYCREST AVE","address":"4329 North Maycrest Avenue, CA, Los Angeles, 90032, US","ct":"2011.20","ev":"N","hl":"YES","apc":"East Los Angeles","cpa":"Northeast Los Angeles","zone":"R1-1","solar":"N","pin_nbr":"145-5A237  14","use_code":"1","geolocation":"POINT (-118.16146 34.09492)","status_date":"04/30/2012","construction":"Type V-B Construction","permit_group":"Building","refresh_time":"06/10/2026","type_lat_lon":"ADDRESS","business_unit":"Plan Check at Counter","square_footage":"1625"},"geometry":{"type":"Point","coordinates":[-118.16146,34.09492]}},{"type":"Feature","properties":{"date":"2010-02-12T00:00:00.000Z","year":2010,"description":"COSTRUCT 14' X 18' STORAGE  ADDITION  TO  (E) DETACHED GARAGE PER TYPE V SHEET.","metadescription":"Bldg-Addition. 1 or 2 Family Dwelling. COSTRUCT 14' X 18' STORAGE  ADDITION  TO  (E) DETACHED GARAGE PER TYPE V SHEET.. CofO Issued. 3826 N STOCKBRIDGE AVE","address":"3830 Stockbridge Avenue, CA, Los Angeles, 90032, US","ct":"2015.01","ev":"N","hl":"YES","apc":"East Los Angeles","cpa":"Northeast Los Angeles","zone":"RD1.5-1","solar":"N","pin_nbr":"144A237    81","use_code":"7","geolocation":"POINT (-118.16269 34.09018)","status_date":"01/04/2012","construction":"Type V-B Construction","permit_group":"Building","refresh_time":"06/10/2026","type_lat_lon":"ADDRESS","business_unit":"Plan Check at Counter","square_footage":"252"},"geometry":{"type":"Point","coordinates":[-118.16269,34.09018]}},{"type":"Feature","properties":{"date":"2009-09-16T00:00:00.000Z","year":2009,"description":"ATTACH PORCH/ PATIO COVER (8' X 6') PER LOS ANGELES CITY STANDARD AT THE FRONT OF THE EXISTING SFD","metadescription":"Bldg-Addition. 1 or 2 Family Dwelling. ATTACH PORCH/ PATIO COVER (8' X 6') PER LOS ANGELES CITY STANDARD AT THE FRONT OF THE EXISTING SFD. CofO Issued. 4311 N LOWELL AVE","address":"4311 Lowell Avenue, CA, Los Angeles, 90032, US","ct":"2011.20","ev":"N","hl":"YES","apc":"East Los Angeles","cpa":"Northeast Los Angeles","zone":"R1-1","solar":"N","height":"10","pin_nbr":"145-5A237  58","use_code":"1","geolocation":"POINT (-118.16259 34.09423)","status_date":"12/08/2009","construction":"Type V-B Construction","permit_group":"Building","refresh_time":"06/10/2026","type_lat_lon":"ADDRESS","business_unit":"Plan Check at Counter","square_footage":"48"},"geometry":{"type":"Point","coordinates":[-118.16259,34.09423]}},{"type":"Feature","properties":{"date":"2009-01-20T00:00:00.000Z","year":2009,"description":"New 7'-9\" x 7'-9\"  bathroom addition to rear of existing one story single family dwelling and convert existing enclosed porch to laundry room.  Work to be comply with type V construction.  Related hvac, electrical and plumbing.  **see comments**","metadescription":"Bldg-Addition. 1 or 2 Family Dwelling. New 7'-9\" x 7'-9\"  bathroom addition to rear of existing one story single family dwelling and convert existing enclosed porch to laundry room.  Work to be comply with type V construction.  Related hvac, electrical and plumbing.  **see comments**. CofO Issued. 5502 E POPLAR BLVD","address":"5502 Poplar Boulevard, CA, Los Angeles, 90032, US","ct":"2015.01","ev":"N","hl":"YES","apc":"East Los Angeles","cpa":"Northeast Los Angeles","zone":"R1-1","solar":"N","pin_nbr":"144A237   192","use_code":"1","geolocation":"POINT (-118.16221 34.08891)","status_date":"01/22/2010","construction":"Type V-B Construction","permit_group":"Building","refresh_time":"06/10/2026","type_lat_lon":"ADDRESS","business_unit":"Plan Check at Counter","square_footage":"60"},"geometry":{"type":"Point","coordinates":[-118.16221,34.08891]}},{"type":"Feature","properties":{"date":"2009-01-13T00:00:00.000Z","year":2009,"description":"PROPOSED RECROOM  (370  SQ.FT.)  ATTACHED TO EXISTING GARAGE - PER TYPE V-B CONSTRUCTION. *Recroom is being legalized, no new construction*","metadescription":"Bldg-Addition. 1 or 2 Family Dwelling. PROPOSED RECROOM  (370  SQ.FT.)  ATTACHED TO EXISTING GARAGE - PER TYPE V-B CONSTRUCTION. *Recroom is being legalized, no new construction*. CofO Issued. 4317 N WINCHESTER AVE","address":"4317 Winchester Avenue, CA, Los Angeles, 90032, US","ct":"2011.20","ev":"N","hl":"YES","apc":"East Los Angeles","cpa":"Northeast Los Angeles","zone":"PF-1","solar":"N","height":"12.33","pin_nbr":"145-5A239  45","use_code":"23","geolocation":"POINT (-118.16035 34.09452)","status_date":"06/12/2009","construction":"Type V-B Construction","permit_group":"Building","refresh_time":"06/10/2026","type_lat_lon":"ADDRESS","business_unit":"Appointment Plan Check","square_footage":"370"},"geometry":{"type":"Point","coordinates":[-118.16035,34.09452]}},{"type":"Feature","properties":{"date":"2007-11-15T00:00:00.000Z","year":2007,"description":"SUPPLIMENTAL FOR 07014-10000-07177 (NEW ADDITION 2 BEDROOMS & 1 NEW BATHROOM 499 SQFT.) TO MODIFY BEDROOM CLOSET LOCATION","metadescription":"Bldg-Addition. 1 or 2 Family Dwelling. SUPPLIMENTAL FOR 07014-10000-07177 (NEW ADDITION 2 BEDROOMS & 1 NEW BATHROOM 499 SQFT.) TO MODIFY BEDROOM CLOSET LOCATION. Permit Finaled. 3830 N STOCKBRIDGE AVE","address":"3834 1/2 Stockbridge Avenue, CA, Los Angeles, 90032, US","ct":"2015.01","ev":"N","hl":"YES","apc":"East Los Angeles","cpa":"Northeast Los Angeles","zone":"RD1.5-1","solar":"N","height":"15.5","pin_nbr":"144A237    78","use_code":"1","geolocation":"POINT (-118.16248 34.09021)","status_date":"09/22/2008","construction":"Type V-N Construction","permit_group":"Building","refresh_time":"06/10/2026","type_lat_lon":"ADDRESS","business_unit":"Plan Check at Counter","square_footage":"499"},"geometry":{"type":"Point","coordinates":[-118.16248,34.09021]}},{"type":"Feature","properties":{"date":"2007-10-25T00:00:00.000Z","year":2007,"description":"supplimental to 070141000007177 (NEW ADDITION 2 BEDROOMS & 1 NEW BATHROOM (499 SQFT)) to revise portion of new building encroaching into  required sideyard see plot plan.","metadescription":"Bldg-Alter/Repair. 1 or 2 Family Dwelling. supplimental to 070141000007177 (NEW ADDITION 2 BEDROOMS & 1 NEW BATHROOM (499 SQFT)) to revise portion of new building encroaching into  required sideyard see plot plan.. Permit Finaled. 3830 N STOCKBRIDGE AVE","address":"3834 1/2 Stockbridge Avenue, CA, Los Angeles, 90032, US","ct":"2015.01","ev":"N","hl":"YES","apc":"East Los Angeles","cpa":"Northeast Los Angeles","zone":"RD1.5-1","solar":"N","height":"15.5","pin_nbr":"144A237    78","use_code":"1","geolocation":"POINT (-118.16248 34.09021)","status_date":"09/22/2008","construction":"Type V-N Construction","permit_group":"Building","refresh_time":"06/10/2026","type_lat_lon":"ADDRESS","business_unit":"Plan Check at Counter","square_footage":"499"},"geometry":{"type":"Point","coordinates":[-118.16248,34.09021]}},{"type":"Feature","properties":{"date":"2007-10-12T00:00:00.000Z","year":2007,"description":"NEW ADDITION 2 BEDROOMS & 1 NEW BATHROOM (499 SQFT).","metadescription":"Bldg-Addition. 1 or 2 Family Dwelling. NEW ADDITION 2 BEDROOMS & 1 NEW BATHROOM (499 SQFT).. CofO Issued. 3830 N STOCKBRIDGE AVE","address":"3834 1/2 Stockbridge Avenue, CA, Los Angeles, 90032, US","ct":"2015.01","ev":"N","hl":"YES","apc":"East Los Angeles","cpa":"Northeast Los Angeles","zone":"RD1.5-1","solar":"N","height":"15.5","pin_nbr":"144A237    78","use_code":"1","geolocation":"POINT (-118.16248 34.09021)","status_date":"10/29/2008","construction":"Type V-N Construction","permit_group":"Building","refresh_time":"06/10/2026","type_lat_lon":"ADDRESS","business_unit":"Plan Check at Counter","square_footage":"499"},"geometry":{"type":"Point","coordinates":[-118.16248,34.09021]}},{"type":"Feature","properties":{"date":"2007-07-18T00:00:00.000Z","year":2007,"description":"ROOM ADDITION (2 BEDROOMS AND 1 BATHROOM) TO EXISTING SINGLE FAMILY DWELLING(382 SF).  \"COMPLY WITH DEPARTMENT ORDER effective date 10/16/2006.  permit will expire 30 days from issuance date.  call inspector paul becker 213-252-3034.\"","metadescription":"Bldg-Addition. 1 or 2 Family Dwelling. ROOM ADDITION (2 BEDROOMS AND 1 BATHROOM) TO EXISTING SINGLE FAMILY DWELLING(382 SF).  \"COMPLY WITH DEPARTMENT ORDER effective date 10/16/2006.  permit will expire 30 days from issuance date.  call inspector paul becker 213-252-3034.\". CofO Issued. 3831-3833 N STOCKBRIDGE AVE","address":"3831 Stockbridge Avenue, CA, Los Angeles, 90032, US","ct":"2015.01","ev":"N","hl":"YES","apc":"East Los Angeles","cpa":"Northeast Los Angeles","zone":"RD1.5-1","solar":"N","height":"10","pin_nbr":"144A237    24","use_code":"1","geolocation":"POINT (-118.16281 34.0904)","status_date":"05/07/2008","construction":"Type V-N Construction","permit_group":"Building","refresh_time":"06/10/2026","type_lat_lon":"ADDRESS","business_unit":"Plan Check at Counter","square_footage":"1248.12"},"geometry":{"type":"Point","coordinates":[-118.16281,34.0904]}},{"type":"Feature","properties":{"date":"2006-12-20T00:00:00.000Z","year":2006,"description":"PROPOSED ADDITION OF NEW PORCH (30' X 5') TO EXISTING SINGLE FAMILY DWELLING PER CITY STANDARD PLANS. COMPLY WITH DEPARTMENT ORDER EFFECTIVE DATE 11/06/2006. PERMIT WILL EXPIRE 30 DAYS FROM ISSUANCE DATE","metadescription":"Bldg-Addition. 1 or 2 Family Dwelling. PROPOSED ADDITION OF NEW PORCH (30' X 5') TO EXISTING SINGLE FAMILY DWELLING PER CITY STANDARD PLANS. COMPLY WITH DEPARTMENT ORDER EFFECTIVE DATE 11/06/2006. PERMIT WILL EXPIRE 30 DAYS FROM ISSUANCE DATE. Permit Expired. 4317 N WINCHESTER AVE","address":"4317 Winchester Avenue, CA, Los Angeles, 90032, US","ct":"2011.20","ev":"N","hl":"YES","apc":"East Los Angeles","cpa":"Northeast Los Angeles","zone":"PF-1","solar":"N","pin_nbr":"145-5A239  45","use_code":"1","geolocation":"POINT (-118.16035 34.09452)","status_date":"01/06/2012","construction":"Type V-N Construction","permit_group":"Building","refresh_time":"06/10/2026","type_lat_lon":"ADDRESS","business_unit":"Plan Check at Counter","square_footage":"0"},"geometry":{"type":"Point","coordinates":[-118.16035,34.09452]}},{"type":"Feature","properties":{"date":"2006-07-14T00:00:00.000Z","year":2006,"description":"2ND STORY ADDITION (1166 SQ. FT.) TO EXISTING SINGLE FAMILY DWELLING","metadescription":"Bldg-Addition. 1 or 2 Family Dwelling. 2ND STORY ADDITION (1166 SQ. FT.) TO EXISTING SINGLE FAMILY DWELLING. CofO Issued. 3819 N WINCHESTER AVE","address":"3819 Winchester Avenue, CA, Los Angeles, 90032, US","ct":"2015.01","ev":"N","hl":"YES","apc":"East Los Angeles","cpa":"Northeast Los Angeles","zone":"PF-1","solar":"N","height":"25.5","pin_nbr":"144A239    46","use_code":"1","geolocation":"POINT (-118.16062 34.08953)","status_date":"12/13/2011","construction":"Type V-N Construction","permit_group":"Building","refresh_time":"06/10/2026","type_lat_lon":"ADDRESS","business_unit":"Regular Plan Check","square_footage":"2412"},"geometry":{"type":"Point","coordinates":[-118.16062,34.08953]}},{"type":"Feature","properties":{"date":"2003-05-28T00:00:00.000Z","year":2003,"description":"RE-BUILD (E) GARAGE (10'X20') AND ENLARGE DET. GARAGE (12'X20') TO ADD LAUNDRY ROOM. & WORK SHOP.","metadescription":"Bldg-Addition. 1 or 2 Family Dwelling. RE-BUILD (E) GARAGE (10'X20') AND ENLARGE DET. GARAGE (12'X20') TO ADD LAUNDRY ROOM. & WORK SHOP.. Permit Finaled. 4211 N LOWELL AVE","address":"4213 Lowell Avenue, CA, Los Angeles, 90032, US","ct":"2011.20","ev":"N","hl":"YES","apc":"East Los Angeles","cpa":"Northeast Los Angeles","zone":"PF-1","solar":"N","pin_nbr":"145-5A237 102","use_code":"7","geolocation":"POINT (-118.16217 34.09333)","status_date":"10/15/2003","construction":"Type V-N Construction","permit_group":"Building","refresh_time":"06/10/2026","type_lat_lon":"ADDRESS","business_unit":"Plan Check at Counter","square_footage":"440"},"geometry":{"type":"Point","coordinates":[-118.16217,34.09333]}},{"type":"Feature","properties":{"date":"2003-03-21T00:00:00.000Z","year":2003,"description":"ADD FAMILY ROOM & BATH (420 SF, 23'-3\"X18') TO REAR OF BUILDING.","metadescription":"Bldg-Addition. 1 or 2 Family Dwelling. ADD FAMILY ROOM & BATH (420 SF, 23'-3\"X18') TO REAR OF BUILDING.. Permit Finaled. 3922 N LOWELL AVE","address":"3922 Lowell Avenue, CA, Los Angeles, 90032, US","ct":"2015.01","ev":"N","hl":"YES","apc":"East Los Angeles","cpa":"Northeast Los Angeles","zone":"PF-1","solar":"N","pin_nbr":"145-5A237 285","use_code":"1","geolocation":"POINT (-118.16209 34.09102)","status_date":"04/19/2004","construction":"Type V-N Construction","permit_group":"Building","refresh_time":"06/10/2026","type_lat_lon":"ADDRESS","business_unit":"Plan Check at Counter","square_footage":"419"},"geometry":{"type":"Point","coordinates":[-118.16209,34.09102]}},{"type":"Feature","properties":{"date":"2001-03-16T00:00:00.000Z","year":2001,"description":"New addition - two new bedrooms approx. 405sf. All electrical related to addition is included in this permit.","metadescription":"Bldg-Addition. 1 or 2 Family Dwelling. New addition - two new bedrooms approx. 405sf. All electrical related to addition is included in this permit.. Permit Finaled. 4311 N LOWELL AVE","address":"4311 Lowell Avenue, CA, Los Angeles, 90032, US","ct":"2011.00","ev":"N","hl":"YES","apc":"East Los Angeles","zone":"R1-1","solar":"N","pin_nbr":"145-5A237  58","use_code":"1","geolocation":"POINT (-118.16259 34.09423)","status_date":"11/13/2001","construction":"Type V-N Construction","permit_group":"Building","refresh_time":"06/10/2026","type_lat_lon":"ADDRESS","business_unit":"Plan Check at Counter","square_footage":"405"},"geometry":{"type":"Point","coordinates":[-118.16259,34.09423]}},{"type":"Feature","properties":{"date":"2000-03-08T00:00:00.000Z","year":2000,"description":"2 STORY ADDITION TO SFD (917 SQ FT)","metadescription":"Bldg-Addition. 1 or 2 Family Dwelling. 2 STORY ADDITION TO SFD (917 SQ FT). Permit Finaled. 3826 N STOCKBRIDGE AVE","address":"3830 Stockbridge Avenue, CA, Los Angeles, 90032, US","ct":"2015.01","ev":"N","hl":"YES","apc":"East Los Angeles","zone":"RD1.5-1","solar":"N","pin_nbr":"144A237    81","use_code":"1","geolocation":"POINT (-118.16269 34.09018)","status_date":"06/06/2001","construction":"Type V-N Construction","permit_group":"Building","refresh_time":"06/10/2026","type_lat_lon":"ADDRESS","business_unit":"Regular Plan Check","square_footage":"917"},"geometry":{"type":"Point","coordinates":[-118.16269,34.09018]}},{"type":"Feature","properties":{"date":"1999-12-30T00:00:00.000Z","year":1999,"description":"Add 498 sq. ft. second story addition (23' X19.5').","metadescription":"Bldg-Addition. 1 or 2 Family Dwelling. Add 498 sq. ft. second story addition (23' X19.5').. CofO Issued. 4317 N ALPHA ST","address":"4317 Alpha Street, CA, Los Angeles, 90032, US","ct":"2011.10","ev":"N","hl":"YES","apc":"East Los Angeles","zone":"R1-1","solar":"N","pin_nbr":"145-5A239  15","use_code":"1","geolocation":"POINT (-118.15966966 34.09490601)","status_date":"07/03/2024","construction":"Type V-N Construction","permit_group":"Building","refresh_time":"06/10/2026","type_lat_lon":"BUILDING","business_unit":"Regular Plan Check","square_footage":"498"},"geometry":{"type":"Point","coordinates":[-118.15966966,34.09490601]}},{"type":"Feature","properties":{"date":"1999-12-23T00:00:00.000Z","year":1999,"description":"Change of use from sfd to beauty salon, add (5 x 18) to beauty salon at first story, add 2nd floor office (18 x 50)","metadescription":"Bldg-Addition. Commercial. Change of use from sfd to beauty salon, add (5 x 18) to beauty salon at first story, add 2nd floor office (18 x 50). CofO Issued. 5415 E HUNTINGTON DR NO","address":"5415 Huntington Drive, CA, Los Angeles, 90032, US","ct":"2011.10","ev":"N","hl":"YES","apc":"East Los Angeles","zone":"C2-1","solar":"N","pin_nbr":"145-5A237 125","use_code":"1","geolocation":"POINT (-118.16252431 34.0926937)","status_date":"03/31/2022","construction":"Type V-N Construction","permit_group":"Building","refresh_time":"06/10/2026","type_lat_lon":"BUILDING","business_unit":"Regular Plan Check","square_footage":"1067"},"geometry":{"type":"Point","coordinates":[-118.16252431,34.0926937]}},{"type":"Feature","properties":{"date":"1999-07-06T00:00:00.000Z","year":1999,"description":"BEDROOM ADDITION(9'6\"X12'6\"), INTERIOR REMODEL TO CREATE BATHROOM REPLACE FOUNDATION PER TYPE V, AND FLOOR GIRDERS AND PIERS (118 S.F.); COMB ELECTRICAL, PLUMBING, AND HEATING","metadescription":"Bldg-Addition. 1 or 2 Family Dwelling. BEDROOM ADDITION(9'6\"X12'6\"), INTERIOR REMODEL TO CREATE BATHROOM REPLACE FOUNDATION PER TYPE V, AND FLOOR GIRDERS AND PIERS (118 S.F.); COMB ELECTRICAL, PLUMBING, AND HEATING. Permit Finaled. 5435 E ALMONT ST","address":"5435 Almont Street, CA, Los Angeles, 90032, US","ct":"2011.00","ev":"N","hl":"YES","apc":"East Los Angeles","zone":"R1-1","solar":"N","pin_nbr":"145-5A237  78","use_code":"1","geolocation":"POINT (-118.16277 34.09373)","status_date":"02/29/2000","permit_group":"Building","refresh_time":"06/10/2026","type_lat_lon":"ADDRESS","business_unit":"Plan Check at Counter","square_footage":"118"},"geometry":{"type":"Point","coordinates":[-118.16277,34.09373]}},{"type":"Feature","properties":{"date":"1998-07-20T00:00:00.000Z","year":1998,"description":"REVISE 97LA59855 TO ENCLOSE 3' X 32' 2ND STORY BALCONY TO ENLARGE LIVING ROOM/KITCHEN AREA.","metadescription":"Bldg-Addition. 1 or 2 Family Dwelling. REVISE 97LA59855 TO ENCLOSE 3' X 32' 2ND STORY BALCONY TO ENLARGE LIVING ROOM/KITCHEN AREA.. Permit Finaled. 5415 1/2 E HUNTINGTON DR NO","address":"5415 Huntington Drive, CA, Los Angeles, 90032, US","ct":"2011.00","ev":"N","hl":"Y","apc":"East Los Angeles","zone":"C2-1","solar":"N","pin_nbr":"145-5A237 125","use_code":"1","geolocation":"POINT (-118.16258198 34.09281121)","status_date":"04/27/2000","permit_group":"Building","refresh_time":"06/10/2026","type_lat_lon":"PIN","business_unit":"Plan Check at Counter","square_footage":"96"},"geometry":{"type":"Point","coordinates":[-118.16258198,34.09281121]}},{"type":"Feature","properties":{"date":"1997-07-28T00:00:00.000Z","year":1997,"description":"CONSTRUCT 8'-9\" X 10'-6\" ADDITION TO REAR OF DWELLING for a laundry room","metadescription":"Bldg-Addition. 1 or 2 Family Dwelling. CONSTRUCT 8'-9\" X 10'-6\" ADDITION TO REAR OF DWELLING for a laundry room. Permit Finaled. 4329 N ALPHA ST","address":"4333 Alpha Street, CA, Los Angeles, 90032, US","ct":"2011.10","ev":"N","hl":"Y","apc":"East Los Angeles","zone":"R1-1","solar":"N","pin_nbr":"147A239   276","use_code":"1","geolocation":"POINT (-118.15952 34.09525)","status_date":"12/01/2006","permit_group":"Building","refresh_time":"06/10/2026","type_lat_lon":"ADDRESS","business_unit":"Plan Check at Counter","square_footage":"92"},"geometry":{"type":"Point","coordinates":[-118.15952,34.09525]}}]}
