{"type":"FeatureCollection","features":[{"type":"Feature","properties":{"date":"2024-11-14T00:00:00.000Z","year":2024,"description":"ADD A NON-LOAD BEARING PARTITION WALL. REMOVE AND REPLACE WINDOWS AND DOORS WITHIN EXISTING OPENINGS.COMPLY WITH DEPARTMENT ORDER effective date 12/04/2006. PERMIT WILL EXPIRE 30 DAYS FROM ISSUANCE DATE.","metadescription":"Bldg-Alter/Repair. 1 or 2 Family Dwelling. ADD A NON-LOAD BEARING PARTITION WALL. REMOVE AND REPLACE WINDOWS AND DOORS WITHIN EXISTING OPENINGS.COMPLY WITH DEPARTMENT ORDER effective date 12/04/2006. PERMIT WILL EXPIRE 30 DAYS FROM ISSUANCE DATE.. Permit Finaled. 3826 N SHEFFIELD AVE","address":"3832 North Sheffield Avenue, CA, Los Angeles, 90032, US","ct":"2015.01","ev":"N","apc":"East Los Angeles","cpa":"Northeast Los Angeles","zone":"PF-1","solar":"N","pin_nbr":"144A239    39","use_code":"1","status_date":"10/01/2025","permit_group":"Building","refresh_time":"06/10/2026","type_lat_lon":"ADDRESS","business_unit":"Plan Check at Counter"},"geometry":{"type":"Point","coordinates":[-118.16142,34.08981]}},{"type":"Feature","properties":{"date":"2020-08-06T00:00:00.000Z","year":2020,"description":"Re-stucco Exterior of (E) Apartment Building due to the dry-rot repair work under permit 20016-10000-14484.  (20) Windows and (0) door change-out (same size & type) for residential buildings.  Dual glazing, labeled and certified by National Fenestration Rating Council (NFRC), is required for windows replaced in all residential buildings, three stories or less, per Section 150.2 (b) 1b of Title 24.","metadescription":"Bldg-Alter/Repair. Apartment. Re-stucco Exterior of (E) Apartment Building due to the dry-rot repair work under permit 20016-10000-14484.  (20) Windows and (0) door change-out (same size & type) for residential buildings.  Dual glazing, labeled and certified by National Fenestration Rating Council (NFRC), is required for windows replaced in all residential buildings, three stories or less, per Section 150.2 (b) 1b of Title 24.. Verifications in Progress. 5361 E HUNTINGTON DR NORTH","address":"1-8, 5361 Huntington Drive, CA, Los Angeles, 90032, US","ct":"2011.20","ev":"N","hl":"YES","apc":"East Los Angeles","cpa":"Northeast Los Angeles","zone":"[Q]RD1.5-1D","solar":"N","pin_nbr":"145-5A237 198","use_code":"5","status_date":"09/10/2020","permit_group":"Building","refresh_time":"06/10/2026","type_lat_lon":"ADDRESS","business_unit":"Plan Check at Counter"},"geometry":{"type":"Point","coordinates":[-118.16389,34.09178]}},{"type":"Feature","properties":{"date":"2019-03-28T00:00:00.000Z","year":2019,"description":"(28)Window change-out (same size & type) for residential buildings.  Dual glazing, labeled and certified by National Fenestration Rating Council (NFRC), is required for doors and windows replaced in all residential buildings, three stories or less, per Section 150.2(b)1B of Title 24","metadescription":"Bldg-Alter/Repair. Apartment. (28)Window change-out (same size & type) for residential buildings.  Dual glazing, labeled and certified by National Fenestration Rating Council (NFRC), is required for doors and windows replaced in all residential buildings, three stories or less, per Section 150.2(b)1B of Title 24. Permit Finaled. 3815 N STOCKBRIDGE AVE","address":"3815 Stockbridge Avenue, CA, Los Angeles, 90032, US","ct":"2015.01","ev":"N","apc":"East Los Angeles","cpa":"Northeast Los Angeles","zone":"RD1.5-1","solar":"N","pin_nbr":"144A237    67","use_code":"5","geolocation":"POINT (-118.16311 34.0901)","status_date":"06/21/2019","permit_group":"Building","refresh_time":"06/10/2026","type_lat_lon":"ADDRESS","business_unit":"Express Permit"},"geometry":{"type":"Point","coordinates":[-118.16311,34.0901]}},{"type":"Feature","properties":{"date":"2019-02-11T00:00:00.000Z","year":2019,"description":"Window (7) change-out (same size & type) for residential buildings.  Dual glazing, labeled and certified by National Fenestration Rating Council (NFRC), is required for doors and windows replaced in all residential buildings, three stories or less, per Section 150.2(b)1B of Title 24.","metadescription":"Bldg-Alter/Repair. 1 or 2 Family Dwelling. Window (7) change-out (same size & type) for residential buildings.  Dual glazing, labeled and certified by National Fenestration Rating Council (NFRC), is required for doors and windows replaced in all residential buildings, three stories or less, per Section 150.2(b)1B of Title 24.. Permit Expired. 3715 N WINCHESTER AVE","address":"3715 Winchester Avenue, CA, Los Angeles, 90032, US","ct":"2015.01","ev":"N","apc":"East Los Angeles","cpa":"Northeast Los Angeles","zone":"PF-1","solar":"N","pin_nbr":"144A239    82","use_code":"1","geolocation":"POINT (-118.16061 34.08815)","status_date":"03/12/2025","permit_group":"Building","refresh_time":"06/10/2026","type_lat_lon":"ADDRESS","business_unit":"Express Permit"},"geometry":{"type":"Point","coordinates":[-118.16061,34.08815]}},{"type":"Feature","properties":{"date":"2018-09-07T00:00:00.000Z","year":2018,"description":"(8) Window change-out (same size & type) for residential buildings.  Dual glazing, labeled and certified by National Fenestration Rating Council (NFRC), is required for doors and windows replaced in all residential buildings, three stories or less, per Section 150.2(b)1B. of Title 24Re-stucco for single family dwellings and duplexes onlyReplace drywall (no new walls added) for single family dwellings and duplexes only.","metadescription":"Bldg-Alter/Repair. 1 or 2 Family Dwelling. (8) Window change-out (same size & type) for residential buildings.  Dual glazing, labeled and certified by National Fenestration Rating Council (NFRC), is required for doors and windows replaced in all residential buildings, three stories or less, per Section 150.2(b)1B. of Title 24Re-stucco for single family dwellings and duplexes onlyReplace drywall (no new walls added) for single family dwellings and duplexes only.. Permit Finaled. 3909 N STOCKBRIDGE AVE","address":"3909 Stockbridge Avenue, CA, Los Angeles, 90032, US","ct":"2015.01","ev":"N","apc":"East Los Angeles","cpa":"Northeast Los Angeles","zone":"PF-1","solar":"N","pin_nbr":"144A237    39","use_code":"1","geolocation":"POINT (-118.16194 34.09044)","status_date":"10/18/2018","permit_group":"Building","refresh_time":"06/10/2026","type_lat_lon":"ADDRESS","business_unit":"Express Permit"},"geometry":{"type":"Point","coordinates":[-118.16194,34.09044]}},{"type":"Feature","properties":{"date":"2018-06-14T00:00:00.000Z","year":2018,"description":"(8) Window change-out (same size & type) for residential buildings.  Dual glazing, labeled and certified by National Fenestration Rating Council (NFRC), is required for doors and windows replaced in all residential buildings, three stories or less, per Section 152(b) of Title 24.","metadescription":"Bldg-Alter/Repair. 1 or 2 Family Dwelling. (8) Window change-out (same size & type) for residential buildings.  Dual glazing, labeled and certified by National Fenestration Rating Council (NFRC), is required for doors and windows replaced in all residential buildings, three stories or less, per Section 152(b) of Title 24.. Permit Expired. 4345-4347 N ALPHA ST","address":"4345 Alpha Street, CA, Los Angeles, 90032, US","ct":"2011.20","ev":"N","apc":"East Los Angeles","cpa":"Northeast Los Angeles","zone":"R1-1","solar":"N","pin_nbr":"147A239   258","use_code":"2","geolocation":"POINT (-118.1596 34.09565)","status_date":"11/01/2023","permit_group":"Building","refresh_time":"06/10/2026","type_lat_lon":"ADDRESS","business_unit":"Express Permit"},"geometry":{"type":"Point","coordinates":[-118.1596,34.09565]}},{"type":"Feature","properties":{"date":"2017-09-08T00:00:00.000Z","year":2017,"description":"Kitchen/bathroom remodel for residential buildings (no structural changes). (2) Exterior door change-out (same size & type) for residential buildings.  Dual glazing, labeled and certified by National Fenestration Rating Council (NFRC), is required for doors and windows replaced in all residential buildings, three stories or less, per Section 152(b) of Title 24.","metadescription":"Bldg-Alter/Repair. 1 or 2 Family Dwelling. Kitchen/bathroom remodel for residential buildings (no structural changes). (2) Exterior door change-out (same size & type) for residential buildings.  Dual glazing, labeled and certified by National Fenestration Rating Council (NFRC), is required for doors and windows replaced in all residential buildings, three stories or less, per Section 152(b) of Title 24.. Permit Finaled. 4322 N WINCHESTER AVE","address":"4322 Winchester Avenue, CA, Los Angeles, 90032, US","ct":"2011.20","ev":"N","apc":"East Los Angeles","cpa":"Northeast Los Angeles","zone":"R1-1","solar":"N","pin_nbr":"145-5A239  25","use_code":"1","geolocation":"POINT (-118.16017 34.09481)","status_date":"12/08/2017","permit_group":"Building","refresh_time":"06/10/2026","type_lat_lon":"ADDRESS","business_unit":"Express Permit"},"geometry":{"type":"Point","coordinates":[-118.16017,34.09481]}},{"type":"Feature","properties":{"date":"2013-03-04T00:00:00.000Z","year":2013,"description":"Doors (2) change-out (same size & type) for residential buildings.  Dual glazing, labeled and certified by National Fenestration Rating Council (NFRC), is required for doors and windows replaced in all residential buildings, three stories or less, per Section 152(b) of Title 24.","metadescription":"Bldg-Alter/Repair. 1 or 2 Family Dwelling. Doors (2) change-out (same size & type) for residential buildings.  Dual glazing, labeled and certified by National Fenestration Rating Council (NFRC), is required for doors and windows replaced in all residential buildings, three stories or less, per Section 152(b) of Title 24.. Permit Expired. 5507 3/4-5509 E HUNTINGTON DR NOR","address":"5507 Huntington Drive, CA, Los Angeles, 90032, US","ct":"2011.20","ev":"N","apc":"East Los Angeles","cpa":"Northeast Los Angeles","zone":"PF-1","solar":"N","pin_nbr":"145-5A239  64","use_code":"2","geolocation":"POINT (-118.16046808 34.09410897)","status_date":"03/27/2015","permit_group":"Building","refresh_time":"06/10/2026","type_lat_lon":"PIN","business_unit":"Express Permit"},"geometry":{"type":"Point","coordinates":[-118.16046808,34.09410897]}},{"type":"Feature","properties":{"date":"2013-03-04T00:00:00.000Z","year":2013,"description":"Doors (2) change-out (same size & type) for residential buildings.  Dual glazing, labeled and certified by National Fenestration Rating Council (NFRC), is required for doors and windows replaced in all residential buildings, three stories or less, per Section 152(b) of Title 24.","metadescription":"Bldg-Alter/Repair. 1 or 2 Family Dwelling. Doors (2) change-out (same size & type) for residential buildings.  Dual glazing, labeled and certified by National Fenestration Rating Council (NFRC), is required for doors and windows replaced in all residential buildings, three stories or less, per Section 152(b) of Title 24.. Permit Expired. 5509 1/4-1/2 E HUNTINGTON DR NORT","address":"5507 Huntington Drive, CA, Los Angeles, 90032, US","ct":"2011.20","ev":"N","apc":"East Los Angeles","cpa":"Northeast Los Angeles","zone":"PF-1","solar":"N","pin_nbr":"145-5A239  64","use_code":"2","geolocation":"POINT (-118.16046808 34.09410897)","status_date":"03/27/2015","permit_group":"Building","refresh_time":"06/10/2026","type_lat_lon":"PIN","business_unit":"Express Permit"},"geometry":{"type":"Point","coordinates":[-118.16046808,34.09410897]}},{"type":"Feature","properties":{"date":"2012-11-16T00:00:00.000Z","year":2012,"description":"Window and door change-out (same size & type) for residential buildings. UNIT #5507 1/2 Dual glazing, labeled and certified by National Fenestration Rating Council (NFRC), is required for doors and windows replaced in all residential buildings, three stories or less, per Section 152(b) of Title 24.","metadescription":"Bldg-Alter/Repair. Apartment. Window and door change-out (same size & type) for residential buildings. UNIT #5507 1/2 Dual glazing, labeled and certified by National Fenestration Rating Council (NFRC), is required for doors and windows replaced in all residential buildings, three stories or less, per Section 152(b) of Title 24.. Permit Expired. 5507-5507 1/2 E HUNTINGTON DR NORTH","address":"5509 Huntington Drive, CA, Los Angeles, 90032, US","ct":"2011.20","ev":"N","apc":"East Los Angeles","cpa":"Northeast Los Angeles","zone":"PF-1","solar":"N","pin_nbr":"145-5A239  64","use_code":"5","geolocation":"POINT (-118.16049 34.09397)","status_date":"12/11/2014","permit_group":"Building","refresh_time":"06/10/2026","type_lat_lon":"ADDRESS","business_unit":"Express Permit"},"geometry":{"type":"Point","coordinates":[-118.16049,34.09397]}},{"type":"Feature","properties":{"date":"2012-05-18T00:00:00.000Z","year":2012,"description":"Reroof with 36 sqrs COMP SHINGLE roofing. Existing solid sheathing.  Replace 1 door(s). Same size, location, number, type.  Interior kitchen remodel/repair (no changes in walls or openings).  Interior bathroom remodel/repair (no changes in walls or openings).","metadescription":"Bldg-Alter/Repair. 1 or 2 Family Dwelling. Reroof with 36 sqrs COMP SHINGLE roofing. Existing solid sheathing.  Replace 1 door(s). Same size, location, number, type.  Interior kitchen remodel/repair (no changes in walls or openings).  Interior bathroom remodel/repair (no changes in walls or openings).. Permit Finaled. 4306 N MAYCREST AVE","address":"4306 Maycrest Avenue, CA, Los Angeles, 90032, US","ct":"2011.20","ev":"N","apc":"East Los Angeles","cpa":"Northeast Los Angeles","zone":"R1-1","solar":"N","pin_nbr":"145-5A239  46","use_code":"1","geolocation":"POINT (-118.16114 34.09443)","status_date":"06/22/2012","permit_group":"Building","refresh_time":"06/10/2026","type_lat_lon":"ADDRESS","business_unit":"Express Permit"},"geometry":{"type":"Point","coordinates":[-118.16114,34.09443]}},{"type":"Feature","properties":{"date":"2009-10-21T00:00:00.000Z","year":2009,"description":"(3) Windows change-out (same size & type) for residential buildings.  Dual glazing, labeled and certified by National Fenestration Rating Council (NFRC), is required for doors and windows replaced in all residential buildings, three stories or less, per Section 152(b) of Title 24.","metadescription":"Bldg-Alter/Repair. 1 or 2 Family Dwelling. (3) Windows change-out (same size & type) for residential buildings.  Dual glazing, labeled and certified by National Fenestration Rating Council (NFRC), is required for doors and windows replaced in all residential buildings, three stories or less, per Section 152(b) of Title 24.. Permit Expired. 3831 N STOCKBRIDGE AVE","address":"3831 Stockbridge Avenue, CA, Los Angeles, 90032, US","ct":"2015.01","ev":"N","hl":"YES","apc":"East Los Angeles","cpa":"Northeast Los Angeles","zone":"RD1.5-1","solar":"N","pin_nbr":"144A237    24","use_code":"1","geolocation":"POINT (-118.16281 34.0904)","status_date":"09/05/2012","permit_group":"Building","refresh_time":"06/10/2026","type_lat_lon":"ADDRESS","business_unit":"Express Permit"},"geometry":{"type":"Point","coordinates":[-118.16281,34.0904]}},{"type":"Feature","properties":{"date":"2008-04-07T00:00:00.000Z","year":2008,"description":"KITCHEN/BATHROOM REMODEL FOR RESIDENTIAL BUILDING (NO STRUCTURAL CHANGES).REPLACE DRYWALL, SANDBLASTING OF EXTERIOR OF HOUSE & RE-STUCCO.  REMOVE/REPLACEWINODWS & DOORS (SAME SIZE & LOCATION).","metadescription":"Bldg-Alter/Repair. 1 or 2 Family Dwelling. KITCHEN/BATHROOM REMODEL FOR RESIDENTIAL BUILDING (NO STRUCTURAL CHANGES).REPLACE DRYWALL, SANDBLASTING OF EXTERIOR OF HOUSE & RE-STUCCO.  REMOVE/REPLACEWINODWS & DOORS (SAME SIZE & LOCATION).. Permit Finaled. 4355-4357 N ALPHA ST","address":"4355 Alpha Street, CA, Los Angeles, 90032, US","ct":"2011.20","ev":"N","hl":"YES","apc":"East Los Angeles","cpa":"Northeast Los Angeles","zone":"R1-1","solar":"N","pin_nbr":"147A239   241","use_code":"2","geolocation":"POINT (-118.15974 34.0959)","status_date":"06/30/2008","permit_group":"Building","refresh_time":"06/10/2026","type_lat_lon":"ADDRESS","business_unit":"Express Permit"},"geometry":{"type":"Point","coordinates":[-118.15974,34.0959]}},{"type":"Feature","properties":{"date":"2007-09-19T00:00:00.000Z","year":2007,"description":"Window CHANGE OUT (same size & type) for residential buildings.Dual glazing, labeled and certified by National Fenestration Rating Council (NFRC), is required for doors and windows replaced in all residential buildings, three stories or less, per Section 152(b) of Title 24.","metadescription":"Bldg-Alter/Repair. 1 or 2 Family Dwelling. Window CHANGE OUT (same size & type) for residential buildings.Dual glazing, labeled and certified by National Fenestration Rating Council (NFRC), is required for doors and windows replaced in all residential buildings, three stories or less, per Section 152(b) of Title 24.. Permit Finaled. 3925 N LOWELL AVE","address":"3927 Lowell Avenue, CA, Los Angeles, 90032, US","ct":"2015.01","ev":"N","hl":"YES","apc":"East Los Angeles","cpa":"Northeast Los Angeles","zone":"PF-1","solar":"N","pin_nbr":"145-5A237 257","use_code":"1","geolocation":"POINT (-118.16221 34.09117)","status_date":"12/24/2008","permit_group":"Building","refresh_time":"06/10/2026","type_lat_lon":"ADDRESS","business_unit":"Express Permit"},"geometry":{"type":"Point","coordinates":[-118.16221,34.09117]}},{"type":"Feature","properties":{"date":"2007-03-28T00:00:00.000Z","year":2007,"description":"REPLACE BROKEN & MISSING WINDOWS/SCREENS-SAME SIZE & LOCATION. Dual glazing, labeled and certified by National Fenestration Rating Council (NFRC), is required for doors and windows replaced in all residential buildings, three stories or less, per Section 152(b) of Title 24.","metadescription":"Bldg-Alter/Repair. Apartment. REPLACE BROKEN & MISSING WINDOWS/SCREENS-SAME SIZE & LOCATION. Dual glazing, labeled and certified by National Fenestration Rating Council (NFRC), is required for doors and windows replaced in all residential buildings, three stories or less, per Section 152(b) of Title 24.. Permit Finaled. 3815 N STOCKBRIDGE AVE","address":"3815 Stockbridge Avenue, CA, Los Angeles, 90032, US","ct":"2015.01","ev":"N","hl":"YES","apc":"East Los Angeles","cpa":"Northeast Los Angeles","zone":"RD1.5-1","solar":"N","pin_nbr":"144A237    67","use_code":"5","geolocation":"POINT (-118.16311 34.0901)","status_date":"06/06/2007","permit_group":"Building","refresh_time":"06/10/2026","type_lat_lon":"ADDRESS","business_unit":"Express Permit"},"geometry":{"type":"Point","coordinates":[-118.16311,34.0901]}},{"type":"Feature","properties":{"date":"2004-11-01T00:00:00.000Z","year":2004,"description":"CLOSING DOOR ; INFILL DOOR @ LAUNDRY ROOM.  ALL WORK PER CITY STANDARD TYPE V SHEET.","metadescription":"Bldg-Alter/Repair. 1 or 2 Family Dwelling. CLOSING DOOR ; INFILL DOOR @ LAUNDRY ROOM.  ALL WORK PER CITY STANDARD TYPE V SHEET.. Permit Finaled. 5451 E HUNTINGTON DR NORTH","address":"5451 Huntington Drive, CA, Los Angeles, 90032, US","ct":"2011.20","ev":"N","hl":"YES","apc":"East Los Angeles","cpa":"Northeast Los Angeles","zone":"PF-1","solar":"N","pin_nbr":"145-5A237 101","use_code":"1","geolocation":"POINT (-118.16171 34.09324)","status_date":"09/28/2009","permit_group":"Building","refresh_time":"06/10/2026","type_lat_lon":"ADDRESS","business_unit":"Plan Check at Counter"},"geometry":{"type":"Point","coordinates":[-118.16171,34.09324]}},{"type":"Feature","properties":{"date":"2004-09-20T00:00:00.000Z","year":2004,"description":"REPLACE/REPAIR DRYWALL.  REPLACE TERMITE DAMAGE WOOD THROUGHOUT. (LESS THAN 10%) REPLACE WOOD SIDING AND RE-STUCCO AS NEEDED. INSTALL INSULATION.  REPAIR AND RE-PAINT FLOORS AND CABINETS.  REPAIR DOORS AND WINDOWS THROUGHOUT.  REPAIR PORCH W/ SAME SIZE MATERIALS AS EXISTING.  (LESS THAN 10%) RE-ROOF W/ COMP. SHINGLES.  (NO PLYWOOD INVOLVED)","metadescription":"Bldg-Alter/Repair. 1 or 2 Family Dwelling. REPLACE/REPAIR DRYWALL.  REPLACE TERMITE DAMAGE WOOD THROUGHOUT. (LESS THAN 10%) REPLACE WOOD SIDING AND RE-STUCCO AS NEEDED. INSTALL INSULATION.  REPAIR AND RE-PAINT FLOORS AND CABINETS.  REPAIR DOORS AND WINDOWS THROUGHOUT.  REPAIR PORCH W/ SAME SIZE MATERIALS AS EXISTING.  (LESS THAN 10%) RE-ROOF W/ COMP. SHINGLES.  (NO PLYWOOD INVOLVED). Permit Expired. 5424 E SHELLEY ST","address":"5424 Shelley Street, CA, Los Angeles, 90032, US","ct":"2015.01","ev":"N","hl":"YES","apc":"East Los Angeles","cpa":"Northeast Los Angeles","zone":"PF-1","solar":"N","pin_nbr":"145-5A237 262","use_code":"1","geolocation":"POINT (-118.16258 34.09136)","status_date":"06/09/2008","permit_group":"Building","refresh_time":"06/10/2026","type_lat_lon":"ADDRESS","business_unit":"Express Permit"},"geometry":{"type":"Point","coordinates":[-118.16258,34.09136]}},{"type":"Feature","properties":{"date":"1999-12-03T00:00:00.000Z","year":1999,"description":"ADD DOOR & FRAME TO ADJACENT SPACE W/IN NON-BRG WALL. EXIST. RETAIL BLDG.","metadescription":"Bldg-Alter/Repair. Commercial. ADD DOOR & FRAME TO ADJACENT SPACE W/IN NON-BRG WALL. EXIST. RETAIL BLDG.. Permit Finaled. 4205 N MAYCREST AVE","address":"4205 Maycrest Avenue, CA, Los Angeles, 90032, US","ct":"2011.00","ev":"N","hl":"YES","apc":"East Los Angeles","zone":"C2-1","solar":"N","pin_nbr":"145-5A239  92","use_code":"16","geolocation":"POINT (-118.16142 34.09346)","status_date":"02/17/2000","permit_group":"Building","refresh_time":"06/10/2026","type_lat_lon":"ADDRESS","business_unit":"Plan Check at Counter"},"geometry":{"type":"Point","coordinates":[-118.16142,34.09346]}}]}
