{"type":"FeatureCollection","features":[{"type":"Feature","properties":{"date":"2009-10-23T00:00:00.000Z","year":2009,"description":"REMOVE (E) RETAINING WALLS TO WIDEN  (E) DRIVEWAY  BY 3'-11\" AND CONSTRUCT  3'-6\"MAX. HIGH AND 25'LFT LONG RETAINING WALLS  AND ON GRADE  CONCRETE STEPS.","metadescription":"Nonbldg-New. 1 or 2 Family Dwelling. REMOVE (E) RETAINING WALLS TO WIDEN  (E) DRIVEWAY  BY 3'-11\" AND CONSTRUCT  3'-6\"MAX. HIGH AND 25'LFT LONG RETAINING WALLS  AND ON GRADE  CONCRETE STEPS.. Permit Finaled. 5415 E POPLAR BLVD","address":"5415 Poplar Boulevard, CA, Los Angeles, 90032, US","ct":"2015.01","ev":"N","hl":"YES","apc":"East Los Angeles","cpa":"Northeast Los Angeles","zone":"RD1.5-1","solar":"N","pin_nbr":"144A237   114","use_code":"23","geolocation":"POINT (-118.16283 34.08943)","status_date":"09/24/2010","permit_group":"Building","refresh_time":"06/10/2026","type_lat_lon":"ADDRESS","business_unit":"Plan Check at Counter"},"geometry":{"type":"Point","coordinates":[-118.16283,34.08943]}}]}
