{"type":"FeatureCollection","features":[{"type":"Feature","properties":{"date":"2020-12-03T00:00:00.000Z","year":2020,"description":"EXCAVATION FOR NEW SWIMMING POOL [20047-10000-02158] PER LA STANDARD PLAN #270","metadescription":"Grading. 1 or 2 Family Dwelling. EXCAVATION FOR NEW SWIMMING POOL [20047-10000-02158] PER LA STANDARD PLAN #270. PC Info Complete. 5405 E HUNTINGTON DR","address":"5405 Huntington Drive, CA, Los Angeles, 90032, US","ct":"2011.20","ev":"N","apc":"East Los Angeles","cpa":"Northeast Los Angeles","zone":"RD1.5-1","solar":"N","pin_nbr":"145-5A237 140","use_code":"70","status_date":"08/05/2021","permit_group":"Building","refresh_time":"06/10/2026","type_lat_lon":"ADDRESS","business_unit":"Plan Check at Counter"},"geometry":{"type":"Point","coordinates":[-118.16278,34.09252]}}]}
