{"type":"FeatureCollection","features":[{"type":"Feature","properties":{"date":"2026-05-26T00:00:00.000Z","year":2026,"description":"New detached 1199 sf ADU with porch and garage per LAMC","metadescription":"Bldg-New. 1 or 2 Family Dwelling. New detached 1199 sf ADU with porch and garage per LAMC. Issued. 4222 N STILLWELL AVE","address":"4220 Stillwell Avenue, CA, Los Angeles, 90032, US","ct":"2011.20","ev":"N","apc":"East Los Angeles","cpa":"Northeast Los Angeles","zone":"[Q]R1-1D-HCR","solar":"N","height":"19","pin_nbr":"145-5A237  83","use_code":"1","status_date":"05/26/2026","construction":"Type V-B Construction","permit_group":"Building","refresh_time":"06/10/2026","type_lat_lon":"PIN","business_unit":"Expanded Counter Plan Check","square_footage":"1420"},"geometry":{"type":"Point","coordinates":[-118.1632896,34.09363351]}},{"type":"Feature","properties":{"date":"2026-04-30T00:00:00.000Z","year":2026,"description":"ePlan: New 2-Story 3 units Apartment with attached 1-Car Garage each  Fire Sprinklered throughout","metadescription":"Bldg-New. Apartment. ePlan: New 2-Story 3 units Apartment with attached 1-Car Garage each  Fire Sprinklered throughout. Quality Review Completed. 5426 E ALMONT ST","address":"5432 Almont Street, CA, Los Angeles, 90032, US","ct":"2011.20","ev":"N","apc":"East Los Angeles","cpa":"Northeast Los Angeles","zone":"RD2-1XL","solar":"N","pin_nbr":"145-5A237  93","use_code":"5","status_date":"06/04/2026","construction":"Type V-B Construction","permit_group":"Building","refresh_time":"06/10/2026","type_lat_lon":"ADDRESS","business_unit":"Regular Plan Check"},"geometry":{"type":"Point","coordinates":[-118.16274,34.09348]}},{"type":"Feature","properties":{"date":"2026-04-27T00:00:00.000Z","year":2026,"description":"eplanla: addition & conversion of (e) detached garage into a (n) 1-story ordinance detached accessory dwelling unit per LAMC 12.22A.33(b)(1),(c),(d),(h), & (k), work per engineer","metadescription":"Bldg-Addition. 1 or 2 Family Dwelling. eplanla: addition & conversion of (e) detached garage into a (n) 1-story ordinance detached accessory dwelling unit per LAMC 12.22A.33(b)(1),(c),(d),(h), & (k), work per engineer. Corrections Issued. 3719 N WINCHESTER AVE","address":"3719 Winchester Avenue, CA, Los Angeles, 90032, US","ct":"2015.01","ev":"N","apc":"East Los Angeles","cpa":"Northeast Los Angeles","zone":"R1-1","solar":"N","pin_nbr":"144A239    78","use_code":"1","status_date":"05/04/2026","construction":"Type V-B Construction","permit_group":"Building","refresh_time":"06/10/2026","type_lat_lon":"ADDRESS","business_unit":"Expanded Counter Plan Check","square_footage":"727"},"geometry":{"type":"Point","coordinates":[-118.16061,34.08829]}},{"type":"Feature","properties":{"date":"2025-08-05T00:00:00.000Z","year":2025,"description":"eplan EXISTING GARAGE (331.53 SF) CONVERSION + ADDITION (68.53 SF)  TO NEW 1 STORY DETACHED ADU (400 SF)","metadescription":"Bldg-Addition. 1 or 2 Family Dwelling. eplan EXISTING GARAGE (331.53 SF) CONVERSION + ADDITION (68.53 SF)  TO NEW 1 STORY DETACHED ADU (400 SF). Corrections Issued. 3708 N LOWELL AVE","address":"3708 Lowell Avenue, CA, Los Angeles, 90032, US","ct":"2015.01","ev":"N","apc":"East Los Angeles","cpa":"Northeast Los Angeles","zone":"R1-1","solar":"N","height":"11.42","pin_nbr":"144A237   281","use_code":"1","status_date":"08/12/2025","construction":"Type V-B Construction","permit_group":"Building","refresh_time":"06/10/2026","type_lat_lon":"ADDRESS","business_unit":"Expanded Counter Plan Check","square_footage":"400"},"geometry":{"type":"Point","coordinates":[-118.16229,34.08793]}},{"type":"Feature","properties":{"date":"2025-06-06T00:00:00.000Z","year":2025,"description":"ePlan.  Demolish existing garage by handwrecking method.","metadescription":"Bldg-Demolition. 1 or 2 Family Dwelling. ePlan.  Demolish existing garage by handwrecking method.. Issued. 3832 N SHEFFIELD AVE","address":"3832 North Sheffield Avenue, CA, Los Angeles, 90032, US","ct":"2015.01","ev":"N","apc":"East Los Angeles","cpa":"Northeast Los Angeles","zone":"PF-1","solar":"N","pin_nbr":"144A239    35","use_code":"7","status_date":"06/06/2025","permit_group":"Building","refresh_time":"06/10/2026","type_lat_lon":"ADDRESS","business_unit":"Plan Check at Counter"},"geometry":{"type":"Point","coordinates":[-118.16142,34.08994]}},{"type":"Feature","properties":{"date":"2025-03-27T00:00:00.000Z","year":2025,"description":"ePlan. Demo (E) SFD and detached garage","metadescription":"Bldg-Demolition. 1 or 2 Family Dwelling. ePlan. Demo (E) SFD and detached garage. Issued. 3815 N SHEFFIELD AVE","address":"3815 North Sheffield Avenue, CA, Los Angeles, 90032, US","ct":"2015.01","ev":"N","apc":"East Los Angeles","cpa":"Northeast Los Angeles","zone":"PF-1","solar":"N","pin_nbr":"144A237   138","use_code":"1","status_date":"03/27/2025","permit_group":"Building","refresh_time":"06/10/2026","type_lat_lon":"ADDRESS","business_unit":"Plan Check at Counter"},"geometry":{"type":"Point","coordinates":[-118.16166,34.08948]}},{"type":"Feature","properties":{"date":"2025-01-16T00:00:00.000Z","year":2025,"description":"ePlan: Demolishing detached garage per AB 2097.","metadescription":"Bldg-Demolition. 1 or 2 Family Dwelling. ePlan: Demolishing detached garage per AB 2097.. PC Info Complete. 5454 E KEATS ST","address":"5454 East Keats Street, CA, Los Angeles, 90032, US","ct":"2015.01","ev":"N","apc":"East Los Angeles","cpa":"Northeast Los Angeles","zone":"PF-1","solar":"N","pin_nbr":"145-5A237 284","use_code":"7","status_date":"01/24/2025","permit_group":"Building","refresh_time":"06/10/2026","type_lat_lon":"ADDRESS","business_unit":"Plan Check at Counter"},"geometry":{"type":"Point","coordinates":[-118.16192,34.09108]}},{"type":"Feature","properties":{"date":"2023-05-07T00:00:00.000Z","year":2023,"description":"CONVERT (E) DETACHED 14'0\" x 18'0\" STORAGE AND 18'0\" x 18'0\" GARAGE INTO (N) DETACHED ACCESSORY DWELLING UNIT PER LAMC GCS65852.2(e)(1)(A). WORK DONE PER WFPP.","metadescription":"Bldg-Alter/Repair. 1 or 2 Family Dwelling. CONVERT (E) DETACHED 14'0\" x 18'0\" STORAGE AND 18'0\" x 18'0\" GARAGE INTO (N) DETACHED ACCESSORY DWELLING UNIT PER LAMC GCS65852.2(e)(1)(A). WORK DONE PER WFPP.. CofO Issued. 3826 1/2 N STOCKBRIDGE AVE","address":"3826 Stockbridge Avenue, CA, Los Angeles, 90032, US","ct":"2015.01","ev":"N","apc":"East Los Angeles","cpa":"Northeast Los Angeles","zone":"RD1.5-1","solar":"N","pin_nbr":"144A237    81","use_code":"1","status_date":"10/25/2024","construction":"Type V-B Construction","permit_group":"Building","refresh_time":"06/10/2026","type_lat_lon":"PIN","business_unit":"Expanded Counter Plan Check","square_footage":"576"},"geometry":{"type":"Point","coordinates":[-118.16268543,34.08997908]}},{"type":"Feature","properties":{"date":"2023-01-27T00:00:00.000Z","year":2023,"description":"DEMOLITION OF EXISTING DETACHED GARAGE . SEWER CAP IS NOT REQUIRED.","metadescription":"Bldg-Demolition. 1 or 2 Family Dwelling. DEMOLITION OF EXISTING DETACHED GARAGE . SEWER CAP IS NOT REQUIRED.. PC Info Complete. 3716 N LOWELL AVE","address":"3716 Lowell Avenue, CA, Los Angeles, 90032, US","ct":"2015.01","ev":"N","apc":"East Los Angeles","cpa":"Northeast Los Angeles","zone":"R1-1","solar":"N","pin_nbr":"144A237   256","use_code":"7","status_date":"03/29/2023","permit_group":"Building","refresh_time":"06/10/2026","type_lat_lon":"ADDRESS","business_unit":"Plan Check at Counter"},"geometry":{"type":"Point","coordinates":[-118.16229,34.08817]}},{"type":"Feature","properties":{"date":"2022-10-11T00:00:00.000Z","year":2022,"description":"CONVERT EX. DETACHED GARAGE INTO ACCESSORY DWELLING UNIT PER LAMC 12.22 A.33(c) AND (d). WORK PER WFPP.","metadescription":"Bldg-Alter/Repair. 1 or 2 Family Dwelling. CONVERT EX. DETACHED GARAGE INTO ACCESSORY DWELLING UNIT PER LAMC 12.22 A.33(c) AND (d). WORK PER WFPP.. CofO Issued. 3908 N LOWELL AVE","address":"3906 Lowell Avenue, CA, Los Angeles, 90032, US","ct":"2015.01","ev":"N","apc":"East Los Angeles","cpa":"Northeast Los Angeles","zone":"PF-1","solar":"N","pin_nbr":"144A237    40","use_code":"1","status_date":"09/12/2023","construction":"Type V-B Construction","permit_group":"Building","refresh_time":"06/10/2026","type_lat_lon":"PIN","business_unit":"Expanded Counter Plan Check","square_footage":"373"},"geometry":{"type":"Point","coordinates":[-118.16216763,34.0905945]}},{"type":"Feature","properties":{"date":"2022-06-14T00:00:00.000Z","year":2022,"description":"CONVERT 18'-2\" X 18'-3\" (E) DETACHED GARAGE INTO A (N) ACCESSORY DWELLING UNIT PER LAMC 12.22 A.33(c) AND (d). ALL WORK PER WFPP.","metadescription":"Bldg-Alter/Repair. 1 or 2 Family Dwelling. CONVERT 18'-2\" X 18'-3\" (E) DETACHED GARAGE INTO A (N) ACCESSORY DWELLING UNIT PER LAMC 12.22 A.33(c) AND (d). ALL WORK PER WFPP.. CofO Issued. 3719 N LOWELL AVE","address":"3721 Lowell Avenue, CA, Los Angeles, 90032, US","ct":"2015.01","ev":"N","apc":"East Los Angeles","cpa":"Northeast Los Angeles","zone":"R1-1","solar":"N","pin_nbr":"144A237   249","use_code":"1","status_date":"12/28/2022","construction":"Type V-B Construction","permit_group":"Building","refresh_time":"06/10/2026","type_lat_lon":"PIN","business_unit":"Plan Check at Counter","square_footage":"331"},"geometry":{"type":"Point","coordinates":[-118.16271874,34.08825727]}},{"type":"Feature","properties":{"date":"2021-08-05T00:00:00.000Z","year":2021,"description":"DEMOLISHED (E) GARAGE (A=222.50 SF) AND TRELLIS PATIO (A=215.5 SF)","metadescription":"Bldg-Demolition. 1 or 2 Family Dwelling. DEMOLISHED (E) GARAGE (A=222.50 SF) AND TRELLIS PATIO (A=215.5 SF). Issued. 4306 N MAYCREST AVE","address":"4306 Maycrest Avenue, CA, Los Angeles, 90032, US","ct":"2011.20","ev":"N","apc":"East Los Angeles","cpa":"Northeast Los Angeles","zone":"R1-1","solar":"N","pin_nbr":"145-5A239  46","use_code":"7","status_date":"08/05/2021","construction":"Type V-B Construction","permit_group":"Building","refresh_time":"06/10/2026","type_lat_lon":"ADDRESS","business_unit":"Plan Check at Counter"},"geometry":{"type":"Point","coordinates":[-118.16114,34.09443]}},{"type":"Feature","properties":{"date":"2020-10-02T00:00:00.000Z","year":2020,"description":"(N)  DUPLEX W/ ATTACHED GARAGE (1 OF 2)","metadescription":"Bldg-New. 1 or 2 Family Dwelling. (N)  DUPLEX W/ ATTACHED GARAGE (1 OF 2). CofO Issued. 5407-5407 1/2 E HUNTINGTON DR NORTH","address":"5405 Huntington Drive, CA, Los Angeles, 90032, US","ct":"2011.20","ev":"N","apc":"East Los Angeles","cpa":"Northeast Los Angeles","zone":"RD1.5-1","solar":"N","height":"39.5","pin_nbr":"145-5A237 140","use_code":"2","status_date":"02/03/2022","construction":"Type V-B Construction","permit_group":"Building","refresh_time":"06/10/2026","type_lat_lon":"BUILDING","business_unit":"Regular Plan Check","square_footage":"2946"},"geometry":{"type":"Point","coordinates":[-118.16271353,34.09253083]}},{"type":"Feature","properties":{"date":"2019-08-13T00:00:00.000Z","year":2019,"description":"Convert existing detached garage to accessory dwelling unit per AB494 and SB229 and new 20'x 41'-6\" ground floor addition to accessory dwelling unit","metadescription":"Bldg-Addition. 1 or 2 Family Dwelling. Convert existing detached garage to accessory dwelling unit per AB494 and SB229 and new 20'x 41'-6\" ground floor addition to accessory dwelling unit. CofO Issued. 3715 N LOWELL AVE","address":"3715 Lowell Avenue, CA, Los Angeles, 90032, US","ct":"2015.01","ev":"N","apc":"East Los Angeles","cpa":"Northeast Los Angeles","zone":"R1-1","solar":"N","pin_nbr":"144A237   257","use_code":"1","geolocation":"POINT (-118.16262 34.08811)","status_date":"08/31/2020","construction":"Type V-B Construction","permit_group":"Building","refresh_time":"06/10/2026","type_lat_lon":"ADDRESS","business_unit":"Regular Plan Check","square_footage":"993"},"geometry":{"type":"Point","coordinates":[-118.16262,34.08811]}},{"type":"Feature","properties":{"date":"2018-05-24T00:00:00.000Z","year":2018,"description":"CONVERT STORAGE BLDG. TO GARAGE  \"BLDG D\" 2 OF 2","metadescription":"Bldg-Alter/Repair. Commercial. CONVERT STORAGE BLDG. TO GARAGE  \"BLDG D\" 2 OF 2. CofO Issued. 5561-5565 E HUNTINGTON DR NORT","address":"5561 Huntington Drive, CA, Los Angeles, 90032, US","ct":"2011.20","ev":"N","apc":"East Los Angeles","cpa":"Northeast Los Angeles","zone":"[Q]C2-1VL","solar":"N","pin_nbr":"147A239   278","use_code":"7","geolocation":"POINT (-118.15897712 34.09512538)","status_date":"05/03/2019","construction":"Type V-B Construction","permit_group":"Building","refresh_time":"06/10/2026","type_lat_lon":"PIN","business_unit":"Regular Plan Check"},"geometry":{"type":"Point","coordinates":[-118.15897712,34.09512538]}},{"type":"Feature","properties":{"date":"2018-04-11T00:00:00.000Z","year":2018,"description":"Convert the existing attached garage into an ACCESSORY DWELLING UNIT per AB 494 and AB 229.","metadescription":"Bldg-Alter/Repair. 1 or 2 Family Dwelling. Convert the existing attached garage into an ACCESSORY DWELLING UNIT per AB 494 and AB 229.. CofO Issued. 3735-3737 N LOWELL AVE","address":"3735 Lowell Avenue, CA, Los Angeles, 90032, US","ct":"2015.01","ev":"N","apc":"East Los Angeles","cpa":"Northeast Los Angeles","zone":"R1-1","solar":"N","pin_nbr":"144A237   199","use_code":"1","adu_changed":"1","geolocation":"POINT (-118.16261 34.0886)","status_date":"02/25/2022","construction":"Type V-B Construction","permit_group":"Building","refresh_time":"06/10/2026","type_lat_lon":"ADDRESS","business_unit":"Plan Check at Counter","square_footage":"335"},"geometry":{"type":"Point","coordinates":[-118.16261,34.0886]}},{"type":"Feature","properties":{"date":"2017-06-09T00:00:00.000Z","year":2017,"description":"grading for new 2-story addition to (e) 1-story sfd, and garage; creating a duplex.","metadescription":"Grading. 1 or 2 Family Dwelling. grading for new 2-story addition to (e) 1-story sfd, and garage; creating a duplex.. Permit Finaled. 5468-5468 1/2 E NEWTONIA DR","address":"5468 1/2 Newtonia Drive, CA, Los Angeles, 90032, US","ct":"2011.20","ev":"N","apc":"East Los Angeles","cpa":"Northeast Los Angeles","zone":"R3-1","solar":"N","pin_nbr":"147A239   239","use_code":"70","geolocation":"POINT (-118.16041 34.09593)","status_date":"04/06/2018","permit_group":"Building","refresh_time":"06/10/2026","type_lat_lon":"ADDRESS","business_unit":"Regular Plan Check"},"geometry":{"type":"Point","coordinates":[-118.16041,34.09593]}},{"type":"Feature","properties":{"date":"2017-06-09T00:00:00.000Z","year":2017,"description":"NEW 2 STORY ADDITION WITH ATTACHED 2 CAR GARAGE TO (E) 1-STORY SFD; CREATING A DUPLEX AND PROVIDE 2 OPEN PARKING STALL (TANDEM PARKING)","metadescription":"Bldg-Addition. 1 or 2 Family Dwelling. NEW 2 STORY ADDITION WITH ATTACHED 2 CAR GARAGE TO (E) 1-STORY SFD; CREATING A DUPLEX AND PROVIDE 2 OPEN PARKING STALL (TANDEM PARKING). Issued. 5468-5468 1/2 E NEWTONIA DR","address":"5468 1/2 Newtonia Drive, CA, Los Angeles, 90032, US","ct":"2011.20","ev":"N","apc":"East Los Angeles","cpa":"Northeast Los Angeles","zone":"R3-1","solar":"N","height":"26.67","pin_nbr":"147A239   239","use_code":"2","geolocation":"POINT (-118.16041 34.09593)","status_date":"06/09/2017","construction":"Type V-B Construction","permit_group":"Building","refresh_time":"06/10/2026","type_lat_lon":"ADDRESS","business_unit":"Regular Plan Check","square_footage":"1848"},"geometry":{"type":"Point","coordinates":[-118.16041,34.09593]}},{"type":"Feature","properties":{"date":"2017-05-26T00:00:00.000Z","year":2017,"description":"ADDITION TO GARAGE FOR NEW TANDAM 2-CAR GARAGE.","metadescription":"Bldg-Addition. 1 or 2 Family Dwelling. ADDITION TO GARAGE FOR NEW TANDAM 2-CAR GARAGE.. CofO Issued. 4313 N MAYCREST AVE","address":"4313 Maycrest Avenue, CA, Los Angeles, 90032, US","ct":"2011.20","ev":"N","apc":"East Los Angeles","cpa":"Northeast Los Angeles","zone":"R1-1","solar":"N","height":"12","pin_nbr":"145-5A237  29","use_code":"7","geolocation":"POINT (-118.16145 34.09465)","status_date":"02/26/2018","construction":"Type V-B Construction","permit_group":"Building","refresh_time":"06/10/2026","type_lat_lon":"ADDRESS","business_unit":"Regular Plan Check","square_footage":"0"},"geometry":{"type":"Point","coordinates":[-118.16145,34.09465]}},{"type":"Feature","properties":{"date":"2017-05-26T00:00:00.000Z","year":2017,"description":"DEMO (E) GARAGE AT REAR OF LOT BY HANDWRECK METHOD.  SEWER CAP IS NOT REQUIRED.  NEW 2-CAR GARAGE PER PERMIT 16010-10000-05586","metadescription":"Bldg-Demolition. 1 or 2 Family Dwelling. DEMO (E) GARAGE AT REAR OF LOT BY HANDWRECK METHOD.  SEWER CAP IS NOT REQUIRED.  NEW 2-CAR GARAGE PER PERMIT 16010-10000-05586. Permit Finaled. 4313 N MAYCREST AVE","address":"4313 Maycrest Avenue, CA, Los Angeles, 90032, US","ct":"2011.20","ev":"N","apc":"East Los Angeles","cpa":"Northeast Los Angeles","zone":"R1-1","solar":"N","pin_nbr":"145-5A237  29","use_code":"7","geolocation":"POINT (-118.16145 34.09465)","status_date":"10/04/2017","permit_group":"Building","refresh_time":"06/10/2026","type_lat_lon":"ADDRESS","business_unit":"Plan Check at Counter"},"geometry":{"type":"Point","coordinates":[-118.16145,34.09465]}},{"type":"Feature","properties":{"date":"2012-06-06T00:00:00.000Z","year":2012,"description":"SUPPLEMENTAL PERMIT TO 12016-90000-09815 TO CORRECT THE NUMBER OF SQS TO BE REROOFED FROM 36 SQS TO 3.6 SQS. Termite damage/ dry rot repair less than 10% of replacement cost of building at detached garage.","metadescription":"Bldg-Alter/Repair. 1 or 2 Family Dwelling. SUPPLEMENTAL PERMIT TO 12016-90000-09815 TO CORRECT THE NUMBER OF SQS TO BE REROOFED FROM 36 SQS TO 3.6 SQS. Termite damage/ dry rot repair less than 10% of replacement cost of building at detached garage.. Permit Finaled. 4306 N MAYCREST AVE","address":"4306 Maycrest Avenue, CA, Los Angeles, 90032, US","ct":"2011.20","ev":"N","apc":"East Los Angeles","cpa":"Northeast Los Angeles","zone":"R1-1","solar":"N","pin_nbr":"145-5A239  46","use_code":"1","geolocation":"POINT (-118.16114 34.09443)","status_date":"06/08/2012","permit_group":"Building","refresh_time":"06/10/2026","type_lat_lon":"ADDRESS","business_unit":"Express Permit"},"geometry":{"type":"Point","coordinates":[-118.16114,34.09443]}},{"type":"Feature","properties":{"date":"2011-05-19T00:00:00.000Z","year":2011,"description":"Re-roof with Class A or B material weighing less than 6 pound per sq. ft. at detached garage.","metadescription":"Bldg-Alter/Repair. 1 or 2 Family Dwelling. Re-roof with Class A or B material weighing less than 6 pound per sq. ft. at detached garage.. Permit Finaled. 4227 N MAYCREST AVE","address":"4227 Maycrest Avenue, CA, Los Angeles, 90032, US","ct":"2011.20","ev":"N","apc":"East Los Angeles","cpa":"Northeast Los Angeles","zone":"PF-1","solar":"N","pin_nbr":"145-5A237  63","use_code":"7","geolocation":"POINT (-118.16145 34.09402)","status_date":"05/20/2011","permit_group":"Building","refresh_time":"06/10/2026","type_lat_lon":"ADDRESS","business_unit":"Express Permit"},"geometry":{"type":"Point","coordinates":[-118.16145,34.09402]}},{"type":"Feature","properties":{"date":"2011-04-22T00:00:00.000Z","year":2011,"description":"PROPOSED 20'-4\" X 36' DETACHED 3-CAR GARAGE AT REAR OF LOT.","metadescription":"Bldg-New. 1 or 2 Family Dwelling. PROPOSED 20'-4\" X 36' DETACHED 3-CAR GARAGE AT REAR OF LOT.. CofO Issued. 4323 N MAYCREST AVE","address":"4329 North Maycrest Avenue, CA, Los Angeles, 90032, US","ct":"2011.20","ev":"N","hl":"YES","apc":"East Los Angeles","cpa":"Northeast Los Angeles","zone":"R1-1","solar":"N","height":"12.5","pin_nbr":"145-5A237  14","use_code":"7","geolocation":"POINT (-118.16146 34.09492)","status_date":"04/30/2012","construction":"Type V-B Construction","permit_group":"Building","refresh_time":"06/10/2026","type_lat_lon":"ADDRESS","business_unit":"Plan Check at Counter","square_footage":"720"},"geometry":{"type":"Point","coordinates":[-118.16146,34.09492]}},{"type":"Feature","properties":{"date":"2010-02-12T00:00:00.000Z","year":2010,"description":"COSTRUCT 14' X 18' STORAGE  ADDITION  TO  (E) DETACHED GARAGE PER TYPE V SHEET.","metadescription":"Bldg-Addition. 1 or 2 Family Dwelling. COSTRUCT 14' X 18' STORAGE  ADDITION  TO  (E) DETACHED GARAGE PER TYPE V SHEET.. CofO Issued. 3826 N STOCKBRIDGE AVE","address":"3830 Stockbridge Avenue, CA, Los Angeles, 90032, US","ct":"2015.01","ev":"N","hl":"YES","apc":"East Los Angeles","cpa":"Northeast Los Angeles","zone":"RD1.5-1","solar":"N","pin_nbr":"144A237    81","use_code":"7","geolocation":"POINT (-118.16269 34.09018)","status_date":"01/04/2012","construction":"Type V-B Construction","permit_group":"Building","refresh_time":"06/10/2026","type_lat_lon":"ADDRESS","business_unit":"Plan Check at Counter","square_footage":"252"},"geometry":{"type":"Point","coordinates":[-118.16269,34.09018]}},{"type":"Feature","properties":{"date":"2009-03-03T00:00:00.000Z","year":2009,"description":"TO CAPTURE WRONG QUANTITY OF EARTH WORK, THE CORRECT AMOUNT OF EARTH WORK IS 226 CU. YDS. INSTEAD OF 150 CU YDS.  ALSO TO MODIFY THE WORD DESCRIPTION ON THE PERMIT WITH THE APPLICATION NUMBER 07030-10000-02803 TO INCLUDE BACKFILL OF NEW RETAINIG WALLS OF BASEMENT/GARAGE.","metadescription":"Grading. Apartment. TO CAPTURE WRONG QUANTITY OF EARTH WORK, THE CORRECT AMOUNT OF EARTH WORK IS 226 CU. YDS. INSTEAD OF 150 CU YDS.  ALSO TO MODIFY THE WORD DESCRIPTION ON THE PERMIT WITH THE APPLICATION NUMBER 07030-10000-02803 TO INCLUDE BACKFILL OF NEW RETAINIG WALLS OF BASEMENT/GARAGE.. Permit Finaled. 5408-5410 E HUNTINGTON DR SOUTH","address":"5410 East Huntington Drive, CA, Los Angeles, 90032, US","ct":"2015.01","ev":"N","hl":"YES","apc":"East Los Angeles","cpa":"Northeast Los Angeles","zone":"RD1.5-1VL","solar":"N","pin_nbr":"145-5A237 271","use_code":"70","geolocation":"POINT (-118.1633 34.09122)","status_date":"03/05/2009","permit_group":"Building","refresh_time":"06/10/2026","type_lat_lon":"ADDRESS","business_unit":"Plan Check at Counter"},"geometry":{"type":"Point","coordinates":[-118.1633,34.09122]}},{"type":"Feature","properties":{"date":"2009-01-13T00:00:00.000Z","year":2009,"description":"PROPOSED RECROOM  (370  SQ.FT.)  ATTACHED TO EXISTING GARAGE - PER TYPE V-B CONSTRUCTION. *Recroom is being legalized, no new construction*","metadescription":"Bldg-Addition. 1 or 2 Family Dwelling. PROPOSED RECROOM  (370  SQ.FT.)  ATTACHED TO EXISTING GARAGE - PER TYPE V-B CONSTRUCTION. *Recroom is being legalized, no new construction*. CofO Issued. 4317 N WINCHESTER AVE","address":"4317 Winchester Avenue, CA, Los Angeles, 90032, US","ct":"2011.20","ev":"N","hl":"YES","apc":"East Los Angeles","cpa":"Northeast Los Angeles","zone":"PF-1","solar":"N","height":"12.33","pin_nbr":"145-5A239  45","use_code":"23","geolocation":"POINT (-118.16035 34.09452)","status_date":"06/12/2009","construction":"Type V-B Construction","permit_group":"Building","refresh_time":"06/10/2026","type_lat_lon":"ADDRESS","business_unit":"Appointment Plan Check","square_footage":"370"},"geometry":{"type":"Point","coordinates":[-118.16035,34.09452]}},{"type":"Feature","properties":{"date":"2008-05-13T00:00:00.000Z","year":2008,"description":"NEW 2-STORY DUPLEX (1810 SQFT/UNIT) WITH ATTACHED GARAGE (440 SQFT/GARAGE)","metadescription":"Bldg-New. 1 or 2 Family Dwelling. NEW 2-STORY DUPLEX (1810 SQFT/UNIT) WITH ATTACHED GARAGE (440 SQFT/GARAGE). CofO Issued. 5408-5410 E HUNTINGTON DR SOUTH","address":"5410 East Huntington Drive, CA, Los Angeles, 90032, US","ct":"2015.01","ev":"N","hl":"YES","apc":"East Los Angeles","cpa":"Northeast Los Angeles","zone":"RD1.5-1VL","solar":"N","height":"35","pin_nbr":"145-5A237 271","use_code":"2","geolocation":"POINT (-118.1633 34.09122)","status_date":"03/12/2009","construction":"Type V-N Construction","permit_group":"Building","refresh_time":"06/10/2026","type_lat_lon":"ADDRESS","business_unit":"Regular Plan Check","square_footage":"3620"},"geometry":{"type":"Point","coordinates":[-118.1633,34.09122]}},{"type":"Feature","properties":{"date":"2008-03-14T00:00:00.000Z","year":2008,"description":"NEW SINGLE FAMILY DWELLING (1,091 SF) WITH ATTACHED 2 CAR GARAGE (400 SF.)","metadescription":"Bldg-New. 1 or 2 Family Dwelling. NEW SINGLE FAMILY DWELLING (1,091 SF) WITH ATTACHED 2 CAR GARAGE (400 SF.). CofO Issued. 5506 E POPLAR BLVD","address":"5506 East Poplar Boulevard, CA, Los Angeles, 90032, US","ct":"2015.01","ev":"N","hl":"YES","apc":"East Los Angeles","cpa":"Northeast Los Angeles","zone":"R1-1","solar":"N","height":"16.67","pin_nbr":"144A237   195","use_code":"1","geolocation":"POINT (-118.16216 34.08884)","status_date":"01/22/2009","construction":"Type V-N Construction","permit_group":"Building","refresh_time":"06/10/2026","type_lat_lon":"ADDRESS","business_unit":"Regular Plan Check","square_footage":"1091"},"geometry":{"type":"Point","coordinates":[-118.16216,34.08884]}},{"type":"Feature","properties":{"date":"2007-02-01T00:00:00.000Z","year":2007,"description":"TEAR0OFF BUR & INSTALL (4) PLY BUR FOR HOUSE & GARAGE.","metadescription":"Bldg-Alter/Repair. 1 or 2 Family Dwelling. TEAR0OFF BUR & INSTALL (4) PLY BUR FOR HOUSE & GARAGE.. Permit Finaled. 3823 N WINCHESTER AVE","address":"3823 Winchester Avenue, CA, Los Angeles, 90032, US","ct":"2015.01","ev":"N","hl":"YES","apc":"East Los Angeles","cpa":"Northeast Los Angeles","zone":"PF-1","solar":"N","pin_nbr":"144A239    42","use_code":"1","geolocation":"POINT (-118.16062 34.08967)","status_date":"02/08/2007","permit_group":"Building","refresh_time":"06/10/2026","type_lat_lon":"ADDRESS","business_unit":"Express Permit"},"geometry":{"type":"Point","coordinates":[-118.16062,34.08967]}},{"type":"Feature","properties":{"date":"2006-04-12T00:00:00.000Z","year":2006,"description":"REMOVE AND REPLACE EXISTING POST/BEAM @ GARAGE.  (SAME SIZE AND TYPE PER HOUSING ORDER)","metadescription":"Bldg-Alter/Repair. Apartment. REMOVE AND REPLACE EXISTING POST/BEAM @ GARAGE.  (SAME SIZE AND TYPE PER HOUSING ORDER). Permit Finaled. 3815 N STOCKBRIDGE AVE","address":"3815 Stockbridge Avenue, CA, Los Angeles, 90032, US","ct":"2015.01","ev":"N","hl":"YES","apc":"East Los Angeles","cpa":"Northeast Los Angeles","zone":"RD1.5-1","solar":"N","pin_nbr":"144A237    67","use_code":"7","geolocation":"POINT (-118.16311 34.0901)","status_date":"05/01/2006","permit_group":"Building","refresh_time":"06/10/2026","type_lat_lon":"ADDRESS","business_unit":"Express Permit"},"geometry":{"type":"Point","coordinates":[-118.16311,34.0901]}},{"type":"Feature","properties":{"date":"2005-05-03T00:00:00.000Z","year":2005,"description":"REMOVE AND REPLACE POST/BEAM (IN GARAGE) W/ SAME SIZE AND TYPE PER HOUSING ORDER.","metadescription":"Bldg-Alter/Repair. Apartment. REMOVE AND REPLACE POST/BEAM (IN GARAGE) W/ SAME SIZE AND TYPE PER HOUSING ORDER.. Permit Expired. 3815 N STOCKBRIDGE AVE","address":"3815 Stockbridge Avenue, CA, Los Angeles, 90032, US","ct":"2015.01","ev":"N","hl":"YES","apc":"East Los Angeles","cpa":"Northeast Los Angeles","zone":"RD1.5-1","solar":"N","pin_nbr":"144A237    67","use_code":"5","geolocation":"POINT (-118.16311 34.0901)","status_date":"05/28/2007","permit_group":"Building","refresh_time":"06/10/2026","type_lat_lon":"ADDRESS","business_unit":"Express Permit"},"geometry":{"type":"Point","coordinates":[-118.16311,34.0901]}},{"type":"Feature","properties":{"date":"2003-05-28T00:00:00.000Z","year":2003,"description":"RE-BUILD (E) GARAGE (10'X20') AND ENLARGE DET. GARAGE (12'X20') TO ADD LAUNDRY ROOM. & WORK SHOP.","metadescription":"Bldg-Addition. 1 or 2 Family Dwelling. RE-BUILD (E) GARAGE (10'X20') AND ENLARGE DET. GARAGE (12'X20') TO ADD LAUNDRY ROOM. & WORK SHOP.. Permit Finaled. 4211 N LOWELL AVE","address":"4213 Lowell Avenue, CA, Los Angeles, 90032, US","ct":"2011.20","ev":"N","hl":"YES","apc":"East Los Angeles","cpa":"Northeast Los Angeles","zone":"PF-1","solar":"N","pin_nbr":"145-5A237 102","use_code":"7","geolocation":"POINT (-118.16217 34.09333)","status_date":"10/15/2003","construction":"Type V-N Construction","permit_group":"Building","refresh_time":"06/10/2026","type_lat_lon":"ADDRESS","business_unit":"Plan Check at Counter","square_footage":"440"},"geometry":{"type":"Point","coordinates":[-118.16217,34.09333]}},{"type":"Feature","properties":{"date":"2003-03-18T00:00:00.000Z","year":2003,"description":"GARAGE CEILING; DRYWALL  AS PER CORRECTION NOTICE S 45159","metadescription":"Bldg-Alter/Repair. 1 or 2 Family Dwelling. GARAGE CEILING; DRYWALL  AS PER CORRECTION NOTICE S 45159. Permit Finaled. 4330 N WINCHESTER AVE","address":"4334 Winchester Avenue, CA, Los Angeles, 90032, US","ct":"2011.20","ev":"N","hl":"YES","apc":"East Los Angeles","cpa":"Northeast Los Angeles","zone":"R1-1","solar":"N","pin_nbr":"145-5A239  13","use_code":"7","geolocation":"POINT (-118.16017 34.09494)","status_date":"10/31/2008","permit_group":"Building","refresh_time":"06/10/2026","type_lat_lon":"ADDRESS","business_unit":"Express Permit"},"geometry":{"type":"Point","coordinates":[-118.16017,34.09494]}},{"type":"Feature","properties":{"date":"2001-03-16T00:00:00.000Z","year":2001,"description":"Demo existing garage. Carport will be issued on a separate permit","metadescription":"Bldg-Demolition. 1 or 2 Family Dwelling. Demo existing garage. Carport will be issued on a separate permit. Permit Finaled. 4311 N LOWELL AVE","address":"4311 Lowell Avenue, CA, Los Angeles, 90032, US","ct":"2011.10","ev":"N","hl":"YES","apc":"East Los Angeles","zone":"R1-1","solar":"N","pin_nbr":"145-5A237  58","use_code":"7","geolocation":"POINT (-118.16259 34.09423)","status_date":"02/11/2010","permit_group":"Building","refresh_time":"06/10/2026","type_lat_lon":"ADDRESS","business_unit":"Express Permit"},"geometry":{"type":"Point","coordinates":[-118.16259,34.09423]}},{"type":"Feature","properties":{"date":"2001-03-16T00:00:00.000Z","year":2001,"description":"Build new carport 20x22 to replace (e) garage (to be demoed under separate permit). Car port per city standards.","metadescription":"Bldg-New. 1 or 2 Family Dwelling. Build new carport 20x22 to replace (e) garage (to be demoed under separate permit). Car port per city standards.. Permit Finaled. 4311 N LOWELL AVE","address":"4311 Lowell Avenue, CA, Los Angeles, 90032, US","ct":"2011.10","ev":"N","hl":"YES","apc":"East Los Angeles","zone":"R1-1","solar":"N","height":"10","pin_nbr":"145-5A237  58","use_code":"7","geolocation":"POINT (-118.16259 34.09423)","status_date":"04/14/2008","construction":"Type V-N Construction","permit_group":"Building","refresh_time":"06/10/2026","type_lat_lon":"ADDRESS","business_unit":"Plan Check at Counter","square_footage":"440"},"geometry":{"type":"Point","coordinates":[-118.16259,34.09423]}},{"type":"Feature","properties":{"date":"2000-08-08T00:00:00.000Z","year":2000,"description":"Build new 2 car garage (20' x 20') 400 s.f.","metadescription":"Bldg-New. 1 or 2 Family Dwelling. Build new 2 car garage (20' x 20') 400 s.f.. Permit Finaled. 5435 E ALMONT ST","address":"5435 Almont Street, CA, Los Angeles, 90032, US","ct":"2011.00","ev":"N","hl":"YES","apc":"East Los Angeles","zone":"R1-1","solar":"N","pin_nbr":"145-5A237  78","use_code":"7","geolocation":"POINT (-118.16277 34.09373)","status_date":"03/13/2001","construction":"Type V-N Construction","permit_group":"Building","refresh_time":"06/10/2026","type_lat_lon":"ADDRESS","business_unit":"Plan Check at Counter","square_footage":"400"},"geometry":{"type":"Point","coordinates":[-118.16277,34.09373]}}]}
