{"type":"FeatureCollection","features":[{"type":"Feature","properties":{"date":"2019-07-08T00:00:00.000Z","year":2019,"description":"Re-roof with Class A or B material weighing less than 6 pounds per sq. ft. over existing solid sheathing ___10___Squares. Class A roof covering is required within Very High Fire Hazard Severity Zone (VHFHSZ). For residential roof replacement > 50% of the total roof area, apply Cool Roof Product labeled and certified by Cool Roof Rating Council (CRRC). Cool Roof may be required for non-residential buildings per Title 24, Part 6, Section 141.0 (b) 2B.","metadescription":"Bldg-Alter/Repair. 1 or 2 Family Dwelling. Re-roof with Class A or B material weighing less than 6 pounds per sq. ft. over existing solid sheathing ___10___Squares. Class A roof covering is required within Very High Fire Hazard Severity Zone (VHFHSZ). For residential roof replacement > 50% of the total roof area, apply Cool Roof Product labeled and certified by Cool Roof Rating Council (CRRC). Cool Roof may be required for non-residential buildings per Title 24, Part 6, Section 141.0 (b) 2B.. Permit Finaled. 5406 E POPLAR BLVD","address":"5402 Poplar Boulevard, CA, Los Angeles, 90032, US","ct":"2015.01","ev":"N","apc":"East Los Angeles","cpa":"Northeast Los Angeles","zone":"R1-1","solar":"N","pin_nbr":"144A237   159","use_code":"1","geolocation":"POINT (-118.16317 34.08927)","status_date":"07/19/2019","permit_group":"Building","refresh_time":"06/10/2026","type_lat_lon":"ADDRESS","business_unit":"Express Permit"},"geometry":{"type":"Point","coordinates":[-118.16317,34.08927]}},{"type":"Feature","properties":{"date":"2019-05-17T00:00:00.000Z","year":2019,"description":"Reroof with 21 sqrs BUILT UP roofing. Existing solid sheathing.Re-roof with Class A or B material weighing less than 6 pounds per sq. ft. For residential roof replacement > 50% of the total roof area, apply Cool Roof Product labeled and certified by Cool Roof Rating Council (CRRC). Cool Roof may be required for non-residential buildings per Title 24, Part 6, Section 149(b).","metadescription":"Bldg-Alter/Repair. 1 or 2 Family Dwelling. Reroof with 21 sqrs BUILT UP roofing. Existing solid sheathing.Re-roof with Class A or B material weighing less than 6 pounds per sq. ft. For residential roof replacement > 50% of the total roof area, apply Cool Roof Product labeled and certified by Cool Roof Rating Council (CRRC). Cool Roof may be required for non-residential buildings per Title 24, Part 6, Section 149(b).. Permit Finaled. 3716 N LOWELL AVE","address":"3716 Lowell Avenue, CA, Los Angeles, 90032, US","ct":"2015.01","ev":"N","apc":"East Los Angeles","cpa":"Northeast Los Angeles","zone":"R1-1","solar":"N","pin_nbr":"144A237   256","use_code":"1","geolocation":"POINT (-118.16229 34.08817)","status_date":"05/29/2019","permit_group":"Building","refresh_time":"06/10/2026","type_lat_lon":"ADDRESS","business_unit":"Express Permit"},"geometry":{"type":"Point","coordinates":[-118.16229,34.08817]}},{"type":"Feature","properties":{"date":"2019-05-13T00:00:00.000Z","year":2019,"description":"Reroof with 16 sqrs COMP SHINGLE roofing. Existing solid sheathing.Re-roof with Class A or B material weighing less than 6 pounds per sq. ft. For residential roof replacement > 50% of the total roof area, apply Cool Roof Product labeled and certified by Cool Roof Rating Council (CRRC). Cool Roof may be required for non-residential buildings per Title 24, Part 6, Section 149(b).","metadescription":"Bldg-Alter/Repair. 1 or 2 Family Dwelling. Reroof with 16 sqrs COMP SHINGLE roofing. Existing solid sheathing.Re-roof with Class A or B material weighing less than 6 pounds per sq. ft. For residential roof replacement > 50% of the total roof area, apply Cool Roof Product labeled and certified by Cool Roof Rating Council (CRRC). Cool Roof may be required for non-residential buildings per Title 24, Part 6, Section 149(b).. Permit Finaled. 3917 N LOWELL AVE","address":"3919 Lowell Avenue, CA, Los Angeles, 90032, US","ct":"2015.01","ev":"N","apc":"East Los Angeles","cpa":"Northeast Los Angeles","zone":"PF-1","solar":"N","pin_nbr":"145-5A237 293","use_code":"1","geolocation":"POINT (-118.16242 34.0909)","status_date":"05/22/2019","permit_group":"Building","refresh_time":"06/10/2026","type_lat_lon":"ADDRESS","business_unit":"Express Permit"},"geometry":{"type":"Point","coordinates":[-118.16242,34.0909]}},{"type":"Feature","properties":{"date":"2019-04-24T00:00:00.000Z","year":2019,"description":"Reroof with 16 sqrs COMP SHINGLE roofing over  new solid sheathing.Re-roof with Class A or B material weighing less than 6 pounds per sq. ft. For residential roof replacement > 50% of the total roof area, apply Cool Roof Product labeled and certified by Cool Roof Rating Council (CRRC). Cool Roof may be required for non-residential buildings per Title 24, Part 6, Section 149(b).","metadescription":"Bldg-Alter/Repair. 1 or 2 Family Dwelling. Reroof with 16 sqrs COMP SHINGLE roofing over  new solid sheathing.Re-roof with Class A or B material weighing less than 6 pounds per sq. ft. For residential roof replacement > 50% of the total roof area, apply Cool Roof Product labeled and certified by Cool Roof Rating Council (CRRC). Cool Roof may be required for non-residential buildings per Title 24, Part 6, Section 149(b).. Permit Finaled. 4209 N LOWELL AVE","address":"4209 Lowell Avenue, CA, Los Angeles, 90032, US","ct":"2011.20","ev":"N","apc":"East Los Angeles","cpa":"Northeast Los Angeles","zone":"PF-1","solar":"N","pin_nbr":"145-5A237 105","use_code":"1","geolocation":"POINT (-118.16209 34.09325)","status_date":"05/08/2019","permit_group":"Building","refresh_time":"06/10/2026","type_lat_lon":"ADDRESS","business_unit":"Express Permit"},"geometry":{"type":"Point","coordinates":[-118.16209,34.09325]}},{"type":"Feature","properties":{"date":"2019-02-14T00:00:00.000Z","year":2019,"description":"Reroof with 6 sqrs COMP SHINGLE roofing. Existing solid sheathing.Re-roof with Class A or B material weighing less than 6 pounds per sq. ft. For residential roof replacement > 50% of the total roof area, apply Cool Roof Product labeled and certified by Cool Roof Rating Council (CRRC). Cool Roof may be required for non-residential buildings per Title 24, Part 6, Section 149(b).","metadescription":"Bldg-Alter/Repair. 1 or 2 Family Dwelling. Reroof with 6 sqrs COMP SHINGLE roofing. Existing solid sheathing.Re-roof with Class A or B material weighing less than 6 pounds per sq. ft. For residential roof replacement > 50% of the total roof area, apply Cool Roof Product labeled and certified by Cool Roof Rating Council (CRRC). Cool Roof may be required for non-residential buildings per Title 24, Part 6, Section 149(b).. Permit Finaled. 3835 N STOCKBRIDGE AVE","address":"3835 Stockbridge Avenue, CA, Los Angeles, 90032, US","ct":"2015.01","ev":"N","apc":"East Los Angeles","cpa":"Northeast Los Angeles","zone":"PF-1","solar":"N","pin_nbr":"144A237    21","use_code":"1","geolocation":"POINT (-118.16257 34.09045)","status_date":"03/07/2019","permit_group":"Building","refresh_time":"06/10/2026","type_lat_lon":"ADDRESS","business_unit":"Express Permit"},"geometry":{"type":"Point","coordinates":[-118.16257,34.09045]}},{"type":"Feature","properties":{"date":"2018-11-01T00:00:00.000Z","year":2018,"description":"MODIFICATION TO AN EXISTING ROOFTOP WIRELESS SITE PER ZA-2007-5507(CUW).","metadescription":"Bldg-Alter/Repair. Commercial. MODIFICATION TO AN EXISTING ROOFTOP WIRELESS SITE PER ZA-2007-5507(CUW).. Permit Expired. 4344 N WINCHESTER AVE","address":"4340 Winchester Avenue, CA, Los Angeles, 90032, US","ct":"2011.20","ev":"N","apc":"East Los Angeles","cpa":"Northeast Los Angeles","zone":"R1-1, R3-1","solar":"N","pin_nbr":"147A239   260","use_code":"15","geolocation":"POINT (-118.16009 34.09526)","status_date":"03/09/2026","permit_group":"Building","refresh_time":"06/10/2026","type_lat_lon":"ADDRESS","business_unit":"Regular Plan Check"},"geometry":{"type":"Point","coordinates":[-118.16009,34.09526]}},{"type":"Feature","properties":{"date":"2018-02-04T00:00:00.000Z","year":2018,"description":"Reroof with 29 sqrs COMP SHINGLE roofing. Existing solid sheathing.Re-roof with Class A or B material weighing less than 6 pounds per sq. ft. For residential roof replacement > 50% of the total roof area, apply Cool Roof Product labeled and certified by Cool Roof Rating Council (CRRC). Cool Roof may be required for non-residential buildings per Title 24, Part 6, Section 149(b).","metadescription":"Bldg-Alter/Repair. 1 or 2 Family Dwelling. Reroof with 29 sqrs COMP SHINGLE roofing. Existing solid sheathing.Re-roof with Class A or B material weighing less than 6 pounds per sq. ft. For residential roof replacement > 50% of the total roof area, apply Cool Roof Product labeled and certified by Cool Roof Rating Council (CRRC). Cool Roof may be required for non-residential buildings per Title 24, Part 6, Section 149(b).. Permit Finaled. 3821 N STOCKBRIDGE AVE","address":"3821 Stockbridge Avenue, CA, Los Angeles, 90032, US","ct":"2015.01","ev":"N","apc":"East Los Angeles","cpa":"Northeast Los Angeles","zone":"RD1.5-1","solar":"N","pin_nbr":"144A237    26","use_code":"2","geolocation":"POINT (-118.163 34.09024)","status_date":"02/09/2018","permit_group":"Building","refresh_time":"06/10/2026","type_lat_lon":"ADDRESS","business_unit":"Express Permit"},"geometry":{"type":"Point","coordinates":[-118.163,34.09024]}},{"type":"Feature","properties":{"date":"2017-10-30T00:00:00.000Z","year":2017,"description":"Re-roof with Class A or B roof covering material weighing less than 6 pounds per sq. ft. over existing solid sheathing  17.5 Squares. Class A roof covering is required within Very High Fire Hazard Severity Zone (VHFHSZ). For residential roof replacement > 50% of the total roof area, apply Cool Roof Product labeled and certified by Cool Roof Rating Council (CRRC). Cool Roof may be required for non-residential buildings per Title 24, Part 6, Section 149(b).","metadescription":"Bldg-Alter/Repair. 1 or 2 Family Dwelling. Re-roof with Class A or B roof covering material weighing less than 6 pounds per sq. ft. over existing solid sheathing  17.5 Squares. Class A roof covering is required within Very High Fire Hazard Severity Zone (VHFHSZ). For residential roof replacement > 50% of the total roof area, apply Cool Roof Product labeled and certified by Cool Roof Rating Council (CRRC). Cool Roof may be required for non-residential buildings per Title 24, Part 6, Section 149(b).. Issued. 5435 E ALMONT ST","address":"5435 Almont Street, CA, Los Angeles, 90032, US","ct":"2011.20","ev":"N","apc":"East Los Angeles","cpa":"Northeast Los Angeles","zone":"R1-1","solar":"N","pin_nbr":"145-5A237  78","use_code":"1","geolocation":"POINT (-118.16277 34.09373)","status_date":"10/30/2017","permit_group":"Building","refresh_time":"06/10/2026","type_lat_lon":"ADDRESS","business_unit":"Express Permit"},"geometry":{"type":"Point","coordinates":[-118.16277,34.09373]}},{"type":"Feature","properties":{"date":"2016-11-16T00:00:00.000Z","year":2016,"description":"Re-roof with Class A or B material weighing less than 6 pound per sq. ft. over existing solid sheathing.  For residential roof replacement > 50% of the total roof area, apply Cool Roof Product labeled and certified by Cool Roof Rating Council (CRRC).  Cool Roof may be required for non-residential buildings per Title 24, Part 6, Section 149 (b).","metadescription":"Bldg-Alter/Repair. 1 or 2 Family Dwelling. Re-roof with Class A or B material weighing less than 6 pound per sq. ft. over existing solid sheathing.  For residential roof replacement > 50% of the total roof area, apply Cool Roof Product labeled and certified by Cool Roof Rating Council (CRRC).  Cool Roof may be required for non-residential buildings per Title 24, Part 6, Section 149 (b).. Permit Expired. 5418 E POPLAR BLVD","address":"5414 Poplar Boulevard, CA, Los Angeles, 90032, US","ct":"2015.01","ev":"N","apc":"East Los Angeles","cpa":"Northeast Los Angeles","zone":"R1-1","solar":"N","pin_nbr":"144A237   179","use_code":"1","geolocation":"POINT (-118.16276 34.0891)","status_date":"07/11/2025","permit_group":"Building","refresh_time":"06/10/2026","type_lat_lon":"ADDRESS","business_unit":"Express Permit"},"geometry":{"type":"Point","coordinates":[-118.16276,34.0891]}},{"type":"Feature","properties":{"date":"2016-10-18T00:00:00.000Z","year":2016,"description":"Reroof with 13 sqrs COMP SHINGLE roofing. Existing solid sheathing.Re-roof with Class A or B material weighing less than 6 pounds per sq. ft. For residential roof replacement > 50% of the total roof area, apply Cool Roof Product labeled and certified by Cool Roof Rating Council (CRRC). Cool Roof may be required for non-residential buildings per Title 24, Part 6, Section 149(b). Replace 1 window(s). Same size, location, number, type. Interior bathroom remodel/repair (no changes in walls or openings).","metadescription":"Bldg-Alter/Repair. 1 or 2 Family Dwelling. Reroof with 13 sqrs COMP SHINGLE roofing. Existing solid sheathing.Re-roof with Class A or B material weighing less than 6 pounds per sq. ft. For residential roof replacement > 50% of the total roof area, apply Cool Roof Product labeled and certified by Cool Roof Rating Council (CRRC). Cool Roof may be required for non-residential buildings per Title 24, Part 6, Section 149(b). Replace 1 window(s). Same size, location, number, type. Interior bathroom remodel/repair (no changes in walls or openings).. Permit Finaled. 3721 N LOWELL AVE","address":"3717 Lowell Avenue, CA, Los Angeles, 90032, US","ct":"2015.01","ev":"N","apc":"East Los Angeles","cpa":"Northeast Los Angeles","zone":"R1-1","solar":"N","pin_nbr":"144A237   249","use_code":"1","geolocation":"POINT (-118.16255 34.08829)","status_date":"11/15/2016","permit_group":"Building","refresh_time":"06/10/2026","type_lat_lon":"ADDRESS","business_unit":"Express Permit"},"geometry":{"type":"Point","coordinates":[-118.16255,34.08829]}},{"type":"Feature","properties":{"date":"2016-07-06T00:00:00.000Z","year":2016,"description":"Remove existing roof tiles  (18 sqs), apply new underlayment and reset roof tiles.  Cool roof compliance is not required. Re-roof  (13 sqs) with Class A or B material weighing less than 6 pound per sq. ft. over existing solid sheathing.For residential roof replacement > 50% of the total roof area, apply Cool Roof Product labeled and certified by Cool Roof Rating Council (CRRC).   Cool Roof may be required for non-residential buildings per Title 24, Part 6, Section 149(b).","metadescription":"Bldg-Alter/Repair. 1 or 2 Family Dwelling. Remove existing roof tiles  (18 sqs), apply new underlayment and reset roof tiles.  Cool roof compliance is not required. Re-roof  (13 sqs) with Class A or B material weighing less than 6 pound per sq. ft. over existing solid sheathing.For residential roof replacement > 50% of the total roof area, apply Cool Roof Product labeled and certified by Cool Roof Rating Council (CRRC).   Cool Roof may be required for non-residential buildings per Title 24, Part 6, Section 149(b).. Issued. 5555 E POPLAR BLVD","address":"5555 Poplar Boulevard, CA, Los Angeles, 90032, US","ct":"2015.01","ev":"N","apc":"East Los Angeles","cpa":"Northeast Los Angeles","zone":"PF-1","solar":"N","pin_nbr":"144A239    53","use_code":"1","geolocation":"POINT (-118.16066 34.08903)","status_date":"07/06/2016","permit_group":"Building","refresh_time":"06/10/2026","type_lat_lon":"ADDRESS","business_unit":"Express Permit"},"geometry":{"type":"Point","coordinates":[-118.16066,34.08903]}},{"type":"Feature","properties":{"date":"2015-11-02T00:00:00.000Z","year":2015,"description":"Re-roof with Class A or B material weighing less than 6 pound per sq. ft.  For residential roof replacement > 50% of the total roof area, apply Cool Roof Product labeled and certified by Cool Roof Rating Council (CRRC).  Cool Roof may be required for non-residential buildings per Title 24, Part 6, Section 149 (b). Not including plywood","metadescription":"Bldg-Alter/Repair. Apartment. Re-roof with Class A or B material weighing less than 6 pound per sq. ft.  For residential roof replacement > 50% of the total roof area, apply Cool Roof Product labeled and certified by Cool Roof Rating Council (CRRC).  Cool Roof may be required for non-residential buildings per Title 24, Part 6, Section 149 (b). Not including plywood. Permit Finaled. 4210-4224 N LOWELL AVE","address":"4210 Lowell Avenue, CA, Los Angeles, 90032, US","ct":"2011.20","ev":"N","apc":"East Los Angeles","cpa":"Northeast Los Angeles","zone":"PF-1","solar":"N","pin_nbr":"145-5A237  76","use_code":"5","geolocation":"POINT (-118.16192 34.09341)","status_date":"12/01/2015","permit_group":"Building","refresh_time":"06/10/2026","type_lat_lon":"ADDRESS","business_unit":"Express Permit"},"geometry":{"type":"Point","coordinates":[-118.16192,34.09341]}},{"type":"Feature","properties":{"date":"2015-10-27T00:00:00.000Z","year":2015,"description":"Remove the (E) roof, install torch down.  Re-roof with Class A or B material ( Squares) weighing less than 6 pounds per sq. ft. Reroofing partial, Squares) of a residential building more than 50% of the total roof area shall comply with Cool Roof Product labeled and certified by Cool Roofing Council (CCRC).","metadescription":"Bldg-Alter/Repair. 1 or 2 Family Dwelling. Remove the (E) roof, install torch down.  Re-roof with Class A or B material ( Squares) weighing less than 6 pounds per sq. ft. Reroofing partial, Squares) of a residential building more than 50% of the total roof area shall comply with Cool Roof Product labeled and certified by Cool Roofing Council (CCRC).. Permit Finaled. 3835 N STOCKBRIDGE AVE","address":"3835 Stockbridge Avenue, CA, Los Angeles, 90032, US","ct":"2015.01","ev":"N","apc":"East Los Angeles","cpa":"Northeast Los Angeles","zone":"PF-1","solar":"N","pin_nbr":"144A237    21","use_code":"1","geolocation":"POINT (-118.16257 34.09045)","status_date":"11/12/2015","permit_group":"Building","refresh_time":"06/10/2026","type_lat_lon":"ADDRESS","business_unit":"Express Permit"},"geometry":{"type":"Point","coordinates":[-118.16257,34.09045]}},{"type":"Feature","properties":{"date":"2015-09-18T00:00:00.000Z","year":2015,"description":"Re-roof with Class A or B material weighing less than 6 pound per sq. ft.  For residential roof replacement > 50% of the total roof area, apply Cool Roof Product labeled and certified by Cool Roof Rating Council (CRRC).  Cool Roof may be required for non-residential buildings per Title 24, Part 6, Section 149 (b).","metadescription":"Bldg-Alter/Repair. 1 or 2 Family Dwelling. Re-roof with Class A or B material weighing less than 6 pound per sq. ft.  For residential roof replacement > 50% of the total roof area, apply Cool Roof Product labeled and certified by Cool Roof Rating Council (CRRC).  Cool Roof may be required for non-residential buildings per Title 24, Part 6, Section 149 (b).. Issued. 3715 N WINCHESTER AVE","address":"3715 Winchester Avenue, CA, Los Angeles, 90032, US","ct":"2015.01","ev":"N","apc":"East Los Angeles","cpa":"Northeast Los Angeles","zone":"PF-1","solar":"N","pin_nbr":"144A239    82","use_code":"1","geolocation":"POINT (-118.16061 34.08815)","status_date":"09/18/2015","permit_group":"Building","refresh_time":"06/10/2026","type_lat_lon":"ADDRESS","business_unit":"Express Permit"},"geometry":{"type":"Point","coordinates":[-118.16061,34.08815]}},{"type":"Feature","properties":{"date":"2015-07-06T00:00:00.000Z","year":2015,"description":"Supplemental permit to (ref. permit no. 15016-10000-01736) revise architectural plans, foundation plan and roof framing plan per stamped plans.","metadescription":"Bldg-Alter/Repair. 1 or 2 Family Dwelling. Supplemental permit to (ref. permit no. 15016-10000-01736) revise architectural plans, foundation plan and roof framing plan per stamped plans.. Permit Finaled. 3712 N LOWELL AVE","address":"3712 Lowell Avenue, CA, Los Angeles, 90032, US","ct":"2015.01","ev":"N","apc":"East Los Angeles","cpa":"Northeast Los Angeles","zone":"R1-1","solar":"N","pin_nbr":"144A237   274","use_code":"1","geolocation":"POINT (-118.1623 34.08804)","status_date":"06/16/2016","permit_group":"Building","refresh_time":"06/10/2026","type_lat_lon":"ADDRESS","business_unit":"Plan Check at Counter"},"geometry":{"type":"Point","coordinates":[-118.1623,34.08804]}},{"type":"Feature","properties":{"date":"2015-02-25T00:00:00.000Z","year":2015,"description":"MECHANICAL EQUIPMENT PAD ON ROOF.","metadescription":"Bldg-Alter/Repair. Commercial. MECHANICAL EQUIPMENT PAD ON ROOF.. Permit Finaled. 5581 E HUNTINGTON DR","address":"5581 Huntington Drive, CA, Los Angeles, 90032, US","ct":"2011.20","ev":"N","apc":"East Los Angeles","cpa":"Northeast Los Angeles","zone":"[Q]C2-1VL","solar":"N","pin_nbr":"147A239   271","use_code":"17","geolocation":"POINT (-118.15868 34.09518)","status_date":"03/18/2015","permit_group":"Building","refresh_time":"06/10/2026","type_lat_lon":"ADDRESS","business_unit":"Plan Check at Counter"},"geometry":{"type":"Point","coordinates":[-118.15868,34.09518]}},{"type":"Feature","properties":{"date":"2015-01-09T00:00:00.000Z","year":2015,"description":"SUPPLEMENTAL PERMIT FOR PERMIT# 14016-20000-21729 TO ADD Re-roof with Class A or B material weighing less than 6 pound per sq. ft. AND SHINGLES","metadescription":"Bldg-Alter/Repair. Apartment. SUPPLEMENTAL PERMIT FOR PERMIT# 14016-20000-21729 TO ADD Re-roof with Class A or B material weighing less than 6 pound per sq. ft. AND SHINGLES. Permit Finaled. 5427 E HUNTINGTON DR NORTH","address":"5427 Huntington Drive, CA, Los Angeles, 90032, US","ct":"2011.20","ev":"N","apc":"East Los Angeles","cpa":"Northeast Los Angeles","zone":"PF-1","solar":"N","pin_nbr":"145-5A237 121","use_code":"1","geolocation":"POINT (-118.16228 34.09286)","status_date":"02/25/2015","permit_group":"Building","refresh_time":"06/10/2026","type_lat_lon":"ADDRESS","business_unit":"Express Permit"},"geometry":{"type":"Point","coordinates":[-118.16228,34.09286]}},{"type":"Feature","properties":{"date":"2015-01-08T00:00:00.000Z","year":2015,"description":"FIRE DAMAGE REPAIR @ ROOF/ WALLS OF APT","metadescription":"Bldg-Alter/Repair. Apartment. FIRE DAMAGE REPAIR @ ROOF/ WALLS OF APT. Permit Finaled. 5427 E HUNTINGTON DR NORTH","address":"5427 Huntington Drive, CA, Los Angeles, 90032, US","ct":"2011.20","ev":"N","apc":"East Los Angeles","cpa":"Northeast Los Angeles","zone":"PF-1","solar":"N","pin_nbr":"145-5A237 121","use_code":"5","geolocation":"POINT (-118.16228 34.09286)","status_date":"03/24/2015","permit_group":"Building","refresh_time":"06/10/2026","type_lat_lon":"ADDRESS","business_unit":"Regular Plan Check"},"geometry":{"type":"Point","coordinates":[-118.16228,34.09286]}},{"type":"Feature","properties":{"date":"2012-11-13T00:00:00.000Z","year":2012,"description":"Re-roof with Class A or B material weighing less than 6 pound per sq. ft.","metadescription":"Bldg-Alter/Repair. 1 or 2 Family Dwelling. Re-roof with Class A or B material weighing less than 6 pound per sq. ft.. Permit Finaled. 4312 N WINCHESTER AVE","address":"4306 Winchester Avenue, CA, Los Angeles, 90032, US","ct":"2011.20","ev":"N","apc":"East Los Angeles","cpa":"Northeast Los Angeles","zone":"[Q]C2-1VL","solar":"N","pin_nbr":"145-5A239  40","use_code":"1","geolocation":"POINT (-118.16013 34.09439)","status_date":"11/16/2012","permit_group":"Building","refresh_time":"06/10/2026","type_lat_lon":"ADDRESS","business_unit":"Express Permit"},"geometry":{"type":"Point","coordinates":[-118.16013,34.09439]}},{"type":"Feature","properties":{"date":"2012-06-18T00:00:00.000Z","year":2012,"description":"Reroof with 34 sqrs BUILT UP roofing. Existing solid sheathing.","metadescription":"Bldg-Alter/Repair. 1 or 2 Family Dwelling. Reroof with 34 sqrs BUILT UP roofing. Existing solid sheathing.. Permit Finaled. 5545 E POPLAR BLVD","address":"5545 Poplar Boulevard, CA, Los Angeles, 90032, US","ct":"2015.01","ev":"N","apc":"East Los Angeles","cpa":"Northeast Los Angeles","zone":"PF-1","solar":"N","pin_nbr":"144A239    55","use_code":"1","geolocation":"POINT (-118.16096 34.08903)","status_date":"07/05/2012","permit_group":"Building","refresh_time":"06/10/2026","type_lat_lon":"ADDRESS","business_unit":"Express Permit"},"geometry":{"type":"Point","coordinates":[-118.16096,34.08903]}},{"type":"Feature","properties":{"date":"2012-06-06T00:00:00.000Z","year":2012,"description":"SUPPLEMENTAL PERMIT TO 12016-90000-09815 TO CORRECT THE NUMBER OF SQS TO BE REROOFED FROM 36 SQS TO 3.6 SQS. Termite damage/ dry rot repair less than 10% of replacement cost of building at detached garage.","metadescription":"Bldg-Alter/Repair. 1 or 2 Family Dwelling. SUPPLEMENTAL PERMIT TO 12016-90000-09815 TO CORRECT THE NUMBER OF SQS TO BE REROOFED FROM 36 SQS TO 3.6 SQS. Termite damage/ dry rot repair less than 10% of replacement cost of building at detached garage.. Permit Finaled. 4306 N MAYCREST AVE","address":"4306 Maycrest Avenue, CA, Los Angeles, 90032, US","ct":"2011.20","ev":"N","apc":"East Los Angeles","cpa":"Northeast Los Angeles","zone":"R1-1","solar":"N","pin_nbr":"145-5A239  46","use_code":"1","geolocation":"POINT (-118.16114 34.09443)","status_date":"06/08/2012","permit_group":"Building","refresh_time":"06/10/2026","type_lat_lon":"ADDRESS","business_unit":"Express Permit"},"geometry":{"type":"Point","coordinates":[-118.16114,34.09443]}},{"type":"Feature","properties":{"date":"2012-05-18T00:00:00.000Z","year":2012,"description":"Reroof with 36 sqrs COMP SHINGLE roofing. Existing solid sheathing.  Replace 1 door(s). Same size, location, number, type.  Interior kitchen remodel/repair (no changes in walls or openings).  Interior bathroom remodel/repair (no changes in walls or openings).","metadescription":"Bldg-Alter/Repair. 1 or 2 Family Dwelling. Reroof with 36 sqrs COMP SHINGLE roofing. Existing solid sheathing.  Replace 1 door(s). Same size, location, number, type.  Interior kitchen remodel/repair (no changes in walls or openings).  Interior bathroom remodel/repair (no changes in walls or openings).. Permit Finaled. 4306 N MAYCREST AVE","address":"4306 Maycrest Avenue, CA, Los Angeles, 90032, US","ct":"2011.20","ev":"N","apc":"East Los Angeles","cpa":"Northeast Los Angeles","zone":"R1-1","solar":"N","pin_nbr":"145-5A239  46","use_code":"1","geolocation":"POINT (-118.16114 34.09443)","status_date":"06/22/2012","permit_group":"Building","refresh_time":"06/10/2026","type_lat_lon":"ADDRESS","business_unit":"Express Permit"},"geometry":{"type":"Point","coordinates":[-118.16114,34.09443]}},{"type":"Feature","properties":{"date":"2011-12-07T00:00:00.000Z","year":2011,"description":"Reroof with 13 sqrs BUILT UP roofing. Existing solid sheathing.","metadescription":"Bldg-Alter/Repair. 1 or 2 Family Dwelling. Reroof with 13 sqrs BUILT UP roofing. Existing solid sheathing.. Permit Finaled. 5451 E HUNTINGTON DR","address":"5451 Huntington Drive, CA, Los Angeles, 90032, US","ct":"2011.20","ev":"N","apc":"East Los Angeles","cpa":"Northeast Los Angeles","zone":"PF-1","solar":"N","pin_nbr":"145-5A237 101","use_code":"1","geolocation":"POINT (-118.16176944 34.09327682)","status_date":"12/14/2011","permit_group":"Building","refresh_time":"06/10/2026","type_lat_lon":"PIN","business_unit":"Express Permit"},"geometry":{"type":"Point","coordinates":[-118.16176944,34.09327682]}},{"type":"Feature","properties":{"date":"2011-08-04T00:00:00.000Z","year":2011,"description":"Reroof with 17 sqrs BUILT UP roofing. Existing solid sheathing.  Sandblast/restucco over existing stucco to remain. Area = 1280 sqft.","metadescription":"Bldg-Alter/Repair. 1 or 2 Family Dwelling. Reroof with 17 sqrs BUILT UP roofing. Existing solid sheathing.  Sandblast/restucco over existing stucco to remain. Area = 1280 sqft.. Permit Finaled. 5551 E POPLAR BLVD","address":"5551 Poplar Boulevard, CA, Los Angeles, 90032, US","ev":"N","apc":"East Los Angeles","cpa":"Northeast Los Angeles","zone":"PF-1","solar":"N","pin_nbr":"144A239    54","use_code":"1","geolocation":"POINT (-118.16081 34.08903)","status_date":"11/22/2011","permit_group":"Building","refresh_time":"06/10/2026","type_lat_lon":"ADDRESS","business_unit":"Express Permit"},"geometry":{"type":"Point","coordinates":[-118.16081,34.08903]}},{"type":"Feature","properties":{"date":"2011-05-19T00:00:00.000Z","year":2011,"description":"Re-roof with Class A or B material weighing less than 6 pound per sq. ft. at detached garage.","metadescription":"Bldg-Alter/Repair. 1 or 2 Family Dwelling. Re-roof with Class A or B material weighing less than 6 pound per sq. ft. at detached garage.. Permit Finaled. 4227 N MAYCREST AVE","address":"4227 Maycrest Avenue, CA, Los Angeles, 90032, US","ct":"2011.20","ev":"N","apc":"East Los Angeles","cpa":"Northeast Los Angeles","zone":"PF-1","solar":"N","pin_nbr":"145-5A237  63","use_code":"7","geolocation":"POINT (-118.16145 34.09402)","status_date":"05/20/2011","permit_group":"Building","refresh_time":"06/10/2026","type_lat_lon":"ADDRESS","business_unit":"Express Permit"},"geometry":{"type":"Point","coordinates":[-118.16145,34.09402]}},{"type":"Feature","properties":{"date":"2011-04-06T00:00:00.000Z","year":2011,"description":"Reroof with 3 sqrs BUILT UP roofing over new solid sheathing.  Replace 1 window(s). Same size, location, number, type.  Sandblast/restucco over existing stucco to remain. Area = 152 sqft.  Replace damaged wood framing (less than 10%). Same size/spacing/type.","metadescription":"Bldg-Alter/Repair. 1 or 2 Family Dwelling. Reroof with 3 sqrs BUILT UP roofing over new solid sheathing.  Replace 1 window(s). Same size, location, number, type.  Sandblast/restucco over existing stucco to remain. Area = 152 sqft.  Replace damaged wood framing (less than 10%). Same size/spacing/type.. Permit Finaled. 5551 E POPLAR BLVD","address":"5551 Poplar Boulevard, CA, Los Angeles, 90032, US","ev":"N","hl":"YES","apc":"East Los Angeles","cpa":"Northeast Los Angeles","zone":"PF-1","solar":"N","pin_nbr":"144A239    54","use_code":"7","geolocation":"POINT (-118.16081 34.08903)","status_date":"07/07/2011","permit_group":"Building","refresh_time":"06/10/2026","type_lat_lon":"ADDRESS","business_unit":"Express Permit"},"geometry":{"type":"Point","coordinates":[-118.16081,34.08903]}},{"type":"Feature","properties":{"date":"2010-12-14T00:00:00.000Z","year":2010,"description":"Re-roof with Class A or B material weighing less than 6 pound per sq. ft.  Smoke detectors required.","metadescription":"Bldg-Alter/Repair. 1 or 2 Family Dwelling. Re-roof with Class A or B material weighing less than 6 pound per sq. ft.  Smoke detectors required.. Permit Finaled. 4206 N LOWELL AVE","address":"4206 Lowell Avenue, CA, Los Angeles, 90032, US","ct":"2011.20","ev":"N","hl":"YES","apc":"East Los Angeles","cpa":"Northeast Los Angeles","zone":"PF-1","solar":"N","pin_nbr":"145-5A237 101","use_code":"1","geolocation":"POINT (-118.16186 34.09334)","status_date":"01/21/2011","permit_group":"Building","refresh_time":"06/10/2026","type_lat_lon":"ADDRESS","business_unit":"Express Permit"},"geometry":{"type":"Point","coordinates":[-118.16186,34.09334]}},{"type":"Feature","properties":{"date":"2009-06-29T00:00:00.000Z","year":2009,"description":"WIRELESS TELECOM  12 ANTENNAS TOTAL ( THREE SECTORS WITH FOUR ANTENNAS PER SECTOR ) ON EXISTING APARTMENT BUILDING ROOF TOP    PER  ZA 2007-5507 (CUW)","metadescription":"Bldg-Alter/Repair. Commercial. WIRELESS TELECOM  12 ANTENNAS TOTAL ( THREE SECTORS WITH FOUR ANTENNAS PER SECTOR ) ON EXISTING APARTMENT BUILDING ROOF TOP    PER  ZA 2007-5507 (CUW). Permit Closed. 4344 N WINCHESTER AVE","address":"4340 Winchester Avenue, CA, Los Angeles, 90032, US","ct":"2011.20","ev":"N","hl":"YES","apc":"East Los Angeles","cpa":"Northeast Los Angeles","zone":"R1-1, R3-1","solar":"N","pin_nbr":"147A239   260","use_code":"5","geolocation":"POINT (-118.16009 34.09526)","status_date":"01/27/2022","permit_group":"Building","refresh_time":"06/10/2026","type_lat_lon":"ADDRESS","business_unit":"Regular Plan Check"},"geometry":{"type":"Point","coordinates":[-118.16009,34.09526]}},{"type":"Feature","properties":{"date":"2008-11-13T00:00:00.000Z","year":2008,"description":"Re-roof with Class A or B material weighing less than 6 pound per sq. ft. (BUILT-UP)","metadescription":"Bldg-Alter/Repair. Apartment. Re-roof with Class A or B material weighing less than 6 pound per sq. ft. (BUILT-UP). Permit Finaled. 3900 N STOCKBRIDGE AVE 1-5","address":"1-5, 3900 Stockbridge Avenue, CA, Los Angeles, 90032, US","ct":"2015.01","ev":"N","hl":"YES","apc":"East Los Angeles","cpa":"Northeast Los Angeles","zone":"RD1.5-1","solar":"N","pin_nbr":"144A237    75","use_code":"5","geolocation":"POINT (-118.16225 34.09021)","status_date":"11/25/2008","permit_group":"Building","refresh_time":"06/10/2026","type_lat_lon":"ADDRESS","business_unit":"Express Permit"},"geometry":{"type":"Point","coordinates":[-118.16225,34.09021]}},{"type":"Feature","properties":{"date":"2007-10-02T00:00:00.000Z","year":2007,"description":"TEAR OFF EXISTING ROOF AND INSTALL 30YR COMP SHINGLES ONLY.","metadescription":"Bldg-Alter/Repair. 1 or 2 Family Dwelling. TEAR OFF EXISTING ROOF AND INSTALL 30YR COMP SHINGLES ONLY.. Permit Finaled. 3720 N LOWELL AVE","address":"3720 Lowell Avenue, CA, Los Angeles, 90032, US","ct":"2015.01","ev":"N","hl":"YES","apc":"East Los Angeles","cpa":"Northeast Los Angeles","zone":"R1-1","solar":"N","pin_nbr":"144A237   248","use_code":"1","geolocation":"POINT (-118.16229 34.08828)","status_date":"10/09/2007","permit_group":"Building","refresh_time":"06/10/2026","type_lat_lon":"ADDRESS","business_unit":"Express Permit"},"geometry":{"type":"Point","coordinates":[-118.16229,34.08828]}},{"type":"Feature","properties":{"date":"2007-10-01T00:00:00.000Z","year":2007,"description":"REROOF WITH BUILT UP ROOFING MATERIALS.  (CLASS \"A\")  REPLACE PLYWOOD AS NEEDED.   \"Cool Roof\" may be required per Title 24, Part 6, Section 149(b), labeled and certified by CRRC per Section 10-111.","metadescription":"Bldg-Alter/Repair. Apartment. REROOF WITH BUILT UP ROOFING MATERIALS.  (CLASS \"A\")  REPLACE PLYWOOD AS NEEDED.   \"Cool Roof\" may be required per Title 24, Part 6, Section 149(b), labeled and certified by CRRC per Section 10-111.. Permit Finaled. 5361 E HUNTINGTON DR NORTH 1-8","address":"1-8, 5361 Huntington Drive, CA, Los Angeles, 90032, US","ct":"2011.20","ev":"N","hl":"YES","apc":"East Los Angeles","cpa":"Northeast Los Angeles","zone":"RD1.5-1","solar":"N","pin_nbr":"145-5A237 198","use_code":"5","geolocation":"POINT (-118.16389 34.09178)","status_date":"10/11/2007","permit_group":"Building","refresh_time":"06/10/2026","type_lat_lon":"ADDRESS","business_unit":"Express Permit"},"geometry":{"type":"Point","coordinates":[-118.16389,34.09178]}},{"type":"Feature","properties":{"date":"2007-05-29T00:00:00.000Z","year":2007,"description":"SUPPLEMENTAL TO PERMIT 07016-70000-07660 TO CORRECT WORK DESCRIPTION FROM PLYWOOD INSTALLATION ON ROOF AND 10% DRYWALL REPAIR, TO REMOVAL OF ALL DRYWALL AND NO INSTALLATION OF PLYWOOD ON ROOF.  TO ALSO INCLUDE REPLACEMENT OF (3) WINDOWS. SEE APP COMMENTS.","metadescription":"Bldg-Alter/Repair. 1 or 2 Family Dwelling. SUPPLEMENTAL TO PERMIT 07016-70000-07660 TO CORRECT WORK DESCRIPTION FROM PLYWOOD INSTALLATION ON ROOF AND 10% DRYWALL REPAIR, TO REMOVAL OF ALL DRYWALL AND NO INSTALLATION OF PLYWOOD ON ROOF.  TO ALSO INCLUDE REPLACEMENT OF (3) WINDOWS. SEE APP COMMENTS.. Permit Finaled. 5478 E NEWTONIA DR","address":"5478 Newtonia Drive, CA, Los Angeles, 90032, US","ct":"2011.20","ev":"N","hl":"YES","apc":"East Los Angeles","cpa":"Northeast Los Angeles","zone":"R1-1","solar":"N","pin_nbr":"147A239   237","use_code":"2","geolocation":"POINT (-118.16019 34.09604)","status_date":"07/18/2007","permit_group":"Building","refresh_time":"06/10/2026","type_lat_lon":"ADDRESS","business_unit":"Express Permit"},"geometry":{"type":"Point","coordinates":[-118.16019,34.09604]}},{"type":"Feature","properties":{"date":"2007-04-26T00:00:00.000Z","year":2007,"description":"DRYWALL DAMAGE REPAIR (less than 10%).  REROOF: TEAR OFF EXISTNG ROOF AND INSTALL PLYWOOD AND 30YR SHINGLES.  RELATED PLUMING AND ELECTRICAL.","metadescription":"Bldg-Alter/Repair. 1 or 2 Family Dwelling. DRYWALL DAMAGE REPAIR (less than 10%).  REROOF: TEAR OFF EXISTNG ROOF AND INSTALL PLYWOOD AND 30YR SHINGLES.  RELATED PLUMING AND ELECTRICAL.. Permit Finaled. 5478 E NEWTONIA DR","address":"5478 Newtonia Drive, CA, Los Angeles, 90032, US","ct":"2011.20","ev":"N","hl":"YES","apc":"East Los Angeles","cpa":"Northeast Los Angeles","zone":"R1-1","solar":"N","pin_nbr":"147A239   237","use_code":"2","geolocation":"POINT (-118.16019 34.09604)","status_date":"07/18/2007","permit_group":"Building","refresh_time":"06/10/2026","type_lat_lon":"ADDRESS","business_unit":"Express Permit"},"geometry":{"type":"Point","coordinates":[-118.16019,34.09604]}},{"type":"Feature","properties":{"date":"2006-08-07T00:00:00.000Z","year":2006,"description":"PARTIAL ROOF REPAIR USING ASPHAULT SHINGLES.","metadescription":"Bldg-Alter/Repair. 1 or 2 Family Dwelling. PARTIAL ROOF REPAIR USING ASPHAULT SHINGLES.. Permit Finaled. 5428 E HUNTINGTON DR SOUTH","address":"5428 Huntington Drive, CA, Los Angeles, 90032, US","ct":"2015.01","ev":"N","hl":"YES","apc":"East Los Angeles","cpa":"Northeast Los Angeles","zone":"RD1.5-1VL","solar":"N","pin_nbr":"145-5A237 239","use_code":"2","geolocation":"POINT (-118.16269 34.09162)","status_date":"12/27/2007","permit_group":"Building","refresh_time":"06/10/2026","type_lat_lon":"ADDRESS","business_unit":"Express Permit"},"geometry":{"type":"Point","coordinates":[-118.16269,34.09162]}},{"type":"Feature","properties":{"date":"2006-07-19T00:00:00.000Z","year":2006,"description":"Reroof with 16 sqrs BUILT UP roofing. Existing solid sheathing.","metadescription":"Bldg-Alter/Repair. 1 or 2 Family Dwelling. Reroof with 16 sqrs BUILT UP roofing. Existing solid sheathing.. Permit Finaled. 3539 N WINCHESTER AVE","address":"3539 Winchester Avenue, CA, Los Angeles, 90032, US","ev":"N","hl":"YES","apc":"East Los Angeles","cpa":"Northeast Los Angeles","zone":"PF-1","solar":"N","pin_nbr":"144A239   104","use_code":"1","geolocation":"POINT (-118.16061 34.08746)","status_date":"07/26/2006","permit_group":"Building","refresh_time":"06/10/2026","type_lat_lon":"ADDRESS","business_unit":"Express Permit"},"geometry":{"type":"Point","coordinates":[-118.16061,34.08746]}},{"type":"Feature","properties":{"date":"2006-07-14T00:00:00.000Z","year":2006,"description":"reroof  front  house  2200 sq  feet ( plywood  and   class  \"a\" shingles )   add  200 amp  service .","metadescription":"Bldg-Alter/Repair. 1 or 2 Family Dwelling. reroof  front  house  2200 sq  feet ( plywood  and   class  \"a\" shingles )   add  200 amp  service .. Permit Expired. 5412 E ALMONT ST","address":"5412 Almont Street, CA, Los Angeles, 90032, US","ct":"2011.20","ev":"N","hl":"YES","apc":"East Los Angeles","cpa":"Northeast Los Angeles","zone":"RD1.5-1","solar":"N","pin_nbr":"145-5A237 109","use_code":"1","geolocation":"POINT (-118.16313 34.0932)","status_date":"12/29/2008","permit_group":"Building","refresh_time":"06/10/2026","type_lat_lon":"ADDRESS","business_unit":"Plan Check at Counter"},"geometry":{"type":"Point","coordinates":[-118.16313,34.0932]}},{"type":"Feature","properties":{"date":"2005-10-11T00:00:00.000Z","year":2005,"description":"T/O (E) ROOF, APPLY 1/2\" CDX PLYWOOD, INSTALL 30 YEAR COMPOSITION SHINGLES CLASS \"A\" 8SQS.  SMOKE DETECTORS REQUIRED.","metadescription":"Bldg-Alter/Repair. 1 or 2 Family Dwelling. T/O (E) ROOF, APPLY 1/2\" CDX PLYWOOD, INSTALL 30 YEAR COMPOSITION SHINGLES CLASS \"A\" 8SQS.  SMOKE DETECTORS REQUIRED.. Permit Finaled. 3931 N LOWELL AVE","address":"3931 Lowell Avenue, CA, Los Angeles, 90032, US","ct":"2015.01","ev":"N","hl":"YES","apc":"East Los Angeles","cpa":"Northeast Los Angeles","zone":"PF-1","solar":"N","pin_nbr":"145-5A237 251","use_code":"1","geolocation":"POINT (-118.16209 34.09124)","status_date":"02/14/2008","permit_group":"Building","refresh_time":"06/10/2026","type_lat_lon":"ADDRESS","business_unit":"Express Permit"},"geometry":{"type":"Point","coordinates":[-118.16209,34.09124]}},{"type":"Feature","properties":{"date":"2005-10-11T00:00:00.000Z","year":2005,"description":"T/O (E) ROOF, APPLY 1/2\" CDX PLYWOOD, INSTALL 30 YEAR COMPOSITION SHINGLES CLASS \"A\" 8SQS.  SMOKE DETECTORS REQUIRED.","metadescription":"Bldg-Alter/Repair. 1 or 2 Family Dwelling. T/O (E) ROOF, APPLY 1/2\" CDX PLYWOOD, INSTALL 30 YEAR COMPOSITION SHINGLES CLASS \"A\" 8SQS.  SMOKE DETECTORS REQUIRED.. Permit Finaled. 3933 N LOWELL AVE","address":"3933 Lowell Avenue, CA, Los Angeles, 90032, US","ct":"2015.01","ev":"N","hl":"YES","apc":"East Los Angeles","cpa":"Northeast Los Angeles","zone":"PF-1","solar":"N","pin_nbr":"145-5A237 251","use_code":"1","geolocation":"POINT (-118.16206 34.09125)","status_date":"02/14/2008","permit_group":"Building","refresh_time":"06/10/2026","type_lat_lon":"ADDRESS","business_unit":"Express Permit"},"geometry":{"type":"Point","coordinates":[-118.16206,34.09125]}},{"type":"Feature","properties":{"date":"2005-10-11T00:00:00.000Z","year":2005,"description":"T/O (E) ROOF, APPLY 1/2\" CDX PLYWOOD, INSTALL 30 YEAR COMPOSITION SHINGLES CLASS \"A\" 13SQS.  SMOKE DETECTORS REQUIRED.","metadescription":"Bldg-Alter/Repair. 1 or 2 Family Dwelling. T/O (E) ROOF, APPLY 1/2\" CDX PLYWOOD, INSTALL 30 YEAR COMPOSITION SHINGLES CLASS \"A\" 13SQS.  SMOKE DETECTORS REQUIRED.. Permit Finaled. 3929 N LOWELL AVE","address":"3929 Lowell Avenue, CA, Los Angeles, 90032, US","ct":"2015.01","ev":"N","hl":"YES","apc":"East Los Angeles","cpa":"Northeast Los Angeles","zone":"PF-1","solar":"N","pin_nbr":"145-5A237 251","use_code":"1","geolocation":"POINT (-118.16215 34.09121)","status_date":"02/14/2008","permit_group":"Building","refresh_time":"06/10/2026","type_lat_lon":"ADDRESS","business_unit":"Express Permit"},"geometry":{"type":"Point","coordinates":[-118.16215,34.09121]}},{"type":"Feature","properties":{"date":"2005-10-11T00:00:00.000Z","year":2005,"description":"T/O (E) ROOF, APPLY 1/2\" CDX PLYWOOD, INSTALL 30 YEAR COMPOSITION SHINGLES CLASS \"A\" 8SQS.  SMOKE DETECTORS REQUIRED.","metadescription":"Bldg-Alter/Repair. 1 or 2 Family Dwelling. T/O (E) ROOF, APPLY 1/2\" CDX PLYWOOD, INSTALL 30 YEAR COMPOSITION SHINGLES CLASS \"A\" 8SQS.  SMOKE DETECTORS REQUIRED.. Permit Finaled. 3927 N LOWELL AVE","address":"3927 Lowell Avenue, CA, Los Angeles, 90032, US","ct":"2015.01","ev":"N","hl":"YES","apc":"East Los Angeles","cpa":"Northeast Los Angeles","zone":"PF-1","solar":"N","pin_nbr":"145-5A237 251","use_code":"1","geolocation":"POINT (-118.16218 34.0912)","status_date":"02/15/2008","permit_group":"Building","refresh_time":"06/10/2026","type_lat_lon":"ADDRESS","business_unit":"Express Permit"},"geometry":{"type":"Point","coordinates":[-118.16218,34.0912]}},{"type":"Feature","properties":{"date":"2005-10-11T00:00:00.000Z","year":2005,"description":"T/O (E) ROOF, APPLY 1/2\" CDX PLYWOOD, INSTALL 30 YEAR COMPOSITION SHINGLES CLASS \"A\" 8SQS.  SMOKE DETECTORS REQUIRED.","metadescription":"Bldg-Alter/Repair. 1 or 2 Family Dwelling. T/O (E) ROOF, APPLY 1/2\" CDX PLYWOOD, INSTALL 30 YEAR COMPOSITION SHINGLES CLASS \"A\" 8SQS.  SMOKE DETECTORS REQUIRED.. Permit Finaled. 3935 N LOWELL AVE","address":"3935 Lowell Avenue, CA, Los Angeles, 90032, US","ct":"2015.01","ev":"N","hl":"YES","apc":"East Los Angeles","cpa":"Northeast Los Angeles","zone":"PF-1","solar":"N","pin_nbr":"145-5A237 251","use_code":"1","geolocation":"POINT (-118.16204 34.09126)","status_date":"02/14/2008","permit_group":"Building","refresh_time":"06/10/2026","type_lat_lon":"ADDRESS","business_unit":"Express Permit"},"geometry":{"type":"Point","coordinates":[-118.16204,34.09126]}},{"type":"Feature","properties":{"date":"2005-09-21T00:00:00.000Z","year":2005,"description":"TEAR-OFF EXISTING ROOF MATERIALS AND RE-ROOF.  INSTALL NEW 3-TAB 20YR COMPOSITION SHINGLES, 15LB FELT AND METAL EDGE.","metadescription":"Bldg-Alter/Repair. 1 or 2 Family Dwelling. TEAR-OFF EXISTING ROOF MATERIALS AND RE-ROOF.  INSTALL NEW 3-TAB 20YR COMPOSITION SHINGLES, 15LB FELT AND METAL EDGE.. Permit Finaled. 4313 N MAYCREST AVE","address":"4313 Maycrest Avenue, CA, Los Angeles, 90032, US","ct":"2011.20","ev":"N","hl":"YES","apc":"East Los Angeles","cpa":"Northeast Los Angeles","zone":"R1-1","solar":"N","pin_nbr":"145-5A237  29","use_code":"1","geolocation":"POINT (-118.16145 34.09465)","status_date":"07/17/2007","permit_group":"Building","refresh_time":"06/10/2026","type_lat_lon":"ADDRESS","business_unit":"Express Permit"},"geometry":{"type":"Point","coordinates":[-118.16145,34.09465]}},{"type":"Feature","properties":{"date":"2004-09-20T00:00:00.000Z","year":2004,"description":"REPLACE/REPAIR DRYWALL.  REPLACE TERMITE DAMAGE WOOD THROUGHOUT. (LESS THAN 10%) REPLACE WOOD SIDING AND RE-STUCCO AS NEEDED. INSTALL INSULATION.  REPAIR AND RE-PAINT FLOORS AND CABINETS.  REPAIR DOORS AND WINDOWS THROUGHOUT.  REPAIR PORCH W/ SAME SIZE MATERIALS AS EXISTING.  (LESS THAN 10%) RE-ROOF W/ COMP. SHINGLES.  (NO PLYWOOD INVOLVED)","metadescription":"Bldg-Alter/Repair. 1 or 2 Family Dwelling. REPLACE/REPAIR DRYWALL.  REPLACE TERMITE DAMAGE WOOD THROUGHOUT. (LESS THAN 10%) REPLACE WOOD SIDING AND RE-STUCCO AS NEEDED. INSTALL INSULATION.  REPAIR AND RE-PAINT FLOORS AND CABINETS.  REPAIR DOORS AND WINDOWS THROUGHOUT.  REPAIR PORCH W/ SAME SIZE MATERIALS AS EXISTING.  (LESS THAN 10%) RE-ROOF W/ COMP. SHINGLES.  (NO PLYWOOD INVOLVED). Permit Expired. 5424 E SHELLEY ST","address":"5424 Shelley Street, CA, Los Angeles, 90032, US","ct":"2015.01","ev":"N","hl":"YES","apc":"East Los Angeles","cpa":"Northeast Los Angeles","zone":"PF-1","solar":"N","pin_nbr":"145-5A237 262","use_code":"1","geolocation":"POINT (-118.16258 34.09136)","status_date":"06/09/2008","permit_group":"Building","refresh_time":"06/10/2026","type_lat_lon":"ADDRESS","business_unit":"Express Permit"},"geometry":{"type":"Point","coordinates":[-118.16258,34.09136]}},{"type":"Feature","properties":{"date":"2003-10-21T00:00:00.000Z","year":2003,"description":"Reroof: remove the existing roof-covering; install 20-squares builtl-up roof & 5 squares Class A fiberglass shingles over the existing solid sheathing.","metadescription":"Bldg-Alter/Repair. 1 or 2 Family Dwelling. Reroof: remove the existing roof-covering; install 20-squares builtl-up roof & 5 squares Class A fiberglass shingles over the existing solid sheathing.. Permit Finaled. 4212 N STILLWELL AVE","address":"4212 Stillwell Avenue, CA, Los Angeles, 90032, US","ct":"2011.20","ev":"N","hl":"YES","apc":"East Los Angeles","cpa":"Northeast Los Angeles","zone":"R1-1","solar":"N","pin_nbr":"145-5A237  90","use_code":"1","geolocation":"POINT (-118.16351 34.09354)","status_date":"11/24/2008","permit_group":"Building","refresh_time":"06/10/2026","type_lat_lon":"ADDRESS","business_unit":"Express Permit"},"geometry":{"type":"Point","coordinates":[-118.16351,34.09354]}},{"type":"Feature","properties":{"date":"2003-10-20T00:00:00.000Z","year":2003,"description":"RE-ROOF THE SFD. W/ PARTIAL 1/2\" C.D.X. AND 1/2\" O.S.B. PLYWOOD AND APPLY COMP. SHINGLES.","metadescription":"Bldg-Alter/Repair. 1 or 2 Family Dwelling. RE-ROOF THE SFD. W/ PARTIAL 1/2\" C.D.X. AND 1/2\" O.S.B. PLYWOOD AND APPLY COMP. SHINGLES.. Permit Finaled. 4124 N STILLWELL AVE","address":"4122 Stillwell Avenue, CA, Los Angeles, 90032, US","ct":"2011.20","ev":"N","hl":"YES","apc":"East Los Angeles","cpa":"Northeast Los Angeles","zone":"RD1.5-1","solar":"N","pin_nbr":"145-5A237 120","use_code":"1","geolocation":"POINT (-118.16336 34.09287)","status_date":"03/28/2007","permit_group":"Building","refresh_time":"06/10/2026","type_lat_lon":"ADDRESS","business_unit":"Express Permit"},"geometry":{"type":"Point","coordinates":[-118.16336,34.09287]}},{"type":"Feature","properties":{"date":"2002-09-24T00:00:00.000Z","year":2002,"description":"RE-ROOF THE SFD, INSTALLING 1/2\" CDX OR OSB AND COMPOSITION SHINGLES.","metadescription":"Bldg-Alter/Repair. 1 or 2 Family Dwelling. RE-ROOF THE SFD, INSTALLING 1/2\" CDX OR OSB AND COMPOSITION SHINGLES.. Permit Finaled. 4338 N MAYCREST AVE","address":"4332 North Maycrest Avenue, CA, Los Angeles, 90032, US","ct":"2011.20","ev":"N","hl":"YES","apc":"East Los Angeles","zone":"R1-1","solar":"N","pin_nbr":"147A239   275","use_code":"1","geolocation":"POINT (-118.16117 34.09525)","status_date":"01/16/2003","permit_group":"Building","refresh_time":"06/10/2026","type_lat_lon":"ADDRESS","business_unit":"Express Permit"},"geometry":{"type":"Point","coordinates":[-118.16117,34.09525]}},{"type":"Feature","properties":{"date":"2001-12-27T00:00:00.000Z","year":2001,"description":"REROOF: TEAR OFF EXISTING BUILT UP ROOF, INSTALL 7 COARSE BUILT UP ROOF; NO PLYWOOD; 24 SQ","metadescription":"Bldg-Alter/Repair. 1 or 2 Family Dwelling. REROOF: TEAR OFF EXISTING BUILT UP ROOF, INSTALL 7 COARSE BUILT UP ROOF; NO PLYWOOD; 24 SQ. Permit Finaled. 5501 E POPLAR BLVD","address":"5501 Poplar Boulevard, CA, Los Angeles, 90032, US","ct":"2015.01","ev":"N","hl":"YES","apc":"East Los Angeles","zone":"RD1.5-1","solar":"N","pin_nbr":"144A237   123","use_code":"1","geolocation":"POINT (-118.16232 34.08922)","status_date":"01/10/2002","permit_group":"Building","refresh_time":"06/10/2026","type_lat_lon":"ADDRESS","business_unit":"Express Permit"},"geometry":{"type":"Point","coordinates":[-118.16232,34.08922]}},{"type":"Feature","properties":{"date":"2000-08-21T00:00:00.000Z","year":2000,"description":"Reroof: remove the existing roof-covering; install 15 squares of Class A fiberglass shingles over existing solid sheathing for the existing three-unit apartment house","metadescription":"Bldg-Alter/Repair. Apartment. Reroof: remove the existing roof-covering; install 15 squares of Class A fiberglass shingles over existing solid sheathing for the existing three-unit apartment house. Permit Expired. 3810 N STOCKBRIDGE AVE","address":"3810 Stockbridge Avenue, CA, Los Angeles, 90032, US","ct":"2015.01","ev":"N","hl":"YES","apc":"East Los Angeles","zone":"Currently Not Available","solar":"N","pin_nbr":"144A237   100","use_code":"5","geolocation":"POINT (-118.16299 34.08988)","status_date":"02/12/2007","permit_group":"Building","refresh_time":"06/10/2026","type_lat_lon":"ADDRESS","business_unit":"Express Permit"},"geometry":{"type":"Point","coordinates":[-118.16299,34.08988]}},{"type":"Feature","properties":{"date":"2000-04-28T00:00:00.000Z","year":2000,"description":"RE-ROOF , PLYWOOD","metadescription":"Bldg-Alter/Repair. 1 or 2 Family Dwelling. RE-ROOF , PLYWOOD. Permit Finaled. 3709 N LOWELL AVE","address":"3709 Lowell Avenue, CA, Los Angeles, 90032, US","ct":"2015.01","ev":"N","hl":"YES","apc":"East Los Angeles","zone":"Currently Not Available","solar":"N","pin_nbr":"144A237   278","use_code":"1","geolocation":"POINT (-118.16254 34.08795)","status_date":"05/24/2000","permit_group":"Building","refresh_time":"06/10/2026","type_lat_lon":"ADDRESS","business_unit":"Express Permit"},"geometry":{"type":"Point","coordinates":[-118.16254,34.08795]}},{"type":"Feature","properties":{"date":"2000-04-10T00:00:00.000Z","year":2000,"description":"REROOF W/ HOT MOP.","metadescription":"Bldg-Alter/Repair. Apartment. REROOF W/ HOT MOP.. Permit Finaled. 3819 N STOCKBRIDGE AVE 1-22","address":"3821 Stockbridge Avenue, CA, Los Angeles, 90032, US","ct":"2015.01","ev":"N","hl":"YES","apc":"East Los Angeles","zone":"Currently Not Available","solar":"N","pin_nbr":"144A237    46","use_code":"5","geolocation":"POINT (-118.16303 34.09021)","status_date":"05/18/2000","permit_group":"Building","refresh_time":"06/10/2026","type_lat_lon":"ADDRESS","business_unit":"Express Permit"},"geometry":{"type":"Point","coordinates":[-118.16303,34.09021]}},{"type":"Feature","properties":{"date":"1999-08-17T00:00:00.000Z","year":1999,"description":"SUPPLEMENTAL PERMIT TO INCLUDE REROOF W/COMP. SHINGLES (11SQ. FT) REPLACE 5 WINDOWS SAME SIZE, REMOVE WOOD SIDING AND REPLACE WITH 1/2\" CDX PLYWOOD AND STUCCO AND REMOVE FIRE PLACE ON 99014-10000-03886. REMOVE AND REPLACE FOUNDATION WITH ENGINEERED CRIPPLE WALLS.","metadescription":"Bldg-Alter/Repair. 1 or 2 Family Dwelling. SUPPLEMENTAL PERMIT TO INCLUDE REROOF W/COMP. SHINGLES (11SQ. FT) REPLACE 5 WINDOWS SAME SIZE, REMOVE WOOD SIDING AND REPLACE WITH 1/2\" CDX PLYWOOD AND STUCCO AND REMOVE FIRE PLACE ON 99014-10000-03886. REMOVE AND REPLACE FOUNDATION WITH ENGINEERED CRIPPLE WALLS.. Permit Finaled. 5435 E ALMONT ST","address":"5435 Almont Street, CA, Los Angeles, 90032, US","ct":"2011.00","ev":"N","hl":"YES","apc":"East Los Angeles","zone":"R1-1","solar":"N","pin_nbr":"145-5A237  78","use_code":"1","geolocation":"POINT (-118.16277 34.09373)","status_date":"02/29/2000","permit_group":"Building","refresh_time":"06/10/2026","type_lat_lon":"ADDRESS","business_unit":"Plan Check at Counter"},"geometry":{"type":"Point","coordinates":[-118.16277,34.09373]}},{"type":"Feature","properties":{"date":"1999-04-01T00:00:00.000Z","year":1999,"description":"FIRE DAMAGE REPAIR TO ROOF FRAMING AT 2 TENANT SPACES- SEE PLOT PLAN FOR LOCATION-- 30% DAMAGE.","metadescription":"Bldg-Alter/Repair. Commercial. FIRE DAMAGE REPAIR TO ROOF FRAMING AT 2 TENANT SPACES- SEE PLOT PLAN FOR LOCATION-- 30% DAMAGE.. Permit Finaled. 4205 N MAYCREST AVE","address":"4205 Maycrest Avenue, CA, Los Angeles, 90032, US","ct":"2011.00","ev":"N","hl":"YES","apc":"East Los Angeles","zone":"C2-1","solar":"N","pin_nbr":"145-5A239  92","use_code":"16","geolocation":"POINT (-118.16142 34.09346)","status_date":"10/01/1999","permit_group":"Building","refresh_time":"06/10/2026","type_lat_lon":"ADDRESS","business_unit":"Appointment Plan Check"},"geometry":{"type":"Point","coordinates":[-118.16142,34.09346]}},{"type":"Feature","properties":{"date":"1998-08-05T00:00:00.000Z","year":1998,"description":"REROOF HOUSE WITH CLASS 1 FIBERGLASS SHNGLES","metadescription":"Bldg-Alter/Repair. 1 or 2 Family Dwelling. REROOF HOUSE WITH CLASS 1 FIBERGLASS SHNGLES. Permit Finaled. 5415 E ALMONT ST","address":"5415 Almont Street, CA, Los Angeles, 90032, US","ct":"2011.10","ev":"N","hl":"YES","apc":"East Los Angeles","solar":"N","pin_nbr":"145-5A237  89","use_code":"1","geolocation":"POINT (-118.16318 34.09344)","status_date":"01/20/2005","permit_group":"Building","refresh_time":"06/10/2026","type_lat_lon":"ADDRESS","business_unit":"Express Permit"},"geometry":{"type":"Point","coordinates":[-118.16318,34.09344]}},{"type":"Feature","properties":{"date":"1997-11-19T00:00:00.000Z","year":1997,"description":"T/O(E) & REROOF W/1/2\"PLYWOOD, COMP . HOUSE 20SQS & GAR 6SQS PERMIT APPROVED BY ENG. PO","metadescription":"Bldg-Alter/Repair. 1 or 2 Family Dwelling. T/O(E) & REROOF W/1/2\"PLYWOOD, COMP . HOUSE 20SQS & GAR 6SQS PERMIT APPROVED BY ENG. PO. Permit Expired. 3822 N SHEFFIELD AVE","address":"3822 North Sheffield Avenue, CA, Los Angeles, 90032, US","ct":"2015.01","ev":"N","hl":"Y","apc":"East Los Angeles","solar":"N","pin_nbr":"144A239    43","use_code":"1","geolocation":"POINT (-118.16142 34.08967)","status_date":"10/30/2009","permit_group":"Building","refresh_time":"06/10/2026","type_lat_lon":"ADDRESS","business_unit":"Express Permit"},"geometry":{"type":"Point","coordinates":[-118.16142,34.08967]}},{"type":"Feature","properties":{"date":"1997-09-17T00:00:00.000Z","year":1997,"description":"TEAR OFF ALL LAYERS/REROOF 20YRS ASPHALT SHINGLES","metadescription":"Bldg-Alter/Repair. 1 or 2 Family Dwelling. TEAR OFF ALL LAYERS/REROOF 20YRS ASPHALT SHINGLES. Permit Finaled. 4333 N ALPHA ST","address":"4333 Alpha Street, CA, Los Angeles, 90032, US","ct":"2011.10","ev":"N","hl":"Y","apc":"East Los Angeles","solar":"N","pin_nbr":"147A239   272","use_code":"1","geolocation":"POINT (-118.15952 34.09536)","status_date":"12/15/2006","permit_group":"Building","refresh_time":"06/10/2026","type_lat_lon":"ADDRESS","business_unit":"Express Permit"},"geometry":{"type":"Point","coordinates":[-118.15952,34.09536]}},{"type":"Feature","properties":{"date":"1997-09-17T00:00:00.000Z","year":1997,"description":"TEAR OFF-REROOF WITH ASPHALT SHINGLES.","metadescription":"Bldg-Alter/Repair. 1 or 2 Family Dwelling. TEAR OFF-REROOF WITH ASPHALT SHINGLES.. Permit Finaled. 4335 N ALPHA ST","address":"4335 Alpha Street, CA, Los Angeles, 90032, US","ct":"2011.10","ev":"N","hl":"Y","apc":"East Los Angeles","solar":"N","pin_nbr":"147A239   272","use_code":"1","geolocation":"POINT (-118.15952 34.09546)","status_date":"12/20/2006","permit_group":"Building","refresh_time":"06/10/2026","type_lat_lon":"ADDRESS","business_unit":"Express Permit"},"geometry":{"type":"Point","coordinates":[-118.15952,34.09546]}},{"type":"Feature","properties":{"date":"1997-08-27T00:00:00.000Z","year":1997,"description":"REROOF W/CLASS 'A\" FIBERGLASS SHINGLES OVER EXISTING 1 LAYER COMP SHINGLES. 25SQS. SMOKE DET REQD.","metadescription":"Bldg-Alter/Repair. 1 or 2 Family Dwelling. REROOF W/CLASS 'A\" FIBERGLASS SHINGLES OVER EXISTING 1 LAYER COMP SHINGLES. 25SQS. SMOKE DET REQD.. Permit Finaled. 3715 N WINCHESTER AVE","address":"3715 Winchester Avenue, CA, Los Angeles, 90032, US","ct":"2015.01","ev":"N","hl":"Y","apc":"East Los Angeles","solar":"N","pin_nbr":"144A239    82","use_code":"1","geolocation":"POINT (-118.16061 34.08815)","status_date":"09/18/1997","permit_group":"Building","refresh_time":"06/10/2026","type_lat_lon":"ADDRESS","business_unit":"Express Permit"},"geometry":{"type":"Point","coordinates":[-118.16061,34.08815]}},{"type":"Feature","properties":{"date":"1997-03-12T00:00:00.000Z","year":1997,"description":"REROOF: T/O & REROOF W/ MONIER MISSION DURALITE TILE @ 5.9 PSF RR#23250 13 SQS. SMOKE DETECTORS REQ'D.","metadescription":"Bldg-Alter/Repair. 1 or 2 Family Dwelling. REROOF: T/O & REROOF W/ MONIER MISSION DURALITE TILE @ 5.9 PSF RR#23250 13 SQS. SMOKE DETECTORS REQ'D.. Permit Finaled. 3843 N WINCHESTER AVE","address":"3837 Winchester Avenue, CA, Los Angeles, 90032, US","ct":"2015.01","ev":"N","hl":"Y","apc":"East Los Angeles","zone":"R1-1","solar":"N","pin_nbr":"144A239    25","use_code":"1","geolocation":"POINT (-118.16063 34.09013)","status_date":"09/18/1997","permit_group":"Building","refresh_time":"06/10/2026","type_lat_lon":"ADDRESS","business_unit":"Express Permit"},"geometry":{"type":"Point","coordinates":[-118.16063,34.09013]}},{"type":"Feature","properties":{"date":"1997-03-04T00:00:00.000Z","year":1997,"description":"REMOVE ROOFING TO SHEATHING, REPLACE ANY BAD PLYWOOD W/1/2\" CDX PLYWOOD. REROOF W/15 LB FELT & 20 YR CLASS A FIBERGLASS SHINGLE (7 SQ).","metadescription":"Bldg-Alter/Repair. 1 or 2 Family Dwelling. REMOVE ROOFING TO SHEATHING, REPLACE ANY BAD PLYWOOD W/1/2\" CDX PLYWOOD. REROOF W/15 LB FELT & 20 YR CLASS A FIBERGLASS SHINGLE (7 SQ).. Permit Closed. 4307 N LOWELL AVE","address":"4307 Lowell Avenue, CA, Los Angeles, 90032, US","ct":"2011.00","ev":"N","hl":"Y","apc":"East Los Angeles","solar":"N","pin_nbr":"145-5A237  66","use_code":"1","geolocation":"POINT (-118.16258 34.09409)","status_date":"03/25/1997","permit_group":"Building","refresh_time":"06/10/2026","type_lat_lon":"ADDRESS","business_unit":"Express Permit"},"geometry":{"type":"Point","coordinates":[-118.16258,34.09409]}}]}
