{"type":"FeatureCollection","features":[{"type":"Feature","properties":{"date":"2017-10-03T00:00:00.000Z","year":2017,"description":"add 3 soldier piles for shoring adjacent structure.","metadescription":"Nonbldg-New. Apartment. add 3 soldier piles for shoring adjacent structure.. Permit Finaled. 5639 E HUNTINGTON DR NORTH 1-13","address":"5639 E HUNTINGTON DR NORTH 1-13","ct":"2011.20","ev":"N","apc":"East Los Angeles","cpa":"Northeast Los Angeles","zone":"RD1.5-1","solar":"N","pin_nbr":"147A239   188","use_code":"23","geolocation":"POINT (-118.15699 34.09625)","status_date":"04/18/2023","permit_group":"Building","refresh_time":"06/10/2026","type_lat_lon":"ADDRESS","business_unit":"Plan Check at Counter"},"geometry":{"type":"Point","coordinates":[-118.15699,34.09625]}}]}
