{"type":"FeatureCollection","features":[{"type":"Feature","properties":{"date":"2012-09-11T00:00:00.000Z","year":2012,"description":"Tenant Improvement - Non-structural, interior remodel to existing retail space (986 SF) to create new single-use restroom and office, including:  new non-bearing partitions; and, new suspended ceiling system.  No change of use.","metadescription":"Bldg-Alter/Repair. Commercial. Tenant Improvement - Non-structural, interior remodel to existing retail space (986 SF) to create new single-use restroom and office, including:  new non-bearing partitions; and, new suspended ceiling system.  No change of use.. Permit Finaled. 5581 E HUNTINGTON DR NORT Suite 7","address":"5581 E HUNTINGTON DR NORT Suite 7","ct":"2011.20","ev":"N","apc":"East Los Angeles","cpa":"Northeast Los Angeles","zone":"[Q]C2-1VL","solar":"N","pin_nbr":"147A239   271","use_code":"16","geolocation":"POINT (-118.15872155 34.09529946)","status_date":"10/11/2012","permit_group":"Building","refresh_time":"06/10/2026","type_lat_lon":"PIN","business_unit":"Plan Check at Counter"},"geometry":{"type":"Point","coordinates":[-118.15872155,34.09529946]}}]}
