{"type":"FeatureCollection","features":[{"type":"Feature","properties":{"date":null,"year":0,"description":"Interior alterations to bathroom in SFR  subject to field inspection  STFI.","metadescription":"Addition/Alteration. Interior alterations to bathroom in SFR  subject to field inspection  STFI.. 8819 S 116TH PL","address":"8819 South 116TH Place, SEATTLE, WA, 98178, US","link":"https://services.seattle.gov/portal/customize/LinkToRecord.aspx?altId=6924436-CN","location1":"(47.49830434, -122.22109991)","permitnum":"6924436-CN","issueddate":"2022-09-26","applieddate":"2022-09-26","expiresdate":"2024-03-26","statuscurrent":"Withdrawn","estprojectcost":"10,500","housingcategory":"Single-Family Add/Alt","permittypemapped":"Building","dependentbuilding":"0","permitclassmapped":"Residential"},"geometry":{"type":"Point","coordinates":[-122.22109991,47.49830434]}}]}
