{"type":"FeatureCollection","features":[{"type":"Feature","properties":{"date":"2006-05-18T00:00:00.000Z","year":2006,"description":"CONSTRUCTION OF A 7.5' X 20' ADDITION AT THE REAR EXIT OF AN EXISTING TWO STORY OFFICE BUILDING AT LAX.","metadescription":"Bldg-Addition. Commercial. CONSTRUCTION OF A 7.5' X 20' ADDITION AT THE REAR EXIT OF AN EXISTING TWO STORY OFFICE BUILDING AT LAX.. Permit Expired. 6201 W IMPERIAL HWY","address":"6201 West Imperial Highway, CA, Los Angeles, 90045, US","ct":"2780.00","ev":"N","apc":"West Los Angeles","cpa":"Los Angeles International Airport","zone":"LAX","solar":"N","pin_nbr":"090B165    34","use_code":"13","geolocation":"POINT (-118.39471 33.93308)","status_date":"09/29/2008","construction":"Type I-F.R. Construction","permit_group":"Building","refresh_time":"06/10/2026","type_lat_lon":"ADDRESS","business_unit":"Regular Plan Check","square_footage":"100"},"geometry":{"type":"Point","coordinates":[-118.39471,33.93308]}},{"type":"Feature","properties":{"date":"2005-11-28T00:00:00.000Z","year":2005,"description":"CONSTRUCTION OF A NEW CANOPY ENTRY @ AN EXISTING TWO STORY OFFICE BUILDING.","metadescription":"Bldg-Addition. Commercial. CONSTRUCTION OF A NEW CANOPY ENTRY @ AN EXISTING TWO STORY OFFICE BUILDING.. CofO Issued. 6201 W IMPERIAL HWY","address":"6201 West Imperial Highway, CA, Los Angeles, 90045, US","ct":"2780.00","ev":"N","apc":"West Los Angeles","cpa":"LAX","zone":"M2-1","solar":"N","pin_nbr":"090B165    34","use_code":"13","geolocation":"POINT (-118.39471 33.93308)","status_date":"03/20/2009","construction":"Type I-F.R. Construction","permit_group":"Building","refresh_time":"06/10/2026","type_lat_lon":"ADDRESS","business_unit":"Regular Plan Check","square_footage":"640"},"geometry":{"type":"Point","coordinates":[-118.39471,33.93308]}}]}
