{"type":"FeatureCollection","features":[{"type":"Feature","properties":{"date":"2012-09-26T00:00:00.000Z","year":2012,"description":"PROPOSED EXCAVATION FOR NEW UNDERGROUND GREASE INTERCEPTOR FOR FOODCOURT ABOVE.  SEE COMMENTS.","metadescription":"Nonbldg-New. Commercial. PROPOSED EXCAVATION FOR NEW UNDERGROUND GREASE INTERCEPTOR FOR FOODCOURT ABOVE.  SEE COMMENTS.. Permit Finaled. 800 W WORLD WAY TER 8","address":"6401 Access Road, CA, Los Angeles, 90045, US","ct":"2780.00","ev":"N","apc":"West Los Angeles","cpa":"Los Angeles International Airport","zone":"LAX","solar":"N","pin_nbr":"087B165    36","use_code":"23","geolocation":"POINT (-118.39695727 33.93179368)","status_date":"12/20/2012","permit_group":"Building","refresh_time":"06/10/2026","type_lat_lon":"PIN","business_unit":"Regular Plan Check"},"geometry":{"type":"Point","coordinates":[-118.39695727,33.93179368]}}]}
