{"type":"FeatureCollection","features":[{"type":"Feature","properties":{"date":"2007-05-14T00:00:00.000Z","year":2007,"description":"GRADING FOR ACCESS ROAD AND PARKING LOT. BACKFILL OF DRAINAGE PIPE INSTALLATION.","metadescription":"Grading. Commercial. GRADING FOR ACCESS ROAD AND PARKING LOT. BACKFILL OF DRAINAGE PIPE INSTALLATION.. Permit Expired. 11200 S SEPULVEDA BLVD","address":"10881 Sepulveda Boulevard, CA, Los Angeles, 90045, US","ct":"2780.00","ev":"N","apc":"West Los Angeles","cpa":"Los Angeles International Airport","zone":"LAX, PF-1XL","solar":"N","pin_nbr":"087B169     1","use_code":"60","geolocation":"POINT (-118.39582 33.93377)","status_date":"12/14/2009","permit_group":"Building","refresh_time":"06/10/2026","type_lat_lon":"ADDRESS","business_unit":"Regular Plan Check"},"geometry":{"type":"Point","coordinates":[-118.39582,33.93377]}}]}
