{"type":"FeatureCollection","features":[{"type":"Feature","properties":{"date":"2021-09-02T04:00:00.000Z","year":2021,"description":"Utility shutdown needed for installation of new energy storage system. Underground service. Meter Can DOES NOT require replacement - NO ESPA attached","metadescription":"EP. Repair. Utility shutdown needed for installation of new energy storage system. Underground service. Meter Can DOES NOT require replacement - NO ESPA attached. Final. 713 SMOKE SIGNAL PASS","address":"713 SMOKE SIGNAL PASS","link":"https://abc.austintexas.gov/web/permit/public-search-other?t_detail=1&t_selected_folderrsn=12767248","tcad_id":"0270360360","location":"    (30.43830203, -97.63594343)","day_issued":"THURSDAY","project_id":"12767248","condominium":"No","status_date":"06/28/2022","jurisdiction":"PFLUGERVILLE FULL PURPOSE","housing_units":"1","contractor_zip":"78728-____","contractor_city":"AUSTIN","issuance_method":"Permit Center","contractor_phone":"2147246768","contractor_trade":"Electrical Contractor","number_of_floors":"1","permit_type_desc":"Electrical Permit","fiscal_year_issued":"2021","permit_class_mapped":"Residential","remodel_repair_sqft":"0","contractor_address_2":"2301  SCARBR","contractor_full_name":"Wesley Davis","issued_in_last_30_days":"No","certificate_of_occupancy":"No","property_legal_description":"LOT 22 BLK A WELLS POINT PHS C-3 SEC 2","electrical_valuation_remodel":"$21,622.00"},"geometry":{"type":"Point","coordinates":[-97.63594343,30.43830203]}},{"type":"Feature","properties":{"date":"2021-09-02T04:00:00.000Z","year":2021,"description":"INSTALL ROOF-MOUNTED SOLAR AND ENERGY STORAGE SYSTEM TO EXISTING RESIDENCE","metadescription":"EP. Auxiliary Power. INSTALL ROOF-MOUNTED SOLAR AND ENERGY STORAGE SYSTEM TO EXISTING RESIDENCE. Final. 713 SMOKE SIGNAL PASS","address":"713 SMOKE SIGNAL PASS","link":"https://abc.austintexas.gov/web/permit/public-search-other?t_detail=1&t_selected_folderrsn=12767247","tcad_id":"0270360360","location":"    (30.43830203, -97.63594343)","day_issued":"THURSDAY","project_id":"12767247","condominium":"No","status_date":"07/12/2022","jurisdiction":"PFLUGERVILLE FULL PURPOSE","housing_units":"1","contractor_zip":"78728-____","contractor_city":"AUSTIN","issuance_method":"Permit Center","contractor_phone":"2147246768","contractor_trade":"Electrical Contractor","number_of_floors":"1","permit_type_desc":"Electrical Permit","fiscal_year_issued":"2021","permit_class_mapped":"Residential","contractor_address_2":"2301  SCARBR","contractor_full_name":"Wesley Davis","issued_in_last_30_days":"No","certificate_of_occupancy":"No","property_legal_description":"LOT 22 BLK A WELLS POINT PHS C-3 SEC 2","electrical_valuation_remodel":"$21,622.00"},"geometry":{"type":"Point","coordinates":[-97.63594343,30.43830203]}}]}
