{"type":"FeatureCollection","features":[{"type":"Feature","properties":{"date":"2018-04-09T04:00:00.000Z","year":2018,"description":"Installation of new AE electrical service for commercial bldg. EUD","metadescription":"EP. New. Installation of new AE electrical service for commercial bldg. EUD. Final. 1019 S HEATHERWILDE BLVD BLDG 2","address":"1019 South Heatherwilde Boulevard, Pflugerville, TX, 78660, US","link":"https://abc.austintexas.gov/web/permit/public-search-other?t_detail=1&t_selected_folderrsn=11922602","tcad_id":"0270300901","location":"    (30.43640112, -97.64654743)","day_issued":"MONDAY","project_id":"11922602","condominium":"No","status_date":"03/19/2019","jurisdiction":"PFLUGERVILLE FULL PURPOSE","housing_units":"1","contractor_zip":"78634","contractor_city":"HUTTO","issuance_method":"Permit Center","contractor_phone":"5129236551","contractor_trade":"Electrical Contractor","number_of_floors":"1","permit_type_desc":"Electrical Permit","fiscal_year_issued":"2018","total_new_add_sqft":"12,000","permit_class_mapped":"Commercial","contractor_address_1":"311 FLINN ST","contractor_address_2":"HUTTO TX  78","contractor_full_name":"Stephen James Patrick","issued_in_last_30_days":"No","certificate_of_occupancy":"No","property_legal_description":"LOT 3 WELLSPOINT 1 SEC 1"},"geometry":{"type":"Point","coordinates":[-97.64654743,30.43640112]}},{"type":"Feature","properties":{"date":"2017-10-19T04:00:00.000Z","year":2017,"description":"Electrical for new commercial bldg. EUD (PFLUGERVILLE)  (Jack Trade)","metadescription":"EP. New. Electrical for new commercial bldg. EUD (PFLUGERVILLE)  (Jack Trade). Final. 1019 S HEATHERWILDE BLVD UNIT 150","address":"1019 South Heatherwilde Boulevard, Pflugerville, TX, 78660, US","link":"https://abc.austintexas.gov/web/permit/public-search-other?t_detail=1&t_selected_folderrsn=11810141","tcad_id":"0270300901","location":"    (30.43640112, -97.64654743)","day_issued":"THURSDAY","project_id":"11810141","condominium":"No","status_date":"10/27/2017","jurisdiction":"PFLUGERVILLE FULL PURPOSE","housing_units":"1","contractor_zip":"78634","contractor_city":"HUTTO","issuance_method":"Permit Center","contractor_phone":"5129236551","contractor_trade":"Electrical Contractor","number_of_floors":"1","permit_type_desc":"Electrical Permit","fiscal_year_issued":"2018","total_new_add_sqft":"400","permit_class_mapped":"Commercial","contractor_address_1":"311 FLINN ST","contractor_address_2":"HUTTO TX  78","contractor_full_name":"Stephen James Patrick","issued_in_last_30_days":"No","certificate_of_occupancy":"No","property_legal_description":"LOT 3 WELLSPOINT 1 SEC 1"},"geometry":{"type":"Point","coordinates":[-97.64654743,30.43640112]}},{"type":"Feature","properties":{"date":"2017-10-19T04:00:00.000Z","year":2017,"description":"Electrical for new commercial bldg. EUD (PFLUGERVILLE)  (Jack Trade)","metadescription":"EP. New. Electrical for new commercial bldg. EUD (PFLUGERVILLE)  (Jack Trade). Final. 1019 S HEATHERWILDE BLVD UNIT 100","address":"1019 South Heatherwilde Boulevard, Pflugerville, TX, 78660, US","link":"https://abc.austintexas.gov/web/permit/public-search-other?t_detail=1&t_selected_folderrsn=11810129","tcad_id":"0270300901","location":"    (30.43640112, -97.64654743)","day_issued":"THURSDAY","project_id":"11810129","condominium":"No","status_date":"10/27/2017","jurisdiction":"PFLUGERVILLE FULL PURPOSE","housing_units":"1","contractor_zip":"78634","contractor_city":"HUTTO","issuance_method":"Permit Center","contractor_phone":"5129236551","contractor_trade":"Electrical Contractor","number_of_floors":"1","permit_type_desc":"Electrical Permit","fiscal_year_issued":"2018","total_new_add_sqft":"2,000","permit_class_mapped":"Commercial","contractor_address_1":"311 FLINN ST","contractor_address_2":"HUTTO TX  78","contractor_full_name":"Stephen James Patrick","issued_in_last_30_days":"No","certificate_of_occupancy":"No","property_legal_description":"LOT 3 WELLSPOINT 1 SEC 1"},"geometry":{"type":"Point","coordinates":[-97.64654743,30.43640112]}},{"type":"Feature","properties":{"date":"2017-08-23T04:00:00.000Z","year":2017,"description":"Electrical for new commercial bldg. EUD (PFLUGERVILLE) Suites: 110 120 130 140 and house panel. (Jack Trade)","metadescription":"EP. New. Electrical for new commercial bldg. EUD (PFLUGERVILLE) Suites: 110 120 130 140 and house panel. (Jack Trade). Final. 1019 S HEATHERWILDE BLVD BLDG 1","address":"1019 South Heatherwilde Boulevard, Pflugerville, TX, 78660, US","link":"https://abc.austintexas.gov/web/permit/public-search-other?t_detail=1&t_selected_folderrsn=11768894","tcad_id":"0270300901","location":"    (30.43640112, -97.64654743)","day_issued":"WEDNESDAY","project_id":"11768894","condominium":"No","status_date":"11/02/2017","jurisdiction":"PFLUGERVILLE FULL PURPOSE","housing_units":"1","contractor_zip":"78634","contractor_city":"HUTTO","issuance_method":"Permit Center","contractor_phone":"5129236551","contractor_trade":"Electrical Contractor","number_of_floors":"1","permit_type_desc":"Electrical Permit","fiscal_year_issued":"2017","total_new_add_sqft":"12,000","permit_class_mapped":"Commercial","contractor_address_1":"311 FLINN ST","contractor_address_2":"HUTTO TX  78","contractor_full_name":"Stephen James Patrick","issued_in_last_30_days":"No","certificate_of_occupancy":"No","property_legal_description":"LOT 3 WELLSPOINT 1 SEC 1"},"geometry":{"type":"Point","coordinates":[-97.64654743,30.43640112]}},{"type":"Feature","properties":{"date":"2017-06-02T04:00:00.000Z","year":2017,"description":"Electrical service for new commercial construction. EUD.","metadescription":"EP. New. Electrical service for new commercial construction. EUD.. Final. 1011 S HEATHERWILDE BLVD BLDG 2","address":"1011 South Heatherwilde Boulevard, Pflugerville, TX, 78660, US","link":"https://abc.austintexas.gov/web/permit/public-search-other?t_detail=1&t_selected_folderrsn=11589762","tcad_id":"0270300902","location":"    (30.4373261, -97.64632484)","day_issued":"FRIDAY","project_id":"11589762","condominium":"No","status_date":"12/22/2020","jurisdiction":"PFLUGERVILLE FULL PURPOSE","housing_units":"1","contractor_zip":"78626","contractor_city":"Georgetown","issuance_method":"Permit Center","contractor_phone":"5122602400","contractor_trade":"Electrical Contractor","number_of_floors":"1","permit_type_desc":"Electrical Permit","fiscal_year_issued":"2017","total_new_add_sqft":"5,800","permit_class_mapped":"Commercial","contractor_address_2":"3871 E unive","contractor_full_name":"Jose Medina","issued_in_last_30_days":"No","certificate_of_occupancy":"No","property_legal_description":"LOT 2 WELLSPOINT 1 SEC 1"},"geometry":{"type":"Point","coordinates":[-97.64632484,30.4373261]}},{"type":"Feature","properties":{"date":"2016-09-02T04:00:00.000Z","year":2016,"description":"Temp Pole for Construction Commercial","metadescription":"EP. Repair. Temp Pole for Construction Commercial. Final. 1011 S HEATHERWILDE BLVD","address":"1011 South Heatherwilde Boulevard, Pflugerville, TX, 78660, US","link":"https://abc.austintexas.gov/web/permit/public-search-other?t_detail=1&t_selected_folderrsn=11589784","tcad_id":"0270300902","location":"    (30.4373261, -97.64632484)","day_issued":"FRIDAY","project_id":"11589784","condominium":"No","status_date":"05/01/2017","jurisdiction":"PFLUGERVILLE FULL PURPOSE","housing_units":"1","contractor_zip":"78626","contractor_city":"Georgetown","issuance_method":"Online","contractor_phone":"5122602400","contractor_trade":"Electrical Contractor","number_of_floors":"1","permit_type_desc":"Electrical Permit","fiscal_year_issued":"2016","permit_class_mapped":"Commercial","remodel_repair_sqft":"0","contractor_address_2":"3871 E unive","contractor_full_name":"Jose Medina","issued_in_last_30_days":"No","certificate_of_occupancy":"No","property_legal_description":"LOT 2 WELLSPOINT 1 SEC 1","electrical_valuation_remodel":"$1,000.00"},"geometry":{"type":"Point","coordinates":[-97.64632484,30.4373261]}},{"type":"Feature","properties":{"date":"2016-09-02T04:00:00.000Z","year":2016,"description":"Electrical service for new commercial construction. EUD.","metadescription":"EP. New. Electrical service for new commercial construction. EUD.. Final. 1011 S HEATHERWILDE BLVD BLDG 3","address":"1011 South Heatherwilde Boulevard, Pflugerville, TX, 78660, US","link":"https://abc.austintexas.gov/web/permit/public-search-other?t_detail=1&t_selected_folderrsn=11589766","tcad_id":"0270300902","location":"    (30.4373261, -97.64632484)","day_issued":"FRIDAY","project_id":"11589766","condominium":"No","status_date":"05/19/2017","jurisdiction":"PFLUGERVILLE FULL PURPOSE","housing_units":"1","contractor_zip":"78626","contractor_city":"Georgetown","issuance_method":"Online","contractor_phone":"5122602400","contractor_trade":"Electrical Contractor","number_of_floors":"1","permit_type_desc":"Electrical Permit","fiscal_year_issued":"2016","total_new_add_sqft":"10,184","permit_class_mapped":"Commercial","contractor_address_2":"3871 E unive","contractor_full_name":"Jose Medina","issued_in_last_30_days":"No","certificate_of_occupancy":"No","property_legal_description":"LOT 2 WELLSPOINT 1 SEC 1"},"geometry":{"type":"Point","coordinates":[-97.64632484,30.4373261]}},{"type":"Feature","properties":{"date":"2015-09-25T04:00:00.000Z","year":2015,"description":"Install a hand sink to existing commercial only.","metadescription":"PP. Repair. Install a hand sink to existing commercial only.. Expired. 1401 GRAND AVENUE PKWY","address":"1401 Grand Avenue Parkway, Pflugerville, TX, 78660, US","link":"https://abc.austintexas.gov/web/permit/public-search-other?t_detail=1&t_selected_folderrsn=11421905","tcad_id":"0276301503","location":"    (30.45588262, -97.65222037)","day_issued":"FRIDAY","project_id":"11421905","condominium":"No","status_date":"03/24/2016","jurisdiction":"PFLUGERVILLE FULL PURPOSE","housing_units":"0","contractor_zip":"78748","contractor_city":"AUSTIN","issuance_method":"Permit Center","contractor_phone":"5129474603","contractor_trade":"Plumbing Contractor","number_of_floors":"1","permit_type_desc":"Plumbing Permit","fiscal_year_issued":"2015","plumbing_valuation":"$0.00","permit_class_mapped":"Commercial","remodel_repair_sqft":"0","contractor_address_2":"11500  MAYO","contractor_full_name":"Robert Salgado","issued_in_last_30_days":"No","certificate_of_occupancy":"No","plumbing_valuation_remodel":"$250.00","property_legal_description":"0.9821AC OF LOT 1 BLK G NORTH PARK SEC 5-A"},"geometry":{"type":"Point","coordinates":[-97.65222037,30.45588262]}},{"type":"Feature","properties":{"date":"2011-03-25T04:00:00.000Z","year":2011,"description":"New Commercial Bldg EUD","metadescription":"EP. New. New Commercial Bldg EUD. Final. 1201 S HEATHERWILDE BLVD","address":"1201 South Heatherwilde Boulevard, Pflugerville, TX, 78660, US","link":"https://abc.austintexas.gov/web/permit/public-search-other?t_detail=1&t_selected_folderrsn=10565372","tcad_id":"0270300904","location":"    (30.43522878, -97.64756725)","day_issued":"FRIDAY","project_id":"10565372","condominium":"No","status_date":"06/07/2011","jurisdiction":"PFLUGERVILLE FULL PURPOSE","housing_units":"1","contractor_zip":"78627-2691","contractor_city":"Georgetown","issuance_method":"Permit Center","contractor_phone":"5129300767","contractor_trade":"Electrical Contractor","number_of_floors":"1","permit_type_desc":"Electrical Permit","fiscal_year_issued":"2011","total_new_add_sqft":"66,500","permit_class_mapped":"Commercial","contractor_address_1":"P.O.BOX 2629","contractor_full_name":"James Paul","issued_in_last_30_days":"No","certificate_of_occupancy":"No","property_legal_description":"LOT 1-2 BLK A WELLSPOINT 1 SEC 2"},"geometry":{"type":"Point","coordinates":[-97.64756725,30.43522878]}},{"type":"Feature","properties":{"date":"2005-05-23T04:00:00.000Z","year":2005,"description":"Demolish Commercial Building","metadescription":"BP. Relocation. Demolish Commercial Building. VOID. 400 S 1ST ST","address":"400 South 1st Street, Pflugerville, TX, 78660, US","link":"https://abc.austintexas.gov/web/permit/public-search-other?t_detail=1&t_selected_folderrsn=719977","tcad_id":"0270401904","location":"    (30.43752903, -97.62288114)","day_issued":"MONDAY","project_id":"719977","condominium":"No","status_date":"04/12/2010","jurisdiction":"PFLUGERVILLE FULL PURPOSE","contractor_zip":"78617","contractor_city":"Del Valle","issuance_method":"Permit Center","contractor_phone":"5122432990","contractor_trade":"General Contractor","permit_type_desc":"Building Permit","fiscal_year_issued":"2005","permit_class_mapped":"Commercial","contractor_address_2":"13201  F.M.","issued_in_last_30_days":"No","certificate_of_occupancy":"No","property_legal_description":"LOT 1-3 * & E 29FT LOT 4 BLK J WRENBAR ADDN"},"geometry":{"type":"Point","coordinates":[-97.62288114,30.43752903]}},{"type":"Feature","properties":{"date":"1992-06-03T04:00:00.000Z","year":1992,"description":"Commercial Irrigation System","metadescription":"PP. Remodel. Commercial Irrigation System. Final. 500 S 1ST ST","address":"500 South 1st Street, Pflugerville, TX, 78660, US","link":"https://abc.austintexas.gov/web/permit/public-search-other?t_detail=1&t_selected_folderrsn=3665942","tcad_id":"0270381705","location":"    (30.43669527, -97.62325374)","day_issued":"WEDNESDAY","project_id":"3665942","condominium":"No","status_date":"09/15/2016","jurisdiction":"PFLUGERVILLE FULL PURPOSE","housing_units":"1","issuance_method":"Permit Center","permit_type_desc":"Plumbing Permit","fiscal_year_issued":"1992","permit_class_mapped":"Commercial","issued_in_last_30_days":"No","certificate_of_occupancy":"No","property_legal_description":"LOT 1A * RESUB LOT 1-5 BLK M WRENBAR ADDN"},"geometry":{"type":"Point","coordinates":[-97.62325374,30.43669527]}},{"type":"Feature","properties":{"date":"1987-01-13T05:00:00.000Z","year":1987,"description":"Temporary Lighting For Boat Show-Commercial","metadescription":"BP. Remodel. Temporary Lighting For Boat Show-Commercial. Expired. 400 S 1ST ST","address":"400 South 1st Street, Pflugerville, TX, 78660, US","link":"https://abc.austintexas.gov/web/permit/public-search-other?t_detail=1&t_selected_folderrsn=752594","tcad_id":"0270401904","location":"    (30.43752903, -97.62288114)","day_issued":"TUESDAY","project_id":"752594","condominium":"No","status_date":"06/06/2007","jurisdiction":"PFLUGERVILLE FULL PURPOSE","housing_units":"1","issuance_method":"Permit Center","permit_type_desc":"Building Permit","fiscal_year_issued":"1987","permit_class_mapped":"Commercial","issued_in_last_30_days":"No","certificate_of_occupancy":"No","property_legal_description":"LOT 1-3 * & E 29FT LOT 4 BLK J WRENBAR ADDN"},"geometry":{"type":"Point","coordinates":[-97.62288114,30.43752903]}},{"type":"Feature","properties":{"date":"1987-01-13T05:00:00.000Z","year":1987,"description":"Temporary Lighting For Boat Show-Commercial","metadescription":"MP. Remodel. Temporary Lighting For Boat Show-Commercial. Expired. 400 S 1ST ST","address":"400 South 1st Street, Pflugerville, TX, 78660, US","link":"https://abc.austintexas.gov/web/permit/public-search-other?t_detail=1&t_selected_folderrsn=3440509","tcad_id":"0270401904","location":"    (30.43752903, -97.62288114)","day_issued":"TUESDAY","project_id":"3440509","condominium":"No","status_date":"06/06/2007","jurisdiction":"PFLUGERVILLE FULL PURPOSE","housing_units":"1","issuance_method":"Permit Center","permit_type_desc":"Mechanical Permit","master_permit_num":"752594","fiscal_year_issued":"1987","permit_class_mapped":"Commercial","issued_in_last_30_days":"No","certificate_of_occupancy":"No","property_legal_description":"LOT 1-3 * & E 29FT LOT 4 BLK J WRENBAR ADDN"},"geometry":{"type":"Point","coordinates":[-97.62288114,30.43752903]}},{"type":"Feature","properties":{"date":"1986-09-15T04:00:00.000Z","year":1986,"description":"Service Only-Commercial","metadescription":"EP. Remodel. Service Only-Commercial. Final. 1011 PRAIRIE RIDGE TRL","address":"1011 Prairie Ridge Trail, Pflugerville, TX, 78660, US","link":"https://abc.austintexas.gov/web/permit/public-search-other?t_detail=1&t_selected_folderrsn=4148902","tcad_id":"0270360728","location":"    (30.43546499, -97.63365496)","day_issued":"MONDAY","project_id":"4148902","condominium":"No","status_date":"05/22/2007","jurisdiction":"PFLUGERVILLE FULL PURPOSE","housing_units":"1","issuance_method":"Permit Center","permit_type_desc":"Electrical Permit","fiscal_year_issued":"1986","permit_class_mapped":"Commercial","issued_in_last_30_days":"No","certificate_of_occupancy":"No","property_legal_description":"LOT 14 BLK 7 SETTLERS RIDGE SEC 3 CORRECTED PLAT OF"},"geometry":{"type":"Point","coordinates":[-97.63365496,30.43546499]}},{"type":"Feature","properties":{"date":"1986-09-15T04:00:00.000Z","year":1986,"description":"Service Only-Commercial","metadescription":"MP. Remodel. Service Only-Commercial. Final. 1011 PRAIRIE RIDGE TRL","address":"1011 Prairie Ridge Trail, Pflugerville, TX, 78660, US","link":"https://abc.austintexas.gov/web/permit/public-search-other?t_detail=1&t_selected_folderrsn=3246720","tcad_id":"0270360728","location":"    (30.43546499, -97.63365496)","day_issued":"MONDAY","project_id":"3246720","condominium":"No","status_date":"05/22/2007","jurisdiction":"PFLUGERVILLE FULL PURPOSE","housing_units":"1","issuance_method":"Permit Center","permit_type_desc":"Mechanical Permit","master_permit_num":"4148902","fiscal_year_issued":"1986","permit_class_mapped":"Commercial","issued_in_last_30_days":"No","certificate_of_occupancy":"No","property_legal_description":"LOT 14 BLK 7 SETTLERS RIDGE SEC 3 CORRECTED PLAT OF"},"geometry":{"type":"Point","coordinates":[-97.63365496,30.43546499]}},{"type":"Feature","properties":{"date":"1981-07-02T04:00:00.000Z","year":1981,"description":"Electric For Commercial - Basement Machinery","metadescription":"EP. Remodel. Electric For Commercial - Basement Machinery. Final. 400 S 1ST ST","address":"400 South 1st Street, Pflugerville, TX, 78660, US","link":"https://abc.austintexas.gov/web/permit/public-search-other?t_detail=1&t_selected_folderrsn=4069517","tcad_id":"0270401904","location":"    (30.43752903, -97.62288114)","day_issued":"THURSDAY","project_id":"4069517","condominium":"No","status_date":"05/22/2007","jurisdiction":"PFLUGERVILLE FULL PURPOSE","housing_units":"1","issuance_method":"Permit Center","permit_type_desc":"Electrical Permit","fiscal_year_issued":"1981","issued_in_last_30_days":"No","certificate_of_occupancy":"No","property_legal_description":"LOT 1-3 * & E 29FT LOT 4 BLK J WRENBAR ADDN"},"geometry":{"type":"Point","coordinates":[-97.62288114,30.43752903]}},{"type":"Feature","properties":{"date":"1981-07-02T04:00:00.000Z","year":1981,"description":"Electric For Commercial - Basement Machinery","metadescription":"MP. Remodel. Electric For Commercial - Basement Machinery. Final. 400 S 1ST ST","address":"400 South 1st Street, Pflugerville, TX, 78660, US","link":"https://abc.austintexas.gov/web/permit/public-search-other?t_detail=1&t_selected_folderrsn=3170767","tcad_id":"0270401904","location":"    (30.43752903, -97.62288114)","day_issued":"THURSDAY","project_id":"3170767","condominium":"No","status_date":"05/22/2007","jurisdiction":"PFLUGERVILLE FULL PURPOSE","housing_units":"1","issuance_method":"Permit Center","permit_type_desc":"Mechanical Permit","master_permit_num":"4069517","fiscal_year_issued":"1981","issued_in_last_30_days":"No","certificate_of_occupancy":"No","property_legal_description":"LOT 1-3 * & E 29FT LOT 4 BLK J WRENBAR ADDN"},"geometry":{"type":"Point","coordinates":[-97.62288114,30.43752903]}}]}
