{"type":"FeatureCollection","features":[{"type":"Feature","properties":{"date":"2025-12-19T05:00:00.000Z","year":2025,"description":"REQUEST TO DISCONNECT - Spears 39-19154 - Disconnect/reconnect power to tie in PV component and upgrading MSP to 200 Amps. 125 amp Main Breaker. No meters being replaced only.","metadescription":"EP. Upgrade. REQUEST TO DISCONNECT - Spears 39-19154 - Disconnect/reconnect power to tie in PV component and upgrading MSP to 200 Amps. 125 amp Main Breaker. No meters being replaced only.. Final. 614 CAMP FIRE TRL","address":"614 Camp Fire Trail, Pflugerville, TX, 78660, US","link":"https://abc.austintexas.gov/web/permit/public-search-other?t_detail=1&t_selected_folderrsn=13630614","tcad_id":"0270360408","location":"    (30.43835243, -97.63428509)","day_issued":"FRIDAY","project_id":"13630614","condominium":"No","status_date":"01/16/2026","jurisdiction":"PFLUGERVILLE FULL PURPOSE","housing_units":"1","contractor_zip":"78744-____","contractor_city":"Austin","issuance_method":"Permit Center","contractor_phone":"6108745000","contractor_trade":"Electrical Contractor","number_of_floors":"1","permit_type_desc":"Electrical Permit","fiscal_year_issued":"2026","permit_class_mapped":"Residential","remodel_repair_sqft":"0","contractor_address_2":"7701  Metrop","contractor_full_name":"Mark Bedell","issued_in_last_30_days":"No","certificate_of_occupancy":"No","property_legal_description":"LOT 27 BLK 3 SETTLERS RIDGE SEC 3 CORRECTED PLAT OF","electrical_valuation_remodel":"$5,000.00"},"geometry":{"type":"Point","coordinates":[-97.63428509,30.43835243]}},{"type":"Feature","properties":{"date":"2025-12-19T05:00:00.000Z","year":2025,"description":"Spears 39-19154 - Install new 5.7kW rooftop solar system to existing residential only using backfed breaker.","metadescription":"EP. Auxiliary Power. Spears 39-19154 - Install new 5.7kW rooftop solar system to existing residential only using backfed breaker.. Final. 614 CAMP FIRE TRL","address":"614 Camp Fire Trail, Pflugerville, TX, 78660, US","link":"https://abc.austintexas.gov/web/permit/public-search-other?t_detail=1&t_selected_folderrsn=13630501","tcad_id":"0270360408","location":"    (30.43835243, -97.63428509)","day_issued":"FRIDAY","project_id":"13630501","condominium":"No","status_date":"02/02/2026","jurisdiction":"PFLUGERVILLE FULL PURPOSE","housing_units":"1","contractor_zip":"78744-____","contractor_city":"Austin","issuance_method":"Permit Center","contractor_phone":"6108745000","contractor_trade":"Electrical Contractor","number_of_floors":"1","permit_type_desc":"Electrical Permit","fiscal_year_issued":"2026","permit_class_mapped":"Residential","contractor_address_2":"7701  Metrop","contractor_full_name":"Mark Bedell","issued_in_last_30_days":"No","certificate_of_occupancy":"No","property_legal_description":"LOT 27 BLK 3 SETTLERS RIDGE SEC 3 CORRECTED PLAT OF","electrical_valuation_remodel":"$28,532.00"},"geometry":{"type":"Point","coordinates":[-97.63428509,30.43835243]}},{"type":"Feature","properties":{"date":"2024-01-09T05:00:00.000Z","year":2024,"description":"Installing 13 405-watt solar panels roof-mounted residential for a DC system size of 5.265 kW dc","metadescription":"EP. Auxiliary Power. Installing 13 405-watt solar panels roof-mounted residential for a DC system size of 5.265 kW dc. Final. 609 CAMP FIRE TRL","address":"609 Camp Fire Trail, Pflugerville, TX, 78660, US","link":"https://abc.austintexas.gov/web/permit/public-search-other?t_detail=1&t_selected_folderrsn=13259849","tcad_id":"0270360547","location":"    (30.43849177, -97.6334559)","day_issued":"TUESDAY","project_id":"13259849","condominium":"No","status_date":"02/23/2024","jurisdiction":"PFLUGERVILLE FULL PURPOSE","housing_units":"1","contractor_zip":"78751-____","contractor_city":"AUSTIN","issuance_method":"Permit Center","contractor_phone":"5128811640","contractor_trade":"Electrical Contractor","number_of_floors":"1","permit_type_desc":"Electrical Permit","fiscal_year_issued":"2024","permit_class_mapped":"Residential","contractor_address_2":"5555  North","contractor_full_name":"David Martineau","issued_in_last_30_days":"No","certificate_of_occupancy":"No","property_legal_description":"LOT 5 BLK 4 SETTLERS RIDGE SEC 3 CORRECTED PLAT OF","electrical_valuation_remodel":"$16,901.00"},"geometry":{"type":"Point","coordinates":[-97.6334559,30.43849177]}},{"type":"Feature","properties":{"date":"2023-12-19T05:00:00.000Z","year":2023,"description":"replace meter and panel","metadescription":"EP. Upgrade. replace meter and panel. Expired. 709 CAMP FIRE TRL","address":"709 Camp Fire Trail, Pflugerville, TX, 78660, US","link":"https://abc.austintexas.gov/web/permit/public-search-other?t_detail=1&t_selected_folderrsn=13210709","tcad_id":"0270360539","location":"    (30.43729066, -97.63427991)","day_issued":"TUESDAY","project_id":"13210709","condominium":"No","status_date":"06/17/2024","jurisdiction":"PFLUGERVILLE FULL PURPOSE","housing_units":"1","contractor_zip":"78758","contractor_city":"AUSTIN","issuance_method":"Permit Center","contractor_phone":"5122985225","contractor_trade":"Electrical Contractor","number_of_floors":"1","permit_type_desc":"Electrical Permit","fiscal_year_issued":"2024","permit_class_mapped":"Residential","remodel_repair_sqft":"2","contractor_address_2":"8868  RESEAR","contractor_full_name":"Ryan Pincham","issued_in_last_30_days":"No","certificate_of_occupancy":"No","property_legal_description":"LOT 13 BLK 4 SETTLERS RIDGE SEC 3 CORRECTED PLAT OF","electrical_valuation_remodel":"$6,200.00"},"geometry":{"type":"Point","coordinates":[-97.63427991,30.43729066]}},{"type":"Feature","properties":{"date":"2018-12-05T05:00:00.000Z","year":2018,"description":"Emergency-Repair existing service to residence. EUD","metadescription":"EP. Repair. Emergency-Repair existing service to residence. EUD. Final. 612 CAMP FIRE TRL","address":"612 Camp Fire Trail, Pflugerville, TX, 78660, US","link":"https://abc.austintexas.gov/web/permit/public-search-other?t_detail=1&t_selected_folderrsn=12097182","tcad_id":"0270360407","location":"    (30.43850095, -97.63415396)","day_issued":"WEDNESDAY","project_id":"12097182","condominium":"No","status_date":"03/05/2019","jurisdiction":"PFLUGERVILLE FULL PURPOSE","housing_units":"1","contractor_zip":"78741-____","contractor_city":"AUSTIN","issuance_method":"Permit Center","contractor_phone":"5126364984","contractor_trade":"Electrical Contractor","number_of_floors":"1","permit_type_desc":"Electrical Permit","fiscal_year_issued":"2019","permit_class_mapped":"Residential","remodel_repair_sqft":"0","contractor_address_2":"6005  BLUEBE","contractor_full_name":"Willie Rivera","issued_in_last_30_days":"No","certificate_of_occupancy":"No","property_legal_description":"LOT 26 BLK 3 SETTLERS RIDGE SEC 3 CORRECTED PLAT OF","electrical_valuation_remodel":"$900.00"},"geometry":{"type":"Point","coordinates":[-97.63415396,30.43850095]}},{"type":"Feature","properties":{"date":"1994-04-06T04:00:00.000Z","year":1994,"description":"Service Only Residential","metadescription":"EP. Remodel. Service Only Residential. Final. 600 CAMP FIRE TRL","address":"600 Camp Fire Trail, Pflugerville, TX, 78660, US","link":"https://abc.austintexas.gov/web/permit/public-search-other?t_detail=1&t_selected_folderrsn=4224833","tcad_id":"0270360401","location":"    (30.43942616, -97.6334202)","day_issued":"WEDNESDAY","project_id":"4224833","condominium":"No","status_date":"05/22/2007","jurisdiction":"PFLUGERVILLE FULL PURPOSE","housing_units":"1","issuance_method":"Permit Center","permit_type_desc":"Electrical Permit","fiscal_year_issued":"1994","permit_class_mapped":"Residential","issued_in_last_30_days":"No","certificate_of_occupancy":"No","property_legal_description":"LOT 20 BLK 3 SETTLERS RIDGE SEC 3 CORRECTED PLAT OF"},"geometry":{"type":"Point","coordinates":[-97.6334202,30.43942616]}},{"type":"Feature","properties":{"date":"1994-04-06T04:00:00.000Z","year":1994,"description":"Service Only Residential","metadescription":"MP. Remodel. Service Only Residential. Final. 600 CAMP FIRE TRL","address":"600 Camp Fire Trail, Pflugerville, TX, 78660, US","link":"https://abc.austintexas.gov/web/permit/public-search-other?t_detail=1&t_selected_folderrsn=3317309","tcad_id":"0270360401","location":"    (30.43942616, -97.6334202)","day_issued":"WEDNESDAY","project_id":"3317309","condominium":"No","status_date":"05/22/2007","jurisdiction":"PFLUGERVILLE FULL PURPOSE","housing_units":"1","issuance_method":"Permit Center","permit_type_desc":"Mechanical Permit","master_permit_num":"4224833","fiscal_year_issued":"1994","permit_class_mapped":"Residential","issued_in_last_30_days":"No","certificate_of_occupancy":"No","property_legal_description":"LOT 20 BLK 3 SETTLERS RIDGE SEC 3 CORRECTED PLAT OF"},"geometry":{"type":"Point","coordinates":[-97.6334202,30.43942616]}},{"type":"Feature","properties":{"date":"1994-01-26T05:00:00.000Z","year":1994,"description":"Service Only Residential","metadescription":"EP. Remodel. Service Only Residential. Final. 601 CAMP FIRE TRL","address":"601 Camp Fire Trail, Pflugerville, TX, 78660, US","link":"https://abc.austintexas.gov/web/permit/public-search-other?t_detail=1&t_selected_folderrsn=4222783","tcad_id":"0270360551","location":"    (30.43904894, -97.63300859)","day_issued":"WEDNESDAY","project_id":"4222783","condominium":"No","status_date":"05/22/2007","jurisdiction":"PFLUGERVILLE FULL PURPOSE","housing_units":"1","issuance_method":"Permit Center","permit_type_desc":"Electrical Permit","fiscal_year_issued":"1994","permit_class_mapped":"Residential","issued_in_last_30_days":"No","certificate_of_occupancy":"No","property_legal_description":"LOT 1 BLK 4 SETTLERS RIDGE SEC 3 CORRECTED PLAT OF"},"geometry":{"type":"Point","coordinates":[-97.63300859,30.43904894]}},{"type":"Feature","properties":{"date":"1994-01-26T05:00:00.000Z","year":1994,"description":"Service Only Residential","metadescription":"MP. Remodel. Service Only Residential. Final. 601 CAMP FIRE TRL","address":"601 Camp Fire Trail, Pflugerville, TX, 78660, US","link":"https://abc.austintexas.gov/web/permit/public-search-other?t_detail=1&t_selected_folderrsn=3315277","tcad_id":"0270360551","location":"    (30.43904894, -97.63300859)","day_issued":"WEDNESDAY","project_id":"3315277","condominium":"No","status_date":"05/22/2007","jurisdiction":"PFLUGERVILLE FULL PURPOSE","housing_units":"1","issuance_method":"Permit Center","permit_type_desc":"Mechanical Permit","master_permit_num":"4222783","fiscal_year_issued":"1994","permit_class_mapped":"Residential","issued_in_last_30_days":"No","certificate_of_occupancy":"No","property_legal_description":"LOT 1 BLK 4 SETTLERS RIDGE SEC 3 CORRECTED PLAT OF"},"geometry":{"type":"Point","coordinates":[-97.63300859,30.43904894]}},{"type":"Feature","properties":{"date":"1993-12-13T05:00:00.000Z","year":1993,"description":"Service Only For New Residence","metadescription":"EP. Remodel. Service Only For New Residence. Final. 603 CAMP FIRE TRL","address":"603 Camp Fire Trail, Pflugerville, TX, 78660, US","link":"https://abc.austintexas.gov/web/permit/public-search-other?t_detail=1&t_selected_folderrsn=4221583","tcad_id":"0270360550","location":"    (30.43895004, -97.63314468)","day_issued":"MONDAY","project_id":"4221583","condominium":"No","status_date":"05/22/2007","jurisdiction":"PFLUGERVILLE FULL PURPOSE","housing_units":"1","issuance_method":"Permit Center","permit_type_desc":"Electrical Permit","fiscal_year_issued":"1994","permit_class_mapped":"Residential","issued_in_last_30_days":"No","certificate_of_occupancy":"No"},"geometry":{"type":"Point","coordinates":[-97.63314468,30.43895004]}},{"type":"Feature","properties":{"date":"1993-12-13T05:00:00.000Z","year":1993,"description":"Service Only For New Residence","metadescription":"MP. Remodel. Service Only For New Residence. Final. 603 CAMP FIRE TRL","address":"603 Camp Fire Trail, Pflugerville, TX, 78660, US","link":"https://abc.austintexas.gov/web/permit/public-search-other?t_detail=1&t_selected_folderrsn=3314165","tcad_id":"0270360550","location":"    (30.43895004, -97.63314468)","day_issued":"MONDAY","project_id":"3314165","condominium":"No","status_date":"05/22/2007","jurisdiction":"PFLUGERVILLE FULL PURPOSE","housing_units":"1","issuance_method":"Permit Center","permit_type_desc":"Mechanical Permit","master_permit_num":"4221583","fiscal_year_issued":"1994","permit_class_mapped":"Residential","issued_in_last_30_days":"No","certificate_of_occupancy":"No"},"geometry":{"type":"Point","coordinates":[-97.63314468,30.43895004]}},{"type":"Feature","properties":{"date":"1993-01-27T05:00:00.000Z","year":1993,"description":"Service Only Residenital","metadescription":"EP. Remodel. Service Only Residenital. Final. 613 CAMP FIRE TRL","address":"613 Camp Fire Trail, Pflugerville, TX, 78660, US","link":"https://abc.austintexas.gov/web/permit/public-search-other?t_detail=1&t_selected_folderrsn=4212288","tcad_id":"0270360545","location":"    (30.43817155, -97.63366167)","day_issued":"WEDNESDAY","project_id":"4212288","condominium":"No","status_date":"05/22/2007","jurisdiction":"PFLUGERVILLE FULL PURPOSE","housing_units":"1","issuance_method":"Permit Center","permit_type_desc":"Electrical Permit","fiscal_year_issued":"1993","permit_class_mapped":"Residential","issued_in_last_30_days":"No","certificate_of_occupancy":"No","property_legal_description":"LOT 7 BLK 4 SETTLERS RIDGE SEC 3 CORRECTED PLAT OF"},"geometry":{"type":"Point","coordinates":[-97.63366167,30.43817155]}},{"type":"Feature","properties":{"date":"1993-01-27T05:00:00.000Z","year":1993,"description":"Service Only Residenital","metadescription":"MP. Remodel. Service Only Residenital. Final. 613 CAMP FIRE TRL","address":"613 Camp Fire Trail, Pflugerville, TX, 78660, US","link":"https://abc.austintexas.gov/web/permit/public-search-other?t_detail=1&t_selected_folderrsn=3305079","tcad_id":"0270360545","location":"    (30.43817155, -97.63366167)","day_issued":"WEDNESDAY","project_id":"3305079","condominium":"No","status_date":"05/22/2007","jurisdiction":"PFLUGERVILLE FULL PURPOSE","housing_units":"1","issuance_method":"Permit Center","permit_type_desc":"Mechanical Permit","master_permit_num":"4212288","fiscal_year_issued":"1993","permit_class_mapped":"Residential","issued_in_last_30_days":"No","certificate_of_occupancy":"No","property_legal_description":"LOT 7 BLK 4 SETTLERS RIDGE SEC 3 CORRECTED PLAT OF"},"geometry":{"type":"Point","coordinates":[-97.63366167,30.43817155]}},{"type":"Feature","properties":{"date":"1992-09-11T04:00:00.000Z","year":1992,"description":"Service Only","metadescription":"MP. Remodel. Service Only. Expired. 712 CAMP FIRE TRL","address":"712 Camp Fire Trail, Pflugerville, TX, 78660, US","link":"https://abc.austintexas.gov/web/permit/public-search-other?t_detail=1&t_selected_folderrsn=3442690","tcad_id":"0270360415","location":"    (30.43724365, -97.63505255)","day_issued":"FRIDAY","project_id":"3442690","condominium":"No","status_date":"06/06/2007","jurisdiction":"PFLUGERVILLE FULL PURPOSE","housing_units":"1","issuance_method":"Permit Center","permit_type_desc":"Mechanical Permit","fiscal_year_issued":"1992","permit_class_mapped":"Residential","issued_in_last_30_days":"No","certificate_of_occupancy":"No","property_legal_description":"LOT 34 BLK 3 SETTLERS RIDGE SEC 3 CORRECTED PLAT OF"},"geometry":{"type":"Point","coordinates":[-97.63505255,30.43724365]}},{"type":"Feature","properties":{"date":"1992-08-24T04:00:00.000Z","year":1992,"description":"Service Only","metadescription":"EP. Remodel. Service Only. Final. 605 CAMP FIRE TRL","address":"605 Camp Fire Trail, Pflugerville, TX, 78660, US","link":"https://abc.austintexas.gov/web/permit/public-search-other?t_detail=1&t_selected_folderrsn=4208560","tcad_id":"0270360549","location":"    (30.43877914, -97.63325739)","day_issued":"MONDAY","project_id":"4208560","condominium":"No","status_date":"05/22/2007","jurisdiction":"PFLUGERVILLE FULL PURPOSE","housing_units":"1","issuance_method":"Permit Center","permit_type_desc":"Electrical Permit","fiscal_year_issued":"1992","permit_class_mapped":"Residential","issued_in_last_30_days":"No","certificate_of_occupancy":"No","property_legal_description":"LOT 3 BLK 4 SETTLERS RIDGE SEC 3 CORRECTED PLAT OF"},"geometry":{"type":"Point","coordinates":[-97.63325739,30.43877914]}},{"type":"Feature","properties":{"date":"1992-08-24T04:00:00.000Z","year":1992,"description":"Service Only","metadescription":"MP. Remodel. Service Only. Final. 605 CAMP FIRE TRL","address":"605 Camp Fire Trail, Pflugerville, TX, 78660, US","link":"https://abc.austintexas.gov/web/permit/public-search-other?t_detail=1&t_selected_folderrsn=3301405","tcad_id":"0270360549","location":"    (30.43877914, -97.63325739)","day_issued":"MONDAY","project_id":"3301405","condominium":"No","status_date":"05/22/2007","jurisdiction":"PFLUGERVILLE FULL PURPOSE","housing_units":"1","issuance_method":"Permit Center","permit_type_desc":"Mechanical Permit","master_permit_num":"4208560","fiscal_year_issued":"1992","permit_class_mapped":"Residential","issued_in_last_30_days":"No","certificate_of_occupancy":"No","property_legal_description":"LOT 3 BLK 4 SETTLERS RIDGE SEC 3 CORRECTED PLAT OF"},"geometry":{"type":"Point","coordinates":[-97.63325739,30.43877914]}},{"type":"Feature","properties":{"date":"1992-08-24T04:00:00.000Z","year":1992,"description":"Service Only","metadescription":"EP. Remodel. Service Only. Final. 700 CAMP FIRE TRL","address":"700 Camp Fire Trail, Pflugerville, TX, 78660, US","link":"https://abc.austintexas.gov/web/permit/public-search-other?t_detail=1&t_selected_folderrsn=4208562","tcad_id":"0270360409","location":"    (30.43818126, -97.63438511)","day_issued":"MONDAY","project_id":"4208562","condominium":"No","status_date":"05/22/2007","jurisdiction":"PFLUGERVILLE FULL PURPOSE","housing_units":"1","issuance_method":"Permit Center","permit_type_desc":"Electrical Permit","fiscal_year_issued":"1992","permit_class_mapped":"Residential","issued_in_last_30_days":"No","certificate_of_occupancy":"No","property_legal_description":"LOT 28 BLK 3 SETTLERS RIDGE SEC 3 CORRECTED PLAT OF"},"geometry":{"type":"Point","coordinates":[-97.63438511,30.43818126]}},{"type":"Feature","properties":{"date":"1992-08-24T04:00:00.000Z","year":1992,"description":"Service Only","metadescription":"MP. Remodel. Service Only. Final. 700 CAMP FIRE TRL","address":"700 Camp Fire Trail, Pflugerville, TX, 78660, US","link":"https://abc.austintexas.gov/web/permit/public-search-other?t_detail=1&t_selected_folderrsn=3301407","tcad_id":"0270360409","location":"    (30.43818126, -97.63438511)","day_issued":"MONDAY","project_id":"3301407","condominium":"No","status_date":"05/22/2007","jurisdiction":"PFLUGERVILLE FULL PURPOSE","housing_units":"1","issuance_method":"Permit Center","permit_type_desc":"Mechanical Permit","master_permit_num":"4208562","fiscal_year_issued":"1992","permit_class_mapped":"Residential","issued_in_last_30_days":"No","certificate_of_occupancy":"No","property_legal_description":"LOT 28 BLK 3 SETTLERS RIDGE SEC 3 CORRECTED PLAT OF"},"geometry":{"type":"Point","coordinates":[-97.63438511,30.43818126]}},{"type":"Feature","properties":{"date":"1992-08-24T04:00:00.000Z","year":1992,"description":"Service Only","metadescription":"EP. Remodel. Service Only. Final. 610 CAMP FIRE TRL","address":"610 Camp Fire Trail, Pflugerville, TX, 78660, US","link":"https://abc.austintexas.gov/web/permit/public-search-other?t_detail=1&t_selected_folderrsn=4208561","tcad_id":"0270360406","location":"    (30.43868184, -97.6341235)","day_issued":"MONDAY","project_id":"4208561","condominium":"No","status_date":"05/22/2007","jurisdiction":"PFLUGERVILLE FULL PURPOSE","housing_units":"1","issuance_method":"Permit Center","permit_type_desc":"Electrical Permit","fiscal_year_issued":"1992","permit_class_mapped":"Residential","issued_in_last_30_days":"No","certificate_of_occupancy":"No","property_legal_description":"LOT 25 BLK 3 SETTLERS RIDGE SEC 3 CORRECTED PLAT OF"},"geometry":{"type":"Point","coordinates":[-97.6341235,30.43868184]}},{"type":"Feature","properties":{"date":"1992-08-24T04:00:00.000Z","year":1992,"description":"Service Only","metadescription":"MP. Remodel. Service Only. Final. 610 CAMP FIRE TRL","address":"610 Camp Fire Trail, Pflugerville, TX, 78660, US","link":"https://abc.austintexas.gov/web/permit/public-search-other?t_detail=1&t_selected_folderrsn=3301406","tcad_id":"0270360406","location":"    (30.43868184, -97.6341235)","day_issued":"MONDAY","project_id":"3301406","condominium":"No","status_date":"05/22/2007","jurisdiction":"PFLUGERVILLE FULL PURPOSE","housing_units":"1","issuance_method":"Permit Center","permit_type_desc":"Mechanical Permit","master_permit_num":"4208561","fiscal_year_issued":"1992","permit_class_mapped":"Residential","issued_in_last_30_days":"No","certificate_of_occupancy":"No","property_legal_description":"LOT 25 BLK 3 SETTLERS RIDGE SEC 3 CORRECTED PLAT OF"},"geometry":{"type":"Point","coordinates":[-97.6341235,30.43868184]}},{"type":"Feature","properties":{"date":"1992-08-24T04:00:00.000Z","year":1992,"description":"Service Only","metadescription":"EP. Remodel. Service Only. Final. 602 CAMP FIRE TRL","address":"602 Camp Fire Trail, Pflugerville, TX, 78660, US","link":"https://abc.austintexas.gov/web/permit/public-search-other?t_detail=1&t_selected_folderrsn=4208558","tcad_id":"0270360402","location":"    (30.43928951, -97.63359226)","day_issued":"MONDAY","project_id":"4208558","condominium":"No","status_date":"05/22/2007","jurisdiction":"PFLUGERVILLE FULL PURPOSE","housing_units":"1","issuance_method":"Permit Center","permit_type_desc":"Electrical Permit","fiscal_year_issued":"1992","permit_class_mapped":"Residential","issued_in_last_30_days":"No","certificate_of_occupancy":"No","property_legal_description":"LOT 21 BLK 3 SETTLERS RIDGE SEC 3 CORRECTED PLAT OF"},"geometry":{"type":"Point","coordinates":[-97.63359226,30.43928951]}},{"type":"Feature","properties":{"date":"1992-08-24T04:00:00.000Z","year":1992,"description":"Service Only","metadescription":"MP. Remodel. Service Only. Final. 602 CAMP FIRE TRL","address":"602 Camp Fire Trail, Pflugerville, TX, 78660, US","link":"https://abc.austintexas.gov/web/permit/public-search-other?t_detail=1&t_selected_folderrsn=3301403","tcad_id":"0270360402","location":"    (30.43928951, -97.63359226)","day_issued":"MONDAY","project_id":"3301403","condominium":"No","status_date":"05/22/2007","jurisdiction":"PFLUGERVILLE FULL PURPOSE","housing_units":"1","issuance_method":"Permit Center","permit_type_desc":"Mechanical Permit","master_permit_num":"4208558","fiscal_year_issued":"1992","permit_class_mapped":"Residential","issued_in_last_30_days":"No","certificate_of_occupancy":"No","property_legal_description":"LOT 21 BLK 3 SETTLERS RIDGE SEC 3 CORRECTED PLAT OF"},"geometry":{"type":"Point","coordinates":[-97.63359226,30.43928951]}},{"type":"Feature","properties":{"date":"1992-08-06T04:00:00.000Z","year":1992,"description":"Electric Service Only","metadescription":"EP. Remodel. Electric Service Only. Final. 715 CAMP FIRE TRL","address":"715 Camp Fire Trail, Pflugerville, TX, 78660, US","link":"https://abc.austintexas.gov/web/permit/public-search-other?t_detail=1&t_selected_folderrsn=4208069","tcad_id":"0270360536","location":"    (30.43681414, -97.63463924)","day_issued":"THURSDAY","project_id":"4208069","condominium":"No","status_date":"05/22/2007","jurisdiction":"PFLUGERVILLE FULL PURPOSE","housing_units":"1","issuance_method":"Permit Center","permit_type_desc":"Electrical Permit","fiscal_year_issued":"1992","permit_class_mapped":"Residential","issued_in_last_30_days":"No","certificate_of_occupancy":"No","property_legal_description":"LOT 16 BLK 4 SETTLERS RIDGE SEC 3 CORRECTED PLAT OF"},"geometry":{"type":"Point","coordinates":[-97.63463924,30.43681414]}},{"type":"Feature","properties":{"date":"1992-08-06T04:00:00.000Z","year":1992,"description":"Electric Service Only","metadescription":"MP. Remodel. Electric Service Only. Final. 715 CAMP FIRE TRL","address":"715 Camp Fire Trail, Pflugerville, TX, 78660, US","link":"https://abc.austintexas.gov/web/permit/public-search-other?t_detail=1&t_selected_folderrsn=3300908","tcad_id":"0270360536","location":"    (30.43681414, -97.63463924)","day_issued":"THURSDAY","project_id":"3300908","condominium":"No","status_date":"05/22/2007","jurisdiction":"PFLUGERVILLE FULL PURPOSE","housing_units":"1","issuance_method":"Permit Center","permit_type_desc":"Mechanical Permit","master_permit_num":"4208069","fiscal_year_issued":"1992","permit_class_mapped":"Residential","issued_in_last_30_days":"No","certificate_of_occupancy":"No","property_legal_description":"LOT 16 BLK 4 SETTLERS RIDGE SEC 3 CORRECTED PLAT OF"},"geometry":{"type":"Point","coordinates":[-97.63463924,30.43681414]}},{"type":"Feature","properties":{"date":"1992-08-04T04:00:00.000Z","year":1992,"description":"Electric Service Only","metadescription":"PP. Remodel. Electric Service Only. Final. 607 CAMP FIRE TRL","address":"607 Camp Fire Trail, Pflugerville, TX, 78660, US","link":"https://abc.austintexas.gov/web/permit/public-search-other?t_detail=1&t_selected_folderrsn=3667324","tcad_id":"0270360548","location":"    (30.43863605, -97.6333852)","day_issued":"TUESDAY","project_id":"3667324","condominium":"No","status_date":"05/22/2007","jurisdiction":"PFLUGERVILLE FULL PURPOSE","housing_units":"1","issuance_method":"Permit Center","permit_type_desc":"Plumbing Permit","master_permit_num":"3300906","fiscal_year_issued":"1992","permit_class_mapped":"Residential","issued_in_last_30_days":"No","certificate_of_occupancy":"No","property_legal_description":"LOT 4 BLK 4 SETTLERS RIDGE SEC 3 CORRECTED PLAT OF"},"geometry":{"type":"Point","coordinates":[-97.6333852,30.43863605]}},{"type":"Feature","properties":{"date":"1992-08-04T04:00:00.000Z","year":1992,"description":"Electric Service Only","metadescription":"EP. Remodel. Electric Service Only. Final. 705 CAMP FIRE TRL","address":"705 Camp Fire Trail, Pflugerville, TX, 78660, US","link":"https://abc.austintexas.gov/web/permit/public-search-other?t_detail=1&t_selected_folderrsn=4208066","tcad_id":"0270360541","location":"    (30.43757743, -97.63405286)","day_issued":"TUESDAY","project_id":"4208066","condominium":"No","status_date":"05/22/2007","jurisdiction":"PFLUGERVILLE FULL PURPOSE","housing_units":"1","issuance_method":"Permit Center","permit_type_desc":"Electrical Permit","fiscal_year_issued":"1992","permit_class_mapped":"Residential","issued_in_last_30_days":"No","certificate_of_occupancy":"No","property_legal_description":"LOT 11 BLK 4 SETTLERS RIDGE SEC 3 CORRECTED PLAT OF"},"geometry":{"type":"Point","coordinates":[-97.63405286,30.43757743]}},{"type":"Feature","properties":{"date":"1992-08-04T04:00:00.000Z","year":1992,"description":"Electric Service","metadescription":"EP. Remodel. Electric Service. Final. 604 CAMP FIRE TRL","address":"604 Camp Fire Trail, Pflugerville, TX, 78660, US","link":"https://abc.austintexas.gov/web/permit/public-search-other?t_detail=1&t_selected_folderrsn=4396694","tcad_id":"0270360403","location":"    (30.43914596, -97.63369786)","day_issued":"TUESDAY","project_id":"4396694","condominium":"No","status_date":"05/22/2007","jurisdiction":"PFLUGERVILLE FULL PURPOSE","housing_units":"1","issuance_method":"Permit Center","permit_type_desc":"Electrical Permit","fiscal_year_issued":"1992","permit_class_mapped":"Residential","issued_in_last_30_days":"No","certificate_of_occupancy":"No","property_legal_description":"LOT 22 BLK 3 SETTLERS RIDGE SEC 3 CORRECTED PLAT OF"},"geometry":{"type":"Point","coordinates":[-97.63369786,30.43914596]}},{"type":"Feature","properties":{"date":"1992-08-04T04:00:00.000Z","year":1992,"description":"Electric Service Only","metadescription":"MP. Remodel. Electric Service Only. Final. 611 CAMP FIRE TRL","address":"611 Camp Fire Trail, Pflugerville, TX, 78660, US","link":"https://abc.austintexas.gov/web/permit/public-search-other?t_detail=1&t_selected_folderrsn=3300903","tcad_id":"0270360546","location":"    (30.43833742, -97.63357132)","day_issued":"TUESDAY","project_id":"3300903","condominium":"No","status_date":"05/22/2007","jurisdiction":"PFLUGERVILLE FULL PURPOSE","housing_units":"1","issuance_method":"Permit Center","permit_type_desc":"Mechanical Permit","master_permit_num":"4208064","fiscal_year_issued":"1992","permit_class_mapped":"Residential","issued_in_last_30_days":"No","certificate_of_occupancy":"No","property_legal_description":"LOT 6 BLK 4 SETTLERS RIDGE SEC 3 CORRECTED PLAT OF"},"geometry":{"type":"Point","coordinates":[-97.63357132,30.43833742]}},{"type":"Feature","properties":{"date":"1992-08-04T04:00:00.000Z","year":1992,"description":"Electric Service Only","metadescription":"EP. Remodel. Electric Service Only. Final. 611 CAMP FIRE TRL","address":"611 Camp Fire Trail, Pflugerville, TX, 78660, US","link":"https://abc.austintexas.gov/web/permit/public-search-other?t_detail=1&t_selected_folderrsn=4208064","tcad_id":"0270360546","location":"    (30.43833742, -97.63357132)","day_issued":"TUESDAY","project_id":"4208064","condominium":"No","status_date":"05/22/2007","jurisdiction":"PFLUGERVILLE FULL PURPOSE","housing_units":"1","issuance_method":"Permit Center","permit_type_desc":"Electrical Permit","fiscal_year_issued":"1992","permit_class_mapped":"Residential","issued_in_last_30_days":"No","certificate_of_occupancy":"No","property_legal_description":"LOT 6 BLK 4 SETTLERS RIDGE SEC 3 CORRECTED PLAT OF"},"geometry":{"type":"Point","coordinates":[-97.63357132,30.43833742]}},{"type":"Feature","properties":{"date":"1992-08-04T04:00:00.000Z","year":1992,"description":"Electric Service Only","metadescription":"MP. Remodel. Electric Service Only. Final. 705 CAMP FIRE TRL","address":"705 Camp Fire Trail, Pflugerville, TX, 78660, US","link":"https://abc.austintexas.gov/web/permit/public-search-other?t_detail=1&t_selected_folderrsn=3300905","tcad_id":"0270360541","location":"    (30.43757743, -97.63405286)","day_issued":"TUESDAY","project_id":"3300905","condominium":"No","status_date":"05/22/2007","jurisdiction":"PFLUGERVILLE FULL PURPOSE","housing_units":"1","issuance_method":"Permit Center","permit_type_desc":"Mechanical Permit","master_permit_num":"4208066","fiscal_year_issued":"1992","permit_class_mapped":"Residential","issued_in_last_30_days":"No","certificate_of_occupancy":"No","property_legal_description":"LOT 11 BLK 4 SETTLERS RIDGE SEC 3 CORRECTED PLAT OF"},"geometry":{"type":"Point","coordinates":[-97.63405286,30.43757743]}},{"type":"Feature","properties":{"date":"1992-08-04T04:00:00.000Z","year":1992,"description":"Electric Service Only","metadescription":"EP. Remodel. Electric Service Only. Final. 607 CAMP FIRE TRL","address":"607 Camp Fire Trail, Pflugerville, TX, 78660, US","link":"https://abc.austintexas.gov/web/permit/public-search-other?t_detail=1&t_selected_folderrsn=4208067","tcad_id":"0270360548","location":"    (30.43863605, -97.6333852)","day_issued":"TUESDAY","project_id":"4208067","condominium":"No","status_date":"05/22/2007","jurisdiction":"PFLUGERVILLE FULL PURPOSE","housing_units":"1","issuance_method":"Permit Center","permit_type_desc":"Electrical Permit","fiscal_year_issued":"1992","permit_class_mapped":"Residential","issued_in_last_30_days":"No","certificate_of_occupancy":"No","property_legal_description":"LOT 4 BLK 4 SETTLERS RIDGE SEC 3 CORRECTED PLAT OF"},"geometry":{"type":"Point","coordinates":[-97.6333852,30.43863605]}},{"type":"Feature","properties":{"date":"1992-08-04T04:00:00.000Z","year":1992,"description":"Electric Service Only","metadescription":"MP. Remodel. Electric Service Only. Final. 607 CAMP FIRE TRL","address":"607 Camp Fire Trail, Pflugerville, TX, 78660, US","link":"https://abc.austintexas.gov/web/permit/public-search-other?t_detail=1&t_selected_folderrsn=3300906","tcad_id":"0270360548","location":"    (30.43863605, -97.6333852)","day_issued":"TUESDAY","project_id":"3300906","condominium":"No","status_date":"05/22/2007","jurisdiction":"PFLUGERVILLE FULL PURPOSE","housing_units":"1","issuance_method":"Permit Center","permit_type_desc":"Mechanical Permit","master_permit_num":"4208067","fiscal_year_issued":"1992","permit_class_mapped":"Residential","issued_in_last_30_days":"No","certificate_of_occupancy":"No","property_legal_description":"LOT 4 BLK 4 SETTLERS RIDGE SEC 3 CORRECTED PLAT OF"},"geometry":{"type":"Point","coordinates":[-97.6333852,30.43863605]}},{"type":"Feature","properties":{"date":"1992-08-04T04:00:00.000Z","year":1992,"description":"Electric Service","metadescription":"MP. Remodel. Electric Service. Final. 604 CAMP FIRE TRL","address":"604 Camp Fire Trail, Pflugerville, TX, 78660, US","link":"https://abc.austintexas.gov/web/permit/public-search-other?t_detail=1&t_selected_folderrsn=3432531","tcad_id":"0270360403","location":"    (30.43914596, -97.63369786)","day_issued":"TUESDAY","project_id":"3432531","condominium":"No","status_date":"05/22/2007","jurisdiction":"PFLUGERVILLE FULL PURPOSE","housing_units":"1","issuance_method":"Permit Center","permit_type_desc":"Mechanical Permit","master_permit_num":"4396694","fiscal_year_issued":"1992","permit_class_mapped":"Residential","issued_in_last_30_days":"No","certificate_of_occupancy":"No","property_legal_description":"LOT 22 BLK 3 SETTLERS RIDGE SEC 3 CORRECTED PLAT OF"},"geometry":{"type":"Point","coordinates":[-97.63369786,30.43914596]}},{"type":"Feature","properties":{"date":"1992-07-22T04:00:00.000Z","year":1992,"description":"Service Only","metadescription":"EP. Remodel. Service Only. Final. 702 CAMP FIRE TRL","address":"702 Camp Fire Trail, Pflugerville, TX, 78660, US","link":"https://abc.austintexas.gov/web/permit/public-search-other?t_detail=1&t_selected_folderrsn=4207721","tcad_id":"0270360410","location":"    (30.43804655, -97.63451903)","day_issued":"WEDNESDAY","project_id":"4207721","condominium":"No","status_date":"05/22/2007","jurisdiction":"PFLUGERVILLE FULL PURPOSE","housing_units":"1","issuance_method":"Permit Center","permit_type_desc":"Electrical Permit","fiscal_year_issued":"1992","permit_class_mapped":"Residential","issued_in_last_30_days":"No","certificate_of_occupancy":"No","property_legal_description":"LOT 29 BLK 3 SETTLERS RIDGE SEC 3 CORRECTED PLAT OF"},"geometry":{"type":"Point","coordinates":[-97.63451903,30.43804655]}},{"type":"Feature","properties":{"date":"1992-07-22T04:00:00.000Z","year":1992,"description":"Service Only","metadescription":"MP. Remodel. Service Only. Final. 614 CAMP FIRE TRL","address":"614 Camp Fire Trail, Pflugerville, TX, 78660, US","link":"https://abc.austintexas.gov/web/permit/public-search-other?t_detail=1&t_selected_folderrsn=3300551","tcad_id":"0270360408","location":"    (30.43835243, -97.63428509)","day_issued":"WEDNESDAY","project_id":"3300551","condominium":"No","status_date":"05/22/2007","jurisdiction":"PFLUGERVILLE FULL PURPOSE","housing_units":"1","issuance_method":"Permit Center","permit_type_desc":"Mechanical Permit","master_permit_num":"4207706","fiscal_year_issued":"1992","permit_class_mapped":"Residential","issued_in_last_30_days":"No","certificate_of_occupancy":"No","property_legal_description":"LOT 27 BLK 3 SETTLERS RIDGE SEC 3 CORRECTED PLAT OF"},"geometry":{"type":"Point","coordinates":[-97.63428509,30.43835243]}},{"type":"Feature","properties":{"date":"1992-07-22T04:00:00.000Z","year":1992,"description":"Service Only","metadescription":"MP. Remodel. Service Only. Final. 702 CAMP FIRE TRL","address":"702 Camp Fire Trail, Pflugerville, TX, 78660, US","link":"https://abc.austintexas.gov/web/permit/public-search-other?t_detail=1&t_selected_folderrsn=3300566","tcad_id":"0270360410","location":"    (30.43804655, -97.63451903)","day_issued":"WEDNESDAY","project_id":"3300566","condominium":"No","status_date":"05/22/2007","jurisdiction":"PFLUGERVILLE FULL PURPOSE","housing_units":"1","issuance_method":"Permit Center","permit_type_desc":"Mechanical Permit","master_permit_num":"4207721","fiscal_year_issued":"1992","permit_class_mapped":"Residential","issued_in_last_30_days":"No","certificate_of_occupancy":"No","property_legal_description":"LOT 29 BLK 3 SETTLERS RIDGE SEC 3 CORRECTED PLAT OF"},"geometry":{"type":"Point","coordinates":[-97.63451903,30.43804655]}},{"type":"Feature","properties":{"date":"1992-07-22T04:00:00.000Z","year":1992,"description":"Service Only","metadescription":"EP. Remodel. Service Only. Final. 614 CAMP FIRE TRL","address":"614 Camp Fire Trail, Pflugerville, TX, 78660, US","link":"https://abc.austintexas.gov/web/permit/public-search-other?t_detail=1&t_selected_folderrsn=4207706","tcad_id":"0270360408","location":"    (30.43835243, -97.63428509)","day_issued":"WEDNESDAY","project_id":"4207706","condominium":"No","status_date":"05/22/2007","jurisdiction":"PFLUGERVILLE FULL PURPOSE","housing_units":"1","issuance_method":"Permit Center","permit_type_desc":"Electrical Permit","fiscal_year_issued":"1992","permit_class_mapped":"Residential","issued_in_last_30_days":"No","certificate_of_occupancy":"No","property_legal_description":"LOT 27 BLK 3 SETTLERS RIDGE SEC 3 CORRECTED PLAT OF"},"geometry":{"type":"Point","coordinates":[-97.63428509,30.43835243]}},{"type":"Feature","properties":{"date":"1992-07-21T04:00:00.000Z","year":1992,"description":"Service Only","metadescription":"MP. Remodel. Service Only. Final. 612 CAMP FIRE TRL","address":"612 Camp Fire Trail, Pflugerville, TX, 78660, US","link":"https://abc.austintexas.gov/web/permit/public-search-other?t_detail=1&t_selected_folderrsn=3300510","tcad_id":"0270360407","location":"    (30.43850095, -97.63415396)","day_issued":"TUESDAY","project_id":"3300510","condominium":"No","status_date":"05/22/2007","jurisdiction":"PFLUGERVILLE FULL PURPOSE","housing_units":"1","issuance_method":"Permit Center","permit_type_desc":"Mechanical Permit","master_permit_num":"4207662","fiscal_year_issued":"1992","permit_class_mapped":"Residential","issued_in_last_30_days":"No","certificate_of_occupancy":"No","property_legal_description":"LOT 26 BLK 3 SETTLERS RIDGE SEC 3 CORRECTED PLAT OF"},"geometry":{"type":"Point","coordinates":[-97.63415396,30.43850095]}},{"type":"Feature","properties":{"date":"1992-07-21T04:00:00.000Z","year":1992,"description":"Service Only","metadescription":"EP. Remodel. Service Only. Final. 612 CAMP FIRE TRL","address":"612 Camp Fire Trail, Pflugerville, TX, 78660, US","link":"https://abc.austintexas.gov/web/permit/public-search-other?t_detail=1&t_selected_folderrsn=4207662","tcad_id":"0270360407","location":"    (30.43850095, -97.63415396)","day_issued":"TUESDAY","project_id":"4207662","condominium":"No","status_date":"05/22/2007","jurisdiction":"PFLUGERVILLE FULL PURPOSE","housing_units":"1","issuance_method":"Permit Center","permit_type_desc":"Electrical Permit","fiscal_year_issued":"1992","permit_class_mapped":"Residential","issued_in_last_30_days":"No","certificate_of_occupancy":"No","property_legal_description":"LOT 26 BLK 3 SETTLERS RIDGE SEC 3 CORRECTED PLAT OF"},"geometry":{"type":"Point","coordinates":[-97.63415396,30.43850095]}},{"type":"Feature","properties":{"date":"1992-07-21T04:00:00.000Z","year":1992,"description":"Service Only","metadescription":"MP. Remodel. Service Only. Final. 703 CAMP FIRE TRL","address":"703 Camp Fire Trail, Pflugerville, TX, 78660, US","link":"https://abc.austintexas.gov/web/permit/public-search-other?t_detail=1&t_selected_folderrsn=3300509","tcad_id":"0270360542","location":"    (30.43767627, -97.63391361)","day_issued":"TUESDAY","project_id":"3300509","condominium":"No","status_date":"05/22/2007","jurisdiction":"PFLUGERVILLE FULL PURPOSE","housing_units":"1","issuance_method":"Permit Center","permit_type_desc":"Mechanical Permit","master_permit_num":"4207661","fiscal_year_issued":"1992","permit_class_mapped":"Residential","issued_in_last_30_days":"No","certificate_of_occupancy":"No","property_legal_description":"LOT 10 BLK 4 SETTLERS RIDGE SEC 3 CORRECTED PLAT OF"},"geometry":{"type":"Point","coordinates":[-97.63391361,30.43767627]}},{"type":"Feature","properties":{"date":"1992-07-21T04:00:00.000Z","year":1992,"description":"Service Only","metadescription":"EP. Remodel. Service Only. Final. 703 CAMP FIRE TRL","address":"703 Camp Fire Trail, Pflugerville, TX, 78660, US","link":"https://abc.austintexas.gov/web/permit/public-search-other?t_detail=1&t_selected_folderrsn=4207661","tcad_id":"0270360542","location":"    (30.43767627, -97.63391361)","day_issued":"TUESDAY","project_id":"4207661","condominium":"No","status_date":"05/22/2007","jurisdiction":"PFLUGERVILLE FULL PURPOSE","housing_units":"1","issuance_method":"Permit Center","permit_type_desc":"Electrical Permit","fiscal_year_issued":"1992","permit_class_mapped":"Residential","issued_in_last_30_days":"No","certificate_of_occupancy":"No","property_legal_description":"LOT 10 BLK 4 SETTLERS RIDGE SEC 3 CORRECTED PLAT OF"},"geometry":{"type":"Point","coordinates":[-97.63391361,30.43767627]}},{"type":"Feature","properties":{"date":"1992-07-15T04:00:00.000Z","year":1992,"description":"Service Only","metadescription":"EP. Remodel. Service Only. Final. 704 CAMP FIRE TRL","address":"704 Camp Fire Trail, Pflugerville, TX, 78660, US","link":"https://abc.austintexas.gov/web/permit/public-search-other?t_detail=1&t_selected_folderrsn=4207521","tcad_id":"0270360411","location":"    (30.43785815, -97.63458461)","day_issued":"WEDNESDAY","project_id":"4207521","condominium":"No","status_date":"05/22/2007","jurisdiction":"PFLUGERVILLE FULL PURPOSE","housing_units":"1","issuance_method":"Permit Center","permit_type_desc":"Electrical Permit","fiscal_year_issued":"1992","permit_class_mapped":"Residential","issued_in_last_30_days":"No","certificate_of_occupancy":"No","property_legal_description":"LOT 30 BLK 3 SETTLERS RIDGE SEC 3 CORRECTED PLAT OF"},"geometry":{"type":"Point","coordinates":[-97.63458461,30.43785815]}},{"type":"Feature","properties":{"date":"1992-07-15T04:00:00.000Z","year":1992,"description":"Service Only","metadescription":"MP. Remodel. Service Only. Final. 704 CAMP FIRE TRL","address":"704 Camp Fire Trail, Pflugerville, TX, 78660, US","link":"https://abc.austintexas.gov/web/permit/public-search-other?t_detail=1&t_selected_folderrsn=3300374","tcad_id":"0270360411","location":"    (30.43785815, -97.63458461)","day_issued":"WEDNESDAY","project_id":"3300374","condominium":"No","status_date":"05/22/2007","jurisdiction":"PFLUGERVILLE FULL PURPOSE","housing_units":"1","issuance_method":"Permit Center","permit_type_desc":"Mechanical Permit","master_permit_num":"4207521","fiscal_year_issued":"1992","permit_class_mapped":"Residential","issued_in_last_30_days":"No","certificate_of_occupancy":"No","property_legal_description":"LOT 30 BLK 3 SETTLERS RIDGE SEC 3 CORRECTED PLAT OF"},"geometry":{"type":"Point","coordinates":[-97.63458461,30.43785815]}},{"type":"Feature","properties":{"date":"1992-07-10T04:00:00.000Z","year":1992,"description":"Service Only","metadescription":"MP. Remodel. Service Only. Final. 701 CAMP FIRE TRL","address":"701 Camp Fire Trail, Pflugerville, TX, 78660, US","link":"https://abc.austintexas.gov/web/permit/public-search-other?t_detail=1&t_selected_folderrsn=3300268","tcad_id":"0270360543","location":"    (30.43785401, -97.63386419)","day_issued":"FRIDAY","project_id":"3300268","condominium":"No","status_date":"05/22/2007","jurisdiction":"PFLUGERVILLE FULL PURPOSE","housing_units":"1","issuance_method":"Permit Center","permit_type_desc":"Mechanical Permit","master_permit_num":"4207405","fiscal_year_issued":"1992","permit_class_mapped":"Residential","issued_in_last_30_days":"No","certificate_of_occupancy":"No","property_legal_description":"LOT 9 BLK 4 SETTLERS RIDGE SEC 3 CORRECTED PLAT OF"},"geometry":{"type":"Point","coordinates":[-97.63386419,30.43785401]}},{"type":"Feature","properties":{"date":"1992-07-10T04:00:00.000Z","year":1992,"description":"Service Only","metadescription":"EP. Remodel. Service Only. Final. 701 CAMP FIRE TRL","address":"701 Camp Fire Trail, Pflugerville, TX, 78660, US","link":"https://abc.austintexas.gov/web/permit/public-search-other?t_detail=1&t_selected_folderrsn=4207405","tcad_id":"0270360543","location":"    (30.43785401, -97.63386419)","day_issued":"FRIDAY","project_id":"4207405","condominium":"No","status_date":"05/22/2007","jurisdiction":"PFLUGERVILLE FULL PURPOSE","housing_units":"1","issuance_method":"Permit Center","permit_type_desc":"Electrical Permit","fiscal_year_issued":"1992","permit_class_mapped":"Residential","issued_in_last_30_days":"No","certificate_of_occupancy":"No","property_legal_description":"LOT 9 BLK 4 SETTLERS RIDGE SEC 3 CORRECTED PLAT OF"},"geometry":{"type":"Point","coordinates":[-97.63386419,30.43785401]}},{"type":"Feature","properties":{"date":"1992-06-18T04:00:00.000Z","year":1992,"description":"Electric Service Only","metadescription":"MP. Remodel. Electric Service Only. Final. 606 CAMP FIRE TRL","address":"606 Camp Fire Trail, Pflugerville, TX, 78660, US","link":"https://abc.austintexas.gov/web/permit/public-search-other?t_detail=1&t_selected_folderrsn=3299646","tcad_id":"0270360404","location":"    (30.43897303, -97.63384554)","day_issued":"THURSDAY","project_id":"3299646","condominium":"No","status_date":"05/22/2007","jurisdiction":"PFLUGERVILLE FULL PURPOSE","housing_units":"1","issuance_method":"Permit Center","permit_type_desc":"Mechanical Permit","master_permit_num":"4206753","fiscal_year_issued":"1992","permit_class_mapped":"Residential","issued_in_last_30_days":"No","certificate_of_occupancy":"No","property_legal_description":"LOT 23 BLK 3 SETTLERS RIDGE SEC 3 CORRECTED PLAT OF"},"geometry":{"type":"Point","coordinates":[-97.63384554,30.43897303]}},{"type":"Feature","properties":{"date":"1992-06-18T04:00:00.000Z","year":1992,"description":"Electric Service Only","metadescription":"EP. Remodel. Electric Service Only. Final. 606 CAMP FIRE TRL","address":"606 Camp Fire Trail, Pflugerville, TX, 78660, US","link":"https://abc.austintexas.gov/web/permit/public-search-other?t_detail=1&t_selected_folderrsn=4206753","tcad_id":"0270360404","location":"    (30.43897303, -97.63384554)","day_issued":"THURSDAY","project_id":"4206753","condominium":"No","status_date":"05/22/2007","jurisdiction":"PFLUGERVILLE FULL PURPOSE","housing_units":"1","issuance_method":"Permit Center","permit_type_desc":"Electrical Permit","fiscal_year_issued":"1992","permit_class_mapped":"Residential","issued_in_last_30_days":"No","certificate_of_occupancy":"No","property_legal_description":"LOT 23 BLK 3 SETTLERS RIDGE SEC 3 CORRECTED PLAT OF"},"geometry":{"type":"Point","coordinates":[-97.63384554,30.43897303]}},{"type":"Feature","properties":{"date":"1992-06-08T04:00:00.000Z","year":1992,"description":"Service Only Residence","metadescription":"MP. Remodel. Service Only Residence. Final. 608 CAMP FIRE TRL","address":"608 Camp Fire Trail, Pflugerville, TX, 78660, US","link":"https://abc.austintexas.gov/web/permit/public-search-other?t_detail=1&t_selected_folderrsn=3299311","tcad_id":"0270360405","location":"    (30.43882425, -97.63396398)","day_issued":"MONDAY","project_id":"3299311","condominium":"No","status_date":"05/22/2007","jurisdiction":"PFLUGERVILLE FULL PURPOSE","housing_units":"1","issuance_method":"Permit Center","permit_type_desc":"Mechanical Permit","master_permit_num":"4206411","fiscal_year_issued":"1992","permit_class_mapped":"Residential","issued_in_last_30_days":"No","certificate_of_occupancy":"No","property_legal_description":"LOT 24 BLK 3 SETTLERS RIDGE SEC 3 CORRECTED PLAT OF"},"geometry":{"type":"Point","coordinates":[-97.63396398,30.43882425]}},{"type":"Feature","properties":{"date":"1992-06-08T04:00:00.000Z","year":1992,"description":"Service Only Residence","metadescription":"EP. Remodel. Service Only Residence. Final. 608 CAMP FIRE TRL","address":"608 Camp Fire Trail, Pflugerville, TX, 78660, US","link":"https://abc.austintexas.gov/web/permit/public-search-other?t_detail=1&t_selected_folderrsn=4206411","tcad_id":"0270360405","location":"    (30.43882425, -97.63396398)","day_issued":"MONDAY","project_id":"4206411","condominium":"No","status_date":"05/22/2007","jurisdiction":"PFLUGERVILLE FULL PURPOSE","housing_units":"1","issuance_method":"Permit Center","permit_type_desc":"Electrical Permit","fiscal_year_issued":"1992","permit_class_mapped":"Residential","issued_in_last_30_days":"No","certificate_of_occupancy":"No","property_legal_description":"LOT 24 BLK 3 SETTLERS RIDGE SEC 3 CORRECTED PLAT OF"},"geometry":{"type":"Point","coordinates":[-97.63396398,30.43882425]}},{"type":"Feature","properties":{"date":"1992-05-18T04:00:00.000Z","year":1992,"description":"Service Only For New Residence","metadescription":"MP. Remodel. Service Only For New Residence. Final. 615 CAMP FIRE TRL","address":"615 Camp Fire Trail, Pflugerville, TX, 78660, US","link":"https://abc.austintexas.gov/web/permit/public-search-other?t_detail=1&t_selected_folderrsn=3298843","tcad_id":"0270360544","location":"    (30.43800332, -97.63377113)","day_issued":"MONDAY","project_id":"3298843","condominium":"No","status_date":"05/22/2007","jurisdiction":"PFLUGERVILLE FULL PURPOSE","housing_units":"1","issuance_method":"Permit Center","permit_type_desc":"Mechanical Permit","master_permit_num":"4205910","fiscal_year_issued":"1992","permit_class_mapped":"Residential","issued_in_last_30_days":"No","certificate_of_occupancy":"No","property_legal_description":"LOT 8 BLK 4 SETTLERS RIDGE SEC 3 CORRECTED PLAT OF"},"geometry":{"type":"Point","coordinates":[-97.63377113,30.43800332]}},{"type":"Feature","properties":{"date":"1992-05-18T04:00:00.000Z","year":1992,"description":"Service Only For New Residence","metadescription":"EP. Remodel. Service Only For New Residence. Final. 709 CAMP FIRE TRL","address":"709 Camp Fire Trail, Pflugerville, TX, 78660, US","link":"https://abc.austintexas.gov/web/permit/public-search-other?t_detail=1&t_selected_folderrsn=4414674","tcad_id":"0270360539","location":"    (30.43729066, -97.63427991)","day_issued":"MONDAY","project_id":"4414674","condominium":"No","status_date":"05/22/2007","jurisdiction":"PFLUGERVILLE FULL PURPOSE","housing_units":"1","issuance_method":"Permit Center","permit_type_desc":"Electrical Permit","fiscal_year_issued":"1992","permit_class_mapped":"Residential","issued_in_last_30_days":"No","certificate_of_occupancy":"No","property_legal_description":"LOT 13 BLK 4 SETTLERS RIDGE SEC 3 CORRECTED PLAT OF"},"geometry":{"type":"Point","coordinates":[-97.63427991,30.43729066]}},{"type":"Feature","properties":{"date":"1992-05-18T04:00:00.000Z","year":1992,"description":"Service Only For New Residence","metadescription":"MP. Remodel. Service Only For New Residence. Final. 709 CAMP FIRE TRL","address":"709 Camp Fire Trail, Pflugerville, TX, 78660, US","link":"https://abc.austintexas.gov/web/permit/public-search-other?t_detail=1&t_selected_folderrsn=3448165","tcad_id":"0270360539","location":"    (30.43729066, -97.63427991)","day_issued":"MONDAY","project_id":"3448165","condominium":"No","status_date":"05/22/2007","jurisdiction":"PFLUGERVILLE FULL PURPOSE","housing_units":"1","issuance_method":"Permit Center","permit_type_desc":"Mechanical Permit","master_permit_num":"4414674","fiscal_year_issued":"1992","permit_class_mapped":"Residential","issued_in_last_30_days":"No","certificate_of_occupancy":"No","property_legal_description":"LOT 13 BLK 4 SETTLERS RIDGE SEC 3 CORRECTED PLAT OF"},"geometry":{"type":"Point","coordinates":[-97.63427991,30.43729066]}},{"type":"Feature","properties":{"date":"1992-05-18T04:00:00.000Z","year":1992,"description":"Service Only For New Residence","metadescription":"EP. Remodel. Service Only For New Residence. Final. 609 CAMP FIRE TRL","address":"609 Camp Fire Trail, Pflugerville, TX, 78660, US","link":"https://abc.austintexas.gov/web/permit/public-search-other?t_detail=1&t_selected_folderrsn=4205912","tcad_id":"0270360547","location":"    (30.43849177, -97.6334559)","day_issued":"MONDAY","project_id":"4205912","condominium":"No","status_date":"05/22/2007","jurisdiction":"PFLUGERVILLE FULL PURPOSE","housing_units":"1","issuance_method":"Permit Center","permit_type_desc":"Electrical Permit","fiscal_year_issued":"1992","permit_class_mapped":"Residential","issued_in_last_30_days":"No","certificate_of_occupancy":"No","property_legal_description":"LOT 5 BLK 4 SETTLERS RIDGE SEC 3 CORRECTED PLAT OF"},"geometry":{"type":"Point","coordinates":[-97.6334559,30.43849177]}},{"type":"Feature","properties":{"date":"1992-05-18T04:00:00.000Z","year":1992,"description":"Service Only For New Residence","metadescription":"EP. Remodel. Service Only For New Residence. Final. 615 CAMP FIRE TRL","address":"615 Camp Fire Trail, Pflugerville, TX, 78660, US","link":"https://abc.austintexas.gov/web/permit/public-search-other?t_detail=1&t_selected_folderrsn=4205910","tcad_id":"0270360544","location":"    (30.43800332, -97.63377113)","day_issued":"MONDAY","project_id":"4205910","condominium":"No","status_date":"05/22/2007","jurisdiction":"PFLUGERVILLE FULL PURPOSE","housing_units":"1","issuance_method":"Permit Center","permit_type_desc":"Electrical Permit","fiscal_year_issued":"1992","permit_class_mapped":"Residential","issued_in_last_30_days":"No","certificate_of_occupancy":"No","property_legal_description":"LOT 8 BLK 4 SETTLERS RIDGE SEC 3 CORRECTED PLAT OF"},"geometry":{"type":"Point","coordinates":[-97.63377113,30.43800332]}},{"type":"Feature","properties":{"date":"1992-05-18T04:00:00.000Z","year":1992,"description":"Service Only For New Residence","metadescription":"MP. Remodel. Service Only For New Residence. Final. 609 CAMP FIRE TRL","address":"609 Camp Fire Trail, Pflugerville, TX, 78660, US","link":"https://abc.austintexas.gov/web/permit/public-search-other?t_detail=1&t_selected_folderrsn=3298845","tcad_id":"0270360547","location":"    (30.43849177, -97.6334559)","day_issued":"MONDAY","project_id":"3298845","condominium":"No","status_date":"05/22/2007","jurisdiction":"PFLUGERVILLE FULL PURPOSE","housing_units":"1","issuance_method":"Permit Center","permit_type_desc":"Mechanical Permit","master_permit_num":"4205912","fiscal_year_issued":"1992","permit_class_mapped":"Residential","issued_in_last_30_days":"No","certificate_of_occupancy":"No","property_legal_description":"LOT 5 BLK 4 SETTLERS RIDGE SEC 3 CORRECTED PLAT OF"},"geometry":{"type":"Point","coordinates":[-97.6334559,30.43849177]}},{"type":"Feature","properties":{"date":"1992-04-27T04:00:00.000Z","year":1992,"description":"Service Only","metadescription":"EP. Remodel. Service Only. Final. 708 CAMP FIRE TRL","address":"708 Camp Fire Trail, Pflugerville, TX, 78660, US","link":"https://abc.austintexas.gov/web/permit/public-search-other?t_detail=1&t_selected_folderrsn=4394553","tcad_id":"0270360413","location":"    (30.43755261, -97.6348344)","day_issued":"MONDAY","project_id":"4394553","condominium":"No","status_date":"05/22/2007","jurisdiction":"PFLUGERVILLE FULL PURPOSE","housing_units":"1","issuance_method":"Permit Center","permit_type_desc":"Electrical Permit","fiscal_year_issued":"1992","permit_class_mapped":"Residential","issued_in_last_30_days":"No","certificate_of_occupancy":"No","property_legal_description":"LOT 32 BLK 3 SETTLERS RIDGE SEC 3 CORRECTED PLAT OF"},"geometry":{"type":"Point","coordinates":[-97.6348344,30.43755261]}},{"type":"Feature","properties":{"date":"1992-04-27T04:00:00.000Z","year":1992,"description":"Service Only","metadescription":"MP. Remodel. Service Only. Final. 708 CAMP FIRE TRL","address":"708 Camp Fire Trail, Pflugerville, TX, 78660, US","link":"https://abc.austintexas.gov/web/permit/public-search-other?t_detail=1&t_selected_folderrsn=3431172","tcad_id":"0270360413","location":"    (30.43755261, -97.6348344)","day_issued":"MONDAY","project_id":"3431172","condominium":"No","status_date":"05/22/2007","jurisdiction":"PFLUGERVILLE FULL PURPOSE","housing_units":"1","issuance_method":"Permit Center","permit_type_desc":"Mechanical Permit","master_permit_num":"4394553","fiscal_year_issued":"1992","permit_class_mapped":"Residential","issued_in_last_30_days":"No","certificate_of_occupancy":"No","property_legal_description":"LOT 32 BLK 3 SETTLERS RIDGE SEC 3 CORRECTED PLAT OF"},"geometry":{"type":"Point","coordinates":[-97.6348344,30.43755261]}},{"type":"Feature","properties":{"date":"1992-04-27T04:00:00.000Z","year":1992,"description":"Service Only","metadescription":"MP. Remodel. Service Only. Final. 713 CAMP FIRE TRL","address":"713 Camp Fire Trail, Pflugerville, TX, 78660, US","link":"https://abc.austintexas.gov/web/permit/public-search-other?t_detail=1&t_selected_folderrsn=3298322","tcad_id":"0270360537","location":"    (30.43697379, -97.63451415)","day_issued":"MONDAY","project_id":"3298322","condominium":"No","status_date":"05/22/2007","jurisdiction":"PFLUGERVILLE FULL PURPOSE","housing_units":"1","issuance_method":"Permit Center","permit_type_desc":"Mechanical Permit","master_permit_num":"4205367","fiscal_year_issued":"1992","permit_class_mapped":"Residential","issued_in_last_30_days":"No","certificate_of_occupancy":"No","property_legal_description":"LOT 15 BLK 4 SETTLERS RIDGE SEC 3 CORRECTED PLAT OF"},"geometry":{"type":"Point","coordinates":[-97.63451415,30.43697379]}},{"type":"Feature","properties":{"date":"1992-04-27T04:00:00.000Z","year":1992,"description":"Service Only","metadescription":"EP. Remodel. Service Only. Final. 713 CAMP FIRE TRL","address":"713 Camp Fire Trail, Pflugerville, TX, 78660, US","link":"https://abc.austintexas.gov/web/permit/public-search-other?t_detail=1&t_selected_folderrsn=4205367","tcad_id":"0270360537","location":"    (30.43697379, -97.63451415)","day_issued":"MONDAY","project_id":"4205367","condominium":"No","status_date":"05/22/2007","jurisdiction":"PFLUGERVILLE FULL PURPOSE","housing_units":"1","issuance_method":"Permit Center","permit_type_desc":"Electrical Permit","fiscal_year_issued":"1992","permit_class_mapped":"Residential","issued_in_last_30_days":"No","certificate_of_occupancy":"No","property_legal_description":"LOT 15 BLK 4 SETTLERS RIDGE SEC 3 CORRECTED PLAT OF"},"geometry":{"type":"Point","coordinates":[-97.63451415,30.43697379]}},{"type":"Feature","properties":{"date":"1992-04-23T04:00:00.000Z","year":1992,"description":"Service Only","metadescription":"MP. Remodel. Service Only. Final. 710 CAMP FIRE TRL","address":"710 Camp Fire Trail, Pflugerville, TX, 78660, US","link":"https://abc.austintexas.gov/web/permit/public-search-other?t_detail=1&t_selected_folderrsn=3298231","tcad_id":"0270360414","location":"    (30.43741617, -97.63488584)","day_issued":"THURSDAY","project_id":"3298231","condominium":"No","status_date":"05/22/2007","jurisdiction":"PFLUGERVILLE FULL PURPOSE","housing_units":"1","issuance_method":"Permit Center","permit_type_desc":"Mechanical Permit","master_permit_num":"4205284","fiscal_year_issued":"1992","permit_class_mapped":"Residential","issued_in_last_30_days":"No","certificate_of_occupancy":"No","property_legal_description":"LOT 33 BLK 3 SETTLERS RIDGE SEC 3 CORRECTED PLAT OF"},"geometry":{"type":"Point","coordinates":[-97.63488584,30.43741617]}},{"type":"Feature","properties":{"date":"1992-04-23T04:00:00.000Z","year":1992,"description":"Service Only","metadescription":"EP. Remodel. Service Only. Final. 710 CAMP FIRE TRL","address":"710 Camp Fire Trail, Pflugerville, TX, 78660, US","link":"https://abc.austintexas.gov/web/permit/public-search-other?t_detail=1&t_selected_folderrsn=4205284","tcad_id":"0270360414","location":"    (30.43741617, -97.63488584)","day_issued":"THURSDAY","project_id":"4205284","condominium":"No","status_date":"05/22/2007","jurisdiction":"PFLUGERVILLE FULL PURPOSE","housing_units":"1","issuance_method":"Permit Center","permit_type_desc":"Electrical Permit","fiscal_year_issued":"1992","permit_class_mapped":"Residential","issued_in_last_30_days":"No","certificate_of_occupancy":"No","property_legal_description":"LOT 33 BLK 3 SETTLERS RIDGE SEC 3 CORRECTED PLAT OF"},"geometry":{"type":"Point","coordinates":[-97.63488584,30.43741617]}},{"type":"Feature","properties":{"date":"1992-03-30T05:00:00.000Z","year":1992,"description":"Service Only","metadescription":"MP. Remodel. Service Only. Final. 711 CAMP FIRE TRL","address":"711 Camp Fire Trail, Pflugerville, TX, 78660, US","link":"https://abc.austintexas.gov/web/permit/public-search-other?t_detail=1&t_selected_folderrsn=3297619","tcad_id":"0270360538","location":"    (30.4371278, -97.63438287)","day_issued":"MONDAY","project_id":"3297619","condominium":"No","status_date":"05/22/2007","jurisdiction":"PFLUGERVILLE FULL PURPOSE","housing_units":"1","issuance_method":"Permit Center","permit_type_desc":"Mechanical Permit","master_permit_num":"4204657","fiscal_year_issued":"1992","permit_class_mapped":"Residential","issued_in_last_30_days":"No","certificate_of_occupancy":"No","property_legal_description":"LOT 14 BLK 4 SETTLERS RIDGE SEC 3 CORRECTED PLAT OF"},"geometry":{"type":"Point","coordinates":[-97.63438287,30.4371278]}},{"type":"Feature","properties":{"date":"1992-03-30T05:00:00.000Z","year":1992,"description":"Service Only","metadescription":"EP. Remodel. Service Only. Final. 711 CAMP FIRE TRL","address":"711 Camp Fire Trail, Pflugerville, TX, 78660, US","link":"https://abc.austintexas.gov/web/permit/public-search-other?t_detail=1&t_selected_folderrsn=4204657","tcad_id":"0270360538","location":"    (30.4371278, -97.63438287)","day_issued":"MONDAY","project_id":"4204657","condominium":"No","status_date":"05/22/2007","jurisdiction":"PFLUGERVILLE FULL PURPOSE","housing_units":"1","issuance_method":"Permit Center","permit_type_desc":"Electrical Permit","fiscal_year_issued":"1992","permit_class_mapped":"Residential","issued_in_last_30_days":"No","certificate_of_occupancy":"No","property_legal_description":"LOT 14 BLK 4 SETTLERS RIDGE SEC 3 CORRECTED PLAT OF"},"geometry":{"type":"Point","coordinates":[-97.63438287,30.4371278]}},{"type":"Feature","properties":{"date":"1992-03-24T05:00:00.000Z","year":1992,"description":"Electric Service Only","metadescription":"MP. Remodel. Electric Service Only. Final. 707 CAMP FIRE TRL","address":"707 Camp Fire Trail, Pflugerville, TX, 78660, US","link":"https://abc.austintexas.gov/web/permit/public-search-other?t_detail=1&t_selected_folderrsn=3448335","tcad_id":"0270360540","location":"    (30.43744521, -97.63417401)","day_issued":"TUESDAY","project_id":"3448335","condominium":"No","status_date":"05/22/2007","jurisdiction":"PFLUGERVILLE FULL PURPOSE","housing_units":"1","issuance_method":"Permit Center","permit_type_desc":"Mechanical Permit","master_permit_num":"4414846","fiscal_year_issued":"1992","permit_class_mapped":"Residential","issued_in_last_30_days":"No","certificate_of_occupancy":"No","property_legal_description":"LOT 12 BLK 4 SETTLERS RIDGE SEC 3 CORRECTED PLAT OF"},"geometry":{"type":"Point","coordinates":[-97.63417401,30.43744521]}},{"type":"Feature","properties":{"date":"1992-03-24T05:00:00.000Z","year":1992,"description":"Electric Service Only","metadescription":"EP. Remodel. Electric Service Only. Final. 707 CAMP FIRE TRL","address":"707 Camp Fire Trail, Pflugerville, TX, 78660, US","link":"https://abc.austintexas.gov/web/permit/public-search-other?t_detail=1&t_selected_folderrsn=4414846","tcad_id":"0270360540","location":"    (30.43744521, -97.63417401)","day_issued":"TUESDAY","project_id":"4414846","condominium":"No","status_date":"05/22/2007","jurisdiction":"PFLUGERVILLE FULL PURPOSE","housing_units":"1","issuance_method":"Permit Center","permit_type_desc":"Electrical Permit","fiscal_year_issued":"1992","permit_class_mapped":"Residential","issued_in_last_30_days":"No","certificate_of_occupancy":"No","property_legal_description":"LOT 12 BLK 4 SETTLERS RIDGE SEC 3 CORRECTED PLAT OF"},"geometry":{"type":"Point","coordinates":[-97.63417401,30.43744521]}},{"type":"Feature","properties":{"date":"1992-03-24T05:00:00.000Z","year":1992,"description":"Electric Service Only","metadescription":"EP. Remodel. Electric Service Only. Final. 706 CAMP FIRE TRL","address":"706 Camp Fire Trail, Pflugerville, TX, 78660, US","link":"https://abc.austintexas.gov/web/permit/public-search-other?t_detail=1&t_selected_folderrsn=4204558","tcad_id":"0270360412","location":"    (30.43769106, -97.634748)","day_issued":"TUESDAY","project_id":"4204558","condominium":"No","status_date":"05/22/2007","jurisdiction":"PFLUGERVILLE FULL PURPOSE","housing_units":"1","issuance_method":"Permit Center","permit_type_desc":"Electrical Permit","fiscal_year_issued":"1992","permit_class_mapped":"Residential","issued_in_last_30_days":"No","certificate_of_occupancy":"No","property_legal_description":"LOT 31 BLK 3 SETTLERS RIDGE SEC 3 CORRECTED PLAT OF"},"geometry":{"type":"Point","coordinates":[-97.634748,30.43769106]}},{"type":"Feature","properties":{"date":"1992-03-24T05:00:00.000Z","year":1992,"description":"Electric Service Only","metadescription":"MP. Remodel. Electric Service Only. Final. 706 CAMP FIRE TRL","address":"706 Camp Fire Trail, Pflugerville, TX, 78660, US","link":"https://abc.austintexas.gov/web/permit/public-search-other?t_detail=1&t_selected_folderrsn=3297520","tcad_id":"0270360412","location":"    (30.43769106, -97.634748)","day_issued":"TUESDAY","project_id":"3297520","condominium":"No","status_date":"05/22/2007","jurisdiction":"PFLUGERVILLE FULL PURPOSE","housing_units":"1","issuance_method":"Permit Center","permit_type_desc":"Mechanical Permit","master_permit_num":"4204558","fiscal_year_issued":"1992","permit_class_mapped":"Residential","issued_in_last_30_days":"No","certificate_of_occupancy":"No","property_legal_description":"LOT 31 BLK 3 SETTLERS RIDGE SEC 3 CORRECTED PLAT OF"},"geometry":{"type":"Point","coordinates":[-97.634748,30.43769106]}},{"type":"Feature","properties":{"date":"1992-03-12T05:00:00.000Z","year":1992,"description":"Service Only","metadescription":"EP. Remodel. Service Only. Final. 719 CAMP FIRE TRL","address":"719 Camp Fire Trail, Pflugerville, TX, 78660, US","link":"https://abc.austintexas.gov/web/permit/public-search-other?t_detail=1&t_selected_folderrsn=4204248","tcad_id":"0270360534","location":"    (30.43647971, -97.63482318)","day_issued":"THURSDAY","project_id":"4204248","condominium":"No","status_date":"05/22/2007","jurisdiction":"PFLUGERVILLE FULL PURPOSE","housing_units":"1","issuance_method":"Permit Center","permit_type_desc":"Electrical Permit","fiscal_year_issued":"1992","permit_class_mapped":"Residential","issued_in_last_30_days":"No","certificate_of_occupancy":"No","property_legal_description":"LOT 18 BLK 4 SETTLERS RIDGE SEC 3 CORRECTED PLAT OF"},"geometry":{"type":"Point","coordinates":[-97.63482318,30.43647971]}},{"type":"Feature","properties":{"date":"1992-03-12T05:00:00.000Z","year":1992,"description":"Service Only","metadescription":"MP. Remodel. Service Only. Final. 719 CAMP FIRE TRL","address":"719 Camp Fire Trail, Pflugerville, TX, 78660, US","link":"https://abc.austintexas.gov/web/permit/public-search-other?t_detail=1&t_selected_folderrsn=3297207","tcad_id":"0270360534","location":"    (30.43647971, -97.63482318)","day_issued":"THURSDAY","project_id":"3297207","condominium":"No","status_date":"05/22/2007","jurisdiction":"PFLUGERVILLE FULL PURPOSE","housing_units":"1","issuance_method":"Permit Center","permit_type_desc":"Mechanical Permit","master_permit_num":"4204248","fiscal_year_issued":"1992","permit_class_mapped":"Residential","issued_in_last_30_days":"No","certificate_of_occupancy":"No","property_legal_description":"LOT 18 BLK 4 SETTLERS RIDGE SEC 3 CORRECTED PLAT OF"},"geometry":{"type":"Point","coordinates":[-97.63482318,30.43647971]}},{"type":"Feature","properties":{"date":"1992-03-11T05:00:00.000Z","year":1992,"description":"Service Only","metadescription":"EP. Remodel. Service Only. Final. 716 CAMP FIRE TRL","address":"716 Camp Fire Trail, Pflugerville, TX, 78660, US","link":"https://abc.austintexas.gov/web/permit/public-search-other?t_detail=1&t_selected_folderrsn=4204206","tcad_id":"0270360417","location":"    (30.43691223, -97.6352491)","day_issued":"WEDNESDAY","project_id":"4204206","condominium":"No","status_date":"05/22/2007","jurisdiction":"PFLUGERVILLE FULL PURPOSE","housing_units":"1","issuance_method":"Permit Center","permit_type_desc":"Electrical Permit","fiscal_year_issued":"1992","permit_class_mapped":"Residential","issued_in_last_30_days":"No","certificate_of_occupancy":"No","property_legal_description":"LOT 36 BLK 3 SETTLERS RIDGE SEC 3 CORRECTED PLAT OF"},"geometry":{"type":"Point","coordinates":[-97.6352491,30.43691223]}},{"type":"Feature","properties":{"date":"1992-03-11T05:00:00.000Z","year":1992,"description":"Service Only","metadescription":"MP. Remodel. Service Only. Final. 718 CAMP FIRE TRL","address":"718 Camp Fire Trail, Pflugerville, TX, 78660, US","link":"https://abc.austintexas.gov/web/permit/public-search-other?t_detail=1&t_selected_folderrsn=3297175","tcad_id":"0270360418","location":"    (30.43673301, -97.63535887)","day_issued":"WEDNESDAY","project_id":"3297175","condominium":"No","status_date":"05/22/2007","jurisdiction":"PFLUGERVILLE FULL PURPOSE","housing_units":"1","issuance_method":"Permit Center","permit_type_desc":"Mechanical Permit","master_permit_num":"4204207","fiscal_year_issued":"1992","permit_class_mapped":"Residential","issued_in_last_30_days":"No","certificate_of_occupancy":"No","property_legal_description":"LOT 37 BLK 3 SETTLERS RIDGE SEC 3 CORRECTED PLAT OF"},"geometry":{"type":"Point","coordinates":[-97.63535887,30.43673301]}},{"type":"Feature","properties":{"date":"1992-03-11T05:00:00.000Z","year":1992,"description":"Service Only","metadescription":"EP. Remodel. Service Only. Final. 718 CAMP FIRE TRL","address":"718 Camp Fire Trail, Pflugerville, TX, 78660, US","link":"https://abc.austintexas.gov/web/permit/public-search-other?t_detail=1&t_selected_folderrsn=4204207","tcad_id":"0270360418","location":"    (30.43673301, -97.63535887)","day_issued":"WEDNESDAY","project_id":"4204207","condominium":"No","status_date":"05/22/2007","jurisdiction":"PFLUGERVILLE FULL PURPOSE","housing_units":"1","issuance_method":"Permit Center","permit_type_desc":"Electrical Permit","fiscal_year_issued":"1992","permit_class_mapped":"Residential","issued_in_last_30_days":"No","certificate_of_occupancy":"No","property_legal_description":"LOT 37 BLK 3 SETTLERS RIDGE SEC 3 CORRECTED PLAT OF"},"geometry":{"type":"Point","coordinates":[-97.63535887,30.43673301]}},{"type":"Feature","properties":{"date":"1992-03-11T05:00:00.000Z","year":1992,"description":"Service Only","metadescription":"MP. Remodel. Service Only. Final. 716 CAMP FIRE TRL","address":"716 Camp Fire Trail, Pflugerville, TX, 78660, US","link":"https://abc.austintexas.gov/web/permit/public-search-other?t_detail=1&t_selected_folderrsn=3297174","tcad_id":"0270360417","location":"    (30.43691223, -97.6352491)","day_issued":"WEDNESDAY","project_id":"3297174","condominium":"No","status_date":"05/22/2007","jurisdiction":"PFLUGERVILLE FULL PURPOSE","housing_units":"1","issuance_method":"Permit Center","permit_type_desc":"Mechanical Permit","master_permit_num":"4204206","fiscal_year_issued":"1992","permit_class_mapped":"Residential","issued_in_last_30_days":"No","certificate_of_occupancy":"No","property_legal_description":"LOT 36 BLK 3 SETTLERS RIDGE SEC 3 CORRECTED PLAT OF"},"geometry":{"type":"Point","coordinates":[-97.6352491,30.43691223]}},{"type":"Feature","properties":{"date":"1992-02-11T05:00:00.000Z","year":1992,"description":"Elec Service Only","metadescription":"MP. Remodel. Elec Service Only. Final. 717 CAMP FIRE TRL","address":"717 Camp Fire Trail, Pflugerville, TX, 78660, US","link":"https://abc.austintexas.gov/web/permit/public-search-other?t_detail=1&t_selected_folderrsn=3296483","tcad_id":"0270360535","location":"    (30.4366535, -97.63471674)","day_issued":"TUESDAY","project_id":"3296483","condominium":"No","status_date":"05/22/2007","jurisdiction":"PFLUGERVILLE FULL PURPOSE","housing_units":"1","issuance_method":"Permit Center","permit_type_desc":"Mechanical Permit","master_permit_num":"4203507","fiscal_year_issued":"1992","permit_class_mapped":"Residential","issued_in_last_30_days":"No","certificate_of_occupancy":"No","property_legal_description":"LOT 17 BLK 4 SETTLERS RIDGE SEC 3 CORRECTED PLAT OF"},"geometry":{"type":"Point","coordinates":[-97.63471674,30.4366535]}},{"type":"Feature","properties":{"date":"1992-02-11T05:00:00.000Z","year":1992,"description":"Elec Service Only","metadescription":"EP. Remodel. Elec Service Only. Final. 717 CAMP FIRE TRL","address":"717 Camp Fire Trail, Pflugerville, TX, 78660, US","link":"https://abc.austintexas.gov/web/permit/public-search-other?t_detail=1&t_selected_folderrsn=4203507","tcad_id":"0270360535","location":"    (30.4366535, -97.63471674)","day_issued":"TUESDAY","project_id":"4203507","condominium":"No","status_date":"05/22/2007","jurisdiction":"PFLUGERVILLE FULL PURPOSE","housing_units":"1","issuance_method":"Permit Center","permit_type_desc":"Electrical Permit","fiscal_year_issued":"1992","permit_class_mapped":"Residential","issued_in_last_30_days":"No","certificate_of_occupancy":"No","property_legal_description":"LOT 17 BLK 4 SETTLERS RIDGE SEC 3 CORRECTED PLAT OF"},"geometry":{"type":"Point","coordinates":[-97.63471674,30.4366535]}},{"type":"Feature","properties":{"date":"1992-02-10T05:00:00.000Z","year":1992,"description":"Electric Service Only","metadescription":"MP. Remodel. Electric Service Only. Final. 712 CAMP FIRE TRL","address":"712 Camp Fire Trail, Pflugerville, TX, 78660, US","link":"https://abc.austintexas.gov/web/permit/public-search-other?t_detail=1&t_selected_folderrsn=3296439","tcad_id":"0270360415","location":"    (30.43724365, -97.63505255)","day_issued":"MONDAY","project_id":"3296439","condominium":"No","status_date":"05/22/2007","jurisdiction":"PFLUGERVILLE FULL PURPOSE","housing_units":"1","issuance_method":"Permit Center","permit_type_desc":"Mechanical Permit","master_permit_num":"4203462","fiscal_year_issued":"1992","permit_class_mapped":"Residential","issued_in_last_30_days":"No","certificate_of_occupancy":"No","property_legal_description":"LOT 34 BLK 3 SETTLERS RIDGE SEC 3 CORRECTED PLAT OF"},"geometry":{"type":"Point","coordinates":[-97.63505255,30.43724365]}},{"type":"Feature","properties":{"date":"1992-02-10T05:00:00.000Z","year":1992,"description":"Electric Service Only","metadescription":"EP. Remodel. Electric Service Only. Final. 712 CAMP FIRE TRL","address":"712 Camp Fire Trail, Pflugerville, TX, 78660, US","link":"https://abc.austintexas.gov/web/permit/public-search-other?t_detail=1&t_selected_folderrsn=4203462","tcad_id":"0270360415","location":"    (30.43724365, -97.63505255)","day_issued":"MONDAY","project_id":"4203462","condominium":"No","status_date":"05/22/2007","jurisdiction":"PFLUGERVILLE FULL PURPOSE","housing_units":"1","issuance_method":"Permit Center","permit_type_desc":"Electrical Permit","fiscal_year_issued":"1992","permit_class_mapped":"Residential","issued_in_last_30_days":"No","certificate_of_occupancy":"No","property_legal_description":"LOT 34 BLK 3 SETTLERS RIDGE SEC 3 CORRECTED PLAT OF"},"geometry":{"type":"Point","coordinates":[-97.63505255,30.43724365]}},{"type":"Feature","properties":{"date":"1992-02-10T05:00:00.000Z","year":1992,"description":"Electric Service Only","metadescription":"EP. Remodel. Electric Service Only. Final. 714 CAMP FIRE TRL","address":"714 Camp Fire Trail, Pflugerville, TX, 78660, US","link":"https://abc.austintexas.gov/web/permit/public-search-other?t_detail=1&t_selected_folderrsn=4203463","tcad_id":"0270360416","location":"    (30.43708347, -97.63515226)","day_issued":"MONDAY","project_id":"4203463","condominium":"No","status_date":"05/22/2007","jurisdiction":"PFLUGERVILLE FULL PURPOSE","housing_units":"1","issuance_method":"Permit Center","permit_type_desc":"Electrical Permit","fiscal_year_issued":"1992","permit_class_mapped":"Residential","issued_in_last_30_days":"No","certificate_of_occupancy":"No","property_legal_description":"LOT 35 BLK 3 SETTLERS RIDGE SEC 3 CORRECTED PLAT OF"},"geometry":{"type":"Point","coordinates":[-97.63515226,30.43708347]}},{"type":"Feature","properties":{"date":"1992-02-10T05:00:00.000Z","year":1992,"description":"Electric Service Only","metadescription":"MP. Remodel. Electric Service Only. Final. 714 CAMP FIRE TRL","address":"714 Camp Fire Trail, Pflugerville, TX, 78660, US","link":"https://abc.austintexas.gov/web/permit/public-search-other?t_detail=1&t_selected_folderrsn=3296440","tcad_id":"0270360416","location":"    (30.43708347, -97.63515226)","day_issued":"MONDAY","project_id":"3296440","condominium":"No","status_date":"05/22/2007","jurisdiction":"PFLUGERVILLE FULL PURPOSE","housing_units":"1","issuance_method":"Permit Center","permit_type_desc":"Mechanical Permit","master_permit_num":"4203463","fiscal_year_issued":"1992","permit_class_mapped":"Residential","issued_in_last_30_days":"No","certificate_of_occupancy":"No","property_legal_description":"LOT 35 BLK 3 SETTLERS RIDGE SEC 3 CORRECTED PLAT OF"},"geometry":{"type":"Point","coordinates":[-97.63515226,30.43708347]}}]}
