{"type":"FeatureCollection","features":[{"type":"Feature","properties":{"date":"2025-12-19T05:00:00.000Z","year":2025,"description":"REQUEST TO DISCONNECT - Spears 39-19154 - Disconnect/reconnect power to tie in PV component and upgrading MSP to 200 Amps. 125 amp Main Breaker. No meters being replaced only.","metadescription":"EP. Upgrade. REQUEST TO DISCONNECT - Spears 39-19154 - Disconnect/reconnect power to tie in PV component and upgrading MSP to 200 Amps. 125 amp Main Breaker. No meters being replaced only.. Final. 614 CAMP FIRE TRL","address":"614 Camp Fire Trail, Pflugerville, TX, 78660, US","link":"https://abc.austintexas.gov/web/permit/public-search-other?t_detail=1&t_selected_folderrsn=13630614","tcad_id":"0270360408","location":"    (30.43835243, -97.63428509)","day_issued":"FRIDAY","project_id":"13630614","condominium":"No","status_date":"01/16/2026","jurisdiction":"PFLUGERVILLE FULL PURPOSE","housing_units":"1","contractor_zip":"78744-____","contractor_city":"Austin","issuance_method":"Permit Center","contractor_phone":"6108745000","contractor_trade":"Electrical Contractor","number_of_floors":"1","permit_type_desc":"Electrical Permit","fiscal_year_issued":"2026","permit_class_mapped":"Residential","remodel_repair_sqft":"0","contractor_address_2":"7701  Metrop","contractor_full_name":"Mark Bedell","issued_in_last_30_days":"No","certificate_of_occupancy":"No","property_legal_description":"LOT 27 BLK 3 SETTLERS RIDGE SEC 3 CORRECTED PLAT OF","electrical_valuation_remodel":"$5,000.00"},"geometry":{"type":"Point","coordinates":[-97.63428509,30.43835243]}},{"type":"Feature","properties":{"date":"2025-05-21T04:00:00.000Z","year":2025,"description":"REQUEST TO DISCONNECT - WARD - Disconnect/reconnect power to tie in PV component and upgrading MSP to _125__ Amps. _125__ Main Breaker.","metadescription":"EP. Repair. REQUEST TO DISCONNECT - WARD - Disconnect/reconnect power to tie in PV component and upgrading MSP to _125__ Amps. _125__ Main Breaker.. Final. 1201 PRAIRIE RIDGE TRL","address":"1201 Prairie Ridge Trail, Pflugerville, TX, 78660, US","link":"https://abc.austintexas.gov/web/permit/public-search-other?t_detail=1&t_selected_folderrsn=13517109","tcad_id":"0270360719","location":"    (30.43619894, -97.63533573)","day_issued":"WEDNESDAY","project_id":"13517109","condominium":"No","status_date":"07/01/2025","jurisdiction":"PFLUGERVILLE FULL PURPOSE","housing_units":"1","contractor_zip":"78744-____","contractor_city":"Austin","issuance_method":"Permit Center","contractor_phone":"6108745000","contractor_trade":"Electrical Contractor","number_of_floors":"1","permit_type_desc":"Electrical Permit","fiscal_year_issued":"2025","permit_class_mapped":"Residential","remodel_repair_sqft":"0","contractor_address_2":"7701  Metrop","contractor_full_name":"Mark Bedell","issued_in_last_30_days":"No","certificate_of_occupancy":"No","property_legal_description":"LOT 5 BLK 7 SETTLERS RIDGE SEC 3 CORRECTED PLAT OF","electrical_valuation_remodel":"$37,455.00"},"geometry":{"type":"Point","coordinates":[-97.63533573,30.43619894]}},{"type":"Feature","properties":{"date":"2024-10-22T04:00:00.000Z","year":2024,"description":"Navarrete - Disconnect/reconnect power to tie in PV component and upgrading MSP to 200 Amps. Upgrading revenue meter to 200 Amps.","metadescription":"EP. Upgrade. Navarrete - Disconnect/reconnect power to tie in PV component and upgrading MSP to 200 Amps. Upgrading revenue meter to 200 Amps.. Final. 533 TANNER TRL","address":"533 Tanner Trail, Pflugerville, TX, 78660, US","link":"https://abc.austintexas.gov/web/permit/public-search-other?t_detail=1&t_selected_folderrsn=13416287","tcad_id":"0272360828","location":"    (30.44199626, -97.6371415)","day_issued":"TUESDAY","project_id":"13416287","condominium":"No","status_date":"12/03/2024","jurisdiction":"PFLUGERVILLE FULL PURPOSE","housing_units":"1","contractor_zip":"78744-____","contractor_city":"Austin","issuance_method":"Permit Center","contractor_phone":"6108745000","contractor_trade":"Electrical Contractor","number_of_floors":"1","permit_type_desc":"Electrical Permit","fiscal_year_issued":"2025","permit_class_mapped":"Residential","remodel_repair_sqft":"0","contractor_address_2":"7701  Metrop","contractor_full_name":"Mark Bedell","issued_in_last_30_days":"No","certificate_of_occupancy":"No","property_legal_description":"LOT 28 BLK F WELLS POINT PHS C-2 SEC 3","electrical_valuation_remodel":"$43,928.00"},"geometry":{"type":"Point","coordinates":[-97.6371415,30.44199626]}},{"type":"Feature","properties":{"date":"2004-09-17T04:00:00.000Z","year":2004,"description":"Upgrading Exst. Elec Srv To Exst. Duplex Only A&B","metadescription":"EP. Remodel. Upgrading Exst. Elec Srv To Exst. Duplex Only A&B. Final. 1010 IMMANUEL RD","address":"1010 Immanuel Road, Pflugerville, TX, 78660, US","link":"https://abc.austintexas.gov/web/permit/public-search-other?t_detail=1&t_selected_folderrsn=4352677","tcad_id":"0266401101","location":"    (30.42457826, -97.61811338)","day_issued":"FRIDAY","project_id":"4352677","condominium":"No","status_date":"04/11/2007","jurisdiction":"PFLUGERVILLE FULL PURPOSE","housing_units":"0","contractor_zip":"78757","contractor_city":"Austin","issuance_method":"Permit Center","contractor_phone":"5127610693","contractor_trade":"Electrical Contractor","number_of_floors":"0","permit_type_desc":"Electrical Permit","fiscal_year_issued":"2004","permit_class_mapped":"Residential","contractor_address_2":"1818  Madiso","contractor_full_name":"Tony Jaramillo","issued_in_last_30_days":"No","certificate_of_occupancy":"No","electrical_valuation_remodel":"$0.00"},"geometry":{"type":"Point","coordinates":[-97.61811338,30.42457826]}}]}
