{"type":"FeatureCollection","features":[{"type":"Feature","properties":{"date":"2024-03-26T04:00:00.000Z","year":2024,"description":"Replacement of an existing water heater","metadescription":"PP. Change Out. Replacement of an existing water heater. Final. 905 WINDSOR CASTLE DR","address":"905 WINDSOR CASTLE DR","link":"https://abc.austintexas.gov/web/permit/public-search-other?t_detail=1&t_selected_folderrsn=13300918","tcad_id":"0282430111","location":"    (30.47164407, -97.61060136)","day_issued":"TUESDAY","project_id":"13300918","status_date":"03/29/2024","jurisdiction":"PFLUGERVILLE FULL PURPOSE","issuance_method":"Permit Center","contractor_trade":"Plumbing Contractor","permit_type_desc":"Plumbing Permit","fiscal_year_issued":"2024","permit_class_mapped":"Residential","contractor_full_name":"Daniel Brad Casebier","issued_in_last_30_days":"No","property_legal_description":"LOT 11 BLK H HIGHLAND PARK NORTH PHS A SEC 3"},"geometry":{"type":"Point","coordinates":[-97.61060136,30.47164407]}},{"type":"Feature","properties":{"date":"2019-08-06T04:00:00.000Z","year":2019,"description":"Replacement of an existing water heater","metadescription":"PP. Change Out. Replacement of an existing water heater. Expired. 16221 MALDEN DR","address":"16221 MALDEN DR","link":"https://abc.austintexas.gov/web/permit/public-search-other?t_detail=1&t_selected_folderrsn=12292208","tcad_id":"0276330124","location":"    (30.45197666, -97.64404961)","day_issued":"TUESDAY","project_id":"12292208","condominium":"No","status_date":"02/03/2020","jurisdiction":"PFLUGERVILLE FULL PURPOSE","issuance_method":"Permit Center","contractor_trade":"Plumbing Contractor","permit_type_desc":"Plumbing Permit","fiscal_year_issued":"2019","permit_class_mapped":"Residential","contractor_full_name":"Daniel Brad Casebier","issued_in_last_30_days":"No","certificate_of_occupancy":"No","plumbing_valuation_remodel":"$2,900.00","property_legal_description":"LOT 34 BLK A WINDERMERE PHS A SEC 1"},"geometry":{"type":"Point","coordinates":[-97.64404961,30.45197666]}},{"type":"Feature","properties":{"date":"2015-01-09T05:00:00.000Z","year":2015,"description":"HVAC change out to existing residence only.","metadescription":"MP. Change Out. HVAC change out to existing residence only.. Final. 710 WAGON WHEEL TRL","address":"710 Wagon Wheel Trail, Pflugerville, TX, 78660, US","link":"https://abc.austintexas.gov/web/permit/public-search-other?t_detail=1&t_selected_folderrsn=11274349","tcad_id":"0270360513","location":"    (30.43693884, -97.63402949)","day_issued":"FRIDAY","project_id":"11274349","condominium":"No","status_date":"02/03/2015","jurisdiction":"PFLUGERVILLE FULL PURPOSE","contractor_zip":"78728","contractor_city":"Austin","issuance_method":"Permit Center","contractor_phone":"5123352222","contractor_trade":"Mechanical Contractor","permit_type_desc":"Mechanical Permit","fiscal_year_issued":"2015","permit_class_mapped":"Residential","contractor_address_1":"1706 BENCHMA","contractor_address_2":"AUSTIN TX  7","contractor_full_name":"Kent Ambrose","issued_in_last_30_days":"No","certificate_of_occupancy":"No","property_legal_description":"LOT 31 BLK 4 SETTLERS RIDGE SEC 3 CORRECTED PLAT OF","mechanical_valuation_remodel":"$8,130.00"},"geometry":{"type":"Point","coordinates":[-97.63402949,30.43693884]}},{"type":"Feature","properties":{"date":"2013-01-31T05:00:00.000Z","year":2013,"description":"Change out HVAC to existing residence only.","metadescription":"MP. Change Out. Change out HVAC to existing residence only.. Expired. 528 TANNER TRL","address":"528 Tanner Trail, Pflugerville, TX, 78660, US","link":"https://abc.austintexas.gov/web/permit/public-search-other?t_detail=1&t_selected_folderrsn=10890169","tcad_id":"0272360748","location":"    (30.44226807, -97.63646411)","day_issued":"THURSDAY","project_id":"10890169","condominium":"No","status_date":"07/31/2013","jurisdiction":"PFLUGERVILLE FULL PURPOSE","contractor_zip":"78640-____","contractor_city":"Kyle","issuance_method":"Permit Center","contractor_phone":"5129406915","contractor_trade":"Mechanical Contractor","permit_type_desc":"Mechanical Permit","fiscal_year_issued":"2013","permit_class_mapped":"Residential","contractor_address_2":"P.O BOX 2238","contractor_full_name":"Lukano Garcia","issued_in_last_30_days":"No","certificate_of_occupancy":"No","property_legal_description":"LOT 38 BLK E WELLS POINT PHS C-2 SEC 3","mechanical_valuation_remodel":"$5,000.00"},"geometry":{"type":"Point","coordinates":[-97.63646411,30.44226807]}},{"type":"Feature","properties":{"date":"2010-03-03T05:00:00.000Z","year":2010,"description":"Replacing water heater to existing residence only","metadescription":"PP. Change Out. Replacing water heater to existing residence only. Final. 1016 W OLYMPIC DR","address":"1016 W OLYMPIC DR","link":"https://abc.austintexas.gov/web/permit/public-search-other?t_detail=1&t_selected_folderrsn=10406647","tcad_id":"0268360318","location":"    (30.43418178, -97.63423684)","day_issued":"WEDNESDAY","project_id":"10406647","condominium":"No","status_date":"03/29/2010","jurisdiction":"AUSTIN 2 MILE ETJ","contractor_zip":"78664","contractor_city":"ROUND ROCK","issuance_method":"Permit Center","contractor_phone":"5122465400","contractor_trade":"Plumbing Contractor","permit_type_desc":"Plumbing Permit","fiscal_year_issued":"2010","permit_class_mapped":"Residential","contractor_address_2":"1950  LOUIS","contractor_full_name":"Brian Trent Christianson","issued_in_last_30_days":"No","certificate_of_occupancy":"No","plumbing_valuation_remodel":"$900.00","property_legal_description":"LOT 19 BLK A SETTLERS MEADOW SEC 1"},"geometry":{"type":"Point","coordinates":[-97.63423684,30.43418178]}},{"type":"Feature","properties":{"date":"2001-03-05T05:00:00.000Z","year":2001,"description":"Comm Instl Hvac Unit Only","metadescription":"PP. Remodel. Comm Instl Hvac Unit Only. Expired. 400 S 1ST ST","address":"400 South 1st Street, Pflugerville, TX, 78660, US","link":"https://abc.austintexas.gov/web/permit/public-search-other?t_detail=1&t_selected_folderrsn=3732390","tcad_id":"0270401904","location":"    (30.43752903, -97.62288114)","day_issued":"MONDAY","project_id":"3732390","condominium":"No","status_date":"05/07/2007","jurisdiction":"PFLUGERVILLE FULL PURPOSE","issuance_method":"Permit Center","permit_type_desc":"Plumbing Permit","master_permit_num":"3389241","fiscal_year_issued":"2001","permit_class_mapped":"Commercial","issued_in_last_30_days":"No","certificate_of_occupancy":"No","property_legal_description":"LOT 1-3 * & E 29FT LOT 4 BLK J WRENBAR ADDN"},"geometry":{"type":"Point","coordinates":[-97.62288114,30.43752903]}},{"type":"Feature","properties":{"date":"2001-03-05T05:00:00.000Z","year":2001,"description":"Comm Instl Hvac Unit Only","metadescription":"EP. Remodel. Comm Instl Hvac Unit Only. Expired. 400 S 1ST ST","address":"400 South 1st Street, Pflugerville, TX, 78660, US","link":"https://abc.austintexas.gov/web/permit/public-search-other?t_detail=1&t_selected_folderrsn=4308121","tcad_id":"0270401904","location":"    (30.43752903, -97.62288114)","day_issued":"MONDAY","project_id":"4308121","condominium":"No","status_date":"05/07/2007","jurisdiction":"PFLUGERVILLE FULL PURPOSE","issuance_method":"Permit Center","permit_type_desc":"Electrical Permit","fiscal_year_issued":"2001","permit_class_mapped":"Commercial","issued_in_last_30_days":"No","certificate_of_occupancy":"No","property_legal_description":"LOT 1-3 * & E 29FT LOT 4 BLK J WRENBAR ADDN"},"geometry":{"type":"Point","coordinates":[-97.62288114,30.43752903]}},{"type":"Feature","properties":{"date":"2001-03-05T05:00:00.000Z","year":2001,"description":"Comm Instl Hvac Unit Only","metadescription":"MP. Remodel. Comm Instl Hvac Unit Only. Expired. 400 S 1ST ST","address":"400 South 1st Street, Pflugerville, TX, 78660, US","link":"https://abc.austintexas.gov/web/permit/public-search-other?t_detail=1&t_selected_folderrsn=3389241","tcad_id":"0270401904","location":"    (30.43752903, -97.62288114)","day_issued":"MONDAY","project_id":"3389241","condominium":"No","status_date":"05/07/2007","jurisdiction":"PFLUGERVILLE FULL PURPOSE","contractor_zip":"75287","contractor_city":"Dallas","issuance_method":"Permit Center","contractor_phone":"9184734066","contractor_trade":"Mechanical Contractor","permit_type_desc":"Mechanical Permit","master_permit_num":"4308121","fiscal_year_issued":"2001","permit_class_mapped":"Commercial","contractor_address_1":"4911 HAVERWO","contractor_full_name":"James Mclelland","issued_in_last_30_days":"No","certificate_of_occupancy":"No","property_legal_description":"LOT 1-3 * & E 29FT LOT 4 BLK J WRENBAR ADDN"},"geometry":{"type":"Point","coordinates":[-97.62288114,30.43752903]}}]}
