{"type":"FeatureCollection","features":[{"type":"Feature","properties":{"date":"1994-07-21T04:00:00.000Z","year":1994,"description":"Electric To Pool Equipment","metadescription":"EP. Remodel. Electric To Pool Equipment. Final. 527 BROKEN FEATHER TRL","address":"527 Broken Feather Trail, Pflugerville, TX, 78660, US","link":"https://abc.austintexas.gov/web/permit/public-search-other?t_detail=1&t_selected_folderrsn=4228331","tcad_id":"0272360775","location":"    (30.4421121, -97.63820482)","day_issued":"THURSDAY","project_id":"4228331","condominium":"No","status_date":"05/22/2007","jurisdiction":"PFLUGERVILLE FULL PURPOSE","housing_units":"1","issuance_method":"Permit Center","permit_type_desc":"Electrical Permit","fiscal_year_issued":"1994","permit_class_mapped":"Residential","issued_in_last_30_days":"No","certificate_of_occupancy":"No","property_legal_description":"LOT 11 BLK E WELLS POINT PHS C-2 SEC 3"},"geometry":{"type":"Point","coordinates":[-97.63820482,30.4421121]}},{"type":"Feature","properties":{"date":"1994-07-21T04:00:00.000Z","year":1994,"description":"Electric To Pool Equipment","metadescription":"MP. Remodel. Electric To Pool Equipment. Final. 527 BROKEN FEATHER TRL","address":"527 Broken Feather Trail, Pflugerville, TX, 78660, US","link":"https://abc.austintexas.gov/web/permit/public-search-other?t_detail=1&t_selected_folderrsn=3320684","tcad_id":"0272360775","location":"    (30.4421121, -97.63820482)","day_issued":"THURSDAY","project_id":"3320684","condominium":"No","status_date":"05/22/2007","jurisdiction":"PFLUGERVILLE FULL PURPOSE","housing_units":"1","issuance_method":"Permit Center","permit_type_desc":"Mechanical Permit","master_permit_num":"4228331","fiscal_year_issued":"1994","permit_class_mapped":"Residential","issued_in_last_30_days":"No","certificate_of_occupancy":"No","property_legal_description":"LOT 11 BLK E WELLS POINT PHS C-2 SEC 3"},"geometry":{"type":"Point","coordinates":[-97.63820482,30.4421121]}},{"type":"Feature","properties":{"date":"1989-06-01T04:00:00.000Z","year":1989,"description":"Swimming Pool","metadescription":"MP. Remodel. Swimming Pool. Expired. 507 SPANISH RIDGE CV","address":"507 Spanish Ridge Cove, Pflugerville, TX, 78660, US","link":"https://abc.austintexas.gov/web/permit/public-search-other?t_detail=1&t_selected_folderrsn=3274095","tcad_id":"0272360713","location":"    (30.44172863, -97.63539994)","day_issued":"THURSDAY","project_id":"3274095","condominium":"No","status_date":"06/06/2007","jurisdiction":"PFLUGERVILLE FULL PURPOSE","housing_units":"1","issuance_method":"Permit Center","permit_type_desc":"Mechanical Permit","master_permit_num":"4179342","fiscal_year_issued":"1989","permit_class_mapped":"Residential","issued_in_last_30_days":"No","certificate_of_occupancy":"No","property_legal_description":"LOT 73 BLK E WELLS POINT PHS C-2 SEC 4"},"geometry":{"type":"Point","coordinates":[-97.63539994,30.44172863]}},{"type":"Feature","properties":{"date":"1989-06-01T04:00:00.000Z","year":1989,"description":"Swimming Pool","metadescription":"EP. Remodel. Swimming Pool. Expired. 507 SPANISH RIDGE CV","address":"507 Spanish Ridge Cove, Pflugerville, TX, 78660, US","link":"https://abc.austintexas.gov/web/permit/public-search-other?t_detail=1&t_selected_folderrsn=4179342","tcad_id":"0272360713","location":"    (30.44172863, -97.63539994)","day_issued":"THURSDAY","project_id":"4179342","condominium":"No","status_date":"06/06/2007","jurisdiction":"PFLUGERVILLE FULL PURPOSE","housing_units":"1","issuance_method":"Permit Center","permit_type_desc":"Electrical Permit","fiscal_year_issued":"1989","permit_class_mapped":"Residential","issued_in_last_30_days":"No","certificate_of_occupancy":"No","property_legal_description":"LOT 73 BLK E WELLS POINT PHS C-2 SEC 4"},"geometry":{"type":"Point","coordinates":[-97.63539994,30.44172863]}}]}
