{"type":"FeatureCollection","features":[{"type":"Feature","properties":{"date":"2014-07-31T04:00:00.000Z","year":2014,"description":"Install electrical service to new comm bldg only.","metadescription":"EP. New. Install electrical service to new comm bldg only.. Final. 2920 S LAKELINE BLVD","address":"2920 South Lakeline Boulevard, Cedar Park, TX, 78613, US","link":"https://abc.austintexas.gov/web/permit/public-search-other?t_detail=1&t_selected_folderrsn=11190817","tcad_id":"R516131","location":"    (30.47928855, -97.80461112)","day_issued":"THURSDAY","project_id":"11190817","condominium":"No","status_date":"10/23/2014","jurisdiction":"CEDAR PARK FULL PURPOSE","housing_units":"1","contractor_zip":"78733","contractor_city":"Austin","issuance_method":"Permit Center","contractor_phone":"5122634359","contractor_trade":"Electrical Contractor","number_of_floors":"1","permit_type_desc":"Electrical Permit","fiscal_year_issued":"2014","total_new_add_sqft":"4,956","permit_class_mapped":"Commercial","contractor_address_1":"2419 CUERNAV","contractor_address_2":"AUSTIN TX  7","contractor_full_name":"Jeffrey Anderson","issued_in_last_30_days":"No","certificate_of_occupancy":"No","property_legal_description":"S10268 - LAKELINE RIVIERA SUB (LT 1 RESUB) BLOCK A Lot 2 ACRES 2.297"},"geometry":{"type":"Point","coordinates":[-97.80461112,30.47928855]}},{"type":"Feature","properties":{"date":"2007-11-28T05:00:00.000Z","year":2007,"description":"Upgrade Electrical Service to Existing Resd Only. Eud.","metadescription":"EP. Upgrade. Upgrade Electrical Service to Existing Resd Only. Eud.. Final. 2410 GUARA DR","address":"2410 Guara Drive, Cedar Park, TX, 78613, US","link":"https://abc.austintexas.gov/web/permit/public-search-other?t_detail=1&t_selected_folderrsn=10093153","tcad_id":"0180300604","location":"    (30.46678164, -97.8455191)","day_issued":"WEDNESDAY","project_id":"10093153","condominium":"No","status_date":"10/09/2008","jurisdiction":"CEDAR PARK FULL PURPOSE","housing_units":"0","contractor_zip":"78736","contractor_city":"Austin","issuance_method":"Permit Center","contractor_phone":"5128940909","contractor_trade":"Electrical Contractor","number_of_floors":"0","permit_type_desc":"Electrical Permit","fiscal_year_issued":"2008","permit_class_mapped":"Residential","remodel_repair_sqft":"0","contractor_address_2":"7606  Thomas","contractor_full_name":"Artie Wayne Hudson","issued_in_last_30_days":"No","certificate_of_occupancy":"No","property_legal_description":"LOT 30 BLK F TWIN CREEKS COUNTRY CLUB SEC 4","electrical_valuation_remodel":"$1,200.00"},"geometry":{"type":"Point","coordinates":[-97.8455191,30.46678164]}}]}
