{"type":"FeatureCollection","features":[{"type":"Feature","properties":{"date":"2026-05-19T00:00:00.000Z","year":2026,"description":"ePlan :Grading/Excavation work associated with permit number 25019-10000-01254, 25019-10000-01360, 25019-10000-01361, 25019-10000-01362, 25019-10000-01363 and 25019-10000-01364 for the complete demolition of the Marathon Oil Wilmington Calciner Plan from the leased land owned by the port of Long Beach.","metadescription":"Grading. Commercial. ePlan :Grading/Excavation work associated with permit number 25019-10000-01254, 25019-10000-01360, 25019-10000-01361, 25019-10000-01362, 25019-10000-01363 and 25019-10000-01364 for the complete demolition of the Marathon Oil Wilmington Calciner Plan from the leased land owned by the port of Long Beach.. Issued. 1800 E PIER B ST","address":"1800 East Pier B Street, CA, Wilmington, 90744, US","ct":"9800.14","ev":"N","apc":"Harbor","cpa":"Wilmington - Harbor City","zone":"M3-1VL","solar":"N","pin_nbr":"030B217    31","use_code":"60","status_date":"05/19/2026","permit_group":"Building","refresh_time":"06/10/2026","type_lat_lon":"ADDRESS","business_unit":"Regular Plan Check"},"geometry":{"type":"Point","coordinates":[-118.22954,33.7782]}},{"type":"Feature","properties":{"date":"2005-10-12T00:00:00.000Z","year":2005,"description":"GRADING PERMIT  FOR  EXCAVATION  &  BACKFILL  (Work Area of 8' W x 10' L. x 10' Deep with 5' Vert. Cut & Temporary Trim Slope 1:1)  FOR PIPE LINE REPAIR.","metadescription":"Grading. Commercial. GRADING PERMIT  FOR  EXCAVATION  &  BACKFILL  (Work Area of 8' W x 10' L. x 10' Deep with 5' Vert. Cut & Temporary Trim Slope 1:1)  FOR PIPE LINE REPAIR.. Permit Expired. 3200 E. PIER B","address":"1800 East Pier B Street, CA, Wilmington, 90744, US","ct":"2947.00","ev":"N","apc":"Harbor","cpa":"Wilmington - Harbor City","zone":"M3-1VL","solar":"N","pin_nbr":"030B217    31","use_code":"60","geolocation":"POINT (-118.22895783 33.77777699)","status_date":"12/03/2007","permit_group":"Building","refresh_time":"06/10/2026","type_lat_lon":"PIN","business_unit":"Plan Check at Counter"},"geometry":{"type":"Point","coordinates":[-118.22895783,33.77777699]}}]}
