{"type":"FeatureCollection","features":[{"type":"Feature","properties":{"date":"2025-04-18T00:00:00.000Z","year":2025,"description":"Install concrete valve vault around existing buried piping and replace existing control cabinets on backboard and replace fencing.Utilized 505 E Pier B St. being the system did not have a street address for the actual site- The actual site is at the intersection of N. Carrack Ave and Pier B St. on Parcel Number 7440002827Lat. - 33.779704, Long. 118.227214","metadescription":"Nonbldg-New. Commercial. Install concrete valve vault around existing buried piping and replace existing control cabinets on backboard and replace fencing.Utilized 505 E Pier B St. being the system did not have a street address for the actual site- The actual site is at the intersection of N. Carrack Ave and Pier B St. on Parcel Number 7440002827Lat. - 33.779704, Long. 118.227214. Quality Review Completed. 505 E PIER B ST","address":"505 East Pier B Street, CA, Wilmington, 90744, US","ct":"9800.14","ev":"N","apc":"Harbor","cpa":"Wilmington - Harbor City","zone":"M3-1VL","solar":"N","pin_nbr":"030B217    31","use_code":"23","status_date":"05/15/2025","permit_group":"Building","refresh_time":"06/10/2026","type_lat_lon":"ADDRESS","business_unit":"Regular Plan Check"},"geometry":{"type":"Point","coordinates":[-118.23046,33.77697]}},{"type":"Feature","properties":{"date":"2008-01-11T00:00:00.000Z","year":2008,"description":"Proposed site CMU fence.  Ht = 6'-0\" L = 288 ft.  See site plan for locations.","metadescription":"Nonbldg-New. Commercial. Proposed site CMU fence.  Ht = 6'-0\" L = 288 ft.  See site plan for locations.. Permit Finaled. 111 N PIER S AVE","address":"111 PIER S AVE, CA, 90802, US","ct":"2961.00","ev":"N","apc":"Harbor","cpa":"Port of Los Angeles","zone":"[Q]M3-1","solar":"N","pin_nbr":"024B213    77","use_code":"23","geolocation":"POINT (-118.24168 33.75884)","status_date":"04/18/2008","permit_group":"Building","refresh_time":"06/10/2026","type_lat_lon":"ADDRESS","business_unit":"Express Permit"},"geometry":{"type":"Point","coordinates":[-118.24168,33.75884]}},{"type":"Feature","properties":{"date":"2007-11-20T00:00:00.000Z","year":2007,"description":"SUPPLEMENTAL PERMIT TO CHANGE WORK DESCRIPTION OF PERMIT 07020-10000-00043 TO:  4' TO 6' HIGH CMU FENCE WALL ABOVE 4' RETAINING WALL ALONG WESTERLY BOUNDRY LINE.  APPROX. 260' LONG. SEE BUILDING PERMIT 05010-10000-02828 FOR ALL CLEARANCES.","metadescription":"Nonbldg-New. Commercial. SUPPLEMENTAL PERMIT TO CHANGE WORK DESCRIPTION OF PERMIT 07020-10000-00043 TO:  4' TO 6' HIGH CMU FENCE WALL ABOVE 4' RETAINING WALL ALONG WESTERLY BOUNDRY LINE.  APPROX. 260' LONG. SEE BUILDING PERMIT 05010-10000-02828 FOR ALL CLEARANCES.. Permit Finaled. 111 N PIER S AVE","address":"111 PIER S AVE, CA, 90802, US","ct":"2961.00","ev":"N","apc":"Harbor","cpa":"Port of Los Angeles","zone":"[Q]M3-1","solar":"N","pin_nbr":"024B213    52","use_code":"23","geolocation":"POINT (-118.24168 33.75884)","status_date":"11/27/2007","permit_group":"Building","refresh_time":"06/10/2026","type_lat_lon":"ADDRESS","business_unit":"Plan Check at Counter"},"geometry":{"type":"Point","coordinates":[-118.24168,33.75884]}},{"type":"Feature","properties":{"date":"2007-01-19T00:00:00.000Z","year":2007,"description":"4' TO 6' HIGH CMU FENCE WALL ABOVE 4' RETAINING WALL ALONG WESTLY PROPERTY LINE.  APPROX. 260' LONG.  SEE BUILDING PERMIT 05010-10000-02828 FOR ALL CLEARANCES.","metadescription":"Nonbldg-New. Commercial. 4' TO 6' HIGH CMU FENCE WALL ABOVE 4' RETAINING WALL ALONG WESTLY PROPERTY LINE.  APPROX. 260' LONG.  SEE BUILDING PERMIT 05010-10000-02828 FOR ALL CLEARANCES.. Permit Finaled. 111 N PIER S AVE","address":"111 PIER S AVE, CA, 90802, US","ct":"2961.00","ev":"N","apc":"Harbor","cpa":"Port of Los Angeles","zone":"[Q]M3-1","solar":"N","pin_nbr":"024B213    52","use_code":"23","geolocation":"POINT (-118.24168 33.75884)","status_date":"04/18/2008","permit_group":"Building","refresh_time":"06/10/2026","type_lat_lon":"ADDRESS","business_unit":"Plan Check at Counter"},"geometry":{"type":"Point","coordinates":[-118.24168,33.75884]}}]}
