{"type":"FeatureCollection","features":[{"type":"Feature","properties":{"date":"2005-07-15T00:00:00.000Z","year":2005,"description":"TEAR OFF & HOT MOP NEW ROOF APPROX. 20 SQUARES AT COLONIAL YACHT","metadescription":"Bldg-Alter/Repair. Commercial. TEAR OFF & HOT MOP NEW ROOF APPROX. 20 SQUARES AT COLONIAL YACHT. Permit Finaled. 215 N HENRY FORD AVE","address":"215 North Henry Ford Avenue, CA, Wilmington, 90744, US","ct":"2947.00","ev":"N","apc":"Harbor","cpa":"Port of Los Angeles","zone":"M3, M3-1VL, [Q]M2-1","solar":"N","pin_nbr":"027B213    18","use_code":"23","geolocation":"POINT (-118.24055 33.76764)","status_date":"12/01/2005","permit_group":"Building","refresh_time":"06/10/2026","type_lat_lon":"ADDRESS","business_unit":"Express Permit"},"geometry":{"type":"Point","coordinates":[-118.24055,33.76764]}}]}
