{"type":"FeatureCollection","features":[{"type":"Feature","properties":{"date":"2022-07-25T00:00:00.000Z","year":2022,"description":"INTERIOR REMODEL OF EXISTING RETAIL SPACE: NEW SINGLE ACCOMMODATION RESTROOM AND CEILING WORK. (1,270 SF)","metadescription":"Bldg-Alter/Repair. Commercial. INTERIOR REMODEL OF EXISTING RETAIL SPACE: NEW SINGLE ACCOMMODATION RESTROOM AND CEILING WORK. (1,270 SF). Permit Finaled. 9851 S ALAMEDA ST UNIT D","address":"9707 South Alameda Street, CA, Los Angeles, 90002, US","ct":"2421.00","ev":"N","apc":"South Los Angeles","cpa":"Southeast Los Angeles","zone":"CM(UV)","solar":"N","pin_nbr":"093A217   270","use_code":"16","status_date":"01/27/2023","permit_group":"Building","refresh_time":"06/10/2026","type_lat_lon":"ADDRESS","business_unit":"Expanded Counter Plan Check"},"geometry":{"type":"Point","coordinates":[-118.22929,33.94801]}}]}
