{"type":"FeatureCollection","features":[{"type":"Feature","properties":{"date":"2023-01-25T00:00:00.000Z","year":2023,"description":"NEW TENANT IMPROVEMENT PROJECT IN AN EXISTING BUILDING SHELL TO INCLUDE NEW STOREFRONT DOOR ENTRY TO MATCH EXISTING,  MODIFICATION TO EXISTING OUTDOOR DINING AREA, TO INCLUDE NEW OUTDOOR DINING AREA COVER. STURUCTRUAL WORK. (SEPARATE PERMITS FOR MEP)* CHANGE OF USE AND OUTDOOR EATING AREA REQUIRED TO BE APPROVED ON A SEPARATE PERMIT*","metadescription":"Bldg-Alter/Repair. Commercial. NEW TENANT IMPROVEMENT PROJECT IN AN EXISTING BUILDING SHELL TO INCLUDE NEW STOREFRONT DOOR ENTRY TO MATCH EXISTING,  MODIFICATION TO EXISTING OUTDOOR DINING AREA, TO INCLUDE NEW OUTDOOR DINING AREA COVER. STURUCTRUAL WORK. (SEPARATE PERMITS FOR MEP)* CHANGE OF USE AND OUTDOOR EATING AREA REQUIRED TO BE APPROVED ON A SEPARATE PERMIT*. CofO Issued. 2365 E CENTURY BLVD 3A","address":"10050 South Laurel Street, CA, Los Angeles, 90002, US","ct":"2421.00, 5354.00","ev":"N","apc":"South Los Angeles","cpa":"Southeast Los Angeles","zone":"CM(UV)","solar":"N","pin_nbr":"093A217   270","use_code":"17","status_date":"12/21/2023","construction":"Type V-B Construction","permit_group":"Building","refresh_time":"06/10/2026","type_lat_lon":"ADDRESS","business_unit":"Expanded Counter Plan Check","square_footage":"0"},"geometry":{"type":"Point","coordinates":[-118.2305,33.94668]}},{"type":"Feature","properties":{"date":"2023-01-12T00:00:00.000Z","year":2023,"description":"Change of use existing Retail use to Restaurant use and add Trellis roof for out door dining area","metadescription":"Bldg-Addition. Commercial. Change of use existing Retail use to Restaurant use and add Trellis roof for out door dining area. Permit Finaled. 2365 E CENTURY BLVD SUITE 3A","address":"10050 South Laurel Street, CA, Los Angeles, 90002, US","ct":"2421.00","ev":"N","apc":"South Los Angeles","cpa":"Southeast Los Angeles","zone":"CM(UV)","solar":"N","pin_nbr":"093A217   270","use_code":"17","status_date":"12/21/2023","construction":"Type V-B Construction","permit_group":"Building","refresh_time":"06/10/2026","type_lat_lon":"ADDRESS","business_unit":"Regular Plan Check","square_footage":"561"},"geometry":{"type":"Point","coordinates":[-118.2305,33.94668]}},{"type":"Feature","properties":{"date":"2020-08-13T00:00:00.000Z","year":2020,"description":"INSTALLTION OF SHUTTERS ON EXISTING EXTERIOR DOORS","metadescription":"Bldg-Alter/Repair. Commercial. INSTALLTION OF SHUTTERS ON EXISTING EXTERIOR DOORS. Permit Finaled. 9800 S LAUREL ST","address":"9635 Laurel Street, CA, Los Angeles, 90002, US","ct":"2421.00","ev":"N","apc":"South Los Angeles","cpa":"Southeast Los Angeles","zone":"CM(UV)","solar":"N","pin_nbr":"093A217   277","use_code":"16","status_date":"10/15/2020","permit_group":"Building","refresh_time":"06/10/2026","type_lat_lon":"ADDRESS","business_unit":"Plan Check at Counter"},"geometry":{"type":"Point","coordinates":[-118.23082,33.94799]}},{"type":"Feature","properties":{"date":"2019-09-27T00:00:00.000Z","year":2019,"description":"(3) FOUNTAIN/WATER FEATURES  AND VAULT  @OUTDOOR PLAZA","metadescription":"Nonbldg-New. Commercial. (3) FOUNTAIN/WATER FEATURES  AND VAULT  @OUTDOOR PLAZA. Issued. 2365 E CENTURY BLVD","address":"10050 South Laurel Street, CA, Los Angeles, 90002, US","ct":"2421.00","ev":"N","apc":"South Los Angeles","cpa":"Southeast Los Angeles","zone":"CM(UV)","solar":"N","pin_nbr":"093A217   277","use_code":"23","geolocation":"POINT (-118.2305 33.94668)","status_date":"09/27/2019","construction":"Type V-B Construction","permit_group":"Building","refresh_time":"06/10/2026","type_lat_lon":"ADDRESS","business_unit":"Regular Plan Check"},"geometry":{"type":"Point","coordinates":[-118.2305,33.94668]}},{"type":"Feature","properties":{"date":"2019-07-22T00:00:00.000Z","year":2019,"description":"CHANGE OF USE AND TENANT IMPROVEMENT FROM RETAIL TO GYMNASIUM. INCLUDES INTERIOR CONSTRUCTION, NEW BEARING PARTITIONS, DOORS, AND FINISHES.","metadescription":"Bldg-Alter/Repair. Commercial. CHANGE OF USE AND TENANT IMPROVEMENT FROM RETAIL TO GYMNASIUM. INCLUDES INTERIOR CONSTRUCTION, NEW BEARING PARTITIONS, DOORS, AND FINISHES.. CofO Issued. 2450 E CENTURY BLVD","address":"9911 South Alameda Street, CA, Los Angeles, 90002, US","ct":"5354.00","ev":"N","apc":"South Los Angeles","cpa":"Southeast Los Angeles","zone":"CM(UV)","solar":"N","pin_nbr":"091-5A217 110","use_code":"4","geolocation":"POINT (-118.22941 33.94627)","status_date":"07/26/2021","construction":"Type V-B Construction","permit_group":"Building","refresh_time":"06/10/2026","type_lat_lon":"ADDRESS","business_unit":"Regular Plan Check"},"geometry":{"type":"Point","coordinates":[-118.22941,33.94627]}}]}
