{"type":"FeatureCollection","features":[{"type":"Feature","properties":{"date":"2022-10-10T00:00:00.000Z","year":2022,"description":"New tenant improvement to an existing space including new non-bearing interior partitions, new interior electrical/data, mechanical and plumbing, new ceiling w/ new LED light fixtures, new finishes and millwork.","metadescription":"Bldg-Alter/Repair. Commercial. New tenant improvement to an existing space including new non-bearing interior partitions, new interior electrical/data, mechanical and plumbing, new ceiling w/ new LED light fixtures, new finishes and millwork.. Permit Finaled. 2365 E CENTURY BLVD B","address":"10050 South Laurel Street, CA, Los Angeles, 90002, US","ct":"2421.00, 5354.00","ev":"N","apc":"South Los Angeles","cpa":"Southeast Los Angeles","zone":"CM(UV)","solar":"N","pin_nbr":"093A217   270","use_code":"13","status_date":"04/10/2023","permit_group":"Building","refresh_time":"06/10/2026","type_lat_lon":"ADDRESS","business_unit":"Expanded Counter Plan Check"},"geometry":{"type":"Point","coordinates":[-118.2305,33.94668]}}]}
