{"type":"FeatureCollection","features":[{"type":"Feature","properties":{"date":"2023-05-17T00:00:00.000Z","year":2023,"description":"SUPPLEMENTAL PERMIT TO APPROVE PERMIT 22016-10000-23891, REVISIONS TO STOREFRONT & TRELLIS DESIGN","metadescription":"Bldg-Alter/Repair. Commercial. SUPPLEMENTAL PERMIT TO APPROVE PERMIT 22016-10000-23891, REVISIONS TO STOREFRONT & TRELLIS DESIGN. Permit Finaled. 2365 E CENTURY BLVD SUITE 3A","address":"10050 South Laurel Street, CA, Los Angeles, 90002, US","ct":"2421.00","ev":"N","apc":"South Los Angeles","cpa":"Southeast Los Angeles","zone":"CM(UV)","solar":"N","pin_nbr":"093A217   270","use_code":"17","status_date":"12/21/2023","permit_group":"Building","refresh_time":"06/10/2026","type_lat_lon":"ADDRESS","business_unit":"Regular Plan Check"},"geometry":{"type":"Point","coordinates":[-118.2305,33.94668]}},{"type":"Feature","properties":{"date":"2023-03-07T00:00:00.000Z","year":2023,"description":"PROPOSED (1) S/F ILLUM. 3' X 11' CHANNEL LETTER WALL SIGN (\"JERSEY MIKE'S SUBS, SINCE 1956\")","metadescription":"Sign. Onsite. PROPOSED (1) S/F ILLUM. 3' X 11' CHANNEL LETTER WALL SIGN (\"JERSEY MIKE'S SUBS, SINCE 1956\"). Issued. 2365 E CENTURY BLVD","address":"10050 South Laurel Street, CA, Los Angeles, 90002, US","ct":"2421.00","ev":"N","apc":"South Los Angeles","cpa":"Southeast Los Angeles","zone":"CM(UV)","solar":"N","pin_nbr":"093A217   270","use_code":"19","status_date":"03/07/2023","permit_group":"Building","refresh_time":"06/10/2026","type_lat_lon":"ADDRESS","business_unit":"Plan Check at Counter"},"geometry":{"type":"Point","coordinates":[-118.2305,33.94668]}},{"type":"Feature","properties":{"date":"2023-03-06T00:00:00.000Z","year":2023,"description":"3 ILLUMNATED WALL SIGNS 36\"LOGO/16\" FACE LIT STACKED CHANNEL LETTERS W/FCO LETTERS \"PANDA EXPRESS\"Sign 1 (S1) 3' X 11', 33 SQ FT @ 11.66 FT ABOVE GRADESign 2 (S2) 3' X 11', 33 SQ FT @ 12.33 FT ABOVE GRADESign 3 (S3) 3' X 11', 33 SQ FT @ 20.17 FT ABOVE GRADE","metadescription":"Sign. Onsite. 3 ILLUMNATED WALL SIGNS 36\"LOGO/16\" FACE LIT STACKED CHANNEL LETTERS W/FCO LETTERS \"PANDA EXPRESS\"Sign 1 (S1) 3' X 11', 33 SQ FT @ 11.66 FT ABOVE GRADESign 2 (S2) 3' X 11', 33 SQ FT @ 12.33 FT ABOVE GRADESign 3 (S3) 3' X 11', 33 SQ FT @ 20.17 FT ABOVE GRADE. Permit Finaled. 2365 E CENTURY BLVD","address":"10050 South Laurel Street, CA, Los Angeles, 90002, US","ct":"2421.00","ev":"N","apc":"South Los Angeles","cpa":"Southeast Los Angeles","zone":"CM(UV)","solar":"N","pin_nbr":"093A217   270","use_code":"19","status_date":"10/25/2023","permit_group":"Building","refresh_time":"06/10/2026","type_lat_lon":"ADDRESS","business_unit":"Plan Check at Counter"},"geometry":{"type":"Point","coordinates":[-118.2305,33.94668]}},{"type":"Feature","properties":{"date":"2023-02-17T00:00:00.000Z","year":2023,"description":"Eplan Install (1) new illuminated channel letter wall sign 124'' x 36'', 31 Sq.Ft.","metadescription":"Sign. Onsite. Eplan Install (1) new illuminated channel letter wall sign 124'' x 36'', 31 Sq.Ft.. Permit Finaled. 2365 E CENTURY BLVD","address":"10050 South Laurel Street, CA, Los Angeles, 90002, US","ct":"2421.00","ev":"N","apc":"South Los Angeles","cpa":"Southeast Los Angeles","zone":"CM(UV)","solar":"N","pin_nbr":"093A217   270","use_code":"19","status_date":"04/05/2023","permit_group":"Building","refresh_time":"06/10/2026","type_lat_lon":"ADDRESS","business_unit":"Plan Check at Counter"},"geometry":{"type":"Point","coordinates":[-118.2305,33.94668]}},{"type":"Feature","properties":{"date":"2021-09-28T00:00:00.000Z","year":2021,"description":"INSTALL ONE (1) ILLUMINATED WALL SIGN (2'4\" X 16'6\") AND WINDOW SIGN (24\" X 10\").","metadescription":"Sign. Onsite. INSTALL ONE (1) ILLUMINATED WALL SIGN (2'4\" X 16'6\") AND WINDOW SIGN (24\" X 10\").. Issued. 2365 E CENTURY BLVD","address":"10050 South Laurel Street, CA, Los Angeles, 90002, US","ct":"2421.00","ev":"N","apc":"South Los Angeles","cpa":"Southeast Los Angeles","zone":"CM(UV)","solar":"N","pin_nbr":"093A217   270","use_code":"19","status_date":"09/28/2021","permit_group":"Building","refresh_time":"06/10/2026","type_lat_lon":"ADDRESS","business_unit":"Plan Check at Counter"},"geometry":{"type":"Point","coordinates":[-118.2305,33.94668]}},{"type":"Feature","properties":{"date":"2021-09-17T00:00:00.000Z","year":2021,"description":"Install one new illuminated wall sign 23.5 sf, dimension 14\" x 16' 7-7/16\"","metadescription":"Sign. Onsite. Install one new illuminated wall sign 23.5 sf, dimension 14\" x 16' 7-7/16\". Permit Finaled. 9850 S LAUREL ST","address":"9635 Laurel Street, CA, Los Angeles, 90002, US","ct":"2421.00","ev":"N","apc":"South Los Angeles","cpa":"Southeast Los Angeles","zone":"CM(UV)","solar":"N","pin_nbr":"093A217   270","use_code":"19","status_date":"06/06/2022","permit_group":"Building","refresh_time":"06/10/2026","type_lat_lon":"ADDRESS","business_unit":"Plan Check at Counter"},"geometry":{"type":"Point","coordinates":[-118.23082,33.94793]}},{"type":"Feature","properties":{"date":"2021-05-11T00:00:00.000Z","year":2021,"description":"INSTALL ONE, ON SITE, NEW ILLUMINATED CHANNEL LETTER WALL SIGN @ 36\" x 110 1/8\" (27.5 SF)","metadescription":"Sign. Onsite. INSTALL ONE, ON SITE, NEW ILLUMINATED CHANNEL LETTER WALL SIGN @ 36\" x 110 1/8\" (27.5 SF). Permit Expired. 9851 S ALAMEDA ST SUITE F","address":"9707 South Alameda Street, CA, Los Angeles, 90002, US","ct":"2421.00","ev":"N","apc":"South Los Angeles","cpa":"Southeast Los Angeles","zone":"CM(UV)","solar":"N","pin_nbr":"093A217   270","use_code":"19","status_date":"01/05/2026","permit_group":"Building","refresh_time":"06/10/2026","type_lat_lon":"ADDRESS","business_unit":"Plan Check at Counter"},"geometry":{"type":"Point","coordinates":[-118.22929,33.94801]}},{"type":"Feature","properties":{"date":"2021-04-07T00:00:00.000Z","year":2021,"description":"New 3'x8'2\"(12' above grade) wall sign reading \"jamba\"","metadescription":"Sign. Onsite. New 3'x8'2\"(12' above grade) wall sign reading \"jamba\". Permit Finaled. 9851 S ALAMEDA ST","address":"9707 South Alameda Street, CA, Los Angeles, 90002, US","ct":"2421.00","ev":"N","apc":"South Los Angeles","cpa":"Southeast Los Angeles","zone":"CM(UV)","solar":"N","pin_nbr":"093A217   270","use_code":"19","status_date":"07/22/2021","permit_group":"Building","refresh_time":"06/10/2026","type_lat_lon":"ADDRESS","business_unit":"Plan Check at Counter"},"geometry":{"type":"Point","coordinates":[-118.22929,33.94801]}},{"type":"Feature","properties":{"date":"2020-11-05T00:00:00.000Z","year":2020,"description":"SUPPLEMENTAL TO 20048 10000 01342 TO CAPTURE AFFIDAVIT FOR DIGITAL DISPLAY - NO FEE DEPARTMENT ERROR","metadescription":"Sign. Onsite. SUPPLEMENTAL TO 20048 10000 01342 TO CAPTURE AFFIDAVIT FOR DIGITAL DISPLAY - NO FEE DEPARTMENT ERROR. Issued. 2449 E CENTURY BLVD","address":"9901 South Alameda Street, CA, Los Angeles, 90002, US","ct":"2421.00","ev":"N","apc":"South Los Angeles","cpa":"Southeast Los Angeles","zone":"CM(UV)","solar":"N","pin_nbr":"093A217   270","use_code":"19","status_date":"11/05/2020","permit_group":"Building","refresh_time":"06/10/2026","type_lat_lon":"ADDRESS","business_unit":"Plan Check at Counter"},"geometry":{"type":"Point","coordinates":[-118.22942,33.9467]}},{"type":"Feature","properties":{"date":"2020-08-27T00:00:00.000Z","year":2020,"description":"INSTALL (4) ILLUMINATED AND (3) NON ILLUMINATED ONSITE INFORMATION SIGNS:ILLUMINATED:SIGN G: 3'-10\" (H) X 2'-7\" (W) = 3.2 SQFT.SIGN H: 3'-10\" (H) X 2'-1\" (W) = 2.6 SQFT.SIGN J: 5'-5\" (H) X 2'-11.5\" (W) = 12 SQFT.SIGN L: 5'-5\" (H) X 6'(W) = 24 SQFTNON ILLUMINATED:(3) SIGNS P1, P2, P3 : 1'-6\" (H)  X 1'-6\" (W) = 4.5 SQFT (1.5 SQFT EA) 2 OF 4","metadescription":"Sign. Onsite. INSTALL (4) ILLUMINATED AND (3) NON ILLUMINATED ONSITE INFORMATION SIGNS:ILLUMINATED:SIGN G: 3'-10\" (H) X 2'-7\" (W) = 3.2 SQFT.SIGN H: 3'-10\" (H) X 2'-1\" (W) = 2.6 SQFT.SIGN J: 5'-5\" (H) X 2'-11.5\" (W) = 12 SQFT.SIGN L: 5'-5\" (H) X 6'(W) = 24 SQFTNON ILLUMINATED:(3) SIGNS P1, P2, P3 : 1'-6\" (H)  X 1'-6\" (W) = 4.5 SQFT (1.5 SQFT EA) 2 OF 4. Permit Finaled. 2449 E CENTURY BLVD","address":"9901 South Alameda Street, CA, Los Angeles, 90002, US","ct":"2421.00","ev":"N","apc":"South Los Angeles","cpa":"Southeast Los Angeles","zone":"CM(UV)","solar":"N","pin_nbr":"093A217   270","use_code":"19","status_date":"11/19/2020","permit_group":"Building","refresh_time":"06/10/2026","type_lat_lon":"ADDRESS","business_unit":"Plan Check at Counter"},"geometry":{"type":"Point","coordinates":[-118.22942,33.9467]}},{"type":"Feature","properties":{"date":"2020-08-27T00:00:00.000Z","year":2020,"description":"INSTALL (1) NON-ILLUMINATED CLEARANCE WALL SIGN 5'-6\" X 5\" (SIGN \"I\")3 OF 3","metadescription":"Sign. Onsite. INSTALL (1) NON-ILLUMINATED CLEARANCE WALL SIGN 5'-6\" X 5\" (SIGN \"I\")3 OF 3. Permit Finaled. 2449 E CENTURY BLVD","address":"9901 South Alameda Street, CA, Los Angeles, 90002, US","ct":"2421.00","ev":"N","apc":"South Los Angeles","cpa":"Southeast Los Angeles","zone":"CM(UV)","solar":"N","pin_nbr":"093A217   270","use_code":"19","status_date":"11/19/2020","permit_group":"Building","refresh_time":"06/10/2026","type_lat_lon":"ADDRESS","business_unit":"Plan Check at Counter"},"geometry":{"type":"Point","coordinates":[-118.22942,33.9467]}},{"type":"Feature","properties":{"date":"2020-08-27T00:00:00.000Z","year":2020,"description":"INSTALL (1) NEW DIGITAL INFORMATION SIGNSSIGN K: 5'-5\" (H) X 2'-11\" (W) = 12.6 SQFT.","metadescription":"Sign. Onsite. INSTALL (1) NEW DIGITAL INFORMATION SIGNSSIGN K: 5'-5\" (H) X 2'-11\" (W) = 12.6 SQFT.. Permit Finaled. 2449 E CENTURY BLVD","address":"9901 South Alameda Street, CA, Los Angeles, 90002, US","ct":"2421.00","ev":"N","apc":"South Los Angeles","cpa":"Southeast Los Angeles","zone":"CM(UV)","solar":"N","pin_nbr":"093A217   270","use_code":"19","status_date":"11/19/2020","permit_group":"Building","refresh_time":"06/10/2026","type_lat_lon":"ADDRESS","business_unit":"Plan Check at Counter"},"geometry":{"type":"Point","coordinates":[-118.22942,33.9467]}},{"type":"Feature","properties":{"date":"2020-08-27T00:00:00.000Z","year":2020,"description":"INSTALL (8) ILLUMINATED WALL SIGNS:SIGN A1: 5' ROUND LOGO SIGN 19.6 SQFT @ 17'-5\" ABOVE GRADE.SIGN A2: 5' ROUND LOGO SIGN 19.6 SQFT @ 21'-9\" ABOVE GRADE.SIGN B1 & B2: 1'-6\" (H) X 14'-6.5\" (W) 21.8 SQFT EACH @ 14'-6\" ABOVE GRADE.SIGN C1, C2, C3: 1'-9\" (H) X 3'-11.75\" (W) 7 SQFT EACH @ 14'-5\" ABOVE GRADE.SIGN C4: 1'-9\" (H) X 3'-11.75\" (W) 7 SQFT @ 19'-6\" ABOVE GRADE.1 OF 3","metadescription":"Sign. Onsite. INSTALL (8) ILLUMINATED WALL SIGNS:SIGN A1: 5' ROUND LOGO SIGN 19.6 SQFT @ 17'-5\" ABOVE GRADE.SIGN A2: 5' ROUND LOGO SIGN 19.6 SQFT @ 21'-9\" ABOVE GRADE.SIGN B1 & B2: 1'-6\" (H) X 14'-6.5\" (W) 21.8 SQFT EACH @ 14'-6\" ABOVE GRADE.SIGN C1, C2, C3: 1'-9\" (H) X 3'-11.75\" (W) 7 SQFT EACH @ 14'-5\" ABOVE GRADE.SIGN C4: 1'-9\" (H) X 3'-11.75\" (W) 7 SQFT @ 19'-6\" ABOVE GRADE.1 OF 3. Permit Finaled. 2449 E CENTURY BLVD","address":"9901 South Alameda Street, CA, Los Angeles, 90002, US","ct":"2421.00","ev":"N","apc":"South Los Angeles","cpa":"Southeast Los Angeles","zone":"CM(UV)","solar":"N","pin_nbr":"093A217   270","use_code":"19","status_date":"11/19/2020","permit_group":"Building","refresh_time":"06/10/2026","type_lat_lon":"ADDRESS","business_unit":"Plan Check at Counter"},"geometry":{"type":"Point","coordinates":[-118.22942,33.9467]}},{"type":"Feature","properties":{"date":"2020-03-12T00:00:00.000Z","year":2020,"description":"INSTALLATION OF (1) (N) WALL MURAL SIGN 9'-10\" TALL  x 62'-4\"","metadescription":"Sign. Onsite. INSTALLATION OF (1) (N) WALL MURAL SIGN 9'-10\" TALL  x 62'-4\". Permit Expired. 9801 S ALAMEDA ST","address":"9707 South Alameda Street, CA, Los Angeles, 90002, US","ct":"2421.00","ev":"N","apc":"South Los Angeles","cpa":"Southeast Los Angeles","zone":"CM(UV), OS(UV), PF(UV), R3(UV), RAS3(UV), RAS4(UV)","solar":"N","pin_nbr":"093A217   270","use_code":"19","status_date":"01/05/2026","permit_group":"Building","refresh_time":"06/10/2026","type_lat_lon":"ADDRESS","business_unit":"Plan Check at Counter"},"geometry":{"type":"Point","coordinates":[-118.22929,33.94794]}},{"type":"Feature","properties":{"date":"2020-03-12T00:00:00.000Z","year":2020,"description":"Supplemental to permit # 19048-10000-03254 to change the color of wall signs from orange to white.","metadescription":"Sign. Onsite. Supplemental to permit # 19048-10000-03254 to change the color of wall signs from orange to white.. Permit Finaled. 9801 S ALAMEDA ST","address":"9707 South Alameda Street, CA, Los Angeles, 90002, US","ct":"2421.00","ev":"N","apc":"South Los Angeles","cpa":"Southeast Los Angeles","zone":"CM(UV)","solar":"N","pin_nbr":"093A217   277","use_code":"19","status_date":"10/13/2020","permit_group":"Building","refresh_time":"06/10/2026","type_lat_lon":"ADDRESS","business_unit":"Plan Check at Counter"},"geometry":{"type":"Point","coordinates":[-118.22929,33.94794]}},{"type":"Feature","properties":{"date":"2019-12-30T00:00:00.000Z","year":2019,"description":"INSTALL (1) 21\" X 48\" 7 SF PROJECTING SIGN, 14' ABOVE GRADE (B6)(D/F) (ILLUMINATED)6 OF6","metadescription":"Sign. Onsite. INSTALL (1) 21\" X 48\" 7 SF PROJECTING SIGN, 14' ABOVE GRADE (B6)(D/F) (ILLUMINATED)6 OF6. Permit Finaled. 2365 E CENTURY BLVD","address":"10050 South Laurel Street, CA, Los Angeles, 90002, US","ct":"2421.00","ev":"N","apc":"South Los Angeles","cpa":"Southeast Los Angeles","zone":"CM(UV)","solar":"N","pin_nbr":"093A217   270","use_code":"19","geolocation":"POINT (-118.2305 33.94668)","status_date":"07/31/2020","permit_group":"Building","refresh_time":"06/10/2026","type_lat_lon":"ADDRESS","business_unit":"Expanded Counter Plan Check"},"geometry":{"type":"Point","coordinates":[-118.2305,33.94668]}},{"type":"Feature","properties":{"date":"2019-12-30T00:00:00.000Z","year":2019,"description":"INSTALL (1) 21\" X 48\" 7 SF PROJECTING SIGN, 14' ABOVE GRADE (B2)(D/F) (ILLUMINATED)2 OF 6","metadescription":"Sign. Onsite. INSTALL (1) 21\" X 48\" 7 SF PROJECTING SIGN, 14' ABOVE GRADE (B2)(D/F) (ILLUMINATED)2 OF 6. Permit Finaled. 2365 E CENTURY BLVD","address":"10050 South Laurel Street, CA, Los Angeles, 90002, US","ct":"2421.00","ev":"N","apc":"South Los Angeles","cpa":"Southeast Los Angeles","zone":"CM(UV)","solar":"N","pin_nbr":"093A217   270","use_code":"19","geolocation":"POINT (-118.2305 33.94668)","status_date":"07/31/2020","permit_group":"Building","refresh_time":"06/10/2026","type_lat_lon":"ADDRESS","business_unit":"Expanded Counter Plan Check"},"geometry":{"type":"Point","coordinates":[-118.2305,33.94668]}},{"type":"Feature","properties":{"date":"2019-12-30T00:00:00.000Z","year":2019,"description":"INSTALL (1) 21\" X 48\" 7 SF PROJECTING SIGN, 14' ABOVE GRADE (B1)(D/F) (ILLUMINATED)1 OF 6","metadescription":"Sign. Onsite. INSTALL (1) 21\" X 48\" 7 SF PROJECTING SIGN, 14' ABOVE GRADE (B1)(D/F) (ILLUMINATED)1 OF 6. Permit Finaled. 2365 E CENTURY BLVD","address":"10050 South Laurel Street, CA, Los Angeles, 90002, US","ct":"2421.00","ev":"N","apc":"South Los Angeles","cpa":"Southeast Los Angeles","zone":"CM(UV)","solar":"N","pin_nbr":"093A217   270","use_code":"19","geolocation":"POINT (-118.2305 33.94668)","status_date":"07/31/2020","permit_group":"Building","refresh_time":"06/10/2026","type_lat_lon":"ADDRESS","business_unit":"Expanded Counter Plan Check"},"geometry":{"type":"Point","coordinates":[-118.2305,33.94668]}},{"type":"Feature","properties":{"date":"2019-12-30T00:00:00.000Z","year":2019,"description":"INSTALL (1) 21\" X 48\" 7 SF PROJECTING SIGN, 14' ABOVE GRADE (B3)(D/F) (ILLUMINATED)3 OF 6","metadescription":"Sign. Onsite. INSTALL (1) 21\" X 48\" 7 SF PROJECTING SIGN, 14' ABOVE GRADE (B3)(D/F) (ILLUMINATED)3 OF 6. Permit Finaled. 2365 E CENTURY BLVD","address":"10050 South Laurel Street, CA, Los Angeles, 90002, US","ct":"2421.00","ev":"N","apc":"South Los Angeles","cpa":"Southeast Los Angeles","zone":"CM(UV)","solar":"N","pin_nbr":"093A217   270","use_code":"19","geolocation":"POINT (-118.2305 33.94668)","status_date":"07/31/2020","permit_group":"Building","refresh_time":"06/10/2026","type_lat_lon":"ADDRESS","business_unit":"Expanded Counter Plan Check"},"geometry":{"type":"Point","coordinates":[-118.2305,33.94668]}},{"type":"Feature","properties":{"date":"2019-12-30T00:00:00.000Z","year":2019,"description":"INSTALL (1) 21\" X 48\" 7 SF PROJECTING SIGN, 14' ABOVE GRADE (B4)(D/F) (ILLUMINATED)4 OF 6","metadescription":"Sign. Onsite. INSTALL (1) 21\" X 48\" 7 SF PROJECTING SIGN, 14' ABOVE GRADE (B4)(D/F) (ILLUMINATED)4 OF 6. Permit Finaled. 2365 E CENTURY BLVD","address":"10050 South Laurel Street, CA, Los Angeles, 90002, US","ct":"2421.00","ev":"N","apc":"South Los Angeles","cpa":"Southeast Los Angeles","zone":"CM(UV)","solar":"N","pin_nbr":"093A217   270","use_code":"19","geolocation":"POINT (-118.2305 33.94668)","status_date":"07/31/2020","permit_group":"Building","refresh_time":"06/10/2026","type_lat_lon":"ADDRESS","business_unit":"Expanded Counter Plan Check"},"geometry":{"type":"Point","coordinates":[-118.2305,33.94668]}},{"type":"Feature","properties":{"date":"2019-12-30T00:00:00.000Z","year":2019,"description":"INSTALL (1) 21\" X 48\" 7 SF PROJECTING SIGN, 14' ABOVE GRADE (B5)(D/F) (ILLUMINATED)5 OF 6","metadescription":"Sign. Onsite. INSTALL (1) 21\" X 48\" 7 SF PROJECTING SIGN, 14' ABOVE GRADE (B5)(D/F) (ILLUMINATED)5 OF 6. Permit Finaled. 2365 E CENTURY BLVD","address":"10050 South Laurel Street, CA, Los Angeles, 90002, US","ct":"2421.00","ev":"N","apc":"South Los Angeles","cpa":"Southeast Los Angeles","zone":"CM(UV)","solar":"N","pin_nbr":"093A217   270","use_code":"19","geolocation":"POINT (-118.2305 33.94668)","status_date":"07/31/2020","permit_group":"Building","refresh_time":"06/10/2026","type_lat_lon":"ADDRESS","business_unit":"Expanded Counter Plan Check"},"geometry":{"type":"Point","coordinates":[-118.2305,33.94668]}},{"type":"Feature","properties":{"date":"2019-12-12T00:00:00.000Z","year":2019,"description":"INSTALL (2) ILLUMINATED WALL SIGN  (3' X 15'-7\") 46.75 SF EACH 13'6\" FROM GRADE","metadescription":"Sign. Onsite. INSTALL (2) ILLUMINATED WALL SIGN  (3' X 15'-7\") 46.75 SF EACH 13'6\" FROM GRADE. Permit Finaled. 2365 E CENTURY BLVD","address":"10050 South Laurel Street, CA, Los Angeles, 90002, US","ct":"2421.00","ev":"N","apc":"South Los Angeles","cpa":"Southeast Los Angeles","zone":"CM(UV)","solar":"N","pin_nbr":"093A217   270","use_code":"19","geolocation":"POINT (-118.2305 33.94668)","status_date":"07/06/2020","permit_group":"Building","refresh_time":"06/10/2026","type_lat_lon":"ADDRESS","business_unit":"Plan Check at Counter"},"geometry":{"type":"Point","coordinates":[-118.2305,33.94668]}},{"type":"Feature","properties":{"date":"2019-12-10T00:00:00.000Z","year":2019,"description":"INSTALL (1) SET OF ILLUMINATED CHANNEL LETTERS 15'-0\" X 1'-8\" AT 13'11-5/8\" (25sf)","metadescription":"Sign. Onsite. INSTALL (1) SET OF ILLUMINATED CHANNEL LETTERS 15'-0\" X 1'-8\" AT 13'11-5/8\" (25sf). Permit Expired. 9851 S ALAMEDA ST BLDG S1-STE #C","address":"9707 South Alameda Street, CA, Los Angeles, 90002, US","ct":"2421.00","ev":"N","apc":"South Los Angeles","cpa":"Southeast Los Angeles","zone":"CM(UV)","solar":"N","pin_nbr":"093A217   270","use_code":"19","geolocation":"POINT (-118.22929 33.94801)","status_date":"01/05/2026","permit_group":"Building","refresh_time":"06/10/2026","type_lat_lon":"ADDRESS","business_unit":"Plan Check at Counter"},"geometry":{"type":"Point","coordinates":[-118.22929,33.94801]}},{"type":"Feature","properties":{"date":"2019-07-26T00:00:00.000Z","year":2019,"description":"SOUTH ELEVATION: (2) LED WALL SIGN (18' - 11\" X 78\")(25' - 3\" X 78\"), (2) NON-ILLUMINATED WALL PLAQUES (24\" x 48\") (16 SF)  WEST ELEVATION: \"ROSS\" (32 SF)  48\" X 16' ILLUMINATED  NORTH ELEVATION: \"ROSS\"  (32 SF)  48\" X 16' ILLUMINATED","metadescription":"Sign. Onsite. SOUTH ELEVATION: (2) LED WALL SIGN (18' - 11\" X 78\")(25' - 3\" X 78\"), (2) NON-ILLUMINATED WALL PLAQUES (24\" x 48\") (16 SF)  WEST ELEVATION: \"ROSS\" (32 SF)  48\" X 16' ILLUMINATED  NORTH ELEVATION: \"ROSS\"  (32 SF)  48\" X 16' ILLUMINATED. Issued. 9800 S LAUREL ST","address":"9635 Laurel Street, CA, Los Angeles, 90002, US","ct":"2421.00","ev":"N","apc":"South Los Angeles","cpa":"Southeast Los Angeles","zone":"CM(UV)","solar":"N","pin_nbr":"093A217   270","use_code":"19","geolocation":"POINT (-118.23082 33.94799)","status_date":"07/26/2019","permit_group":"Building","refresh_time":"06/10/2026","type_lat_lon":"ADDRESS","business_unit":"Plan Check at Counter"},"geometry":{"type":"Point","coordinates":[-118.23082,33.94799]}},{"type":"Feature","properties":{"date":"2019-05-16T00:00:00.000Z","year":2019,"description":"PROPOSED 4 ILLUM CHANNEL LETTER WALL SIGNS: 1) FACING 97TH ST - 31'1/2\"X7'6-1/2\". 2) FACING PARKING LOT - 31'1/2\"X7'1-1/2\", 23'3\" X 1'6\", 12'5\" X 1'6\".","metadescription":"Sign. Onsite. PROPOSED 4 ILLUM CHANNEL LETTER WALL SIGNS: 1) FACING 97TH ST - 31'1/2\"X7'6-1/2\". 2) FACING PARKING LOT - 31'1/2\"X7'1-1/2\", 23'3\" X 1'6\", 12'5\" X 1'6\".. Issued. 9850 S LAUREL ST","address":"9635 Laurel Street, CA, Los Angeles, 90002, US","ct":"2421.00","ev":"N","apc":"South Los Angeles","cpa":"Southeast Los Angeles","zone":"CM(UV)","solar":"N","pin_nbr":"093A217   270","use_code":"19","geolocation":"POINT (-118.23082 33.94793)","status_date":"05/16/2019","permit_group":"Building","refresh_time":"06/10/2026","type_lat_lon":"ADDRESS","business_unit":"Plan Check at Counter"},"geometry":{"type":"Point","coordinates":[-118.23082,33.94793]}},{"type":"Feature","properties":{"date":"2019-05-09T00:00:00.000Z","year":2019,"description":"Install (3) illuminated channel letter wall signs;  (3)  17'-3\" x 6'-0\" SIGN, \"blink FITNESS\" (103.75 sf, 17.5' MAX ABOVE GRADE).","metadescription":"Sign. Onsite. Install (3) illuminated channel letter wall signs;  (3)  17'-3\" x 6'-0\" SIGN, \"blink FITNESS\" (103.75 sf, 17.5' MAX ABOVE GRADE).. Permit Finaled. 2450 E CENTURY BLVD","address":"9911 South Alameda Street, CA, Los Angeles, 90002, US","ct":"2421.00","ev":"N","apc":"South Los Angeles","cpa":"Southeast Los Angeles","zone":"CM(UV)","solar":"N","pin_nbr":"091-5A217 110","use_code":"19","geolocation":"POINT (-118.22941 33.94627)","status_date":"01/09/2020","permit_group":"Building","refresh_time":"06/10/2026","type_lat_lon":"ADDRESS","business_unit":"Plan Check at Counter"},"geometry":{"type":"Point","coordinates":[-118.22941,33.94627]}},{"type":"Feature","properties":{"date":"2019-04-24T00:00:00.000Z","year":2019,"description":"PROPOSED INTERNALLY ILLUMINATED CHANNEL LETTER WALL SIGN LOGO AND TEXT TO READ \" BRIGHT NOW! DENTAL\"; 2'-1/2\" x 31'-6\"; 58.53 SQFT, 13'-1/2\" ABOVE GRADE","metadescription":"Sign. Onsite. PROPOSED INTERNALLY ILLUMINATED CHANNEL LETTER WALL SIGN LOGO AND TEXT TO READ \" BRIGHT NOW! DENTAL\"; 2'-1/2\" x 31'-6\"; 58.53 SQFT, 13'-1/2\" ABOVE GRADE. Permit Finaled. 9851 S ALAMEDA ST","address":"9707 South Alameda Street, CA, Los Angeles, 90002, US","ct":"2421.00","ev":"N","apc":"South Los Angeles","cpa":"Southeast Los Angeles","zone":"CM(UV)","solar":"N","pin_nbr":"093A217   270","use_code":"19","geolocation":"POINT (-118.22929 33.94801)","status_date":"01/09/2020","permit_group":"Building","refresh_time":"06/10/2026","type_lat_lon":"ADDRESS","business_unit":"Plan Check at Counter"},"geometry":{"type":"Point","coordinates":[-118.22929,33.94801]}},{"type":"Feature","properties":{"date":"2019-03-08T00:00:00.000Z","year":2019,"description":"ONE DOUBLE FACE POLE SIGN INTERNALLY ILLUMINATED 30' X 18'  540 SQ FT PER CASE NO.  DIR-2018-3140-SPP (SIGN TYPE \"G\" )4 OF 5","metadescription":"Sign. Onsite. ONE DOUBLE FACE POLE SIGN INTERNALLY ILLUMINATED 30' X 18'  540 SQ FT PER CASE NO.  DIR-2018-3140-SPP (SIGN TYPE \"G\" )4 OF 5. Permit Finaled. 2365 E CENTURY BLVD","address":"10050 South Laurel Street, CA, Los Angeles, 90002, US","ct":"2421.00","ev":"N","apc":"South Los Angeles","cpa":"Southeast Los Angeles","zone":"CM(UV)","solar":"N","pin_nbr":"093A217   270","use_code":"19","geolocation":"POINT (-118.2305 33.94668)","status_date":"04/27/2020","permit_group":"Building","refresh_time":"06/10/2026","type_lat_lon":"ADDRESS","business_unit":"Regular Plan Check"},"geometry":{"type":"Point","coordinates":[-118.2305,33.94668]}},{"type":"Feature","properties":{"date":"2019-03-08T00:00:00.000Z","year":2019,"description":"ONE INTERNALLY ILLUMINATED DOUBLE FACE MONUMNET SIGN (MS2). 2 OF 5","metadescription":"Sign. Onsite. ONE INTERNALLY ILLUMINATED DOUBLE FACE MONUMNET SIGN (MS2). 2 OF 5. Permit Finaled. 2365 E CENTURY BLVD","address":"10050 South Laurel Street, CA, Los Angeles, 90002, US","ct":"2421.00","ev":"N","apc":"South Los Angeles","cpa":"Southeast Los Angeles","zone":"CM(UV)","solar":"N","pin_nbr":"093A217   270","use_code":"19","geolocation":"POINT (-118.2305 33.94668)","status_date":"04/27/2020","permit_group":"Building","refresh_time":"06/10/2026","type_lat_lon":"ADDRESS","business_unit":"Regular Plan Check"},"geometry":{"type":"Point","coordinates":[-118.2305,33.94668]}},{"type":"Feature","properties":{"date":"2019-03-08T00:00:00.000Z","year":2019,"description":"ONE INTERNALLY ILLUMINATED DOUBLE FACE MONUMNET SIGN (MS3).3 OF 5","metadescription":"Sign. Onsite. ONE INTERNALLY ILLUMINATED DOUBLE FACE MONUMNET SIGN (MS3).3 OF 5. Permit Finaled. 2365 E CENTURY BLVD","address":"10050 South Laurel Street, CA, Los Angeles, 90002, US","ct":"2421.00","ev":"N","apc":"South Los Angeles","cpa":"Southeast Los Angeles","zone":"CM(UV)","solar":"N","pin_nbr":"093A217   270","use_code":"19","geolocation":"POINT (-118.2305 33.94668)","status_date":"04/27/2020","permit_group":"Building","refresh_time":"06/10/2026","type_lat_lon":"ADDRESS","business_unit":"Regular Plan Check"},"geometry":{"type":"Point","coordinates":[-118.2305,33.94668]}},{"type":"Feature","properties":{"date":"2019-03-08T00:00:00.000Z","year":2019,"description":"ONE INTERNALLY ILLUMINATED DOUBLE FACE MONUMENT SIGN (MS 4).5 OF 5","metadescription":"Sign. Onsite. ONE INTERNALLY ILLUMINATED DOUBLE FACE MONUMENT SIGN (MS 4).5 OF 5. Permit Finaled. 2365 E CENTURY BLVD","address":"10050 South Laurel Street, CA, Los Angeles, 90002, US","ct":"2421.00","ev":"N","apc":"South Los Angeles","cpa":"Southeast Los Angeles","zone":"CM(UV)","solar":"N","pin_nbr":"093A217   270","use_code":"19","geolocation":"POINT (-118.2305 33.94668)","status_date":"04/27/2020","permit_group":"Building","refresh_time":"06/10/2026","type_lat_lon":"ADDRESS","business_unit":"Regular Plan Check"},"geometry":{"type":"Point","coordinates":[-118.2305,33.94668]}},{"type":"Feature","properties":{"date":"2019-03-08T00:00:00.000Z","year":2019,"description":"ONE INTERNALLY ILLUMINATED DOUBLE FACE MONUMNET SIGN (MS1).  1 OF 5","metadescription":"Sign. Onsite. ONE INTERNALLY ILLUMINATED DOUBLE FACE MONUMNET SIGN (MS1).  1 OF 5. Permit Finaled. 2365 E CENTURY BLVD","address":"10050 South Laurel Street, CA, Los Angeles, 90002, US","ct":"2421.00","ev":"N","apc":"South Los Angeles","cpa":"Southeast Los Angeles","zone":"CM(UV)","solar":"N","pin_nbr":"093A217   270","use_code":"19","geolocation":"POINT (-118.2305 33.94668)","status_date":"04/27/2020","permit_group":"Building","refresh_time":"06/10/2026","type_lat_lon":"ADDRESS","business_unit":"Regular Plan Check"},"geometry":{"type":"Point","coordinates":[-118.2305,33.94668]}}]}
