{"type":"FeatureCollection","features":[{"type":"Feature","properties":{"date":"2018-11-28T00:00:00.000Z","year":2018,"description":"CONVERT THE (E) CARPORT INTO A (N) ACCESSORY DWELLING UNIT PER AB 494 AND SB 229 FOR ACCESSORY DWELLING UNITS.","metadescription":"Bldg-Alter/Repair. 1 or 2 Family Dwelling. CONVERT THE (E) CARPORT INTO A (N) ACCESSORY DWELLING UNIT PER AB 494 AND SB 229 FOR ACCESSORY DWELLING UNITS.. CofO Issued. 4461 N SUNNYCREST DR","address":"4461 N SUNNYCREST DR","ct":"1861.00","ev":"N","hl":"YES","apc":"East Los Angeles","cpa":"Northeast Los Angeles","zone":"R1-1-CDO","solar":"N","pin_nbr":"159A215    72","use_code":"1","adu_changed":"1","geolocation":"POINT (-118.23591 34.13123)","status_date":"10/12/2019","construction":"Type V-B Construction","permit_group":"Building","refresh_time":"06/10/2026","type_lat_lon":"ADDRESS","business_unit":"Expanded Counter Plan Check","square_footage":"345"},"geometry":{"type":"Point","coordinates":[-118.23591,34.13123]}}]}
