{"type":"FeatureCollection","features":[{"type":"Feature","properties":{"date":"2025-06-24T00:00:00.000Z","year":2025,"description":"PROPOSED MECHANICAL PAD. 2 OF 2.","metadescription":"Nonbldg-New. Commercial. PROPOSED MECHANICAL PAD. 2 OF 2.. Quality Review Completed. 6211 W FOOTHILL BLVD","address":"6205 Foothill Boulevard, CA, La Crescenta, 91214, US","ct":"1013.00","ev":"N","apc":"North Valley","zone":"OS-1XL PER CITY PLANNING","solar":"N","pin_nbr":"198B205   205","status_date":"07/01/2025","permit_group":"Building","refresh_time":"06/10/2026","type_lat_lon":"PIN","business_unit":"Regular Plan Check"},"geometry":{"type":"Point","coordinates":[-118.26627357,34.24103518]}},{"type":"Feature","properties":{"date":"2024-12-30T00:00:00.000Z","year":2024,"description":"Tenant improvements to existing manufacturing building.  New non-bearing partitions, ceilings, curbs, equipment.  New rooftop mechanical units.  No change to use or building area.   Renovated areas total:  9081sfChange occupancy from H3/F1 to H2.","metadescription":"Bldg-Alter/Repair. Commercial. Tenant improvements to existing manufacturing building.  New non-bearing partitions, ceilings, curbs, equipment.  New rooftop mechanical units.  No change to use or building area.   Renovated areas total:  9081sfChange occupancy from H3/F1 to H2.. Issued. 4516 W ELECTRONICS PL b5","address":"4516 West Electronics Place, CA, Los Angeles, 90039, US","ct":"1881.00","ev":"N","apc":"East Los Angeles","cpa":"Northeast Los Angeles","zone":"M3-1-RIO","solar":"N","pin_nbr":"162B205     8","use_code":"12","status_date":"12/30/2024","permit_group":"Building","refresh_time":"06/10/2026","type_lat_lon":"ADDRESS","business_unit":"Regular Plan Check"},"geometry":{"type":"Point","coordinates":[-118.2726,34.14462]}},{"type":"Feature","properties":{"date":"2024-04-10T00:00:00.000Z","year":2024,"description":"REMOVE (E) ROOF MOUNTED GRAVITY VENT AND REPLACE WITH ROOF MOUNTED HVAC UNIT. STRUCTURAL ALTERATION TO INSTALL NEW EXHAUSTS. WORK PER ENGINEERING.","metadescription":"Bldg-Alter/Repair. Commercial. REMOVE (E) ROOF MOUNTED GRAVITY VENT AND REPLACE WITH ROOF MOUNTED HVAC UNIT. STRUCTURAL ALTERATION TO INSTALL NEW EXHAUSTS. WORK PER ENGINEERING.. Issued. 4580 W ELECTRONICS PL","address":"4580 Electronics Place, CA, Los Angeles, 90039, US","ct":"1881.00","ev":"N","apc":"East Los Angeles","cpa":"Northeast Los Angeles","zone":"M3-1-RIO","solar":"N","pin_nbr":"162B201    18","use_code":"22","status_date":"04/10/2024","permit_group":"Building","refresh_time":"06/10/2026","type_lat_lon":"ADDRESS","business_unit":"Expanded Counter Plan Check"},"geometry":{"type":"Point","coordinates":[-118.27496,34.14436]}},{"type":"Feature","properties":{"date":"2023-09-06T00:00:00.000Z","year":2023,"description":"ePlanSupplemental to 22016-10000-28065: increase in wall cavity to allow space for the carriers revise floor plan. new roof top mechanical equipment unit added to existing concrete curb base on the roof.","metadescription":"Bldg-Alter/Repair. Commercial. ePlanSupplemental to 22016-10000-28065: increase in wall cavity to allow space for the carriers revise floor plan. new roof top mechanical equipment unit added to existing concrete curb base on the roof.. Permit Finaled. 4560 W SPERRY ST","address":"4560 West Sperry Street, CA, Los Angeles, 90039, US","ct":"1881.00","ev":"N","apc":"East Los Angeles","cpa":"Northeast Los Angeles","zone":"M3-1-RIO","solar":"N","pin_nbr":"165B201   181","use_code":"13","status_date":"03/10/2026","permit_group":"Building","refresh_time":"06/10/2026","type_lat_lon":"ADDRESS","business_unit":"Expanded Counter Plan Check"},"geometry":{"type":"Point","coordinates":[-118.27505,34.14823]}},{"type":"Feature","properties":{"date":"2022-11-23T00:00:00.000Z","year":2022,"description":"INTERIOR REMODEL TO THE (E) KITCHEN AND TWO BATHROOMS. INCLUDE ELECTRICAL, PLUMBING AND MECHANICAL. REPLACE THE (E) FAMILY ROOM DOOR.","metadescription":"Bldg-Alter/Repair. 1 or 2 Family Dwelling. INTERIOR REMODEL TO THE (E) KITCHEN AND TWO BATHROOMS. INCLUDE ELECTRICAL, PLUMBING AND MECHANICAL. REPLACE THE (E) FAMILY ROOM DOOR.. Issued. 6240 W HAMILTON LANE","address":"6240 Hamilton Lane, CA, La Crescenta, 91214, US","ct":"1013.00","ev":"N","apc":"North Valley","cpa":"Sunland-E LaTuna Cyn-Lakevw Ter-Shadow Hls-Tujunga","zone":"RS-1","solar":"N","pin_nbr":"198B205   550","use_code":"1","status_date":"11/23/2022","permit_group":"Building","refresh_time":"06/10/2026","type_lat_lon":"ADDRESS","business_unit":"Plan Check at Counter"},"geometry":{"type":"Point","coordinates":[-118.26745,34.23526]}},{"type":"Feature","properties":{"date":"2021-12-23T00:00:00.000Z","year":2021,"description":"CONSTRUCT INTERIOR TENANT IMPROVEMENTS FOR NEW SECOND LEVEL FOR PHARMACEUTICAL PROCESSING IN A PORTION OF EXISTING WAREHOUSE. PROVIDE NEW INTERIOR STRUCTURAL FRAMING, NON-BEARING PARTITIONS, SUSPENDED CEILINGS, FINISHES, STAIRS AND EQUIPMENT LIFT. PROVIDE NEW MECHANICAL ROOF PLATFORM.","metadescription":"Bldg-Addition. Commercial. CONSTRUCT INTERIOR TENANT IMPROVEMENTS FOR NEW SECOND LEVEL FOR PHARMACEUTICAL PROCESSING IN A PORTION OF EXISTING WAREHOUSE. PROVIDE NEW INTERIOR STRUCTURAL FRAMING, NON-BEARING PARTITIONS, SUSPENDED CEILINGS, FINISHES, STAIRS AND EQUIPMENT LIFT. PROVIDE NEW MECHANICAL ROOF PLATFORM.. CofO Issued. 5067 N SAN FERNANDO ROAD WEST","address":"5067 North San Fernando Road, CA, Los Angeles, 90039, US","ct":"1881.00","ev":"N","apc":"East Los Angeles","cpa":"Northeast Los Angeles","zone":"M3-1-RIO","solar":"N","pin_nbr":"162B205    19","use_code":"13","status_date":"04/10/2023","construction":"Type III-B Construction","permit_group":"Building","refresh_time":"06/10/2026","type_lat_lon":"ADDRESS","business_unit":"Regular Plan Check","square_footage":"11376"},"geometry":{"type":"Point","coordinates":[-118.27105,34.14396]}},{"type":"Feature","properties":{"date":"2021-11-18T00:00:00.000Z","year":2021,"description":"eplan  Storage Racks & Fixtures THE INTERIOR REMODEL TO THE SALES FLOOR INCLUDES NEW AND RELOCATED SALES FLOOR DISPLAY FIXTURES (max. 12 feet in height ) AND CASEWORK ALONG WITH THE INSTALL OF A NEW VENDOR PAD AREA THAT WILL REPLACE AN EXISTING VENDOR PAD. THERE IS NO DEMOLITION OF EXISTING STRUCTURAL ELEMENTS, EXTERIOR WORK, PLUMBING OR MECHANICAL IN THIS REMODEL SCOPE.","metadescription":"Bldg-Alter/Repair. Commercial. eplan  Storage Racks & Fixtures THE INTERIOR REMODEL TO THE SALES FLOOR INCLUDES NEW AND RELOCATED SALES FLOOR DISPLAY FIXTURES (max. 12 feet in height ) AND CASEWORK ALONG WITH THE INSTALL OF A NEW VENDOR PAD AREA THAT WILL REPLACE AN EXISTING VENDOR PAD. THERE IS NO DEMOLITION OF EXISTING STRUCTURAL ELEMENTS, EXTERIOR WORK, PLUMBING OR MECHANICAL IN THIS REMODEL SCOPE.. Permit Finaled. 2909 N LOS FELIZ BLVD","address":"2909 North Los Feliz Boulevard, CA, Los Angeles, 90039, US","ct":"1881.00","ev":"N","apc":"East Los Angeles","cpa":"Northeast Los Angeles","zone":"[Q]C4-1XL-RIO-POD, [T][Q]M1-1VL-RIO","solar":"N","pin_nbr":"157-5A207 377","use_code":"16","status_date":"06/15/2022","permit_group":"Building","refresh_time":"06/10/2026","type_lat_lon":"ADDRESS","business_unit":"Regular Plan Check"},"geometry":{"type":"Point","coordinates":[-118.26489,34.12761]}},{"type":"Feature","properties":{"date":"2019-12-05T00:00:00.000Z","year":2019,"description":"(2)Window  change-out (same size & type) for residential buildings.  Dual glazing, labeled and certified by National Fenestration Rating Council (NFRC), is required for doors and windows replaced in all residential buildings, three stories or less, per Section 150.2(b)1B of Title 24.(2)bathroom remodel for residential buildings (no structural changes).","metadescription":"Bldg-Alter/Repair. 1 or 2 Family Dwelling. (2)Window  change-out (same size & type) for residential buildings.  Dual glazing, labeled and certified by National Fenestration Rating Council (NFRC), is required for doors and windows replaced in all residential buildings, three stories or less, per Section 150.2(b)1B of Title 24.(2)bathroom remodel for residential buildings (no structural changes).. Permit Finaled. 6257 W HAMILTON LANE","address":"6257 W HAMILTON LANE","ct":"1013.00","ev":"N","apc":"North Valley","cpa":"Sunland-E LaTuna Cyn-Lakevw Ter-Shadow Hls-Tujunga","zone":"RS-1","solar":"N","pin_nbr":"198B205   536","use_code":"1","geolocation":"POINT (-118.26775 34.23568)","status_date":"03/17/2020","permit_group":"Building","refresh_time":"06/10/2026","type_lat_lon":"ADDRESS","business_unit":"Express Permit"},"geometry":{"type":"Point","coordinates":[-118.26775,34.23568]}},{"type":"Feature","properties":{"date":"2019-10-31T00:00:00.000Z","year":2019,"description":"(12)Window and door change-out (same size & type) for residential buildings.  Dual glazing, labeled and certified by National Fenestration Rating Council (NFRC), is required for doors and windows replaced in all residential buildings, three stories or less, per Section 150.2(b)1B of Title 24Re-stucco for single family dwellings and duplexes only","metadescription":"Bldg-Alter/Repair. 1 or 2 Family Dwelling. (12)Window and door change-out (same size & type) for residential buildings.  Dual glazing, labeled and certified by National Fenestration Rating Council (NFRC), is required for doors and windows replaced in all residential buildings, three stories or less, per Section 150.2(b)1B of Title 24Re-stucco for single family dwellings and duplexes only. Permit Expired. 3706 W SENECA AVE","address":"3706 W SENECA AVE","ct":"1883.00","ev":"N","apc":"East Los Angeles","cpa":"Northeast Los Angeles","zone":"R1-1-RIO","solar":"N","pin_nbr":"156B209   184","use_code":"1","geolocation":"POINT (-118.25917 34.12181)","status_date":"03/10/2025","permit_group":"Building","refresh_time":"06/10/2026","type_lat_lon":"ADDRESS","business_unit":"Express Permit"},"geometry":{"type":"Point","coordinates":[-118.25917,34.12181]}},{"type":"Feature","properties":{"date":"2019-06-26T00:00:00.000Z","year":2019,"description":"Window change-out 6 (same size & type) for residential buildings.  Dual glazing, labeled and certified by National Fenestration Rating Council (NFRC), is required for doors and windows replaced in all residential buildings, three stories or less, per Section 152(b) of Title 24.       \"COMPLY WITH DEPARTMENT ORDER effective date06/13/2019. PERMIT WILL EXPIRE 30 DAYS FROM ISSUANCE DATE\"","metadescription":"Bldg-Alter/Repair. 1 or 2 Family Dwelling. Window change-out 6 (same size & type) for residential buildings.  Dual glazing, labeled and certified by National Fenestration Rating Council (NFRC), is required for doors and windows replaced in all residential buildings, three stories or less, per Section 152(b) of Title 24.       \"COMPLY WITH DEPARTMENT ORDER effective date06/13/2019. PERMIT WILL EXPIRE 30 DAYS FROM ISSUANCE DATE\". Permit Finaled. 4422 N SUNNYCREST DR","address":"4422 N SUNNYCREST DR","ct":"1861.00","ev":"N","hl":"YES","apc":"East Los Angeles","cpa":"Northeast Los Angeles","zone":"R1-1-CDO","solar":"N","pin_nbr":"159A215   106","use_code":"1","geolocation":"POINT (-118.23555 34.13033)","status_date":"12/20/2019","permit_group":"Building","refresh_time":"06/10/2026","type_lat_lon":"ADDRESS","business_unit":"Express Permit"},"geometry":{"type":"Point","coordinates":[-118.23555,34.13033]}},{"type":"Feature","properties":{"date":"2019-05-29T00:00:00.000Z","year":2019,"description":"HVAC UPGRADES, REPLACE 13(E) ROOFTOP AC UNITS, EXHAUST FANS . ADD 2 NEW ROOF TOP UNITS NEW ROOF SUPPORT FRAMING AND ADD ROOFTOP EQUIPMENT PADS","metadescription":"Bldg-Alter/Repair. Commercial. HVAC UPGRADES, REPLACE 13(E) ROOFTOP AC UNITS, EXHAUST FANS . ADD 2 NEW ROOF TOP UNITS NEW ROOF SUPPORT FRAMING AND ADD ROOFTOP EQUIPMENT PADS. Permit Finaled. 4580 W ELECTRONICS PL","address":"4580 Electronics Place, CA, Los Angeles, 90039, US","ct":"1881.00","ev":"N","apc":"East Los Angeles","cpa":"Northeast Los Angeles","zone":"M3-1-RIO","solar":"N","pin_nbr":"162B201    16","use_code":"13","geolocation":"POINT (-118.27496 34.14436)","status_date":"07/28/2020","permit_group":"Building","refresh_time":"06/10/2026","type_lat_lon":"ADDRESS","business_unit":"Appointment Plan Check"},"geometry":{"type":"Point","coordinates":[-118.27496,34.14436]}},{"type":"Feature","properties":{"date":"2019-03-20T00:00:00.000Z","year":2019,"description":"Door (1 ) change-out (same size & type) for residential buildings.  Dual glazing, labeled and certified by National Fenestration Rating Council (NFRC), is required for doors and windows replaced in all residential buildings, three stories or less, per Section 150.2(b)1B of Title 24.","metadescription":"Bldg-Alter/Repair. 1 or 2 Family Dwelling. Door (1 ) change-out (same size & type) for residential buildings.  Dual glazing, labeled and certified by National Fenestration Rating Council (NFRC), is required for doors and windows replaced in all residential buildings, three stories or less, per Section 150.2(b)1B of Title 24.. Permit Finaled. 3916 W SENECA AVE","address":"3916 W SENECA AVE","ct":"1883.00","ev":"N","apc":"East Los Angeles","cpa":"Northeast Los Angeles","zone":"R1-1-RIO","solar":"N","pin_nbr":"157-5A207 211","use_code":"1","geolocation":"POINT (-118.26177 34.12489)","status_date":"05/24/2019","permit_group":"Building","refresh_time":"06/10/2026","type_lat_lon":"ADDRESS","business_unit":"Express Permit"},"geometry":{"type":"Point","coordinates":[-118.26177,34.12489]}},{"type":"Feature","properties":{"date":"2019-01-08T00:00:00.000Z","year":2019,"description":"Kitchen/bathroom (1) remodel for residential buildings (no structural changes).  Window (10) change-out (same size & type) for residential buildings.  Dual glazing, labeled and certified by National Fenestration Rating Council (NFRC), is required for doors and windows replaced in all residential buildings, three stories or less, per Section 150.2(b)1B of Title 24.","metadescription":"Bldg-Alter/Repair. 1 or 2 Family Dwelling. Kitchen/bathroom (1) remodel for residential buildings (no structural changes).  Window (10) change-out (same size & type) for residential buildings.  Dual glazing, labeled and certified by National Fenestration Rating Council (NFRC), is required for doors and windows replaced in all residential buildings, three stories or less, per Section 150.2(b)1B of Title 24.. Permit Finaled. 6200 W ANDERSON AVE","address":"6200 W ANDERSON AVE","ct":"1013.00","ev":"N","apc":"North Valley","cpa":"Sunland-E LaTuna Cyn-Lakevw Ter-Shadow Hls-Tujunga","zone":"A2-1","solar":"N","pin_nbr":"195B205    52","use_code":"1","geolocation":"POINT (-118.26683 34.23344)","status_date":"09/25/2019","permit_group":"Building","refresh_time":"06/10/2026","type_lat_lon":"ADDRESS","business_unit":"Express Permit"},"geometry":{"type":"Point","coordinates":[-118.26683,34.23344]}},{"type":"Feature","properties":{"date":"2018-02-28T00:00:00.000Z","year":2018,"description":"SUPPLEMENTAL PERMIT TO 18016-10000-00534 TO CAPTURE COMBO PERMITS (ELECTRICAL, PLUMBING AND HVAC); DEPARTMENT ERROR. NO FEE","metadescription":"Bldg-Alter/Repair. 1 or 2 Family Dwelling. SUPPLEMENTAL PERMIT TO 18016-10000-00534 TO CAPTURE COMBO PERMITS (ELECTRICAL, PLUMBING AND HVAC); DEPARTMENT ERROR. NO FEE. Permit Finaled. 3843 1/2-1/4 W REVERE AVE","address":"3843 Revere Avenue, CA, Los Angeles, 90039, US","ct":"1883.00","ev":"N","apc":"East Los Angeles","cpa":"Northeast Los Angeles","zone":"R1-1-RIO","solar":"N","pin_nbr":"156A207    60","use_code":"2","geolocation":"POINT (-118.26149 34.12342)","status_date":"11/08/2019","permit_group":"Building","refresh_time":"06/10/2026","type_lat_lon":"ADDRESS","business_unit":"Plan Check at Counter"},"geometry":{"type":"Point","coordinates":[-118.26149,34.12342]}},{"type":"Feature","properties":{"date":"2017-05-11T00:00:00.000Z","year":2017,"description":"Ground floor TI in office/manufacturing building to include new partitons. New mechanical unit in existing roof. Work is approximately 360 SF.  No change in use or occupancy.","metadescription":"Bldg-Alter/Repair. Commercial. Ground floor TI in office/manufacturing building to include new partitons. New mechanical unit in existing roof. Work is approximately 360 SF.  No change in use or occupancy.. Permit Finaled. 4580 W ELECTRONICS PL","address":"4580 Electronics Place, CA, Los Angeles, 90039, US","ct":"1881.00","ev":"N","apc":"East Los Angeles","cpa":"Northeast Los Angeles","zone":"M3-1-RIO","solar":"N","pin_nbr":"162B201    16","use_code":"13","geolocation":"POINT (-118.27496 34.14436)","status_date":"03/29/2018","permit_group":"Building","refresh_time":"06/10/2026","type_lat_lon":"ADDRESS","business_unit":"Plan Check at Counter"},"geometry":{"type":"Point","coordinates":[-118.27496,34.14436]}},{"type":"Feature","properties":{"date":"2017-03-20T00:00:00.000Z","year":2017,"description":"EXTENSION OF EXISTING CONCRETE PAD (3' X 2.5' IRR. SHAPED, NORTH SIDE) AND ADDITION OF NEW CONCRETE PAD (9' X 5.5', SOUTH SIDE).  CONNECTION DETAIL FOR (2) NEW A/C AIR COMPRESSORS.  NEW 6' HEIGHT CHAIN LINK FENCE FOR MECHANICAL UNIT ENCLOSURE.","metadescription":"Nonbldg-New. Commercial. EXTENSION OF EXISTING CONCRETE PAD (3' X 2.5' IRR. SHAPED, NORTH SIDE) AND ADDITION OF NEW CONCRETE PAD (9' X 5.5', SOUTH SIDE).  CONNECTION DETAIL FOR (2) NEW A/C AIR COMPRESSORS.  NEW 6' HEIGHT CHAIN LINK FENCE FOR MECHANICAL UNIT ENCLOSURE.. Permit Finaled. 4580 W ELECTRONICS PL","address":"4580 Electronics Place, CA, Los Angeles, 90039, US","ct":"1881.00","ev":"N","apc":"East Los Angeles","cpa":"Northeast Los Angeles","zone":"M3-1-RIO","solar":"N","pin_nbr":"162B201    16","use_code":"23","geolocation":"POINT (-118.27496 34.14436)","status_date":"03/29/2018","construction":"Type III-B Construction","permit_group":"Building","refresh_time":"06/10/2026","type_lat_lon":"ADDRESS","business_unit":"Plan Check at Counter"},"geometry":{"type":"Point","coordinates":[-118.27496,34.14436]}},{"type":"Feature","properties":{"date":"2016-10-20T00:00:00.000Z","year":2016,"description":"REMOVE AND REPLACE MECHANICAL EQUIPMENT IN EXISTING MECHANICAL ROOM","metadescription":"Bldg-Alter/Repair. Commercial. REMOVE AND REPLACE MECHANICAL EQUIPMENT IN EXISTING MECHANICAL ROOM. Permit Finaled. 4580 W ELECTRONICS PL","address":"4580 Electronics Place, CA, Los Angeles, 90039, US","ct":"1881.00","ev":"N","apc":"East Los Angeles","cpa":"Northeast Los Angeles","zone":"M3-1-RIO","solar":"N","pin_nbr":"162B201    16","use_code":"13","geolocation":"POINT (-118.27496 34.14436)","status_date":"04/03/2017","permit_group":"Building","refresh_time":"06/10/2026","type_lat_lon":"ADDRESS","business_unit":"Plan Check at Counter"},"geometry":{"type":"Point","coordinates":[-118.27496,34.14436]}},{"type":"Feature","properties":{"date":"2016-06-20T00:00:00.000Z","year":2016,"description":"T. I TO (E) MFG/WHSE/OFFICE;  MECHANICAL PLATFORM ON ROOF TOP.","metadescription":"Bldg-Alter/Repair. Commercial. T. I TO (E) MFG/WHSE/OFFICE;  MECHANICAL PLATFORM ON ROOF TOP.. Permit Finaled. 5433 N SAN FERNANDO ROAD WEST Bldg. \"B\"","address":"5433 North San Fernando Road, CA, Los Angeles, 90039, US","ct":"1881.00","ev":"N","apc":"East Los Angeles","cpa":"Northeast Los Angeles","zone":"M3-1-RIO","solar":"N","height":"20","pin_nbr":"165B201    86","use_code":"12","geolocation":"POINT (-118.2751 34.1511)","status_date":"02/07/2017","construction":"Type III-B Construction","permit_group":"Building","refresh_time":"06/10/2026","type_lat_lon":"ADDRESS","business_unit":"Regular Plan Check","square_footage":"66375"},"geometry":{"type":"Point","coordinates":[-118.2751,34.1511]}},{"type":"Feature","properties":{"date":"2016-05-05T00:00:00.000Z","year":2016,"description":"REMOVE EXISTING DETERIORATED HVAC UNIT ROOFTOP PLATFORM SUPPORT. CONSTRUCTING NEW CODE-COMPLIANT STRUCTURAL PLATFORM AND SUPPORTS FOR ROOFTOP HVAC UNIT.","metadescription":"Bldg-Alter/Repair. Commercial. REMOVE EXISTING DETERIORATED HVAC UNIT ROOFTOP PLATFORM SUPPORT. CONSTRUCTING NEW CODE-COMPLIANT STRUCTURAL PLATFORM AND SUPPORTS FOR ROOFTOP HVAC UNIT.. Permit Finaled. 5121 N SAN FERNANDO ROAD WEST","address":"5121 North San Fernando Road, CA, Los Angeles, 90039, US","ct":"1881.00","ev":"N","apc":"East Los Angeles","cpa":"Northeast Los Angeles","zone":"M3-1-RIO","solar":"N","pin_nbr":"165B205   119","use_code":"13","geolocation":"POINT (-118.27194 34.1457)","status_date":"12/07/2016","permit_group":"Building","refresh_time":"06/10/2026","type_lat_lon":"ADDRESS","business_unit":"Plan Check at Counter"},"geometry":{"type":"Point","coordinates":[-118.27194,34.1457]}},{"type":"Feature","properties":{"date":"2015-04-10T00:00:00.000Z","year":2015,"description":"NEW EQUIPMENT PAD FOR HVAC UNIT AND FLOOR PENETRATION FOR DUCTWORK (WITHIN EXISTING MECHANICAL EQUIPMENT AREA AT 2ND FLOOR)","metadescription":"Bldg-Alter/Repair. Commercial. NEW EQUIPMENT PAD FOR HVAC UNIT AND FLOOR PENETRATION FOR DUCTWORK (WITHIN EXISTING MECHANICAL EQUIPMENT AREA AT 2ND FLOOR). Permit Expired. 5075 N SAN FERNANDO ROAD WEST","address":"5071 North San Fernando Road, CA, Los Angeles, 90039, US","ct":"1881.00","ev":"N","apc":"East Los Angeles","cpa":"Northeast Los Angeles","zone":"M3-1-RIO","solar":"N","pin_nbr":"162B205    12","use_code":"12","geolocation":"POINT (-118.2713 34.14443)","status_date":"05/04/2017","permit_group":"Building","refresh_time":"06/10/2026","type_lat_lon":"ADDRESS","business_unit":"Plan Check at Counter"},"geometry":{"type":"Point","coordinates":[-118.2713,34.14443]}},{"type":"Feature","properties":{"date":"2012-11-28T00:00:00.000Z","year":2012,"description":"Windows (13) and (2) doors change-out (same size & type) for residential buildings.  Dual glazing, labeled and certified by National Fenestration Rating Council (NFRC), is required for doors and windows replaced in all residential buildings, three stories or less, per Section 152(b) of Title 24.","metadescription":"Bldg-Alter/Repair. Apartment. Windows (13) and (2) doors change-out (same size & type) for residential buildings.  Dual glazing, labeled and certified by National Fenestration Rating Council (NFRC), is required for doors and windows replaced in all residential buildings, three stories or less, per Section 152(b) of Title 24.. Permit Finaled. 6255 W HONOLULU AVE UNIT #2","address":"6255 W HONOLULU AVE UNIT #2","ct":"1013.00","ev":"N","apc":"North Valley","cpa":"Sunland-E LaTuna Cyn-Lakevw Ter-Shadow Hls-Tujunga","zone":"QRD3-1","solar":"N","pin_nbr":"195B205    37","use_code":"35","geolocation":"POINT (-118.26825558 34.23357653)","status_date":"01/17/2013","permit_group":"Building","refresh_time":"06/10/2026","type_lat_lon":"PIN","business_unit":"Express Permit"},"geometry":{"type":"Point","coordinates":[-118.26825558,34.23357653]}},{"type":"Feature","properties":{"date":"2012-10-26T00:00:00.000Z","year":2012,"description":"Windows (8) and (6) doors change-out (same size & type) for residential buildings.  Dual glazing, labeled and certified by National Fenestration Rating Council (NFRC), is required for doors and windows replaced in all residential buildings, three stories or less, per Section 152(b) of Title 24.  See application comment...","metadescription":"Bldg-Alter/Repair. 1 or 2 Family Dwelling. Windows (8) and (6) doors change-out (same size & type) for residential buildings.  Dual glazing, labeled and certified by National Fenestration Rating Council (NFRC), is required for doors and windows replaced in all residential buildings, three stories or less, per Section 152(b) of Title 24.  See application comment.... Permit Finaled. 3816 W SENECA AVE","address":"3816 W SENECA AVE","ct":"1883.00","ev":"N","apc":"East Los Angeles","cpa":"Northeast Los Angeles","zone":"R1-1","solar":"N","pin_nbr":"156B209    89","use_code":"1","geolocation":"POINT (-118.26032 34.12311)","status_date":"07/29/2013","permit_group":"Building","refresh_time":"06/10/2026","type_lat_lon":"ADDRESS","business_unit":"Express Permit"},"geometry":{"type":"Point","coordinates":[-118.26032,34.12311]}},{"type":"Feature","properties":{"date":"2012-05-24T00:00:00.000Z","year":2012,"description":"ADD NEW 8' DIAM. ANTENNA DISH BEHIND A MECHANICAL SCREEN AT THE ROOF OF EXISTING SOUTHERN CA GAS COMPANY BUILDING.","metadescription":"Bldg-Alter/Repair. Commercial. ADD NEW 8' DIAM. ANTENNA DISH BEHIND A MECHANICAL SCREEN AT THE ROOF OF EXISTING SOUTHERN CA GAS COMPANY BUILDING.. Permit Finaled. 4560 W SPERRY ST","address":"4560 West Sperry Street, CA, Los Angeles, 90039, US","ct":"1881.00","ev":"N","apc":"East Los Angeles","cpa":"Northeast Los Angeles","zone":"M3-1","solar":"N","pin_nbr":"165B201   181","use_code":"13","geolocation":"POINT (-118.27505 34.14823)","status_date":"10/03/2012","permit_group":"Building","refresh_time":"06/10/2026","type_lat_lon":"ADDRESS","business_unit":"Regular Plan Check"},"geometry":{"type":"Point","coordinates":[-118.27505,34.14823]}},{"type":"Feature","properties":{"date":"2012-05-02T00:00:00.000Z","year":2012,"description":"COMPLETE INTERIOR TENANT IMPROVEMENT AT EXISTING RESTAURANT.  CREATE LOWER CEILING AND SOFFITS WITHIN EXISTING SPACE. REPLACE THE ROOFTOP MECHANICAL EQUIPMENTS***no exterior alterations","metadescription":"Bldg-Alter/Repair. Commercial. COMPLETE INTERIOR TENANT IMPROVEMENT AT EXISTING RESTAURANT.  CREATE LOWER CEILING AND SOFFITS WITHIN EXISTING SPACE. REPLACE THE ROOFTOP MECHANICAL EQUIPMENTS***no exterior alterations. Permit Finaled. 2921 W LOS FELIZ BLVD","address":"2921 Los Feliz Boulevard, CA, Los Angeles, 90039, US","ct":"1881.00","ev":"N","apc":"East Los Angeles","cpa":"Northeast Los Angeles","zone":"[Q]C4-1XL, [T][Q]M1-1VL","solar":"N","pin_nbr":"157-5A207 376","use_code":"17","geolocation":"POINT (-118.26388 34.12622)","status_date":"08/17/2012","permit_group":"Building","refresh_time":"06/10/2026","type_lat_lon":"ADDRESS","business_unit":"Regular Plan Check","square_footage":"0"},"geometry":{"type":"Point","coordinates":[-118.26388,34.12622]}},{"type":"Feature","properties":{"date":"2011-12-16T00:00:00.000Z","year":2011,"description":"ADD EQUIPMENT PADS AND HUNG PLATFORM FOR MECHANICAL EQUIPMENT ON ROOFTOP. REINFORCE (E) STEEL JOISTS AS REQUIRED PER ENGINEERED PLANS.","metadescription":"Bldg-Alter/Repair. Commercial. ADD EQUIPMENT PADS AND HUNG PLATFORM FOR MECHANICAL EQUIPMENT ON ROOFTOP. REINFORCE (E) STEEL JOISTS AS REQUIRED PER ENGINEERED PLANS.. Permit Finaled. 5075 N SAN FERNANDO ROAD WEST","address":"5071 North San Fernando Road, CA, Los Angeles, 90039, US","ct":"1881.00","ev":"N","apc":"East Los Angeles","cpa":"Northeast Los Angeles","zone":"M3-1","solar":"N","pin_nbr":"162B205    12","use_code":"12","geolocation":"POINT (-118.2713 34.14443)","status_date":"03/29/2012","permit_group":"Building","refresh_time":"06/10/2026","type_lat_lon":"ADDRESS","business_unit":"Regular Plan Check"},"geometry":{"type":"Point","coordinates":[-118.2713,34.14443]}},{"type":"Feature","properties":{"date":"2011-10-18T00:00:00.000Z","year":2011,"description":"INTERIOR REMODEL TO CONVERT (E) BATHROOM TO (2) NEW FULL BATHS AND CHANGE OUT (3) EXISTING FRONT WINDOWS (SAME SIZE/LOCATION).  ALL WORK IS INTERIOR, NON-STRUCTURAL, & PER LA CITY STANDARDS.","metadescription":"Bldg-Alter/Repair. 1 or 2 Family Dwelling. INTERIOR REMODEL TO CONVERT (E) BATHROOM TO (2) NEW FULL BATHS AND CHANGE OUT (3) EXISTING FRONT WINDOWS (SAME SIZE/LOCATION).  ALL WORK IS INTERIOR, NON-STRUCTURAL, & PER LA CITY STANDARDS.. Permit Finaled. 3924 W SENECA AVE","address":"3924 W SENECA AVE","ct":"1883.00","ev":"N","apc":"East Los Angeles","cpa":"Northeast Los Angeles","zone":"R1-1","solar":"N","pin_nbr":"157-5A207 188","use_code":"1","geolocation":"POINT (-118.26192 34.12507)","status_date":"03/09/2012","permit_group":"Building","refresh_time":"06/10/2026","type_lat_lon":"ADDRESS","business_unit":"Plan Check at Counter"},"geometry":{"type":"Point","coordinates":[-118.26192,34.12507]}},{"type":"Feature","properties":{"date":"2011-09-12T00:00:00.000Z","year":2011,"description":"Window change-out (same size & type) for residential buildings.  Dual glazing, labeled and certified by National Fenestration Rating Council (NFRC), is required for windows replaced in all residential buildings, three stories or less, per Section 152(b) of Title 24. New drywall. (no new walls added)-STUDS AS NEEDED.","metadescription":"Bldg-Alter/Repair. 1 or 2 Family Dwelling. Window change-out (same size & type) for residential buildings.  Dual glazing, labeled and certified by National Fenestration Rating Council (NFRC), is required for windows replaced in all residential buildings, three stories or less, per Section 152(b) of Title 24. New drywall. (no new walls added)-STUDS AS NEEDED.. Permit Finaled. 3953 W SENECA AVE","address":"3953 W SENECA AVE","ct":"1883.00","ev":"N","apc":"East Los Angeles","cpa":"Northeast Los Angeles","zone":"R1-1","solar":"N","pin_nbr":"157-5A207  89","use_code":"1","geolocation":"POINT (-118.26219 34.12585)","status_date":"01/05/2012","permit_group":"Building","refresh_time":"06/10/2026","type_lat_lon":"ADDRESS","business_unit":"Express Permit"},"geometry":{"type":"Point","coordinates":[-118.26219,34.12585]}},{"type":"Feature","properties":{"date":"2011-08-10T00:00:00.000Z","year":2011,"description":"REPLACEMENT OF 3 HVAC UNITS.  1 UNIT AC-1 & AC-2 WELDING NEW STEEL PLATES.  3 UNIT AC-12 NEW WOOD PLATFORM.","metadescription":"Bldg-Alter/Repair. Commercial. REPLACEMENT OF 3 HVAC UNITS.  1 UNIT AC-1 & AC-2 WELDING NEW STEEL PLATES.  3 UNIT AC-12 NEW WOOD PLATFORM.. Permit Finaled. 4580 W ELECTRONICS PL","address":"4580 Electronics Place, CA, Los Angeles, 90039, US","ct":"1881.00","ev":"N","apc":"East Los Angeles","cpa":"Northeast Los Angeles","zone":"M3-1","solar":"N","pin_nbr":"162B201    16","use_code":"13","geolocation":"POINT (-118.27496 34.14436)","status_date":"10/31/2011","permit_group":"Building","refresh_time":"06/10/2026","type_lat_lon":"ADDRESS","business_unit":"Plan Check at Counter"},"geometry":{"type":"Point","coordinates":[-118.27496,34.14436]}},{"type":"Feature","properties":{"date":"2011-07-14T00:00:00.000Z","year":2011,"description":"REMODEL EXISTING ONE STORY SINGLE FAMILY DWELLING. REDRYWALL ENTIRE HOUSE, CHANGE OUT ALL WINDOWS(SAME SIZE AND TYPE), KITCHEN REMODEL, REROOF ENTIRE HOUSE AND REPLACE 60SF OF ROOF SHEATHING, ADD NEW WALL HEATER.","metadescription":"Bldg-Alter/Repair. 1 or 2 Family Dwelling. REMODEL EXISTING ONE STORY SINGLE FAMILY DWELLING. REDRYWALL ENTIRE HOUSE, CHANGE OUT ALL WINDOWS(SAME SIZE AND TYPE), KITCHEN REMODEL, REROOF ENTIRE HOUSE AND REPLACE 60SF OF ROOF SHEATHING, ADD NEW WALL HEATER.. Permit Finaled. 3923 W REVERE AVE","address":"3923 W REVERE AVE","ct":"1883.00","ev":"N","apc":"East Los Angeles","cpa":"Northeast Los Angeles","zone":"R1-1","solar":"N","pin_nbr":"157-5A207 213","use_code":"1","geolocation":"POINT (-118.26256 34.12471)","status_date":"03/09/2012","permit_group":"Building","refresh_time":"06/10/2026","type_lat_lon":"ADDRESS","business_unit":"Plan Check at Counter"},"geometry":{"type":"Point","coordinates":[-118.26256,34.12471]}},{"type":"Feature","properties":{"date":"2011-01-31T00:00:00.000Z","year":2011,"description":"INSTALL (N) STEEL SUPPORTS ON (E) STEEL FRAME @ ROOF TO SUPPORT (N) MECHANICAL EQUIPMENT.","metadescription":"Bldg-Alter/Repair. Commercial. INSTALL (N) STEEL SUPPORTS ON (E) STEEL FRAME @ ROOF TO SUPPORT (N) MECHANICAL EQUIPMENT.. Permit Finaled. 4580 W ELECTRONICS PL","address":"4580 Electronics Place, CA, Los Angeles, 90039, US","ct":"1881.00","ev":"N","apc":"East Los Angeles","cpa":"Northeast Los Angeles","zone":"M3-1","solar":"N","pin_nbr":"162B201    16","use_code":"13","geolocation":"POINT (-118.27496 34.14436)","status_date":"10/31/2011","permit_group":"Building","refresh_time":"06/10/2026","type_lat_lon":"ADDRESS","business_unit":"Plan Check at Counter"},"geometry":{"type":"Point","coordinates":[-118.27496,34.14436]}},{"type":"Feature","properties":{"date":"2011-01-03T00:00:00.000Z","year":2011,"description":"Change-out (5) windows (same size & type) for residential buildings.  Dual glazing, labeled and certified by National Fenestration Rating Council (NFRC), is required for doors and windows replaced in all residential buildings, three stories or less, per Section 152(b) of Title 24.","metadescription":"Bldg-Alter/Repair. 1 or 2 Family Dwelling. Change-out (5) windows (same size & type) for residential buildings.  Dual glazing, labeled and certified by National Fenestration Rating Council (NFRC), is required for doors and windows replaced in all residential buildings, three stories or less, per Section 152(b) of Title 24.. Permit Finaled. 3953 W SENECA AVE","address":"3953 W SENECA AVE","ct":"1883.00","ev":"N","apc":"East Los Angeles","cpa":"Northeast Los Angeles","zone":"R1-1","solar":"N","pin_nbr":"157-5A207  89","use_code":"1","geolocation":"POINT (-118.26219 34.12585)","status_date":"01/14/2011","permit_group":"Building","refresh_time":"06/10/2026","type_lat_lon":"ADDRESS","business_unit":"Express Permit"},"geometry":{"type":"Point","coordinates":[-118.26219,34.12585]}},{"type":"Feature","properties":{"date":"2010-10-13T00:00:00.000Z","year":2010,"description":"EXPAND EXISTING CONCRETE PAD ON GRADE BY ADDING IRREGULAR 10' 4\" X 5' 10\"  PORTION, (2) NEW IRREGULAR CONCRETE FOOTINGS, (1) NEW 3' X 3' CONCRETE PAD ON GRADE, NEW CHAIN LINK FENCE ENCLOSURE FOR INSTALLATION OF MECHANICAL EQUIPMENT","metadescription":"Nonbldg-New. Commercial. EXPAND EXISTING CONCRETE PAD ON GRADE BY ADDING IRREGULAR 10' 4\" X 5' 10\"  PORTION, (2) NEW IRREGULAR CONCRETE FOOTINGS, (1) NEW 3' X 3' CONCRETE PAD ON GRADE, NEW CHAIN LINK FENCE ENCLOSURE FOR INSTALLATION OF MECHANICAL EQUIPMENT. Permit Finaled. 4580 W ELECTRONICS PL","address":"4580 Electronics Place, CA, Los Angeles, 90039, US","ct":"1881.00","ev":"N","apc":"East Los Angeles","cpa":"Northeast Los Angeles","zone":"M3-1","solar":"N","pin_nbr":"162B201    16","use_code":"61","geolocation":"POINT (-118.27496 34.14436)","status_date":"12/20/2012","permit_group":"Building","refresh_time":"06/10/2026","type_lat_lon":"ADDRESS","business_unit":"Regular Plan Check","square_footage":"0"},"geometry":{"type":"Point","coordinates":[-118.27496,34.14436]}},{"type":"Feature","properties":{"date":"2009-08-24T00:00:00.000Z","year":2009,"description":"COMPLETE WORK STARTED THROUGH PERMIT #06010-10000-03169. WORK IS 90% COMPLETE. INCLUDING ELECTRICAL, HVAC & PLUMBING.","metadescription":"Bldg-Alter/Repair. 1 or 2 Family Dwelling. COMPLETE WORK STARTED THROUGH PERMIT #06010-10000-03169. WORK IS 90% COMPLETE. INCLUDING ELECTRICAL, HVAC & PLUMBING.. Permit Finaled. 3864 W SENECA AVE","address":"3864 Seneca Avenue, CA, Los Angeles, 90039, US","ct":"1883.00","ev":"N","apc":"East Los Angeles","cpa":"Northeast Los Angeles","zone":"R1-1","solar":"N","pin_nbr":"157-5A207 294","use_code":"1","geolocation":"POINT (-118.26125 34.12425)","status_date":"09/26/2011","permit_group":"Building","refresh_time":"06/10/2026","type_lat_lon":"ADDRESS","business_unit":"Express Permit"},"geometry":{"type":"Point","coordinates":[-118.26125,34.12425]}},{"type":"Feature","properties":{"date":"2009-03-25T00:00:00.000Z","year":2009,"description":"Kitchen/bathrooms (3) remodel for residential buildings (no structural changes). Window and door change-out (same size & type and location) for residential buildings.  Valuation to be verified by field inspector.  Dual glazing, labeled and certified by National Fenestration Rating Council (NFRC), is required for doors and windows replaced in all residential buildings, three stories or less, per Section 152(b) of Title 24.","metadescription":"Bldg-Alter/Repair. 1 or 2 Family Dwelling. Kitchen/bathrooms (3) remodel for residential buildings (no structural changes). Window and door change-out (same size & type and location) for residential buildings.  Valuation to be verified by field inspector.  Dual glazing, labeled and certified by National Fenestration Rating Council (NFRC), is required for doors and windows replaced in all residential buildings, three stories or less, per Section 152(b) of Title 24.. Permit Finaled. 4558 N SUNNYCREST DR","address":"4558 N SUNNYCREST DR","ct":"1861.00","ev":"N","hl":"YES","apc":"East Los Angeles","cpa":"Northeast Los Angeles","zone":"R1-1","solar":"N","pin_nbr":"160-5A215  81","use_code":"1","geolocation":"POINT (-118.2364 34.1336)","status_date":"01/07/2011","permit_group":"Building","refresh_time":"06/10/2026","type_lat_lon":"ADDRESS","business_unit":"Express Permit"},"geometry":{"type":"Point","coordinates":[-118.2364,34.1336]}},{"type":"Feature","properties":{"date":"2009-01-30T00:00:00.000Z","year":2009,"description":"Kitchen and bathroom remodel.  Change out cabinets, sinks, tubs (2), and toilets (2) in kitchen and 2 bathrooms.   (WORK TO INCLUDE PLUMBING).","metadescription":"Bldg-Alter/Repair. 1 or 2 Family Dwelling. Kitchen and bathroom remodel.  Change out cabinets, sinks, tubs (2), and toilets (2) in kitchen and 2 bathrooms.   (WORK TO INCLUDE PLUMBING).. Permit Finaled. 4530 N SUNNYCREST DR","address":"4530 N SUNNYCREST DR","ct":"1861.00","ev":"N","hl":"YES","apc":"East Los Angeles","cpa":"Northeast Los Angeles","zone":"R1-1","solar":"N","pin_nbr":"160-5A215 138","use_code":"1","geolocation":"POINT (-118.23602 34.13296)","status_date":"02/04/2009","permit_group":"Building","refresh_time":"06/10/2026","type_lat_lon":"ADDRESS","business_unit":"Express Permit"},"geometry":{"type":"Point","coordinates":[-118.23602,34.13296]}},{"type":"Feature","properties":{"date":"2008-05-15T00:00:00.000Z","year":2008,"description":"KITCHEN REMODEL COMBINED WITH ELECTRICAL, PLUMBING AND HVAC (FOR RESIDENTIAL BUILDINGS; NO STRUCTURAL CHANGES)","metadescription":"Bldg-Alter/Repair. 1 or 2 Family Dwelling. KITCHEN REMODEL COMBINED WITH ELECTRICAL, PLUMBING AND HVAC (FOR RESIDENTIAL BUILDINGS; NO STRUCTURAL CHANGES). Permit Finaled. 3842 W BOYCE AVE","address":"3848 Boyce Avenue, CA, Los Angeles, 90039, US","ct":"1883.00","ev":"N","apc":"East Los Angeles","cpa":"Northeast Los Angeles","zone":"R1-1","solar":"N","pin_nbr":"156A207   136","use_code":"1","geolocation":"POINT (-118.26267 34.12278)","status_date":"06/20/2008","permit_group":"Building","refresh_time":"06/10/2026","type_lat_lon":"ADDRESS","business_unit":"Express Permit"},"geometry":{"type":"Point","coordinates":[-118.26267,34.12278]}},{"type":"Feature","properties":{"date":"2007-12-27T00:00:00.000Z","year":2007,"description":"TENANT IMPROVEMENT ON EXISITNG MEDICAL OFFICE (1,674 SQ FT): NEW INTERIOR PARTITION TO CREATE A 14'-0\" X 25'-0\" CLEAN ROOM/EQUIPMENT ROOM. NEW (2) MECHANICAL EQUIPMENT AT ROOFTOP AND INCREASE HEIGHT OF DOOR OPENING AT EXISTING MASONRY WALL.","metadescription":"Bldg-Alter/Repair. Commercial. TENANT IMPROVEMENT ON EXISITNG MEDICAL OFFICE (1,674 SQ FT): NEW INTERIOR PARTITION TO CREATE A 14'-0\" X 25'-0\" CLEAN ROOM/EQUIPMENT ROOM. NEW (2) MECHANICAL EQUIPMENT AT ROOFTOP AND INCREASE HEIGHT OF DOOR OPENING AT EXISTING MASONRY WALL.. Permit Finaled. 4580 W ELECTRONICS PL","address":"4580 Electronics Place, CA, Los Angeles, 90039, US","ct":"1881.00","ev":"N","apc":"East Los Angeles","cpa":"Northeast Los Angeles","zone":"M3-1","solar":"N","pin_nbr":"162B201    16","use_code":"13","geolocation":"POINT (-118.27496 34.14436)","status_date":"08/15/2008","permit_group":"Building","refresh_time":"06/10/2026","type_lat_lon":"ADDRESS","business_unit":"Plan Check at Counter"},"geometry":{"type":"Point","coordinates":[-118.27496,34.14436]}},{"type":"Feature","properties":{"date":"2006-08-07T00:00:00.000Z","year":2006,"description":"REMODEL ROTISSERIE AND MEAT PREPARATION AREAS, REMODEL PRODUCE AND MEAT PREPARATION WALK IN COOLERS AND NEW MECHANICAL UNITS ON THE ROOF.","metadescription":"Bldg-Alter/Repair. Commercial. REMODEL ROTISSERIE AND MEAT PREPARATION AREAS, REMODEL PRODUCE AND MEAT PREPARATION WALK IN COOLERS AND NEW MECHANICAL UNITS ON THE ROOF.. Permit Finaled. 2901 W LOS FELIZ BLVD","address":"Suite B, 465 Fernando Court, CA, Glendale, 91204, US","ct":"1881.00","ev":"N","apc":"East Los Angeles","cpa":"Northeast Los Angeles","zone":"[Q]C4-1XL, [T][Q]M1-1VL","solar":"N","pin_nbr":"159B205   502","use_code":"16","geolocation":"POINT (-118.26247 34.12774)","status_date":"09/26/2007","construction":"Type V-N Construction","permit_group":"Building","refresh_time":"06/10/2026","type_lat_lon":"ADDRESS","business_unit":"Regular Plan Check"},"geometry":{"type":"Point","coordinates":[-118.26247,34.12774]}},{"type":"Feature","properties":{"date":"2003-08-12T00:00:00.000Z","year":2003,"description":"PROPOSED  MASTER BEDROOM W/ BATH AND FAMILY ROOM ADDITION (2 STORY) RELATED ELECTRICAL, HVAC AND PLUMBINGEXEMPT FROM HILLSIDE ORD- FRONTS ON A FULLY IMPROVED HILLSIDE LIMITED STREET","metadescription":"Bldg-Addition. 1 or 2 Family Dwelling. PROPOSED  MASTER BEDROOM W/ BATH AND FAMILY ROOM ADDITION (2 STORY) RELATED ELECTRICAL, HVAC AND PLUMBINGEXEMPT FROM HILLSIDE ORD- FRONTS ON A FULLY IMPROVED HILLSIDE LIMITED STREET. Permit Finaled. 4195 N RANONS AVE","address":"1835 Marion Drive, CA, Glendale, 91205, US","ev":"N","hl":"YES","apc":"East Los Angeles","zone":"R1-1","solar":"N","pin_nbr":"156B213    82","use_code":"1","geolocation":"POINT (-118.23634 34.12651)","status_date":"07/25/2005","construction":"Type V-N Construction","permit_group":"Building","refresh_time":"06/10/2026","type_lat_lon":"ADDRESS","business_unit":"Regular Plan Check","square_footage":"898"},"geometry":{"type":"Point","coordinates":[-118.23634,34.12651]}},{"type":"Feature","properties":{"date":"2002-06-13T00:00:00.000Z","year":2002,"description":"NEW ROOF PLATFORM FOR HVAC EQUIPMENT ON BUILDING #11.(1,015 lb unit).","metadescription":"Bldg-Alter/Repair. Commercial. NEW ROOF PLATFORM FOR HVAC EQUIPMENT ON BUILDING #11.(1,015 lb unit).. Permit Finaled. 5121 N SAN FERNANDO ROAD WEST","address":"5121 North San Fernando Road, CA, Los Angeles, 90039, US","ct":"1881.00","ev":"N","apc":"East Los Angeles","zone":"M3-1","solar":"N","pin_nbr":"165B205   119","use_code":"22","geolocation":"POINT (-118.27194 34.1457)","status_date":"05/14/2009","permit_group":"Building","refresh_time":"06/10/2026","type_lat_lon":"ADDRESS","business_unit":"Appointment Plan Check"},"geometry":{"type":"Point","coordinates":[-118.27194,34.1457]}},{"type":"Feature","properties":{"date":"2000-06-21T00:00:00.000Z","year":2000,"description":"Remove one bathroom. Add a bedroom and two bathrooms (9' x 35'). Interior remodel. Includes related electrical, plumbing and HVAC works. Relocate water heater. EQSO REQUIRED.","metadescription":"Bldg-Addition. 1 or 2 Family Dwelling. Remove one bathroom. Add a bedroom and two bathrooms (9' x 35'). Interior remodel. Includes related electrical, plumbing and HVAC works. Relocate water heater. EQSO REQUIRED.. Permit Finaled. 3829 W BOYCE AVE","address":"3829 Boyce Avenue, CA, Los Angeles, 90039, US","ct":"1883.00","ev":"N","apc":"East Los Angeles","zone":"R1-1","solar":"N","pin_nbr":"156A207   139","use_code":"1","geolocation":"POINT (-118.26213 34.12258)","status_date":"10/10/2001","construction":"Type V-N Construction","permit_group":"Building","refresh_time":"06/10/2026","type_lat_lon":"ADDRESS","business_unit":"Plan Check at Counter","square_footage":"315"},"geometry":{"type":"Point","coordinates":[-118.26213,34.12258]}},{"type":"Feature","properties":{"date":"1999-09-29T00:00:00.000Z","year":1999,"description":"Construct 6 duct openings at roof(maximum size28\"x12\") for mechanical equipment to be installed in the future.","metadescription":"Bldg-Alter/Repair. Commercial. Construct 6 duct openings at roof(maximum size28\"x12\") for mechanical equipment to be installed in the future.. Permit Finaled. 4580 W ELECTRONICS PL","address":"4580 Electronics Place, CA, Los Angeles, 90039, US","ct":"1881.00","ev":"N","apc":"East Los Angeles","zone":"M3-1","solar":"N","pin_nbr":"162B201    16","use_code":"12","geolocation":"POINT (-118.27496 34.14436)","status_date":"11/16/1999","permit_group":"Building","refresh_time":"06/10/2026","type_lat_lon":"ADDRESS","business_unit":"Plan Check at Counter"},"geometry":{"type":"Point","coordinates":[-118.27496,34.14436]}},{"type":"Feature","properties":{"date":"1999-04-12T00:00:00.000Z","year":1999,"description":"Add 4' 6' x 4' 6\" balcony. Add guardrail to existing balcony. Replace windows with doors at sun room. Kitchen remodel Install HVAC system. Related electrical and plumbing works. Electric service upgrade.","metadescription":"Bldg-Alter/Repair. 1 or 2 Family Dwelling. Add 4' 6' x 4' 6\" balcony. Add guardrail to existing balcony. Replace windows with doors at sun room. Kitchen remodel Install HVAC system. Related electrical and plumbing works. Electric service upgrade.. Permit Finaled. 3253 W SHASTA CIR NO","address":"3253 Shasta Circle, CA, Los Angeles, 90065, US","ct":"1861.00","ev":"N","hl":"YES","apc":"East Los Angeles","zone":"R1-1","solar":"N","pin_nbr":"159A215    98","use_code":"1","geolocation":"POINT (-118.23452336 34.13058278)","status_date":"10/25/1999","permit_group":"Building","refresh_time":"06/10/2026","type_lat_lon":"PIN","business_unit":"Plan Check at Counter"},"geometry":{"type":"Point","coordinates":[-118.23452336,34.13058278]}},{"type":"Feature","properties":{"date":"1997-06-23T00:00:00.000Z","year":1997,"description":"TI: 5800 sq ft, and Mechanical equipment on roof top.","metadescription":"Bldg-Alter/Repair. Commercial. TI: 5800 sq ft, and Mechanical equipment on roof top.. Permit Closed. 4580 W ELECTRONICS PL","address":"4580 Electronics Place, CA, Los Angeles, 90039, US","ct":"1881.00","ev":"N","apc":"East Los Angeles","zone":"M3-1","solar":"N","pin_nbr":"162B201    16","use_code":"13","geolocation":"POINT (-118.27496 34.14436)","status_date":"02/05/2000","permit_group":"Building","refresh_time":"06/10/2026","type_lat_lon":"ADDRESS","business_unit":"Appointment Plan Check"},"geometry":{"type":"Point","coordinates":[-118.27496,34.14436]}}]}
