{"type":"FeatureCollection","features":[{"type":"Feature","properties":{"date":"2016-11-17T00:00:00.000Z","year":2016,"description":"NEW CONSTRUCTION 1718 SF 3 STORY SFD W/ 534 SF ATTACHED GARAGE PURSUANT  CASE ZA  2014-4313 zad zaa cdo","metadescription":"Bldg-New. 1 or 2 Family Dwelling. NEW CONSTRUCTION 1718 SF 3 STORY SFD W/ 534 SF ATTACHED GARAGE PURSUANT  CASE ZA  2014-4313 zad zaa cdo. CofO Issued. 4488 N VISTA SUPERBA DR","address":"4488 N VISTA SUPERBA DR","ct":"1861.00","ev":"N","hl":"YES","apc":"East Los Angeles","cpa":"Northeast Los Angeles","zone":"R1-1-CDO","solar":"N","height":"34.7","pin_nbr":"159A215    28","use_code":"1","geolocation":"POINT (-118.2363892 34.13189894)","status_date":"04/08/2019","construction":"Type V-B Construction","permit_group":"Building","refresh_time":"06/10/2026","type_lat_lon":"BUILDING","business_unit":"Regular Plan Check","square_footage":"1718"},"geometry":{"type":"Point","coordinates":[-118.2363892,34.13189894]}}]}
