{"type":"FeatureCollection","features":[{"type":"Feature","properties":{"date":"2017-11-16T00:00:00.000Z","year":2017,"description":"TENANT IMPROVEMENT TO REMOVE PARTITION WALLS AND REPLACE DOORS. COMPLY WITH DEPARTMENT ORDER effective date 11/02/2017. PERMIT WILL EXPIRE 30 DAYS FROM ISSUANCE DATE.","metadescription":"Bldg-Alter/Repair. Commercial. TENANT IMPROVEMENT TO REMOVE PARTITION WALLS AND REPLACE DOORS. COMPLY WITH DEPARTMENT ORDER effective date 11/02/2017. PERMIT WILL EXPIRE 30 DAYS FROM ISSUANCE DATE.. Permit Finaled. 2908 W COLORADO BLVD","address":"2908 W COLORADO BLVD","ct":"1813.00","ev":"N","apc":"East Los Angeles","cpa":"Northeast Los Angeles","zone":"[Q]C4-1XL","solar":"N","pin_nbr":"163-5A217 154","use_code":"18","geolocation":"POINT (-118.22858 34.1426)","status_date":"11/27/2017","permit_group":"Building","refresh_time":"06/10/2026","type_lat_lon":"ADDRESS","business_unit":"Plan Check at Counter"},"geometry":{"type":"Point","coordinates":[-118.22858,34.1426]}},{"type":"Feature","properties":{"date":"2001-01-04T00:00:00.000Z","year":2001,"description":"CHANGE OF USE FROM RETAIL STORE TO DRIVING SCHOOL. INTERIOR TENANT IMPROVEMENT RE: ADDING NEW WALLS & DOORS. [18'10\"x48'10\", classroom 14'10\"x22' - 16 occ - B Occ]\"no chan ge in parking\"","metadescription":"Bldg-Alter/Repair. Commercial. CHANGE OF USE FROM RETAIL STORE TO DRIVING SCHOOL. INTERIOR TENANT IMPROVEMENT RE: ADDING NEW WALLS & DOORS. [18'10\"x48'10\", classroom 14'10\"x22' - 16 occ - B Occ]\"no chan ge in parking\". Permit Finaled. 2908 W COLORADO BLVD","address":"2908 W COLORADO BLVD","ct":"1813.00","ev":"N","hl":"YES","apc":"East Los Angeles","zone":"[Q] C4-1XL","solar":"N","pin_nbr":"163-5A217  83","use_code":"16","geolocation":"POINT (-118.22858 34.1426)","status_date":"04/10/2001","construction":"Type V-N Construction","permit_group":"Building","refresh_time":"06/10/2026","type_lat_lon":"ADDRESS","business_unit":"Regular Plan Check"},"geometry":{"type":"Point","coordinates":[-118.22858,34.1426]}}]}
