{"type":"FeatureCollection","features":[{"type":"Feature","properties":{"date":"2021-10-06T00:00:00.000Z","year":2021,"description":"MODIFICIATION TO EXISTING WIRELESS FACILITY PER ZA-2010-1344-CUW. REPLACE (3) ANTENNAS WITH (3) NEW ANTENNAS AND REPLACE (3) RRU'S WITH (3) NEW RRU'S.","metadescription":"Bldg-Alter/Repair. Commercial. MODIFICIATION TO EXISTING WIRELESS FACILITY PER ZA-2010-1344-CUW. REPLACE (3) ANTENNAS WITH (3) NEW ANTENNAS AND REPLACE (3) RRU'S WITH (3) NEW RRU'S.. Permit Finaled. 17200 S VERMONT AVE","address":"17200 S VERMONT AVE","ct":"2912.20","ev":"N","apc":"Harbor","cpa":"Harbor Gateway","zone":"M1-1VL","solar":"N","pin_nbr":"066B197   278","use_code":"15","status_date":"11/09/2021","permit_group":"Building","refresh_time":"06/10/2026","type_lat_lon":"ADDRESS","business_unit":"Plan Check at Counter"},"geometry":{"type":"Point","coordinates":[-118.29083,33.87528]}},{"type":"Feature","properties":{"date":"2017-10-05T00:00:00.000Z","year":2017,"description":"ADD BACKUP GENERATOR AND PROPANE TANK TO EXISTING CONCRETE SLAB AT WIRELESS FACILITY PER ZA-2009-1611-CUW","metadescription":"Nonbldg-New. Commercial. ADD BACKUP GENERATOR AND PROPANE TANK TO EXISTING CONCRETE SLAB AT WIRELESS FACILITY PER ZA-2009-1611-CUW. Permit Finaled. 14032 S VERMONT AVE 1-52","address":"14032 S VERMONT AVE 1-52","ct":"2911.30","ev":"N","apc":"Harbor","cpa":"Harbor Gateway","zone":"[Q]C2-1-O","solar":"N","pin_nbr":"075B197    91","use_code":"23","geolocation":"POINT (-118.29144 33.90395)","status_date":"12/05/2017","construction":"Type V-B Construction","permit_group":"Building","refresh_time":"06/10/2026","type_lat_lon":"ADDRESS","business_unit":"Plan Check at Counter"},"geometry":{"type":"Point","coordinates":[-118.29144,33.90395]}},{"type":"Feature","properties":{"date":"2017-06-14T00:00:00.000Z","year":2017,"description":"MODIFICATION TO (E) ROOFTOP WIRELESS FACILITY PER ZA 2002-2900 (CU) (PAI)REMOVE AND REPLACE (1) ANTENNA ON (N) MOUNT; ADD 3 RRUS; (1) NEW CABINET (2300 LBS MAX)","metadescription":"Bldg-Alter/Repair. Commercial. MODIFICATION TO (E) ROOFTOP WIRELESS FACILITY PER ZA 2002-2900 (CU) (PAI)REMOVE AND REPLACE (1) ANTENNA ON (N) MOUNT; ADD 3 RRUS; (1) NEW CABINET (2300 LBS MAX). Permit Finaled. 16208 S VERMONT AVE","address":"16208 S VERMONT AVE","ct":"2912.10","ev":"N","apc":"Harbor","cpa":"Harbor Gateway","zone":"C2-1","solar":"N","pin_nbr":"069B197   287","use_code":"23","geolocation":"POINT (-118.29119 33.88408)","status_date":"10/02/2017","permit_group":"Building","refresh_time":"06/10/2026","type_lat_lon":"ADDRESS","business_unit":"Plan Check at Counter"},"geometry":{"type":"Point","coordinates":[-118.29119,33.88408]}},{"type":"Feature","properties":{"date":"2010-11-19T00:00:00.000Z","year":2010,"description":"INSTALLATION OF WIRELESS TELECOMMUNICATIONS FACILITY: INSTALLATION OF SIX (6) PANEL ANTENNAS AND SIX (6) MICROWAVE ANTENNAS, ONE(1) GPS ANTENNA, AND ONE (1) EQUIPMENT CABINET ON ROOFTOP OF EXISTING BUILDING","metadescription":"Bldg-Alter/Repair. Commercial. INSTALLATION OF WIRELESS TELECOMMUNICATIONS FACILITY: INSTALLATION OF SIX (6) PANEL ANTENNAS AND SIX (6) MICROWAVE ANTENNAS, ONE(1) GPS ANTENNA, AND ONE (1) EQUIPMENT CABINET ON ROOFTOP OF EXISTING BUILDING. Permit Expired. 17200 S VERMONT AVE","address":"17200 S VERMONT AVE","ct":"2912.20","ev":"N","apc":"Harbor","cpa":"Harbor Gateway","zone":"M1-1VL","solar":"N","pin_nbr":"066B197   278","use_code":"15","geolocation":"POINT (-118.29083 33.87528)","status_date":"01/16/2013","permit_group":"Building","refresh_time":"06/10/2026","type_lat_lon":"ADDRESS","business_unit":"Regular Plan Check"},"geometry":{"type":"Point","coordinates":[-118.29083,33.87528]}}]}
