{"type":"FeatureCollection","features":[{"type":"Feature","properties":{"date":"2026-05-20T00:00:00.000Z","year":2026,"description":"**Fast Track Al Fresco Dining** ADD OUTDOOR DINING AREA (37'-3\" X 7'-9\", 213 SF) TO EXISTING RESTAURANT (UNDER BUILDING PERMIT NUMBER 25016-10000-20185 CHANGE OF USE FROM TAKE-OUT ONLY TO DINE-IN)","metadescription":"Bldg-Alter/Repair. Commercial. **Fast Track Al Fresco Dining** ADD OUTDOOR DINING AREA (37'-3\" X 7'-9\", 213 SF) TO EXISTING RESTAURANT (UNDER BUILDING PERMIT NUMBER 25016-10000-20185 CHANGE OF USE FROM TAKE-OUT ONLY TO DINE-IN). Issued. 16814 S VERMONT AVE","address":"16814 S VERMONT AVE","ct":"2912.20","ev":"N","apc":"Harbor","cpa":"Harbor Gateway","zone":"C2-1","solar":"N","pin_nbr":"066B197   120","use_code":"17","status_date":"05/20/2026","construction":"Type V-B Construction","permit_group":"Building","refresh_time":"06/10/2026","type_lat_lon":"ADDRESS","business_unit":"Expanded Counter Plan Check"},"geometry":{"type":"Point","coordinates":[-118.29096,33.87861]}},{"type":"Feature","properties":{"date":"2026-03-25T00:00:00.000Z","year":2026,"description":"CHANGE OF USE FROM (E)TAKE OUT RESTAURANT TO DINE IN RESTAURANT (AL FRESCO UNDER SEPARATE PERMIT)","metadescription":"Bldg-Alter/Repair. Commercial. CHANGE OF USE FROM (E)TAKE OUT RESTAURANT TO DINE IN RESTAURANT (AL FRESCO UNDER SEPARATE PERMIT). Issued. 16814 S VERMONT AVE","address":"16814 S VERMONT AVE","ct":"2912.20","ev":"N","apc":"Harbor","cpa":"Harbor Gateway","zone":"C2-1","solar":"N","pin_nbr":"066B197   120","use_code":"17","status_date":"03/25/2026","construction":"Type V-B Construction","permit_group":"Building","refresh_time":"06/10/2026","type_lat_lon":"ADDRESS","business_unit":"Expanded Counter Plan Check"},"geometry":{"type":"Point","coordinates":[-118.29096,33.87861]}},{"type":"Feature","properties":{"date":"2022-12-15T00:00:00.000Z","year":2022,"description":"Change of use from gymnasium to warehouse for storage use. No physical construction. No exterior work. No change in building footprint.","metadescription":"Bldg-Alter/Repair. Commercial. Change of use from gymnasium to warehouse for storage use. No physical construction. No exterior work. No change in building footprint.. CofO Issued. 17014 S VERMONT AVE C","address":"17014 S VERMONT AVE C","ct":"2912.20","ev":"N","apc":"Harbor","cpa":"Harbor Gateway","zone":"M1-1VL","solar":"N","pin_nbr":"066B197   241","use_code":"22","status_date":"01/09/2023","construction":"Type III-B Construction","permit_group":"Building","refresh_time":"06/10/2026","type_lat_lon":"ADDRESS","business_unit":"Regular Plan Check","square_footage":"0"},"geometry":{"type":"Point","coordinates":[-118.29086,33.87624]}},{"type":"Feature","properties":{"date":"2022-12-08T00:00:00.000Z","year":2022,"description":"CHANGE OF USE - OFFICE TO DAY CARE (E Occupancy)","metadescription":"Bldg-Alter/Repair. Commercial. CHANGE OF USE - OFFICE TO DAY CARE (E Occupancy). Quality Review Completed. 15328 S VERMONT AVE","address":"15328 S VERMONT AVE","ct":"2912.10","ev":"N","apc":"Harbor","cpa":"Harbor Gateway","zone":"[Q]C2-1","solar":"N","pin_nbr":"072B197   177","use_code":"18","status_date":"01/26/2023","construction":"Type V-B Construction","permit_group":"Building","refresh_time":"06/10/2026","type_lat_lon":"ADDRESS","business_unit":"Regular Plan Check"},"geometry":{"type":"Point","coordinates":[-118.29149,33.89168]}},{"type":"Feature","properties":{"date":"2016-08-29T00:00:00.000Z","year":2016,"description":"CHANGE OF USE FROM OFFICE TO TATOO STUDIO AND FIRE DAMAGE REPAIR.","metadescription":"Bldg-Alter/Repair. Commercial. CHANGE OF USE FROM OFFICE TO TATOO STUDIO AND FIRE DAMAGE REPAIR.. CofO Issued. 15400 S VERMONT AVE","address":"15400 S VERMONT AVE","ct":"2912.10","ev":"N","apc":"Harbor","cpa":"Harbor Gateway","zone":"[Q]C2-1","solar":"N","pin_nbr":"072B197   187","use_code":"16","geolocation":"POINT (-118.29148 33.89154)","status_date":"05/26/2017","construction":"Type V-B Construction","permit_group":"Building","refresh_time":"06/10/2026","type_lat_lon":"ADDRESS","business_unit":"Expanded Counter Plan Check"},"geometry":{"type":"Point","coordinates":[-118.29148,33.89154]}},{"type":"Feature","properties":{"date":"2002-01-03T00:00:00.000Z","year":2002,"description":"Change of use from (e) retail to fax, copy, mail box sercices and coffee house (no pastry baking and food preparation)  No physical construction.","metadescription":"Bldg-Alter/Repair. Commercial. Change of use from (e) retail to fax, copy, mail box sercices and coffee house (no pastry baking and food preparation)  No physical construction.. Permit Finaled. 16820 S VERMONT AVE","address":"16820 S VERMONT AVE","ct":"2912.00","ev":"N","apc":"Harbor","zone":"C2-1","solar":"N","pin_nbr":"066B197   120","use_code":"17","geolocation":"POINT (-118.29096 33.87852)","status_date":"03/04/2002","permit_group":"Building","refresh_time":"06/10/2026","type_lat_lon":"ADDRESS","business_unit":"Regular Plan Check"},"geometry":{"type":"Point","coordinates":[-118.29096,33.87852]}},{"type":"Feature","properties":{"date":"1997-03-07T00:00:00.000Z","year":1997,"description":"CHANGE OF USE FROM RESTAURANT TO MEDICAL OFFICE. ADD 3'-10\" X 14'-1\" EQUIP ENCLOSURE & REMOVE INTERIOR BEARING WALLS.","metadescription":"Bldg-Alter/Repair. Commercial. CHANGE OF USE FROM RESTAURANT TO MEDICAL OFFICE. ADD 3'-10\" X 14'-1\" EQUIP ENCLOSURE & REMOVE INTERIOR BEARING WALLS.. Permit Finaled. 14240 S VERMONT AVE","address":"14240 S VERMONT AVE","ct":"2911.00","ev":"N","apc":"Harbor","zone":"C2-1, O","solar":"N","pin_nbr":"075B197   208","use_code":"13","geolocation":"POINT (-118.29147 33.90252)","status_date":"09/20/2001","permit_group":"Building","refresh_time":"06/10/2026","type_lat_lon":"ADDRESS","business_unit":"Appointment Plan Check"},"geometry":{"type":"Point","coordinates":[-118.29147,33.90252]}}]}
