{"type":"FeatureCollection","features":[{"type":"Feature","properties":{"date":"2026-05-20T00:00:00.000Z","year":2026,"description":"**Fast Track Al Fresco Dining** ADD OUTDOOR DINING AREA (37'-3\" X 7'-9\", 213 SF) TO EXISTING RESTAURANT (UNDER BUILDING PERMIT NUMBER 25016-10000-20185 CHANGE OF USE FROM TAKE-OUT ONLY TO DINE-IN)","metadescription":"Bldg-Alter/Repair. Commercial. **Fast Track Al Fresco Dining** ADD OUTDOOR DINING AREA (37'-3\" X 7'-9\", 213 SF) TO EXISTING RESTAURANT (UNDER BUILDING PERMIT NUMBER 25016-10000-20185 CHANGE OF USE FROM TAKE-OUT ONLY TO DINE-IN). Issued. 16814 S VERMONT AVE","address":"16814 South Vermont Avenue, CA, Gardena, 90247, US","ct":"2912.20","ev":"N","apc":"Harbor","cpa":"Harbor Gateway","zone":"C2-1","solar":"N","pin_nbr":"066B197   120","use_code":"17","status_date":"05/20/2026","construction":"Type V-B Construction","permit_group":"Building","refresh_time":"06/10/2026","type_lat_lon":"ADDRESS","business_unit":"Expanded Counter Plan Check"},"geometry":{"type":"Point","coordinates":[-118.29096,33.87861]}},{"type":"Feature","properties":{"date":"2024-08-13T00:00:00.000Z","year":2024,"description":"Eplan: Soft-Story seismic retrofit per LABC Chapter 93: SOFT STORY SEISMIC REINFORCEMENT AT BUILDING PARKING GARAGE USING (2) SPECIAL CANTILEVERED COLUMNS W/ GRADE BEAMS.","metadescription":"Bldg-Alter/Repair. Apartment. Eplan: Soft-Story seismic retrofit per LABC Chapter 93: SOFT STORY SEISMIC REINFORCEMENT AT BUILDING PARKING GARAGE USING (2) SPECIAL CANTILEVERED COLUMNS W/ GRADE BEAMS.. OK to Issue CofC. 16830 S VERMONT AVE","address":"1-6, 16830 South Vermont Avenue, CA, Gardena, 90247, US","ct":"2912.20","ev":"N","apc":"Harbor","cpa":"Harbor Gateway","zone":"R3-1","solar":"N","pin_nbr":"066B197   142","use_code":"5","status_date":"11/08/2024","permit_group":"Building","refresh_time":"06/10/2026","type_lat_lon":"ADDRESS","business_unit":"Regular Plan Check"},"geometry":{"type":"Point","coordinates":[-118.29095,33.87834]}},{"type":"Feature","properties":{"date":"2022-12-15T00:00:00.000Z","year":2022,"description":"Change of use from gymnasium to warehouse for storage use. No physical construction. No exterior work. No change in building footprint.","metadescription":"Bldg-Alter/Repair. Commercial. Change of use from gymnasium to warehouse for storage use. No physical construction. No exterior work. No change in building footprint.. CofO Issued. 17014 S VERMONT AVE C","address":"17014 South Vermont Avenue, CA, Gardena, 90247, US","ct":"2912.20","ev":"N","apc":"Harbor","cpa":"Harbor Gateway","zone":"M1-1VL","solar":"N","pin_nbr":"066B197   241","use_code":"22","status_date":"01/09/2023","construction":"Type III-B Construction","permit_group":"Building","refresh_time":"06/10/2026","type_lat_lon":"ADDRESS","business_unit":"Regular Plan Check","square_footage":"0"},"geometry":{"type":"Point","coordinates":[-118.29086,33.87624]}},{"type":"Feature","properties":{"date":"2022-07-25T00:00:00.000Z","year":2022,"description":"REPLACEEXISITING EQUIPMENT FOUNTAIN DRINK & COFFEE WITH NEW CORNELIUS 300 AND SCHAERER COFFEE ART C; ALSO EXCHANGE EXISITING 2-COMPARTMENT SINK TO NEW EAGLE 3-COMPARTMENT SINK UNIT IN EXISTING RETAIL BUILDING","metadescription":"Bldg-Alter/Repair. Commercial. REPLACEEXISITING EQUIPMENT FOUNTAIN DRINK & COFFEE WITH NEW CORNELIUS 300 AND SCHAERER COFFEE ART C; ALSO EXCHANGE EXISITING 2-COMPARTMENT SINK TO NEW EAGLE 3-COMPARTMENT SINK UNIT IN EXISTING RETAIL BUILDING. Issued. 15312 S VERMONT AVE","address":"15312 Vermont Avenue, CA, Gardena, 90247, US","ct":"2912.10","ev":"N","apc":"Harbor","cpa":"Harbor Gateway","zone":"[Q]C2-1","solar":"N","pin_nbr":"072B197   145","use_code":"16","status_date":"07/25/2022","permit_group":"Building","refresh_time":"06/10/2026","type_lat_lon":"ADDRESS","business_unit":"Plan Check at Counter"},"geometry":{"type":"Point","coordinates":[-118.2915,33.89206]}},{"type":"Feature","properties":{"date":"2021-11-02T00:00:00.000Z","year":2021,"description":"DEMO 1 STORY OFFICE BUILDING. CLEAR LOT.","metadescription":"Bldg-Demolition. Commercial. DEMO 1 STORY OFFICE BUILDING. CLEAR LOT.. Permit Finaled. 16000 S VERMONT AVE","address":"16000 South Vermont Avenue, CA, Gardena, 90247, US","ct":"2912.10","ev":"N","apc":"Harbor","cpa":"Harbor Gateway","zone":"R3-1","solar":"N","pin_nbr":"069B197   184","use_code":"13","status_date":"03/10/2022","permit_group":"Building","refresh_time":"06/10/2026","type_lat_lon":"ADDRESS","business_unit":"Plan Check at Counter"},"geometry":{"type":"Point","coordinates":[-118.29124,33.88599]}},{"type":"Feature","properties":{"date":"2019-03-04T00:00:00.000Z","year":2019,"description":"Re-roof with Class A or B material weighing less than 6 pounds per sq. ft. over existing solid sheathing ___38___Squares. Class A roof covering is required within Very High Fire Hazard Severity Zone (VHFHSZ). For residential roof replacement > 50% of the total roof area, apply Cool Roof Product labeled and certified by Cool Roof Rating Council (CRRC). Cool Roof may be required for non-residential buildings per Title 24, Part 6, Section 141.0(b) 2B.","metadescription":"Bldg-Alter/Repair. Apartment. Re-roof with Class A or B material weighing less than 6 pounds per sq. ft. over existing solid sheathing ___38___Squares. Class A roof covering is required within Very High Fire Hazard Severity Zone (VHFHSZ). For residential roof replacement > 50% of the total roof area, apply Cool Roof Product labeled and certified by Cool Roof Rating Council (CRRC). Cool Roof may be required for non-residential buildings per Title 24, Part 6, Section 141.0(b) 2B.. Permit Expired. 16912 S VERMONT AVE","address":"16912 South Vermont Avenue, CA, Gardena, 90247, US","ct":"2912.20","ev":"N","apc":"Harbor","cpa":"Harbor Gateway","zone":"R3-1","solar":"N","pin_nbr":"066B197   178","use_code":"5","geolocation":"POINT (-118.29091 33.87765)","status_date":"05/13/2026","permit_group":"Building","refresh_time":"06/10/2026","type_lat_lon":"ADDRESS","business_unit":"Express Permit"},"geometry":{"type":"Point","coordinates":[-118.29091,33.87765]}},{"type":"Feature","properties":{"date":"2018-11-15T00:00:00.000Z","year":2018,"description":"MODIFICATION OF EXISTING WIRELESS TELECOM SITE ON ROOF TOP OF BUILDING PER ZA-1995-906(YU)","metadescription":"Bldg-Alter/Repair. Commercial. MODIFICATION OF EXISTING WIRELESS TELECOM SITE ON ROOF TOP OF BUILDING PER ZA-1995-906(YU). Permit Expired. 17200 S VERMONT AVE","address":"17200 South Vermont Avenue, CA, Gardena, 90247, US","ct":"2912.20","ev":"N","apc":"Harbor","cpa":"Harbor Gateway","zone":"M1-1VL","solar":"N","pin_nbr":"066B197   278","use_code":"15","geolocation":"POINT (-118.29083 33.87528)","status_date":"02/10/2023","permit_group":"Building","refresh_time":"06/10/2026","type_lat_lon":"ADDRESS","business_unit":"Regular Plan Check"},"geometry":{"type":"Point","coordinates":[-118.29083,33.87528]}},{"type":"Feature","properties":{"date":"2018-05-23T00:00:00.000Z","year":2018,"description":"ADD 1 HR RATED HARD-LID CEILING AT 5TH FLOOR CORRIDOR TO ENCLOSE DUCTWORK FROM EQUIPMENT ROOM,  ADD 1 NEW DOOR AND REPLACE 1 (E) DOOR IN (E) TELEPHONE EQUIPMENT BUILDING","metadescription":"Bldg-Alter/Repair. Commercial. ADD 1 HR RATED HARD-LID CEILING AT 5TH FLOOR CORRIDOR TO ENCLOSE DUCTWORK FROM EQUIPMENT ROOM,  ADD 1 NEW DOOR AND REPLACE 1 (E) DOOR IN (E) TELEPHONE EQUIPMENT BUILDING. Permit Finaled. 17200 S VERMONT AVE 5TH FLOOR","address":"17200 South Vermont Avenue, CA, Gardena, 90247, US","ct":"2912.20","ev":"N","apc":"Harbor","cpa":"Harbor Gateway","zone":"M1-1VL","solar":"N","pin_nbr":"066B197   278","use_code":"15","geolocation":"POINT (-118.29083 33.87528)","status_date":"09/07/2018","permit_group":"Building","refresh_time":"06/10/2026","type_lat_lon":"ADDRESS","business_unit":"Plan Check at Counter"},"geometry":{"type":"Point","coordinates":[-118.29083,33.87528]}},{"type":"Feature","properties":{"date":"2017-05-23T00:00:00.000Z","year":2017,"description":"Reroof with 10 sqrs COMP SHINGLE roofing over new solid sheathing.Re-roof with Class A or B material weighing less than 6 pounds per sq. ft. For residential roof replacement > 50% of the total roof area, apply Cool Roof Product labeled and certified by Cool Roof Rating Council (CRRC). Cool Roof may be required for non-residential buildings per Title 24, Part 6, Section 149(b).","metadescription":"Bldg-Alter/Repair. 1 or 2 Family Dwelling. Reroof with 10 sqrs COMP SHINGLE roofing over new solid sheathing.Re-roof with Class A or B material weighing less than 6 pounds per sq. ft. For residential roof replacement > 50% of the total roof area, apply Cool Roof Product labeled and certified by Cool Roof Rating Council (CRRC). Cool Roof may be required for non-residential buildings per Title 24, Part 6, Section 149(b).. Permit Finaled. 856 W 148TH ST","address":"850 West 148Th Street, CA, Gardena, 90247, US","ct":"2911.30","ev":"N","apc":"Harbor","cpa":"Harbor Gateway","zone":"R1-1","solar":"N","pin_nbr":"075B197   458","use_code":"1","geolocation":"POINT (-118.29117 33.89819)","status_date":"06/20/2017","permit_group":"Building","refresh_time":"06/10/2026","type_lat_lon":"ADDRESS","business_unit":"Express Permit"},"geometry":{"type":"Point","coordinates":[-118.29117,33.89819]}},{"type":"Feature","properties":{"date":"2017-04-21T00:00:00.000Z","year":2017,"description":"Reroof with 42 sqrs BUILT UP roofing. Existing solid sheathing.Re-roof with Class A or B material weighing less than 6 pounds per sq. ft. For residential roof replacement > 50% of the total roof area, apply Cool Roof Product labeled and certified by Cool Roof Rating Council (CRRC). Cool Roof may be required for non-residential buildings per Title 24, Part 6, Section 149(b).","metadescription":"Bldg-Alter/Repair. Commercial. Reroof with 42 sqrs BUILT UP roofing. Existing solid sheathing.Re-roof with Class A or B material weighing less than 6 pounds per sq. ft. For residential roof replacement > 50% of the total roof area, apply Cool Roof Product labeled and certified by Cool Roof Rating Council (CRRC). Cool Roof may be required for non-residential buildings per Title 24, Part 6, Section 149(b).. Issued. 14032 S VERMONT AVE 1-52","address":"1-52, 14032 South Vermont Avenue, CA, Gardena, 90247, US","ct":"2911.30","ev":"N","apc":"Harbor","cpa":"Harbor Gateway","zone":"[Q]C2-1-O","solar":"N","pin_nbr":"075B197    91","use_code":"11","geolocation":"POINT (-118.29144 33.90395)","status_date":"04/21/2017","permit_group":"Building","refresh_time":"06/10/2026","type_lat_lon":"ADDRESS","business_unit":"Express Permit"},"geometry":{"type":"Point","coordinates":[-118.29144,33.90395]}},{"type":"Feature","properties":{"date":"2016-10-11T00:00:00.000Z","year":2016,"description":"Install (2) window signs:  IRR shape 12\" x 8.5\" for <AT&T and logo>  and 1\" x 15\" for building address.","metadescription":"Sign. Onsite. Install (2) window signs:  IRR shape 12\" x 8.5\" for <AT&T and logo>  and 1\" x 15\" for building address.. Permit Finaled. 17200 S VERMONT AVE","address":"17200 South Vermont Avenue, CA, Gardena, 90247, US","ct":"2912.20","ev":"N","apc":"Harbor","cpa":"Harbor Gateway","zone":"M1-1VL","solar":"N","pin_nbr":"066B197   278","use_code":"19","geolocation":"POINT (-118.29083 33.87528)","status_date":"12/06/2016","permit_group":"Building","refresh_time":"06/10/2026","type_lat_lon":"ADDRESS","business_unit":"Plan Check at Counter"},"geometry":{"type":"Point","coordinates":[-118.29083,33.87528]}},{"type":"Feature","properties":{"date":"2016-07-06T00:00:00.000Z","year":2016,"description":"(5) Window and (1)  door change-out (same size & type) for residential buildings.  Dual glazing, labeled and certified by National Fenestration Rating Council (NFRC), is required for doors and windows replaced in all residential buildings, three stories or less, per Section 152(b) of Title 24.","metadescription":"Bldg-Alter/Repair. Apartment. (5) Window and (1)  door change-out (same size & type) for residential buildings.  Dual glazing, labeled and certified by National Fenestration Rating Council (NFRC), is required for doors and windows replaced in all residential buildings, three stories or less, per Section 152(b) of Title 24.. Permit Finaled. 850 W 157TH ST #11","address":"850 West 157Th Street, CA, Gardena, 90247, US","ct":"2912.10","ev":"N","apc":"Harbor","cpa":"Harbor Gateway","zone":"R1-1, R3-1","solar":"N","pin_nbr":"069B197    24","use_code":"35","geolocation":"POINT (-118.29121 33.88876)","status_date":"12/29/2016","permit_group":"Building","refresh_time":"06/10/2026","type_lat_lon":"ADDRESS","business_unit":"Express Permit"},"geometry":{"type":"Point","coordinates":[-118.29121,33.88876]}},{"type":"Feature","properties":{"date":"2016-02-16T00:00:00.000Z","year":2016,"description":"Reroof with 60 sqrs BUILT UP roofing. Existing solid sheathing.Re-roof with Class A or B material weighing less than 6 pounds per sq. ft. For residential roof replacement > 50% of the total roof area, apply Cool Roof Product labeled and certified by Cool Roof Rating Council (CRRC). Cool Roof may be required for non-residential buildings per Title 24, Part 6, Section 149(b).","metadescription":"Bldg-Alter/Repair. Commercial. Reroof with 60 sqrs BUILT UP roofing. Existing solid sheathing.Re-roof with Class A or B material weighing less than 6 pounds per sq. ft. For residential roof replacement > 50% of the total roof area, apply Cool Roof Product labeled and certified by Cool Roof Rating Council (CRRC). Cool Roof may be required for non-residential buildings per Title 24, Part 6, Section 149(b).. Permit Finaled. 14032 S VERMONT AVE","address":"1-52, 14032 South Vermont Avenue, CA, Gardena, 90247, US","ct":"2911.30","ev":"N","apc":"Harbor","cpa":"Harbor Gateway","zone":"[Q]C2-1-O","solar":"N","pin_nbr":"075B197    91","use_code":"11","geolocation":"POINT (-118.29144 33.90395)","status_date":"02/24/2016","permit_group":"Building","refresh_time":"06/10/2026","type_lat_lon":"ADDRESS","business_unit":"Express Permit"},"geometry":{"type":"Point","coordinates":[-118.29144,33.90395]}},{"type":"Feature","properties":{"date":"2015-04-07T00:00:00.000Z","year":2015,"description":"INSTALL NEW CONCRETE PAD FOR MECHANICAL PUMPS AND ANCHORAGE SUPPORTS FOR MECHANICAL PIPING THROUGHOUT THE BUILDING. REMOVE NONBEARING WALL FOR NEW DOUBLE DOOR AND INFILL ONE DOOR ON THE FIRST FLOOR.  REMOVE AND REPLACE CEILING AS REQUIRED TO ACCESS PIPING.  MODIFY (E) LADDER FOR ACCESS TO BASEMENT PIPING TUNNER.","metadescription":"Bldg-Alter/Repair. Commercial. INSTALL NEW CONCRETE PAD FOR MECHANICAL PUMPS AND ANCHORAGE SUPPORTS FOR MECHANICAL PIPING THROUGHOUT THE BUILDING. REMOVE NONBEARING WALL FOR NEW DOUBLE DOOR AND INFILL ONE DOOR ON THE FIRST FLOOR.  REMOVE AND REPLACE CEILING AS REQUIRED TO ACCESS PIPING.  MODIFY (E) LADDER FOR ACCESS TO BASEMENT PIPING TUNNER.. Permit Finaled. 17200 S VERMONT AVE","address":"17200 South Vermont Avenue, CA, Gardena, 90247, US","ct":"2912.20","ev":"N","apc":"Harbor","cpa":"Harbor Gateway","zone":"M1-1VL","solar":"N","pin_nbr":"066B197   278","use_code":"15","geolocation":"POINT (-118.29083 33.87528)","status_date":"01/15/2016","permit_group":"Building","refresh_time":"06/10/2026","type_lat_lon":"ADDRESS","business_unit":"Plan Check at Counter"},"geometry":{"type":"Point","coordinates":[-118.29083,33.87528]}},{"type":"Feature","properties":{"date":"2015-01-21T00:00:00.000Z","year":2015,"description":"SUPPLEMENTAL TO PERMIT #15016-40000-00552 TO INCLUDE BATHROOM REMODEL (FOR RESIDENTIAL BUILDINGS; NO STRUCTURAL CHANGES) COMBINE WITH ELECTRICAL & PLUMBING IN THE DESCRIPTION OF WORK**********NO FEE DEPARTMENT ERROR**********","metadescription":"Bldg-Alter/Repair. 1 or 2 Family Dwelling. SUPPLEMENTAL TO PERMIT #15016-40000-00552 TO INCLUDE BATHROOM REMODEL (FOR RESIDENTIAL BUILDINGS; NO STRUCTURAL CHANGES) COMBINE WITH ELECTRICAL & PLUMBING IN THE DESCRIPTION OF WORK**********NO FEE DEPARTMENT ERROR**********. Permit Finaled. 861 W 149TH ST","address":"857 West 149Th Street, CA, Gardena, 90247, US","ct":"2911.30","ev":"N","apc":"Harbor","cpa":"Harbor Gateway","zone":"R1-1","solar":"N","pin_nbr":"072B197     6","use_code":"1","geolocation":"POINT (-118.29118 33.897)","status_date":"03/19/2015","permit_group":"Building","refresh_time":"06/10/2026","type_lat_lon":"ADDRESS","business_unit":"Express Permit"},"geometry":{"type":"Point","coordinates":[-118.29118,33.897]}},{"type":"Feature","properties":{"date":"2015-01-13T00:00:00.000Z","year":2015,"description":"change ouit 13 windows and 3 doors (same size and type for residential buildings only) kitchen remodel (for residential buildings: no structural changes) combine with electrical and plumbing and replace wall heater.  Reroof 26 squares w/class 'a' or 'b' materials weighing less than 6 pounds per sq.ft.  tear off existing roofing and apply fiberglass or asph. shingles.","metadescription":"Bldg-Alter/Repair. 1 or 2 Family Dwelling. change ouit 13 windows and 3 doors (same size and type for residential buildings only) kitchen remodel (for residential buildings: no structural changes) combine with electrical and plumbing and replace wall heater.  Reroof 26 squares w/class 'a' or 'b' materials weighing less than 6 pounds per sq.ft.  tear off existing roofing and apply fiberglass or asph. shingles.. Permit Finaled. 861 W 149TH ST","address":"857 West 149Th Street, CA, Gardena, 90247, US","ct":"2911.30","ev":"N","apc":"Harbor","cpa":"Harbor Gateway","zone":"R1-1","solar":"N","pin_nbr":"072B197     6","use_code":"1","geolocation":"POINT (-118.29118 33.897)","status_date":"03/19/2015","permit_group":"Building","refresh_time":"06/10/2026","type_lat_lon":"ADDRESS","business_unit":"Express Permit"},"geometry":{"type":"Point","coordinates":[-118.29118,33.897]}},{"type":"Feature","properties":{"date":"2014-11-06T00:00:00.000Z","year":2014,"description":"Voluntary add sill plate anchor bolts per LA City standard plan#1; No foundation replacement (Earthquake Hazard reduction per chapter 92 of Los Angeles Building Code)","metadescription":"Bldg-Alter/Repair. Apartment. Voluntary add sill plate anchor bolts per LA City standard plan#1; No foundation replacement (Earthquake Hazard reduction per chapter 92 of Los Angeles Building Code). Permit Finaled. 15914 S VERMONT AVE","address":"15914 South Vermont Avenue, CA, Gardena, 90247, US","ct":"2912.10","ev":"N","apc":"Harbor","cpa":"Harbor Gateway","zone":"R3-1","solar":"N","pin_nbr":"069B197   132","use_code":"5","geolocation":"POINT (-118.29132 33.88661)","status_date":"03/30/2017","permit_group":"Building","refresh_time":"06/10/2026","type_lat_lon":"ADDRESS","business_unit":"Plan Check at Counter"},"geometry":{"type":"Point","coordinates":[-118.29132,33.88661]}},{"type":"Feature","properties":{"date":"2014-11-06T00:00:00.000Z","year":2014,"description":"Voluntary add sill plate anchor bolts per LA City standard plan#1; No foundation replacement (Earthquake Hazard reduction per chapter 92 of Los Angeles Building Code)","metadescription":"Bldg-Alter/Repair. Apartment. Voluntary add sill plate anchor bolts per LA City standard plan#1; No foundation replacement (Earthquake Hazard reduction per chapter 92 of Los Angeles Building Code). Permit Finaled. 15912 S VERMONT AVE","address":"15912 South Vermont Avenue, CA, Gardena, 90247, US","ct":"2912.10","ev":"N","apc":"Harbor","cpa":"Harbor Gateway","zone":"R3-1","solar":"N","pin_nbr":"069B197   132","use_code":"5","geolocation":"POINT (-118.29133 33.88683)","status_date":"02/02/2017","permit_group":"Building","refresh_time":"06/10/2026","type_lat_lon":"ADDRESS","business_unit":"Plan Check at Counter"},"geometry":{"type":"Point","coordinates":[-118.29133,33.88683]}},{"type":"Feature","properties":{"date":"2011-05-09T00:00:00.000Z","year":2011,"description":"REPAIR DAMAGED BUILDING FRONT AND ENTRY DOORS. SEE COMMENT.","metadescription":"Bldg-Alter/Repair. Commercial. REPAIR DAMAGED BUILDING FRONT AND ENTRY DOORS. SEE COMMENT.. Permit Finaled. 16402 S VERMONT AVE","address":"16410 South Vermont Avenue, CA, Gardena, 90247, US","ct":"2912.10","ev":"N","apc":"Harbor","cpa":"Harbor Gateway","zone":"C2-1","solar":"N","pin_nbr":"069B197   398","use_code":"13","geolocation":"POINT (-118.29109759 33.88229537)","status_date":"07/28/2011","permit_group":"Building","refresh_time":"06/10/2026","type_lat_lon":"PIN","business_unit":"Plan Check at Counter"},"geometry":{"type":"Point","coordinates":[-118.29109759,33.88229537]}},{"type":"Feature","properties":{"date":"2010-11-19T00:00:00.000Z","year":2010,"description":"INSTALLATION OF WIRELESS TELECOMMUNICATIONS FACILITY: INSTALLATION OF SIX (6) PANEL ANTENNAS AND SIX (6) MICROWAVE ANTENNAS, ONE(1) GPS ANTENNA, AND ONE (1) EQUIPMENT CABINET ON ROOFTOP OF EXISTING BUILDING","metadescription":"Bldg-Alter/Repair. Commercial. INSTALLATION OF WIRELESS TELECOMMUNICATIONS FACILITY: INSTALLATION OF SIX (6) PANEL ANTENNAS AND SIX (6) MICROWAVE ANTENNAS, ONE(1) GPS ANTENNA, AND ONE (1) EQUIPMENT CABINET ON ROOFTOP OF EXISTING BUILDING. Permit Expired. 17200 S VERMONT AVE","address":"17200 South Vermont Avenue, CA, Gardena, 90247, US","ct":"2912.20","ev":"N","apc":"Harbor","cpa":"Harbor Gateway","zone":"M1-1VL","solar":"N","pin_nbr":"066B197   278","use_code":"15","geolocation":"POINT (-118.29083 33.87528)","status_date":"01/16/2013","permit_group":"Building","refresh_time":"06/10/2026","type_lat_lon":"ADDRESS","business_unit":"Regular Plan Check"},"geometry":{"type":"Point","coordinates":[-118.29083,33.87528]}},{"type":"Feature","properties":{"date":"2010-11-01T00:00:00.000Z","year":2010,"description":"DEMOLITION OF 1-STORY CHURCH 3,858 SQ FT. SEE COMMENTS. ( 1 OF 4, TV=$2,328,851, BP=$27,006).building demolition.","metadescription":"Bldg-Demolition. Commercial. DEMOLITION OF 1-STORY CHURCH 3,858 SQ FT. SEE COMMENTS. ( 1 OF 4, TV=$2,328,851, BP=$27,006).building demolition.. Permit Finaled. 15134 S VERMONT AVE","address":"15134 South Vermont Avenue, CA, Gardena, 90247, US","ct":"2912.10","ev":"N","apc":"Harbor","cpa":"Harbor Gateway","zone":"M2-1VL-O","solar":"N","height":"0","pin_nbr":"072B197    96","use_code":"6","geolocation":"POINT (-118.29161 33.89366)","status_date":"04/08/2011","permit_group":"Building","refresh_time":"06/10/2026","type_lat_lon":"ADDRESS","business_unit":"Regular Plan Check","square_footage":"0"},"geometry":{"type":"Point","coordinates":[-118.29161,33.89366]}},{"type":"Feature","properties":{"date":"2010-10-27T00:00:00.000Z","year":2010,"description":"General rehabilitation (No alteration & no structural changes.) (less than 10% of replacement cost of building)","metadescription":"Bldg-Alter/Repair. 1 or 2 Family Dwelling. General rehabilitation (No alteration & no structural changes.) (less than 10% of replacement cost of building). Permit Expired. 15818 S VERMONT AVE","address":"15812 1/2 South Vermont Avenue, CA, Gardena, 90247, US","ct":"2912.10","ev":"N","apc":"Harbor","cpa":"Harbor Gateway","zone":"R1-1, R3-1","solar":"N","pin_nbr":"069B197    83","use_code":"1","geolocation":"POINT (-118.29135 33.88771)","status_date":"01/03/2013","permit_group":"Building","refresh_time":"06/10/2026","type_lat_lon":"ADDRESS","business_unit":"Express Permit"},"geometry":{"type":"Point","coordinates":[-118.29135,33.88771]}},{"type":"Feature","properties":{"date":"2010-06-03T00:00:00.000Z","year":2010,"description":"DEMOLISH 4 CAR GARAGE AND STORAGE BUILDING (HANDWRECK METHOD) FENCE AND CANOPY REQUIRED","metadescription":"Bldg-Demolition. Commercial. DEMOLISH 4 CAR GARAGE AND STORAGE BUILDING (HANDWRECK METHOD) FENCE AND CANOPY REQUIRED. Permit Finaled. 15920 S VERMONT AVE","address":"15920 South Vermont Avenue, CA, Gardena, 90247, US","ct":"2912.10","ev":"N","apc":"Harbor","cpa":"Harbor Gateway","zone":"R3-1","solar":"N","pin_nbr":"069B197   152","use_code":"7","geolocation":"POINT (-118.2913 33.88655)","status_date":"09/21/2010","permit_group":"Building","refresh_time":"06/10/2026","type_lat_lon":"ADDRESS","business_unit":"Plan Check at Counter","square_footage":"0"},"geometry":{"type":"Point","coordinates":[-118.2913,33.88655]}},{"type":"Feature","properties":{"date":"2010-02-17T00:00:00.000Z","year":2010,"description":"TI to existing telephone equipment building: NEW PARTITION FOR HOUSING NEW BATTERIES.","metadescription":"Bldg-Alter/Repair. Commercial. TI to existing telephone equipment building: NEW PARTITION FOR HOUSING NEW BATTERIES.. Permit Finaled. 17200 S VERMONT AVE","address":"17200 South Vermont Avenue, CA, Gardena, 90247, US","ct":"2912.20","ev":"N","apc":"Harbor","cpa":"Harbor Gateway","zone":"M1-1VL","solar":"N","pin_nbr":"066B197   278","use_code":"15","geolocation":"POINT (-118.29083 33.87528)","status_date":"04/19/2010","permit_group":"Building","refresh_time":"06/10/2026","type_lat_lon":"ADDRESS","business_unit":"Plan Check at Counter"},"geometry":{"type":"Point","coordinates":[-118.29083,33.87528]}},{"type":"Feature","properties":{"date":"2007-05-14T00:00:00.000Z","year":2007,"description":"Change out 10 Windows (same size and location).  Dual glazing, labeled and certified by National Fenestration Rating Council (NFRC), is required for doors and windows replaced in all residential buildings, three stories or less, per Section 152(b) of Title 24.","metadescription":"Bldg-Alter/Repair. 1 or 2 Family Dwelling. Change out 10 Windows (same size and location).  Dual glazing, labeled and certified by National Fenestration Rating Council (NFRC), is required for doors and windows replaced in all residential buildings, three stories or less, per Section 152(b) of Title 24.. Permit Expired. 16704 S VERMONT AVE","address":"16704 South Vermont Avenue, CA, Gardena, 90247, US","ct":"2912.20","ev":"N","apc":"Harbor","cpa":"Harbor Gateway","zone":"C2-1","solar":"N","pin_nbr":"066B197   104","use_code":"1","geolocation":"POINT (-118.29103 33.87928)","status_date":"12/14/2009","permit_group":"Building","refresh_time":"06/10/2026","type_lat_lon":"ADDRESS","business_unit":"Express Permit"},"geometry":{"type":"Point","coordinates":[-118.29103,33.87928]}},{"type":"Feature","properties":{"date":"2006-05-26T00:00:00.000Z","year":2006,"description":"PERMIT TO ISSUE NEW CERTIFICATE OF OCCUPANCY TO REFLECT REDUCED PARKING REQUIREMENT AS APPROVED BY ZA 2005-1893.  NO CHANGES TO BUILDING.  49 STALLS TOTAL REQUIRED.","metadescription":"Bldg-Alter/Repair. Commercial. PERMIT TO ISSUE NEW CERTIFICATE OF OCCUPANCY TO REFLECT REDUCED PARKING REQUIREMENT AS APPROVED BY ZA 2005-1893.  NO CHANGES TO BUILDING.  49 STALLS TOTAL REQUIRED.. CofO Issued. 16208 S VERMONT AVE","address":"16208 South Vermont Avenue, CA, Gardena, 90247, US","ct":"2912.10","ev":"N","apc":"Harbor","cpa":"Harbor Gateway","zone":"C2-1","solar":"N","pin_nbr":"069B197   287","use_code":"15","geolocation":"POINT (-118.29119 33.88408)","status_date":"09/17/2014","construction":"Type I-F.R. Construction","permit_group":"Building","refresh_time":"06/10/2026","type_lat_lon":"ADDRESS","business_unit":"Regular Plan Check","square_footage":"88400"},"geometry":{"type":"Point","coordinates":[-118.29119,33.88408]}},{"type":"Feature","properties":{"date":"2003-07-15T00:00:00.000Z","year":2003,"description":"ONE STORY RECREATION ROOM ADDITION TO (E) SINGLE STORY 2 CAR GARAGE. 16'-0\"x20'-0\", 294 SQ FT. ALL CONSTRUCTION PER TYPE V SHEET.","metadescription":"Bldg-Addition. 1 or 2 Family Dwelling. ONE STORY RECREATION ROOM ADDITION TO (E) SINGLE STORY 2 CAR GARAGE. 16'-0\"x20'-0\", 294 SQ FT. ALL CONSTRUCTION PER TYPE V SHEET.. Permit Finaled. 15934 S VERMONT AVE","address":"15932 South Vermont Avenue, CA, Gardena, 90247, US","ct":"2912.10","ev":"N","apc":"Harbor","cpa":"Harbor Gateway","zone":"R3-1","solar":"N","pin_nbr":"069B197   169","use_code":"7","geolocation":"POINT (-118.29128 33.88613)","status_date":"03/11/2004","construction":"Type V-N Construction","permit_group":"Building","refresh_time":"06/10/2026","type_lat_lon":"ADDRESS","business_unit":"Plan Check at Counter","square_footage":"296"},"geometry":{"type":"Point","coordinates":[-118.29128,33.88613]}},{"type":"Feature","properties":{"date":"2003-04-07T00:00:00.000Z","year":2003,"description":"COMMERCIAL AUTO TRANSMISSION REPAIR BUILDING, RE-ROOF THE FLAT ROOF W/PARAPET WALL INSTALLING CLASS \"A\" 4 PLY FIBERGLASS ROOF W/ TYPE 3 HOT ASPHALT = 50 SQS.","metadescription":"Bldg-Alter/Repair. Commercial. COMMERCIAL AUTO TRANSMISSION REPAIR BUILDING, RE-ROOF THE FLAT ROOF W/PARAPET WALL INSTALLING CLASS \"A\" 4 PLY FIBERGLASS ROOF W/ TYPE 3 HOT ASPHALT = 50 SQS.. Permit Finaled. 16320 S VERMONT AVE","address":"1-5, 16320 South Vermont Avenue, CA, Gardena, 90247, US","ct":"2912.10","ev":"N","apc":"Harbor","cpa":"Harbor Gateway","zone":"C2-1","solar":"N","pin_nbr":"069B197   367","use_code":"8","geolocation":"POINT (-118.29115 33.88269)","status_date":"04/18/2003","permit_group":"Building","refresh_time":"06/10/2026","type_lat_lon":"ADDRESS","business_unit":"Express Permit"},"geometry":{"type":"Point","coordinates":[-118.29115,33.88269]}},{"type":"Feature","properties":{"date":"2002-01-03T00:00:00.000Z","year":2002,"description":"Change of use from (e) retail to fax, copy, mail box sercices and coffee house (no pastry baking and food preparation)  No physical construction.","metadescription":"Bldg-Alter/Repair. Commercial. Change of use from (e) retail to fax, copy, mail box sercices and coffee house (no pastry baking and food preparation)  No physical construction.. Permit Finaled. 16820 S VERMONT AVE","address":"16820 South Vermont Avenue, CA, Gardena, 90247, US","ct":"2912.00","ev":"N","apc":"Harbor","zone":"C2-1","solar":"N","pin_nbr":"066B197   120","use_code":"17","geolocation":"POINT (-118.29096 33.87852)","status_date":"03/04/2002","permit_group":"Building","refresh_time":"06/10/2026","type_lat_lon":"ADDRESS","business_unit":"Regular Plan Check"},"geometry":{"type":"Point","coordinates":[-118.29096,33.87852]}},{"type":"Feature","properties":{"date":"2001-10-18T00:00:00.000Z","year":2001,"description":"T.I. FOR PACIFIC BELL TELEPHONE EQUIPMENT BUILDING TO INCLUDE WIRE-MESH PARTITION INSTALLATION AT 1ST FLOOR FOR UNMANNED TELEPHONE EQUIPMENT AREA.","metadescription":"Bldg-Alter/Repair. Commercial. T.I. FOR PACIFIC BELL TELEPHONE EQUIPMENT BUILDING TO INCLUDE WIRE-MESH PARTITION INSTALLATION AT 1ST FLOOR FOR UNMANNED TELEPHONE EQUIPMENT AREA.. Permit Finaled. 16208 S VERMONT AVE","address":"16208 South Vermont Avenue, CA, Gardena, 90247, US","ct":"2912.00","ev":"N","apc":"Harbor","zone":"C2-1","solar":"N","pin_nbr":"069B197   287","use_code":"15","geolocation":"POINT (-118.29119 33.88408)","status_date":"12/18/2001","permit_group":"Building","refresh_time":"06/10/2026","type_lat_lon":"ADDRESS","business_unit":"Plan Check at Counter"},"geometry":{"type":"Point","coordinates":[-118.29119,33.88408]}},{"type":"Feature","properties":{"date":"1999-06-23T00:00:00.000Z","year":1999,"description":"ADD 665 SQ. FT. ADDITION, 1 STY. ENGINE ROOM - EQUIPMENT BUILDING, H /C EXEMPT","metadescription":"Bldg-Addition. Commercial. ADD 665 SQ. FT. ADDITION, 1 STY. ENGINE ROOM - EQUIPMENT BUILDING, H /C EXEMPT. Permit Finaled. 17200 S VERMONT AVE","address":"17200 South Vermont Avenue, CA, Gardena, 90247, US","ct":"2912.10","ev":"N","apc":"Harbor","zone":"M1-1VL","solar":"N","pin_nbr":"066B197   278","use_code":"15","geolocation":"POINT (-118.29083 33.87528)","status_date":"10/19/2000","construction":"Type I-F.R. Construction","permit_group":"Building","refresh_time":"06/10/2026","type_lat_lon":"ADDRESS","business_unit":"Regular Plan Check"},"geometry":{"type":"Point","coordinates":[-118.29083,33.87528]}},{"type":"Feature","properties":{"date":"1997-01-16T00:00:00.000Z","year":1997,"description":"Partial re-roofing, remodel mechanical chiller room, new mechanical evap. cooler platform on the roof of Pacific Bell telephone equip. building.","metadescription":"Bldg-Alter/Repair. Commercial. Partial re-roofing, remodel mechanical chiller room, new mechanical evap. cooler platform on the roof of Pacific Bell telephone equip. building.. Permit Finaled. 16208 S VERMONT AVE","address":"16208 South Vermont Avenue, CA, Gardena, 90247, US","ct":"2912.00","ev":"N","apc":"Harbor","zone":"C2-1, R3-1","solar":"N","pin_nbr":"069B197   287","use_code":"15","geolocation":"POINT (-118.29119 33.88408)","status_date":"12/29/1999","permit_group":"Building","refresh_time":"06/10/2026","type_lat_lon":"ADDRESS","business_unit":"Regular Plan Check"},"geometry":{"type":"Point","coordinates":[-118.29119,33.88408]}}]}
