{"type":"FeatureCollection","features":[{"type":"Feature","properties":{"date":"2005-05-06T00:00:00.000Z","year":2005,"description":"T/O, INSTALL 1/2\" PLYWOOD TO ROOF DECK, INSTALL 1 LAYER OF 15LB. FELT COVER W/30YR. COMP. SHING. 22SQRS. SFD/GAR","metadescription":"Bldg-Alter/Repair. 1 or 2 Family Dwelling. T/O, INSTALL 1/2\" PLYWOOD TO ROOF DECK, INSTALL 1 LAYER OF 15LB. FELT COVER W/30YR. COMP. SHING. 22SQRS. SFD/GAR. Permit Finaled. 861 W 173RD ST","address":"857 West 173Rd Street, CA, Gardena, 90247, US","ct":"2912.20","ev":"N","apc":"Harbor","cpa":"Harbor Gateway","zone":"R1-1","solar":"N","pin_nbr":"066B197   340","use_code":"1","geolocation":"POINT (-118.29008 33.87402)","status_date":"06/19/2006","permit_group":"Building","refresh_time":"06/10/2026","type_lat_lon":"ADDRESS","business_unit":"Express Permit"},"geometry":{"type":"Point","coordinates":[-118.29008,33.87402]}}]}
