{"type":"FeatureCollection","features":[{"type":"Feature","properties":{"date":"2024-04-12T00:00:00.000Z","year":2024,"description":"Supplemental permit to 24016 - 10000 - 05599: Change of fireplace Flue exiting instead of from the wall to through the ROOF per engineer","metadescription":"Bldg-Alter/Repair. 1 or 2 Family Dwelling. Supplemental permit to 24016 - 10000 - 05599: Change of fireplace Flue exiting instead of from the wall to through the ROOF per engineer. Issued. 818 W 148TH ST","address":"812 West 148Th Street, CA, Gardena, 90247, US","ct":"2911.30","ev":"N","apc":"Harbor","cpa":"Harbor Gateway","zone":"R1-1","solar":"N","pin_nbr":"075B197   466","use_code":"1","status_date":"04/12/2024","permit_group":"Building","refresh_time":"06/10/2026","type_lat_lon":"ADDRESS","business_unit":"Plan Check at Counter"},"geometry":{"type":"Point","coordinates":[-118.28992,33.89812]}},{"type":"Feature","properties":{"date":"2024-02-23T00:00:00.000Z","year":2024,"description":"eplan:EXTERIOR AND INTERIOR ALTERATION TO INSTALL NEW GAS FIREPLACE IN EXISTING SINGLE FAMILY DEWLLING WITH ATTACHED GARAGE","metadescription":"Bldg-Alter/Repair. 1 or 2 Family Dwelling. eplan:EXTERIOR AND INTERIOR ALTERATION TO INSTALL NEW GAS FIREPLACE IN EXISTING SINGLE FAMILY DEWLLING WITH ATTACHED GARAGE. Permit Finaled. 818 W 148TH ST","address":"812 West 148Th Street, CA, Gardena, 90247, US","ct":"2911.30","ev":"N","apc":"Harbor","cpa":"Harbor Gateway","zone":"R1-1","solar":"N","pin_nbr":"075B197   466","use_code":"1","status_date":"07/17/2024","permit_group":"Building","refresh_time":"06/10/2026","type_lat_lon":"ADDRESS","business_unit":"Plan Check at Counter"},"geometry":{"type":"Point","coordinates":[-118.28992,33.89812]}},{"type":"Feature","properties":{"date":"2019-10-03T00:00:00.000Z","year":2019,"description":"Reroof with Class A or B material weighing less than 6 pounds per sq.ft. over existing solid sheating 24 squares.  Class A roof covering is required within Very High Fire Hazard Severity Zone (VHFHSZ).  For residential roof replacement>50% of the total roof area, apply Cool Roof Product labeled and certified by Cool Roof Rating Council (CRRC).  Cool Roof may be required for non-residential builldings per Title 24, Part 6, Section 141.0(b)2B.","metadescription":"Bldg-Alter/Repair. 1 or 2 Family Dwelling. Reroof with Class A or B material weighing less than 6 pounds per sq.ft. over existing solid sheating 24 squares.  Class A roof covering is required within Very High Fire Hazard Severity Zone (VHFHSZ).  For residential roof replacement>50% of the total roof area, apply Cool Roof Product labeled and certified by Cool Roof Rating Council (CRRC).  Cool Roof may be required for non-residential builldings per Title 24, Part 6, Section 141.0(b)2B.. Permit Finaled. 832 W 173RD ST","address":"828 West 173Rd Street, CA, Gardena, 90247, US","ct":"2912.20","ev":"N","apc":"Harbor","cpa":"Harbor Gateway","zone":"R1-1","solar":"N","pin_nbr":"066B197   328","use_code":"1","geolocation":"POINT (-118.28914 33.87432)","status_date":"10/30/2019","permit_group":"Building","refresh_time":"06/10/2026","type_lat_lon":"ADDRESS","business_unit":"Express Permit"},"geometry":{"type":"Point","coordinates":[-118.28914,33.87432]}},{"type":"Feature","properties":{"date":"2019-09-04T00:00:00.000Z","year":2019,"description":"Re-roof with Class A or B material weighing less than 6 pounds per sq. ft. over existing solid sheathing ___30___Squares. Class A roof covering is required within Very High Fire Hazard Severity Zone (VHFHSZ). For residential roof replacement > 50% of the total roof area, apply Cool Roof Product labeled and certified by Cool Roof Rating Council (CRRC). Cool Roof may be required for non-residential buildings per Title 24, Part 6, Section 141.0(b)2B.   (Single Inspection) COASTAL ZONE ADDD GARAGE","metadescription":"Bldg-Alter/Repair. 1 or 2 Family Dwelling. Re-roof with Class A or B material weighing less than 6 pounds per sq. ft. over existing solid sheathing ___30___Squares. Class A roof covering is required within Very High Fire Hazard Severity Zone (VHFHSZ). For residential roof replacement > 50% of the total roof area, apply Cool Roof Product labeled and certified by Cool Roof Rating Council (CRRC). Cool Roof may be required for non-residential buildings per Title 24, Part 6, Section 141.0(b)2B.   (Single Inspection) COASTAL ZONE ADDD GARAGE. Permit Finaled. 822 W REDONDO BEACH BLVD","address":"822 West Redondo Beach Boulevard, CA, Gardena, 90247, US","ct":"2912.10","ev":"N","apc":"Harbor","cpa":"Harbor Gateway","zone":"R3-1","solar":"N","pin_nbr":"072B197   134","use_code":"1","geolocation":"POINT (-118.29034 33.89234)","status_date":"09/27/2019","permit_group":"Building","refresh_time":"06/10/2026","type_lat_lon":"ADDRESS","business_unit":"Express Permit"},"geometry":{"type":"Point","coordinates":[-118.29034,33.89234]}},{"type":"Feature","properties":{"date":"2019-06-18T00:00:00.000Z","year":2019,"description":"Re-roof with Class A or B material weighing less than 6 pounds per sq. ft. over existing solid sheathing __26____Squares. Class A roof covering is required within Very High Fire Hazard Severity Zone (VHFHSZ). For residential roof replacement > 50% of the total roof area, apply Cool Roof Product labeled and certified by Cool Roof Rating Council (CRRC). Cool Roof may be required for non-residential buildings per Title 24, Part 6, Section 141.0(b) 2B.","metadescription":"Bldg-Alter/Repair. 1 or 2 Family Dwelling. Re-roof with Class A or B material weighing less than 6 pounds per sq. ft. over existing solid sheathing __26____Squares. Class A roof covering is required within Very High Fire Hazard Severity Zone (VHFHSZ). For residential roof replacement > 50% of the total roof area, apply Cool Roof Product labeled and certified by Cool Roof Rating Council (CRRC). Cool Roof may be required for non-residential buildings per Title 24, Part 6, Section 141.0(b) 2B.. Permit Finaled. 711 W 173RD PL","address":"711 West 173Rd Place, CA, Gardena, 90247, US","ct":"2912.20","ev":"N","apc":"Harbor","cpa":"Harbor Gateway","zone":"R1-1","solar":"N","pin_nbr":"066B197   358","use_code":"1","geolocation":"POINT (-118.28892 33.87358)","status_date":"07/01/2019","permit_group":"Building","refresh_time":"06/10/2026","type_lat_lon":"ADDRESS","business_unit":"Express Permit"},"geometry":{"type":"Point","coordinates":[-118.28892,33.87358]}},{"type":"Feature","properties":{"date":"2019-05-29T00:00:00.000Z","year":2019,"description":"Re-roof with Class A or B material weighing less than 6 pounds per sq. ft. over existing solid sheathing 30 Squares. Class A roof covering is required within Very High Fire Hazard Severity Zone (VHFHSZ). For residential roof replacement > 50% of the total roof area, apply Cool Roof Product labeled and certified by Cool Roof Rating Council (CRRC). Cool Roof may be required for non-residential buildings per Title 24, Part 6, Section 149(b).","metadescription":"Bldg-Alter/Repair. 1 or 2 Family Dwelling. Re-roof with Class A or B material weighing less than 6 pounds per sq. ft. over existing solid sheathing 30 Squares. Class A roof covering is required within Very High Fire Hazard Severity Zone (VHFHSZ). For residential roof replacement > 50% of the total roof area, apply Cool Roof Product labeled and certified by Cool Roof Rating Council (CRRC). Cool Roof may be required for non-residential buildings per Title 24, Part 6, Section 149(b).. Permit Finaled. 18215 S DALTON AVE","address":"18215 South Dalton Avenue, CA, Gardena, 90248, US","ct":"2913.00","ev":"N","apc":"Harbor","cpa":"Harbor Gateway","zone":"R1-1","solar":"N","pin_nbr":"063B193   251","use_code":"1","geolocation":"POINT (-118.30374 33.86514)","status_date":"10/31/2019","permit_group":"Building","refresh_time":"06/10/2026","type_lat_lon":"ADDRESS","business_unit":"Express Permit"},"geometry":{"type":"Point","coordinates":[-118.30374,33.86514]}},{"type":"Feature","properties":{"date":"2016-08-29T00:00:00.000Z","year":2016,"description":"CHANGE OF USE FROM OFFICE TO TATOO STUDIO AND FIRE DAMAGE REPAIR.","metadescription":"Bldg-Alter/Repair. Commercial. CHANGE OF USE FROM OFFICE TO TATOO STUDIO AND FIRE DAMAGE REPAIR.. CofO Issued. 15400 S VERMONT AVE","address":"15400 South Vermont Avenue, CA, Gardena, 90247, US","ct":"2912.10","ev":"N","apc":"Harbor","cpa":"Harbor Gateway","zone":"[Q]C2-1","solar":"N","pin_nbr":"072B197   187","use_code":"16","geolocation":"POINT (-118.29148 33.89154)","status_date":"05/26/2017","construction":"Type V-B Construction","permit_group":"Building","refresh_time":"06/10/2026","type_lat_lon":"ADDRESS","business_unit":"Expanded Counter Plan Check"},"geometry":{"type":"Point","coordinates":[-118.29148,33.89154]}},{"type":"Feature","properties":{"date":"2013-11-20T00:00:00.000Z","year":2013,"description":"Supplemental permit to permit #12010-10000-02334 for the bulletin #4 to revise stair landing clearance, ceiling plans, location of fire riser door, edge of concrete slab, and change of floor finish legend.","metadescription":"Bldg-Alter/Repair. Apartment. Supplemental permit to permit #12010-10000-02334 for the bulletin #4 to revise stair landing clearance, ceiling plans, location of fire riser door, edge of concrete slab, and change of floor finish legend.. Permit Finaled. 1302 W 177TH ST 104-207-(Bldg D)","address":"1330 West 177Th Street, CA, Gardena, 90248, US","ct":"2913.00","ev":"N","apc":"Harbor","cpa":"Harbor Gateway","zone":"[Q]PF-1XL","solar":"N","pin_nbr":"063B197    93","use_code":"5","geolocation":"POINT (-118.29684 33.86988)","status_date":"11/18/2014","permit_group":"Building","refresh_time":"06/10/2026","type_lat_lon":"ADDRESS","business_unit":"Plan Check at Counter"},"geometry":{"type":"Point","coordinates":[-118.29684,33.86988]}},{"type":"Feature","properties":{"date":"2013-11-20T00:00:00.000Z","year":2013,"description":"Supplemental permit to permit #12010-10000-02333 for the bulletin #4 to revise stair landing clearance, ceiling plans, location of fire riser door, edge of concrete slab, and change of floor finish legend.","metadescription":"Bldg-Alter/Repair. Apartment. Supplemental permit to permit #12010-10000-02333 for the bulletin #4 to revise stair landing clearance, ceiling plans, location of fire riser door, edge of concrete slab, and change of floor finish legend.. Permit Finaled. 1302 W 177TH ST 160-267-(Bldg C)","address":"1330 West 177Th Street, CA, Gardena, 90248, US","ct":"2913.00","ev":"N","apc":"Harbor","cpa":"Harbor Gateway","zone":"[Q]PF-1XL","solar":"N","pin_nbr":"063B197    93","use_code":"5","geolocation":"POINT (-118.29684 33.86988)","status_date":"12/26/2014","permit_group":"Building","refresh_time":"06/10/2026","type_lat_lon":"ADDRESS","business_unit":"Plan Check at Counter"},"geometry":{"type":"Point","coordinates":[-118.29684,33.86988]}},{"type":"Feature","properties":{"date":"2013-11-20T00:00:00.000Z","year":2013,"description":"Supplemental permit to permit #12010-10000-02332 for the bulletin #4 to revise stair landing clearance, ceiling plans, location of fire riser door, edge of concrete slab, and change of floor finish legend.","metadescription":"Bldg-Alter/Repair. Apartment. Supplemental permit to permit #12010-10000-02332 for the bulletin #4 to revise stair landing clearance, ceiling plans, location of fire riser door, edge of concrete slab, and change of floor finish legend.. Permit Finaled. 1302 W 177TH ST 120-330-(Bldg B)","address":"1330 West 177Th Street, CA, Gardena, 90248, US","ct":"2913.00","ev":"N","apc":"Harbor","cpa":"Harbor Gateway","zone":"[Q]PF-1XL","solar":"N","pin_nbr":"063B197    93","use_code":"5","geolocation":"POINT (-118.29684 33.86988)","status_date":"11/20/2014","permit_group":"Building","refresh_time":"06/10/2026","type_lat_lon":"ADDRESS","business_unit":"Plan Check at Counter"},"geometry":{"type":"Point","coordinates":[-118.29684,33.86988]}},{"type":"Feature","properties":{"date":"2013-11-20T00:00:00.000Z","year":2013,"description":"Supplemental permit to permit #12010-10000-02330 for the bulletin #4 to revise stair landing clearance, ceiling plans, location of fire riser door, edge of concrete slab, and change of floor finish legend.","metadescription":"Bldg-Alter/Repair. Apartment. Supplemental permit to permit #12010-10000-02330 for the bulletin #4 to revise stair landing clearance, ceiling plans, location of fire riser door, edge of concrete slab, and change of floor finish legend.. Permit Finaled. 1302 W 177TH ST 140-350-(BLDG A)","address":"1330 West 177Th Street, CA, Gardena, 90248, US","ct":"2913.00","ev":"N","apc":"Harbor","cpa":"Harbor Gateway","zone":"[Q]PF-1XL","solar":"N","pin_nbr":"063B197    93","use_code":"5","geolocation":"POINT (-118.29684 33.86988)","status_date":"12/26/2014","permit_group":"Building","refresh_time":"06/10/2026","type_lat_lon":"ADDRESS","business_unit":"Plan Check at Counter"},"geometry":{"type":"Point","coordinates":[-118.29684,33.86988]}},{"type":"Feature","properties":{"date":"2013-04-03T00:00:00.000Z","year":2013,"description":"Construct new one-story, Type II-B, Juvenile Impact Program Shelter by LAPD (Building F). NFPA-13 Automatic fire sprinkler throughout.","metadescription":"Bldg-New. Commercial. Construct new one-story, Type II-B, Juvenile Impact Program Shelter by LAPD (Building F). NFPA-13 Automatic fire sprinkler throughout.. CofO Issued. 1300 W 177TH ST","address":"1300 West 177Th Street, CA, Gardena, 90248, US","ct":"2913.00","ev":"N","apc":"Harbor","cpa":"Harbor Gateway","zone":"[Q]PF-1XL","solar":"N","height":"14.25","pin_nbr":"063B197    93","use_code":"14","geolocation":"POINT (-118.29542 33.87031)","status_date":"12/30/2014","construction":"Type II-B Construction","permit_group":"Building","refresh_time":"06/10/2026","type_lat_lon":"ADDRESS","business_unit":"Regular Plan Check","square_footage":"1753"},"geometry":{"type":"Point","coordinates":[-118.29542,33.87031]}},{"type":"Feature","properties":{"date":"2013-04-03T00:00:00.000Z","year":2013,"description":"Construct new one-story, Type V-B, community room and gallery building (Building E). NFPA-13 Automatic fire sprinkler throughout.","metadescription":"Bldg-New. Commercial. Construct new one-story, Type V-B, community room and gallery building (Building E). NFPA-13 Automatic fire sprinkler throughout.. CofO Issued. 1304 W 177TH ST","address":"1304 West 177Th Street, CA, Gardena, 90248, US","ct":"2913.00","ev":"N","apc":"Harbor","cpa":"Harbor Gateway","zone":"[Q]PF-1XL","solar":"N","height":"20","pin_nbr":"063B197    93","use_code":"4","geolocation":"POINT (-118.29575 33.87019)","status_date":"01/16/2015","construction":"Type V-B Construction","permit_group":"Building","refresh_time":"06/10/2026","type_lat_lon":"ADDRESS","business_unit":"Regular Plan Check","square_footage":"2909"},"geometry":{"type":"Point","coordinates":[-118.29575,33.87019]}},{"type":"Feature","properties":{"date":"2013-04-03T00:00:00.000Z","year":2013,"description":"Construct new two-story, Type V-A, 10-unit apartment building (Building D) with community room, fitness, residential office and laundry room. NFPA-13R Automatic fire sprinkler throughout.","metadescription":"Bldg-New. Apartment. Construct new two-story, Type V-A, 10-unit apartment building (Building D) with community room, fitness, residential office and laundry room. NFPA-13R Automatic fire sprinkler throughout.. CofO Issued. 1310 W 177TH ST","address":"1310 West 177Th Street, CA, Gardena, 90248, US","ct":"2913.00","ev":"N","apc":"Harbor","cpa":"Harbor Gateway","zone":"[Q]PF-1XL","solar":"N","height":"27.75","pin_nbr":"063B197    93","use_code":"5","geolocation":"POINT (-118.29657 33.87023)","status_date":"12/30/2014","construction":"Type V-A Construction","permit_group":"Building","refresh_time":"06/10/2026","type_lat_lon":"ADDRESS","business_unit":"Regular Plan Check","square_footage":"18420"},"geometry":{"type":"Point","coordinates":[-118.29657,33.87023]}},{"type":"Feature","properties":{"date":"2013-04-03T00:00:00.000Z","year":2013,"description":"Construct new three story, Type V-A, 33-unit apartment building (Building A). NFPA-13 Automatic fire sprinkler throughout for story increase.","metadescription":"Bldg-New. Apartment. Construct new three story, Type V-A, 33-unit apartment building (Building A). NFPA-13 Automatic fire sprinkler throughout for story increase.. CofO Issued. 1320 W 177TH ST","address":"1320 West 177Th Street, CA, Gardena, 90248, US","ct":"2913.00","ev":"N","apc":"Harbor","cpa":"Harbor Gateway","zone":"[Q]PF-1XL","solar":"N","height":"37.75","pin_nbr":"063B197    93","use_code":"5","geolocation":"POINT (-118.29724 33.87026)","status_date":"12/30/2014","construction":"Type V-A Construction","permit_group":"Building","refresh_time":"06/10/2026","type_lat_lon":"ADDRESS","business_unit":"Regular Plan Check","square_footage":"35216"},"geometry":{"type":"Point","coordinates":[-118.29724,33.87026]}},{"type":"Feature","properties":{"date":"2013-04-03T00:00:00.000Z","year":2013,"description":"Construct new two-story, Type V-A, 14-unit apartment building (Building C). NFPA-13R Automatic fire sprinkler throughout.","metadescription":"Bldg-New. Apartment. Construct new two-story, Type V-A, 14-unit apartment building (Building C). NFPA-13R Automatic fire sprinkler throughout.. CofO Issued. 1340 W 177TH ST","address":"1340 West 177Th Street, CA, Gardena, 90248, US","ct":"2913.00","ev":"N","apc":"Harbor","cpa":"Harbor Gateway","zone":"[Q]PF-1XL","solar":"N","height":"27.75","pin_nbr":"063B197    93","use_code":"5","geolocation":"POINT (-118.29781 33.87019)","status_date":"12/30/2014","construction":"Type V-A Construction","permit_group":"Building","refresh_time":"06/10/2026","type_lat_lon":"ADDRESS","business_unit":"Regular Plan Check","square_footage":"18794"},"geometry":{"type":"Point","coordinates":[-118.29781,33.87019]}},{"type":"Feature","properties":{"date":"2013-04-03T00:00:00.000Z","year":2013,"description":"Construct new three-story, Type V-A, 33-unit apartment building (Building B). NFPA-13 Automatic fire sprinkler throughout for story increase.","metadescription":"Bldg-New. Apartment. Construct new three-story, Type V-A, 33-unit apartment building (Building B). NFPA-13 Automatic fire sprinkler throughout for story increase.. CofO Issued. 1330 W 177TH ST","address":"1330 West 177Th Street, CA, Gardena, 90248, US","ct":"2913.00","ev":"N","apc":"Harbor","cpa":"Harbor Gateway","zone":"[Q]PF-1XL","solar":"N","height":"37.75","pin_nbr":"063B197    93","use_code":"5","geolocation":"POINT (-118.29724 33.87)","status_date":"12/30/2014","construction":"Type V-A Construction","permit_group":"Building","refresh_time":"06/10/2026","type_lat_lon":"ADDRESS","business_unit":"Regular Plan Check","square_footage":"35216"},"geometry":{"type":"Point","coordinates":[-118.29724,33.87]}},{"type":"Feature","properties":{"date":"2004-08-10T00:00:00.000Z","year":2004,"description":"NEW 35' TALL FLAG POLE FOR  FIRE STATION # 79 (FLAG SIZE 5'X8').","metadescription":"Nonbldg-New. Commercial. NEW 35' TALL FLAG POLE FOR  FIRE STATION # 79 (FLAG SIZE 5'X8').. Permit Finaled. 18030 S VERMONT AVE","address":"18020 South Vermont Avenue, CA, Gardena, 90248, US","ct":"2913.00","ev":"N","apc":"Harbor","cpa":"Harbor Gateway","zone":"M2-1","solar":"N","pin_nbr":"063B197   149","use_code":"23","geolocation":"POINT (-118.29039 33.8677)","status_date":"09/23/2004","permit_group":"Building","refresh_time":"06/10/2026","type_lat_lon":"ADDRESS","business_unit":"Plan Check at Counter"},"geometry":{"type":"Point","coordinates":[-118.29039,33.8677]}},{"type":"Feature","properties":{"date":"2004-06-17T00:00:00.000Z","year":2004,"description":"19' X 33'  & 13.5' X 15'  ADDITIONS  FOR DORMITORY & LOCKER  ROOMS  TO  AN EXISTING  FIRE STATION.","metadescription":"Bldg-Addition. Commercial. 19' X 33'  & 13.5' X 15'  ADDITIONS  FOR DORMITORY & LOCKER  ROOMS  TO  AN EXISTING  FIRE STATION.. Permit Finaled. 18030 S VERMONT AVE","address":"18020 South Vermont Avenue, CA, Gardena, 90248, US","ct":"2913.00","ev":"N","apc":"Harbor","cpa":"Harbor Gateway","zone":"M2-1","solar":"N","pin_nbr":"063B197   149","use_code":"14","geolocation":"POINT (-118.29039 33.8677)","status_date":"03/04/2005","construction":"Type V-N Construction","permit_group":"Building","refresh_time":"06/10/2026","type_lat_lon":"ADDRESS","business_unit":"Regular Plan Check","square_footage":"830"},"geometry":{"type":"Point","coordinates":[-118.29039,33.8677]}},{"type":"Feature","properties":{"date":"1999-12-06T00:00:00.000Z","year":1999,"description":"CONVERT PORTION OF EXISTING LOCKER ROOM TO WOMEN'S LOCKER ROOM W/ TOILET & SHOWER FOR UNIFORMED PERSONS AT FIRE STATION #79.","metadescription":"Bldg-Alter/Repair. Commercial. CONVERT PORTION OF EXISTING LOCKER ROOM TO WOMEN'S LOCKER ROOM W/ TOILET & SHOWER FOR UNIFORMED PERSONS AT FIRE STATION #79.. Permit Finaled. 18030 S VERMONT AVE","address":"18020 South Vermont Avenue, CA, Gardena, 90248, US","ct":"2913.00","ev":"N","apc":"Harbor","zone":"M2-1","solar":"N","pin_nbr":"063B197   149","use_code":"14","geolocation":"POINT (-118.29039 33.8677)","status_date":"10/18/2002","permit_group":"Building","refresh_time":"06/10/2026","type_lat_lon":"ADDRESS","business_unit":"Plan Check at Counter"},"geometry":{"type":"Point","coordinates":[-118.29039,33.8677]}}]}
