{"type":"FeatureCollection","features":[{"type":"Feature","properties":{"date":"2022-11-21T00:00:00.000Z","year":2022,"description":"UPGRADE EXISTING FOUNDATION.","metadescription":"Bldg-Alter/Repair. 1 or 2 Family Dwelling. UPGRADE EXISTING FOUNDATION.. Permit Finaled. 1570 W 182ND ST","address":"1570 West 182Nd Street, CA, Gardena, 90248, US","ct":"2913.00","ev":"N","apc":"Harbor","cpa":"Harbor Gateway","zone":"R1-1","solar":"N","pin_nbr":"063B193   228","use_code":"1","status_date":"01/18/2023","permit_group":"Building","refresh_time":"06/10/2026","type_lat_lon":"ADDRESS","business_unit":"Plan Check at Counter"},"geometry":{"type":"Point","coordinates":[-118.30498,33.8654]}},{"type":"Feature","properties":{"date":"2018-08-14T00:00:00.000Z","year":2018,"description":"Supplemental to 18016-40000-15694 to include two pad foundations per engineered design.  No change in plot plan.","metadescription":"Bldg-Alter/Repair. 1 or 2 Family Dwelling. Supplemental to 18016-40000-15694 to include two pad foundations per engineered design.  No change in plot plan.. Permit Finaled. 15331 S AINSWORTH ST","address":"15331 South Ainsworth Street, CA, Gardena, 90247, US","ct":"2912.10","ev":"N","apc":"Harbor","cpa":"Harbor Gateway","zone":"R1-1","solar":"N","pin_nbr":"072B197   196","use_code":"1","geolocation":"POINT (-118.2907 33.89157)","status_date":"11/05/2018","permit_group":"Building","refresh_time":"06/10/2026","type_lat_lon":"ADDRESS","business_unit":"Plan Check at Counter"},"geometry":{"type":"Point","coordinates":[-118.2907,33.89157]}},{"type":"Feature","properties":{"date":"2018-06-11T00:00:00.000Z","year":2018,"description":"VOLUNARY FOUNDATION BOLTING ALL EXTERIOR FOOTING OF DWELLING PER CITY STANDARD PLAN #1, DETAIL#  2a, 3 & 7","metadescription":"Bldg-Alter/Repair. 1 or 2 Family Dwelling. VOLUNARY FOUNDATION BOLTING ALL EXTERIOR FOOTING OF DWELLING PER CITY STANDARD PLAN #1, DETAIL#  2a, 3 & 7. Permit Finaled. 15331 S AINSWORTH ST","address":"15331 South Ainsworth Street, CA, Gardena, 90247, US","ct":"2912.10","ev":"N","apc":"Harbor","cpa":"Harbor Gateway","zone":"R1-1","solar":"N","pin_nbr":"072B197   183","use_code":"1","geolocation":"POINT (-118.2907 33.89157)","status_date":"07/09/2018","permit_group":"Building","refresh_time":"06/10/2026","type_lat_lon":"ADDRESS","business_unit":"Plan Check at Counter"},"geometry":{"type":"Point","coordinates":[-118.2907,33.89157]}},{"type":"Feature","properties":{"date":"2013-05-16T00:00:00.000Z","year":2013,"description":"INSTALLATION OF (5) 25'-6\"X7'-8\"X10\" FOUNDATION PAD AND ANCHORAGE SUPPORTING FUEL CELLS FOR COMMERCIAL OFFICE. [SEE COMMENTS]","metadescription":"Nonbldg-New. Commercial. INSTALLATION OF (5) 25'-6\"X7'-8\"X10\" FOUNDATION PAD AND ANCHORAGE SUPPORTING FUEL CELLS FOR COMMERCIAL OFFICE. [SEE COMMENTS]. CofO Issued. 17200 S VERMONT AVE","address":"17200 South Vermont Avenue, CA, Gardena, 90247, US","ct":"2912.20","ev":"N","apc":"Harbor","cpa":"Harbor Gateway","zone":"M1-1VL","solar":"N","pin_nbr":"066B197   278","use_code":"23","geolocation":"POINT (-118.29083 33.87528)","status_date":"07/08/2013","permit_group":"Building","refresh_time":"06/10/2026","type_lat_lon":"ADDRESS","business_unit":"Regular Plan Check","square_footage":"0"},"geometry":{"type":"Point","coordinates":[-118.29083,33.87528]}},{"type":"Feature","properties":{"date":"2012-03-19T00:00:00.000Z","year":2012,"description":"CHAIN LINK FENCE FOUNDATION at   baseball and   soccer    fields (  20'  high  and  length = 450', 12'  high  and length  =325'","metadescription":"Nonbldg-New. Commercial. CHAIN LINK FENCE FOUNDATION at   baseball and   soccer    fields (  20'  high  and  length = 450', 12'  high  and length  =325'. Permit Finaled. 840 W 149TH ST","address":"840 West 149Th Street, CA, Gardena, 90247, US","ct":"2911.30","ev":"N","apc":"Harbor","cpa":"Harbor Gateway","zone":"OS-1XL","solar":"N","pin_nbr":"072B197    30","use_code":"23","geolocation":"POINT (-118.29128 33.89677)","status_date":"01/17/2014","permit_group":"Building","refresh_time":"06/10/2026","type_lat_lon":"ADDRESS","business_unit":"Regular Plan Check"},"geometry":{"type":"Point","coordinates":[-118.29128,33.89677]}},{"type":"Feature","properties":{"date":"2006-06-14T00:00:00.000Z","year":2006,"description":"TO ACKNOWLEDGE CONSTRUCTION OF CMU BLOCK WALL UNDER APPLICATION # 06020-40000-02225 ON REAR PROPERTY LINE HAVING PART OF WALL AND FOUNDATION ON OWN PROPERTY.","metadescription":"Nonbldg-New. 1 or 2 Family Dwelling. TO ACKNOWLEDGE CONSTRUCTION OF CMU BLOCK WALL UNDER APPLICATION # 06020-40000-02225 ON REAR PROPERTY LINE HAVING PART OF WALL AND FOUNDATION ON OWN PROPERTY.. Permit Expired. 825 W 149TH ST","address":"825 West 149Th Street, CA, Gardena, 90247, US","ct":"2911.30","ev":"N","apc":"Harbor","cpa":"Harbor Gateway","zone":"R1-1","solar":"N","height":"6","pin_nbr":"072B197    14","use_code":"23","geolocation":"POINT (-118.29007 33.89693)","status_date":"10/13/2008","permit_group":"Building","refresh_time":"06/10/2026","type_lat_lon":"ADDRESS","business_unit":"Plan Check at Counter"},"geometry":{"type":"Point","coordinates":[-118.29007,33.89693]}},{"type":"Feature","properties":{"date":"2006-06-14T00:00:00.000Z","year":2006,"description":"TO ACKNOWLEDGE CONSTRUCTION OF CMU BLOCK WALL UNDER APPLICATION # 06020-40000-02225 ON REAR PROPERTY LINE HAVING PART OF WALL AND FOUNDATION ON OWN PROPERTY.","metadescription":"Nonbldg-New. 1 or 2 Family Dwelling. TO ACKNOWLEDGE CONSTRUCTION OF CMU BLOCK WALL UNDER APPLICATION # 06020-40000-02225 ON REAR PROPERTY LINE HAVING PART OF WALL AND FOUNDATION ON OWN PROPERTY.. Permit Expired. 821 W 149TH ST","address":"821 West 149Th Street, CA, Gardena, 90247, US","ct":"2911.30","ev":"N","apc":"Harbor","cpa":"Harbor Gateway","zone":"R1-1","solar":"N","height":"6","pin_nbr":"072B197    21","use_code":"23","geolocation":"POINT (-118.2899 33.89689)","status_date":"01/09/2008","permit_group":"Building","refresh_time":"06/10/2026","type_lat_lon":"ADDRESS","business_unit":"Plan Check at Counter"},"geometry":{"type":"Point","coordinates":[-118.2899,33.89689]}},{"type":"Feature","properties":{"date":"2000-06-16T00:00:00.000Z","year":2000,"description":"ADD 30'X22' WORKSHOP TO EXIST STORAGE AND CARPORT AND CONVERT PORTION OF STORAGE TO WORKSHOP. ALSO REPLACE FOUNDATION ON EXISTING STORAGE.","metadescription":"Bldg-Addition. 1 or 2 Family Dwelling. ADD 30'X22' WORKSHOP TO EXIST STORAGE AND CARPORT AND CONVERT PORTION OF STORAGE TO WORKSHOP. ALSO REPLACE FOUNDATION ON EXISTING STORAGE.. Permit Finaled. 15327 S AINSWORTH ST","address":"15331 South Ainsworth Street, CA, Gardena, 90247, US","ct":"2912.00","ev":"N","apc":"Harbor","zone":"R1-1","solar":"N","pin_nbr":"072B197   176","use_code":"7","geolocation":"POINT (-118.29071 33.8917)","status_date":"10/27/2000","construction":"Type V-N Construction","permit_group":"Building","refresh_time":"06/10/2026","type_lat_lon":"ADDRESS","business_unit":"Plan Check at Counter","square_footage":"660"},"geometry":{"type":"Point","coordinates":[-118.29071,33.8917]}}]}
