{"type":"FeatureCollection","features":[{"type":"Feature","properties":{"date":"2019-08-07T00:00:00.000Z","year":2019,"description":"WINDOIWS(6) AND DOOR CHANGE  OUT (SAME SIZE&TYPE) FOR RESIDENTIAL BUILDINGS.  DUAL GLAZING, LABELED AND CERTIFIED BY NATIONAL FENESTRATION RATING COUNCIL (NFRC), IS REQUIRED FOR DOORS AND WINDOWS REPLACED IN ALL RESIDENTIAL BUILDINGS, THREE STORIES OR LESS, PER SECTION 150.2(b)1B","metadescription":"Bldg-Alter/Repair. 1 or 2 Family Dwelling. WINDOIWS(6) AND DOOR CHANGE  OUT (SAME SIZE&TYPE) FOR RESIDENTIAL BUILDINGS.  DUAL GLAZING, LABELED AND CERTIFIED BY NATIONAL FENESTRATION RATING COUNCIL (NFRC), IS REQUIRED FOR DOORS AND WINDOWS REPLACED IN ALL RESIDENTIAL BUILDINGS, THREE STORIES OR LESS, PER SECTION 150.2(b)1B. Issued. 18203 S DALTON AVE","address":"18203 S DALTON AVE","ct":"2913.00","ev":"N","apc":"Harbor","cpa":"Harbor Gateway","zone":"R1-1","solar":"N","pin_nbr":"063B193   217","use_code":"1","geolocation":"POINT (-118.30373 33.86535)","status_date":"08/07/2019","permit_group":"Building","refresh_time":"06/10/2026","type_lat_lon":"ADDRESS","business_unit":"Express Permit"},"geometry":{"type":"Point","coordinates":[-118.30373,33.86535]}},{"type":"Feature","properties":{"date":"2019-04-02T00:00:00.000Z","year":2019,"description":"10 WINDOWS CHANGE-OUT (SAME SIZE & TYPE) FOR RESIDENTIAL BUILDINGS.  DUAL GLAZING, LABELED AND CERTIFIED BY NATIONAL FENESTRATION RATING COUNCIL (NFRC), IS REQUIRED FOR DOORS AND WINDOWS REPLACED IN ALL RESIDENTIAL BUILDINGS, THREE STORIES OR LESS, PER SECTION 150.2 (b) 1B OF TITLE 24.","metadescription":"Bldg-Alter/Repair. 1 or 2 Family Dwelling. 10 WINDOWS CHANGE-OUT (SAME SIZE & TYPE) FOR RESIDENTIAL BUILDINGS.  DUAL GLAZING, LABELED AND CERTIFIED BY NATIONAL FENESTRATION RATING COUNCIL (NFRC), IS REQUIRED FOR DOORS AND WINDOWS REPLACED IN ALL RESIDENTIAL BUILDINGS, THREE STORIES OR LESS, PER SECTION 150.2 (b) 1B OF TITLE 24.. Permit Finaled. 711 W 173RD PL","address":"711 W 173RD PL","ct":"2912.20","ev":"N","apc":"Harbor","cpa":"Harbor Gateway","zone":"R1-1","solar":"N","pin_nbr":"066B197   358","use_code":"1","geolocation":"POINT (-118.28892 33.87358)","status_date":"06/21/2019","permit_group":"Building","refresh_time":"06/10/2026","type_lat_lon":"ADDRESS","business_unit":"Express Permit"},"geometry":{"type":"Point","coordinates":[-118.28892,33.87358]}},{"type":"Feature","properties":{"date":"2016-12-22T00:00:00.000Z","year":2016,"description":"KITCHEN AND BATHROOM REMODEL COMBINED WITH ELECTRICAL, PLUMBING AND HVAC (FOR RESIDENTIAL BUILDINGS; NO STRUCTURAL CHANGES).DRYWALL/PLASTER PATCH AND PAINT.","metadescription":"Bldg-Alter/Repair. 1 or 2 Family Dwelling. KITCHEN AND BATHROOM REMODEL COMBINED WITH ELECTRICAL, PLUMBING AND HVAC (FOR RESIDENTIAL BUILDINGS; NO STRUCTURAL CHANGES).DRYWALL/PLASTER PATCH AND PAINT.. Permit Finaled. 742 W 148TH PL","address":"736 West 148Th Place, CA, Gardena, 90247, US","ct":"2911.30","ev":"N","apc":"Harbor","cpa":"Harbor Gateway","zone":"R1-1","solar":"N","pin_nbr":"075B197   521","use_code":"1","geolocation":"POINT (-118.28903 33.89741)","status_date":"06/21/2019","permit_group":"Building","refresh_time":"06/10/2026","type_lat_lon":"ADDRESS","business_unit":"Express Permit"},"geometry":{"type":"Point","coordinates":[-118.28903,33.89741]}},{"type":"Feature","properties":{"date":"2015-04-07T00:00:00.000Z","year":2015,"description":"INSTALL NEW CONCRETE PAD FOR MECHANICAL PUMPS AND ANCHORAGE SUPPORTS FOR MECHANICAL PIPING THROUGHOUT THE BUILDING. REMOVE NONBEARING WALL FOR NEW DOUBLE DOOR AND INFILL ONE DOOR ON THE FIRST FLOOR.  REMOVE AND REPLACE CEILING AS REQUIRED TO ACCESS PIPING.  MODIFY (E) LADDER FOR ACCESS TO BASEMENT PIPING TUNNER.","metadescription":"Bldg-Alter/Repair. Commercial. INSTALL NEW CONCRETE PAD FOR MECHANICAL PUMPS AND ANCHORAGE SUPPORTS FOR MECHANICAL PIPING THROUGHOUT THE BUILDING. REMOVE NONBEARING WALL FOR NEW DOUBLE DOOR AND INFILL ONE DOOR ON THE FIRST FLOOR.  REMOVE AND REPLACE CEILING AS REQUIRED TO ACCESS PIPING.  MODIFY (E) LADDER FOR ACCESS TO BASEMENT PIPING TUNNER.. Permit Finaled. 17200 S VERMONT AVE","address":"17200 South Vermont Avenue, CA, Gardena, 90247, US","ct":"2912.20","ev":"N","apc":"Harbor","cpa":"Harbor Gateway","zone":"M1-1VL","solar":"N","pin_nbr":"066B197   278","use_code":"15","geolocation":"POINT (-118.29083 33.87528)","status_date":"01/15/2016","permit_group":"Building","refresh_time":"06/10/2026","type_lat_lon":"ADDRESS","business_unit":"Plan Check at Counter"},"geometry":{"type":"Point","coordinates":[-118.29083,33.87528]}},{"type":"Feature","properties":{"date":"2014-05-21T00:00:00.000Z","year":2014,"description":"STEEL BRACKET SUPPORTS FOR HVAC PIPING; CHANGE OUT AND CONCRETE SLAB ON GRADE OUTSIDE PIPE PENETRATION. NEW SWITCHBOARD UNIT ATTACHED TO CONCRETE FLOOR.","metadescription":"Bldg-Alter/Repair. Commercial. STEEL BRACKET SUPPORTS FOR HVAC PIPING; CHANGE OUT AND CONCRETE SLAB ON GRADE OUTSIDE PIPE PENETRATION. NEW SWITCHBOARD UNIT ATTACHED TO CONCRETE FLOOR.. Permit Finaled. 17200 S VERMONT AVE","address":"17200 South Vermont Avenue, CA, Gardena, 90247, US","ct":"2912.20","ev":"N","apc":"Harbor","cpa":"Harbor Gateway","zone":"M1-1VL","solar":"N","pin_nbr":"066B197   278","use_code":"15","geolocation":"POINT (-118.29083 33.87528)","status_date":"03/16/2017","permit_group":"Building","refresh_time":"06/10/2026","type_lat_lon":"ADDRESS","business_unit":"Plan Check at Counter"},"geometry":{"type":"Point","coordinates":[-118.29083,33.87528]}},{"type":"Feature","properties":{"date":"2012-05-15T00:00:00.000Z","year":2012,"description":"CHANGE OUT 1 WINDOW (SAME SIZE & TYPE FOR RESIDENTIAL BUILDINGS ONLY).","metadescription":"Bldg-Alter/Repair. 1 or 2 Family Dwelling. CHANGE OUT 1 WINDOW (SAME SIZE & TYPE FOR RESIDENTIAL BUILDINGS ONLY).. Permit Expired. 802 W 148TH ST","address":"802 W 148TH ST","ct":"2911.30","ev":"N","apc":"Harbor","cpa":"Harbor Gateway","zone":"R1-1","solar":"N","pin_nbr":"075B197   469","use_code":"1","geolocation":"POINT (-118.28939 33.89811)","status_date":"06/10/2014","permit_group":"Building","refresh_time":"06/10/2026","type_lat_lon":"ADDRESS","business_unit":"Express Permit"},"geometry":{"type":"Point","coordinates":[-118.28939,33.89811]}},{"type":"Feature","properties":{"date":"2011-08-03T00:00:00.000Z","year":2011,"description":"CHANGE OUT 3 WINDOWS (SAME SIZE AND LOCATION).","metadescription":"Bldg-Alter/Repair. 1 or 2 Family Dwelling. CHANGE OUT 3 WINDOWS (SAME SIZE AND LOCATION).. Permit Finaled. 857 W 148TH ST","address":"857 W 148TH ST","ct":"2911.30","ev":"N","apc":"Harbor","cpa":"Harbor Gateway","zone":"R1-1","solar":"N","pin_nbr":"075B197   432","use_code":"1","geolocation":"POINT (-118.29118 33.8984)","status_date":"08/20/2013","permit_group":"Building","refresh_time":"06/10/2026","type_lat_lon":"ADDRESS","business_unit":"Express Permit"},"geometry":{"type":"Point","coordinates":[-118.29118,33.8984]}},{"type":"Feature","properties":{"date":"2005-11-01T00:00:00.000Z","year":2005,"description":"13'6\" X 12' ADDITION AT REAR CONSISTING OF BEDROOM EXTENSION  AND INTERIOR REMODEL TO CREATE FULL BATH AND W.IC.  CONSTRUCTION PER TYPE V.  RELATED ELEC/HVAC/PLUMB.","metadescription":"Bldg-Addition. 1 or 2 Family Dwelling. 13'6\" X 12' ADDITION AT REAR CONSISTING OF BEDROOM EXTENSION  AND INTERIOR REMODEL TO CREATE FULL BATH AND W.IC.  CONSTRUCTION PER TYPE V.  RELATED ELEC/HVAC/PLUMB.. CofO Issued. 18203 S DALTON AVE","address":"18203 South Dalton Avenue, CA, Gardena, 90248, US","ct":"2913.00","ev":"N","apc":"Harbor","cpa":"Harbor Gateway","zone":"R1-1","solar":"N","pin_nbr":"063B193   217","use_code":"1","geolocation":"POINT (-118.30373 33.86535)","status_date":"07/03/2007","construction":"Type V-N Construction","permit_group":"Building","refresh_time":"06/10/2026","type_lat_lon":"ADDRESS","business_unit":"Plan Check at Counter","square_footage":"163"},"geometry":{"type":"Point","coordinates":[-118.30373,33.86535]}},{"type":"Feature","properties":{"date":"2005-10-18T00:00:00.000Z","year":2005,"description":"1-STORY ADDITION  (Added 2 Beds, 2 Baths, 1 Den, & 1 Family Room)  & PARTIAL REMODEL  TO EXIST'G RESIDENCE  PER CITY TYPE V SHEET.   Related Elec., Hvac., & Plumb.","metadescription":"Bldg-Addition. 1 or 2 Family Dwelling. 1-STORY ADDITION  (Added 2 Beds, 2 Baths, 1 Den, & 1 Family Room)  & PARTIAL REMODEL  TO EXIST'G RESIDENCE  PER CITY TYPE V SHEET.   Related Elec., Hvac., & Plumb.. CofO Issued. 808 W 148TH PL","address":"802 West 148Th Place, CA, Gardena, 90247, US","ct":"2911.30","ev":"N","apc":"Harbor","cpa":"Harbor Gateway","zone":"R1-1","solar":"N","pin_nbr":"075B197   518","use_code":"1","geolocation":"POINT (-118.28957 33.89741)","status_date":"03/21/2006","construction":"Type V-N Construction","permit_group":"Building","refresh_time":"06/10/2026","type_lat_lon":"ADDRESS","business_unit":"Plan Check at Counter","square_footage":"522"},"geometry":{"type":"Point","coordinates":[-118.28957,33.89741]}},{"type":"Feature","properties":{"date":"2005-05-27T00:00:00.000Z","year":2005,"description":"1-STORY ADDITION (Added 2 Beds / 2 Baths)  &  PARTIAL REMODEL  TO EXSIT'G RESIDENCE  PER ENG. & TYPE V SHEET.   Related Elec., Hvac., & Plumb.","metadescription":"Bldg-Addition. 1 or 2 Family Dwelling. 1-STORY ADDITION (Added 2 Beds / 2 Baths)  &  PARTIAL REMODEL  TO EXSIT'G RESIDENCE  PER ENG. & TYPE V SHEET.   Related Elec., Hvac., & Plumb.. CofO Issued. 819 W 148TH PL","address":"813 West 148Th Place, CA, Gardena, 90247, US","ct":"2911.30","ev":"N","apc":"Harbor","cpa":"Harbor Gateway","zone":"R1-1","solar":"N","height":"15","pin_nbr":"075B197   492","use_code":"1","geolocation":"POINT (-118.28994 33.89763)","status_date":"07/17/2006","construction":"Type V-N Construction","permit_group":"Building","refresh_time":"06/10/2026","type_lat_lon":"ADDRESS","business_unit":"Plan Check at Counter","square_footage":"1505"},"geometry":{"type":"Point","coordinates":[-118.28994,33.89763]}},{"type":"Feature","properties":{"date":"2005-04-05T00:00:00.000Z","year":2005,"description":"Proposed 17' x 28'-4\" rear master bedroom addition and 4'x10' front  porch. Work results in a 3-B 2 bath SFD.  Construction per type v sheet.Related elec/hvac/plumbing.","metadescription":"Bldg-Addition. 1 or 2 Family Dwelling. Proposed 17' x 28'-4\" rear master bedroom addition and 4'x10' front  porch. Work results in a 3-B 2 bath SFD.  Construction per type v sheet.Related elec/hvac/plumbing.. Issued. 841 W 148TH ST","address":"841 West 148Th Street, CA, Gardena, 90247, US","ct":"2911.30","ev":"N","apc":"Harbor","cpa":"Harbor Gateway","zone":"R1-1","solar":"N","height":"14","pin_nbr":"075B197   437","use_code":"1","geolocation":"POINT (-118.29064 33.89837)","status_date":"04/05/2005","construction":"Type V-N Construction","permit_group":"Building","refresh_time":"06/10/2026","type_lat_lon":"ADDRESS","business_unit":"Plan Check at Counter","square_footage":"482"},"geometry":{"type":"Point","coordinates":[-118.29064,33.89837]}},{"type":"Feature","properties":{"date":"2004-07-06T00:00:00.000Z","year":2004,"description":"Propose  1-Story Addition At Rear:  expansion of exisiting dining room & new bed room.   Work Per City Std. Typ V Sheet.   Related Elec., Hvac., & Plumb.","metadescription":"Bldg-Addition. 1 or 2 Family Dwelling. Propose  1-Story Addition At Rear:  expansion of exisiting dining room & new bed room.   Work Per City Std. Typ V Sheet.   Related Elec., Hvac., & Plumb.. Permit Finaled. 746 W 148TH ST","address":"742 West 148Th Street, CA, Gardena, 90247, US","ct":"2911.30","ev":"N","apc":"Harbor","cpa":"Harbor Gateway","zone":"R1-1","solar":"N","pin_nbr":"075B197   470","use_code":"1","geolocation":"POINT (-118.28921 33.89811)","status_date":"10/18/2004","construction":"Type V-N Construction","permit_group":"Building","refresh_time":"06/10/2026","type_lat_lon":"ADDRESS","business_unit":"Regular Plan Check","square_footage":"392"},"geometry":{"type":"Point","coordinates":[-118.28921,33.89811]}}]}
