{"type":"FeatureCollection","features":[{"type":"Feature","properties":{"date":"2022-12-08T00:00:00.000Z","year":2022,"description":"CHANGE OF USE - OFFICE TO DAY CARE (E Occupancy)","metadescription":"Bldg-Alter/Repair. Commercial. CHANGE OF USE - OFFICE TO DAY CARE (E Occupancy). Quality Review Completed. 15328 S VERMONT AVE","address":"15328 South Vermont Avenue, CA, Gardena, 90247, US","ct":"2912.10","ev":"N","apc":"Harbor","cpa":"Harbor Gateway","zone":"[Q]C2-1","solar":"N","pin_nbr":"072B197   177","use_code":"18","status_date":"01/26/2023","construction":"Type V-B Construction","permit_group":"Building","refresh_time":"06/10/2026","type_lat_lon":"ADDRESS","business_unit":"Regular Plan Check"},"geometry":{"type":"Point","coordinates":[-118.29149,33.89168]}},{"type":"Feature","properties":{"date":"2001-05-21T00:00:00.000Z","year":2001,"description":"T.I. - change of use and occupancy from warehouse (S3) to Office (B) 132 sf.","metadescription":"Bldg-Alter/Repair. Commercial. T.I. - change of use and occupancy from warehouse (S3) to Office (B) 132 sf.. Permit Finaled. 717 W 152ND ST","address":"14932 South Menlo Avenue, CA, Gardena, 90247, US","ct":"2912.10","ev":"N","apc":"Harbor","zone":"M2-1VL","solar":"N","pin_nbr":"072B197    69","use_code":"13","geolocation":"POINT (-118.28850341 33.89485671)","status_date":"11/02/2001","construction":"Type V-N Construction","permit_group":"Building","refresh_time":"06/10/2026","type_lat_lon":"PIN","business_unit":"Plan Check at Counter"},"geometry":{"type":"Point","coordinates":[-118.28850341,33.89485671]}},{"type":"Feature","properties":{"date":"2001-01-11T00:00:00.000Z","year":2001,"description":"CHANGE USE FROM RESTAURANT TO CHILD DAY CARE CENTER (36 CHILDREN) CHANGE OF OCCUPANCY FROM B TO E3.","metadescription":"Bldg-Alter/Repair. Commercial. CHANGE USE FROM RESTAURANT TO CHILD DAY CARE CENTER (36 CHILDREN) CHANGE OF OCCUPANCY FROM B TO E3.. Permit Finaled. 15328 S VERMONT AVE","address":"15328 South Vermont Avenue, CA, Gardena, 90247, US","ct":"2912.00","ev":"N","apc":"Harbor","zone":"[Q]C2-1","solar":"N","pin_nbr":"072B197   178","use_code":"18","geolocation":"POINT (-118.29149 33.89168)","status_date":"01/22/2001","permit_group":"Building","refresh_time":"06/10/2026","type_lat_lon":"ADDRESS","business_unit":"Regular Plan Check"},"geometry":{"type":"Point","coordinates":[-118.29149,33.89168]}}]}
