{"type":"FeatureCollection","features":[{"type":"Feature","properties":{"date":"2006-11-13T00:00:00.000Z","year":2006,"description":"REPLACE 100 AMP PANEL","metadescription":"PERMIT – EXPRESS PERMIT PROGRAM. Electrical Work. REPLACE 100 AMP PANEL. COMPLETE. 7300","address":"3140 West CHASE Avenue, Chicago, IL, CHICAGO, 60645, US","location":"POINT (-87.709086726735 42.013763566159)","review_type":"EXPRESS PERMIT PROGRAM","street_name":"KEDZIE AVE","xcoordinate":"1153891.9703211144","ycoordinate":"1948224.0261116712","census_tract":"20200","subtotal_paid":"$40.00","community_area":"2","contact_1_city":"SKOKIE","contact_1_name":"ABLE ELECTRIC","contact_1_type":"ELECTRICAL CONTRACTOR","other_fee_paid":"$0.00","contact_1_state":"IL","processing_time":"0","subtotal_unpaid":"$0.00","subtotal_waived":"$0.00","zoning_fee_paid":"$0.00","other_fee_unpaid":"$0.00","other_fee_waived":"$0.00","permit_milestone":"COMPLETE","street_direction":"N","building_fee_paid":"$40.00","contact_1_zipcode":"60076","zoning_fee_unpaid":"$0.00","zoning_fee_waived":"$0.00","other_fee_subtotal":"$0","building_fee_unpaid":"$0.00","building_fee_waived":"$0.00","zoning_fee_subtotal":"$0","building_fee_subtotal":"$40"},"geometry":{"type":"Point","coordinates":[-87.709086727,42.013763566]}},{"type":"Feature","properties":{"date":"2006-05-03T00:00:00.000Z","year":2006,"description":"INSTALLATION OF COMED LOW VOLTAGE A/C TIMER","metadescription":"PERMIT – EXPRESS PERMIT PROGRAM. Electrical Work. INSTALLATION OF COMED LOW VOLTAGE A/C TIMER. COMPLETE. 6814","address":"6814 North CENTRAL Avenue, Chicago, IL, CHICAGO, 60646, US","location":"POINT (-87.761941537793 42.005146183324)","review_type":"EXPRESS PERMIT PROGRAM","street_name":"CENTRAL AVE","xcoordinate":"1139549.3317155386","ycoordinate":"1944983.4850541127","census_tract":"120200","subtotal_paid":"$40.00","community_area":"12","contact_1_city":"LISLE","contact_1_name":"ENER TOUCH, INC.","contact_1_type":"ELECTRICAL CONTRACTOR","contact_2_city":"RINGGOLD","contact_2_name":"KENNEDY JAY","contact_2_type":"APPLICANT","contact_3_city":"LISLE","contact_3_name":"ENER TOUCH, INC.","contact_3_type":"APPLICANT","other_fee_paid":"$0.00","contact_1_state":"IL","contact_2_state":"GA","contact_3_state":"IL","processing_time":"64","subtotal_unpaid":"$0.00","subtotal_waived":"$0.00","zoning_fee_paid":"$0.00","other_fee_unpaid":"$0.00","other_fee_waived":"$0.00","permit_milestone":"COMPLETE","street_direction":"N","building_fee_paid":"$40.00","contact_1_zipcode":"60532","contact_2_zipcode":"30736","contact_3_zipcode":"60532","zoning_fee_unpaid":"$0.00","zoning_fee_waived":"$0.00","other_fee_subtotal":"$0","building_fee_unpaid":"$0.00","building_fee_waived":"$0.00","zoning_fee_subtotal":"$0","building_fee_subtotal":"$40"},"geometry":{"type":"Point","coordinates":[-87.761941538,42.005146183]}}]}
