{"type":"FeatureCollection","features":[{"type":"Feature","properties":{"date":"2012-11-05T00:00:00.000Z","year":2012,"description":"ERECT DETACHED FRAME GARAGE 20 X 22 X 12 WITH 2 SQ. FT. ROOF VENTS. SIDE DRIVE.","metadescription":"PERMIT - EASY PERMIT PROCESS. ERECT DETACHED FRAME GARAGE 20 X 22 X 12 WITH 2 SQ. FT. ROOF VENTS. SIDE DRIVE.. 6810","address":"6810 North CENTRAL Avenue, Chicago, IL, CHICAGO, 60646, US","location":"POINT (-87.761946420268 42.005030958551)","pin_list":"1033119040","review_type":"EASY PERMIT","street_name":"CENTRAL AVE","xcoordinate":"1139548.284921856","ycoordinate":"1944941.4875907155","census_tract":"120200","subtotal_paid":"$350.00","community_area":"12","contact_1_city":"JUSTICE","contact_1_name":"JIM'S ELECTRICAL SERVICE","contact_1_type":"CONTRACTOR-ELECTRICAL","contact_2_city":"MONEE","contact_2_name":"BETTER BUILT LUMBER & SUPPLY, INC.","contact_2_type":"CONTRACTOR-GENERAL CONTRACTOR","contact_3_city":"CHICAGO","contact_3_name":"VICTOR TAYLOR","contact_3_type":"OWNER","other_fee_paid":"$0.00","contact_1_state":"IL","contact_2_state":"IL","contact_3_state":"IL","processing_time":"0","subtotal_unpaid":"$0.00","subtotal_waived":"$0.00","zoning_fee_paid":"$50.00","other_fee_unpaid":"$0.00","other_fee_waived":"$0.00","street_direction":"N","building_fee_paid":"$300.00","contact_1_zipcode":"60458","contact_2_zipcode":"60449","contact_3_zipcode":"60646","zoning_fee_unpaid":"$0.00","zoning_fee_waived":"$0.00","other_fee_subtotal":"$0","building_fee_unpaid":"$0.00","building_fee_waived":"$0.00","zoning_fee_subtotal":"$50","building_fee_subtotal":"$300"},"geometry":{"type":"Point","coordinates":[-87.76194642,42.005030959]}}]}
