{"type":"FeatureCollection","features":[{"type":"Feature","properties":{"date":"2026-07-10T04:00:00.000Z","year":2026,"description":"Subsequent filing for exterior plumbing work to install new sewer connection as per DEP approved documents.","metadescription":"Plumbing. Subsequent filing for exterior plumbing work to install new sewer connection as per DEP approved documents.. Permit Issued. 488 JAMAICA AVENUE","address":"488 JAMAICA AVENUE","bbl":"3039090009","bin":"3429288","lot":"9","nta":"Cypress Hills","c_b_no":"305","census_tract":"117202","approved_date":"2026-07-10T00:00:00.000","filing_reason":"Initial Permit","work_on_floor":"Open Space","community_board":"305","sequence_number":"1","tracking_number":"948727455","applicant_license":"001892","job_filing_number":"B00683564-S1","applicant_last_name":"HUNG","owner_business_name":"PARSONS CONSTRUCTION INC","applicant_first_name":"SIMON","applicant_business_name":"NYC MAINMAN CORP","permittee_s_license_type":"P","applicant_business_address":"32-37 62ND STREET","filing_representative_last_name":"HUNG","filing_representative_first_name":"SIMON","filing_representative_business_name":"QMB PLUMBING & HEATING IN"},"geometry":{"type":"Point","coordinates":[-73.885191,40.683957]}},{"type":"Feature","properties":{"date":"2026-07-02T04:00:00.000Z","year":2026,"description":"Subsequent filing for exterior plumbing work to install new sewer connection as per DEP approved documents.","metadescription":"Plumbing. Subsequent filing for exterior plumbing work to install new sewer connection as per DEP approved documents.. Permit Issued. 142-15 58 AVENUE","address":"142-15 58 AVENUE","bbl":"4064060020","bin":"4140185","lot":"20","nta":"Queensboro Hill","c_b_no":"407","census_tract":"837","approved_date":"2026-05-28T00:00:00.000","filing_reason":"Initial Permit","work_on_floor":"Open Space","community_board":"407","sequence_number":"1","tracking_number":"537894887","applicant_license":"001901","job_filing_number":"Q08041488-S1","applicant_last_name":"WEIDNER","owner_business_name":"PR","applicant_first_name":"DOUGLAS","applicant_middle_name":"M","applicant_business_name":"TRI STATE PLBG & HTG INC","permittee_s_license_type":"P","applicant_business_address":"115-58 DUNKIRK STREET"},"geometry":{"type":"Point","coordinates":[-73.823287,40.745007]}},{"type":"Feature","properties":{"date":"2026-06-11T04:00:00.000Z","year":2026,"description":"Subsequent filing for exterior plumbing work to install new sewer connection as per DEP approved documents.","metadescription":"Plumbing. Subsequent filing for exterior plumbing work to install new sewer connection as per DEP approved documents.. Permit Issued. 257-12 86 AVENUE","address":"257-12 86 AVENUE","bbl":"4088160036","bin":"4180435","lot":"36","nta":"Glen Oaks-Floral Park-New Hyde Park","c_b_no":"413","census_tract":"157903","approved_date":"2026-05-29T00:00:00.000","filing_reason":"Initial Permit","work_on_floor":"Open Space","community_board":"413","sequence_number":"1","tracking_number":"853507248","applicant_license":"001965","job_filing_number":"Q01296612-S2","applicant_last_name":"FERRINO","owner_business_name":"HUNT B CONSTRUCTION","applicant_first_name":"CHRISTOPHER","applicant_business_name":"24 SEVEN PLUMBING INC","permittee_s_license_type":"P","applicant_business_address":"4809 AVENUE N #181"},"geometry":{"type":"Point","coordinates":[-73.709381,40.732946]}},{"type":"Feature","properties":{"date":"2026-06-11T04:00:00.000Z","year":2026,"description":"Subsequent application filed for exterior plumbing work to install a new sewer connection as per DEP-approved documents.","metadescription":"Plumbing. Subsequent application filed for exterior plumbing work to install a new sewer connection as per DEP-approved documents.. Permit Issued. 494 JAMAICA AVENUE","address":"494 JAMAICA AVENUE","bbl":"3039090011","bin":"3086554","lot":"11","nta":"Cypress Hills","c_b_no":"305","census_tract":"117202","approved_date":"2026-06-11T00:00:00.000","filing_reason":"Initial Permit","work_on_floor":"Open Space","community_board":"305","sequence_number":"1","tracking_number":"339613488","applicant_license":"001892","job_filing_number":"B00711574-S1","applicant_last_name":"HUNG","owner_business_name":"PARSONS CONSTRUCTION INC","applicant_first_name":"SIMON","applicant_business_name":"NYC MAINMAN CORP","permittee_s_license_type":"P","applicant_business_address":"32-37 62ND STREET","filing_representative_last_name":"HUNG","filing_representative_first_name":"SIMON","filing_representative_business_name":"QMB PLUMBING & HEATING IN"},"geometry":{"type":"Point","coordinates":[-73.885054,40.684022]}},{"type":"Feature","properties":{"date":"2026-05-13T04:00:00.000Z","year":2026,"description":"Subsequent filing for exterior plumbing work to install new sewer connection as per DEP approved documents.","metadescription":"Plumbing. Subsequent filing for exterior plumbing work to install new sewer connection as per DEP approved documents.. Permit Issued. JAMAICA AVENUE","address":"JAMAICA AVENUE","bbl":"3039090010","lot":"10","c_b_no":"305","house_no":"490","approved_date":"2026 May 08 12:00:00 AM","filing_reason":"Initial Permit","work_on_floor":"Open Space","community_board":"305","sequence_number":"1","tracking_number":"825857059","applicant_license":"001892","census_tract_2020":"117202","job_filing_number":"B01158086-S1","applicant_last_name":"HUNG","estimated_job_costs":"5000","owner_business_name":"PARSONS CONSTRUCTION INC","applicant_first_name":"SIMON","applicant_business_name":"NYC MAINMAN CORP","permittee_s_license_type":"P","applicant_business_address":"32-37 62ND STREET","filing_representative_last_name":"HUNG","filing_representative_first_name":"SIMON","filing_representative_business_name":"QMB PLUMBING & HEATING IN","neighborhood_tabulation_area_nta_2020":"Cypress Hills"},"geometry":{"type":"Point","coordinates":[-73.885148,40.683979]}},{"type":"Feature","properties":{"date":"2026-05-13T04:00:00.000Z","year":2026,"description":"Subsequent filing for exterior plumbing work to install new sewer connection as per DEP approved documents.","metadescription":"Plumbing. Subsequent filing for exterior plumbing work to install new sewer connection as per DEP approved documents.. Permit Issued. JAMAICA AVENUE","address":"JAMAICA AVENUE","bbl":"3039090012","lot":"12","c_b_no":"305","house_no":"496","approved_date":"2026 Apr 29 12:00:00 AM","filing_reason":"Initial Permit","work_on_floor":"Open Space","community_board":"305","sequence_number":"1","tracking_number":"705747852","applicant_license":"001892","census_tract_2020":"117202","job_filing_number":"B00727360-S1","applicant_last_name":"HUNG","estimated_job_costs":"5000","owner_business_name":"PARSONS CONSTRUCTION INC","applicant_first_name":"SIMON","applicant_business_name":"NYC MAINMAN CORP","permittee_s_license_type":"P","applicant_business_address":"32-37 62ND STREET","filing_representative_last_name":"HUNG","filing_representative_first_name":"SIMON","filing_representative_business_name":"QMB PLUMBING & HEATING IN","neighborhood_tabulation_area_nta_2020":"Cypress Hills"},"geometry":{"type":"Point","coordinates":[-73.885007,40.684041]}},{"type":"Feature","properties":{"date":"2026-04-02T04:00:00.000Z","year":2026,"description":"Install two electric Hot Water Tank, Hot and Cold water connection in the Bathrooms and kitchens, 6 inch sanitary connection to the 12 combine sewer at street.","metadescription":"Plumbing. Install two electric Hot Water Tank, Hot and Cold water connection in the Bathrooms and kitchens, 6 inch sanitary connection to the 12 combine sewer at street.. Permit Issued. SHEPHERD AVENUE","address":"SHEPHERD AVENUE","lot":"64","c_b_no":"305","house_no":"707","approved_date":"2025 Mar 31 12:00:00 AM","filing_reason":"Initial Permit","work_on_floor":"Floor Number(s)-3-SO-4707-B01136541-I1, Floor Number(s)-1-SO-6965-B01136541-I1, Cellar-SO-7811-B01136541-I1, Floor Number(s)-2-SO-4491-B01136541-I1","community_board":"305","sequence_number":"1","tracking_number":"499089770","applicant_license":"001020","census_tract_2020":"1120","job_filing_number":"B01136541-S1","applicant_last_name":"AUSLANDER","estimated_job_costs":"0","owner_business_name":"Dash Development Group","applicant_first_name":"IRA","applicant_business_name":"ARCO PLBG AND HTG INC","permittee_s_license_type":"P","applicant_business_address":"6717 4TH AVENUE","neighborhood_tabulation_area_nta_2020":"East New York-New Lots"},"geometry":{"type":"Point","coordinates":[-73.878483,40.666894]}},{"type":"Feature","properties":{"date":"2026-04-01T04:00:00.000Z","year":2026,"description":"partial work for new building sewer connection as per DEP site connection approval, DOD inspection for steel sleeve through foundation wall","metadescription":"Plumbing. partial work for new building sewer connection as per DEP site connection approval, DOD inspection for steel sleeve through foundation wall. Permit Issued. 222 STREET","address":"222 STREET","bbl":"4061940004","lot":"4","c_b_no":"411","house_no":"37-08","approved_date":"2025 Nov 03 12:00:00 AM","filing_reason":"None","work_on_floor":"Cellar-SO-9924-Q01181864-I1, Floor Number(s)-1-SO-6189-Q01181864-I1, Floor Number(s)-2-SO-6354-Q01181864-I1","community_board":"411","sequence_number":"1","tracking_number":"778408675","applicant_license":"001890","census_tract_2020":"1113","job_filing_number":"Q32557062-S1","applicant_last_name":"MURDOCCA","estimated_job_costs":"0","owner_business_name":"PR","applicant_first_name":"ROCCO","applicant_business_name":"PLUMBING WORKS SUBS CORP","permittee_s_license_type":"P","applicant_business_address":"7622 17TH AVENUE, 1ST FLOOR","neighborhood_tabulation_area_nta_2020":"Bayside"},"geometry":{"type":"Point","coordinates":[-73.762623,40.768794]}},{"type":"Feature","properties":{"date":"2026-04-01T04:00:00.000Z","year":2026,"description":"partial work for new building sewer connection as per DEP site connection approval, DOB inspection for steel sleeve through foundation wall","metadescription":"Plumbing. partial work for new building sewer connection as per DEP site connection approval, DOB inspection for steel sleeve through foundation wall. Permit Issued. 29 AVENUE","address":"29 AVENUE","bbl":"4060110001","lot":"1","c_b_no":"411","house_no":"211-05","approved_date":"2025 Nov 12 12:00:00 AM","filing_reason":"None","work_on_floor":"Cellar-SO-2195-Q01125874-I1, Floor Number(s)-1-SO-4521-Q01125874-I1, Floor Number(s)-2-SO-2157-Q01125874-I1, Floor Number(s)-1-SO-2069-Q01125874-I1, Open Space","community_board":"411","sequence_number":"1","tracking_number":"293202654","applicant_license":"001890","census_tract_2020":"1093","job_filing_number":"Q46298106-S2","applicant_last_name":"MURDOCCA","estimated_job_costs":"90000","owner_business_name":"Not Applicable","applicant_first_name":"ROCCO","applicant_business_name":"PLUMBING WORKS SUBS CORP","permittee_s_license_type":"P","applicant_business_address":"7622 17TH AVENUE, 1ST FLOOR","neighborhood_tabulation_area_nta_2020":"Bayside"},"geometry":{"type":"Point","coordinates":[-73.777705,40.774634]}},{"type":"Feature","properties":{"date":"2026-04-01T04:00:00.000Z","year":2026,"description":"partial work for new building sewer connection as per DEP site connection approval, DOD inspection for steel sleeve through foundation wall","metadescription":"Plumbing. partial work for new building sewer connection as per DEP site connection approval, DOD inspection for steel sleeve through foundation wall. Permit Issued. NORTH HENRY STREET","address":"NORTH HENRY STREET","bbl":"3028310014","lot":"14","c_b_no":"301","house_no":"17","approved_date":"2025 Sep 30 12:00:00 AM","filing_reason":"None","work_on_floor":"Cellar, Floor Number(s) 001 through 005, Roof","community_board":"301","sequence_number":"1","tracking_number":"930055226","applicant_license":"001890","census_tract_2020":"477","job_filing_number":"B33361313-S6","applicant_last_name":"MURDOCCA","estimated_job_costs":"0","owner_business_name":"SPRUCE CONSULTING INC","applicant_first_name":"ROCCO","applicant_business_name":"PLUMBING WORKS SUBS CORP","permittee_s_license_type":"P","applicant_business_address":"7622 17TH AVENUE, 1ST FLOOR","neighborhood_tabulation_area_nta_2020":"East Williamsburg"},"geometry":{"type":"Point","coordinates":[-73.942586,40.719649]}},{"type":"Feature","properties":{"date":"2026-03-16T04:00:00.000Z","year":2026,"description":"NEW STORM AND SEWER CONNECTION TO EXISTING COMMERCIAL BUILDING","metadescription":"Plumbing. NEW STORM AND SEWER CONNECTION TO EXISTING COMMERCIAL BUILDING. Permit Issued. VICTORY BOULEVARD","address":"VICTORY BOULEVARD","bbl":"5021590015","lot":"15","c_b_no":"502","house_no":"3130","approved_date":"2024 Jun 06 12:00:00 AM","filing_reason":"Renewal Permit with Changes","work_on_floor":"Floor Number(s) 1 through 1, Open Space","community_board":"502","sequence_number":"2","tracking_number":"465158988","applicant_license":"000683","census_tract_2020":"29105","job_filing_number":"S01011699-I1","applicant_last_name":"WILSON","estimated_job_costs":"20000","owner_business_name":"QUENTIN AUTO CENTER","applicant_first_name":"RAYMOND","applicant_middle_name":"C","applicant_business_name":"DEPENDABLE MECH CORP","permittee_s_license_type":"P","applicant_business_address":"6202 17TH AVENUE, 1ST FLOOR","neighborhood_tabulation_area_nta_2020":"New Springville-Willowbrook-Bulls Head-Travis"},"geometry":{"type":"Point","coordinates":[-74.163959,40.607013]}},{"type":"Feature","properties":{"date":"2026-02-03T05:00:00.000Z","year":2026,"description":"New Storm-water sewer work from the existing detention tank that is routed through the site. Work includes replacing the storm sewer connection to the city sewer in Autumn Avenue and associated sitework.","metadescription":"Plumbing. New Storm-water sewer work from the existing detention tank that is routed through the site. Work includes replacing the storm sewer connection to the city sewer in Autumn Avenue and associated sitework.. Permit Issued. WORTMAN AVENUE","address":"WORTMAN AVENUE","bbl":"3045300001","lot":"1","c_b_no":"305","house_no":"757","approved_date":"2023 Nov 13 12:00:00 AM","filing_reason":"Renewal Permit Without Changes","work_on_floor":"Open Space","community_board":"305","sequence_number":"3","tracking_number":"153454189","applicant_license":"001226","census_tract_2020":"1220","job_filing_number":"B00662355-S6","applicant_last_name":"BELLINI","estimated_job_costs":"500000","owner_business_name":"NYC SCHOOL CONSTRUCTION AUTHORITY","applicant_first_name":"THOMAS","applicant_middle_name":"J","applicant_business_name":"VARSITY PLBG AND HTG INC","permittee_s_license_type":"P","applicant_business_address":"31-99 123RD STREET","neighborhood_tabulation_area_nta_2020":"East New York-City Line"},"geometry":{"type":"Point","coordinates":[-73.866074,40.664077]}},{"type":"Feature","properties":{"date":"2026-02-03T05:00:00.000Z","year":2026,"description":"New Storm-water sewer work from the existing detention tank that is routed through the site. Work includes replacing the storm sewer connection to the city sewer in Autumn Avenue and associated sitework.","metadescription":"Plumbing. New Storm-water sewer work from the existing detention tank that is routed through the site. Work includes replacing the storm sewer connection to the city sewer in Autumn Avenue and associated sitework.. Permit Issued. WORTMAN AVENUE","address":"WORTMAN AVENUE","bbl":"3045300001","lot":"1","c_b_no":"305","house_no":"757","approved_date":"2023 Nov 13 12:00:00 AM","filing_reason":"Renewal Permit Without Changes","work_on_floor":"Open Space","community_board":"305","sequence_number":"2","tracking_number":"662828351","applicant_license":"001226","census_tract_2020":"1220","job_filing_number":"B00662355-S6","applicant_last_name":"BELLINI","estimated_job_costs":"500000","owner_business_name":"NYC SCHOOL CONSTRUCTION AUTHORITY","applicant_first_name":"THOMAS","applicant_middle_name":"J","applicant_business_name":"VARSITY PLBG AND HTG INC","permittee_s_license_type":"P","applicant_business_address":"31-99 123RD STREET","neighborhood_tabulation_area_nta_2020":"East New York-City Line"},"geometry":{"type":"Point","coordinates":[-73.866074,40.664077]}},{"type":"Feature","properties":{"date":"2026-01-21T05:00:00.000Z","year":2026,"description":"INSTALL SEWER CONNECTION AT OSP FOR SD1&2 ONLY","metadescription":"Plumbing. INSTALL SEWER CONNECTION AT OSP FOR SD1&2 ONLY. Permit Issued. 94 STREET","address":"94 STREET","bbl":"4018850044","lot":"44","c_b_no":"404","house_no":"51-07","approved_date":"2025 Sep 22 12:00:00 AM","filing_reason":"Initial Permit","work_on_floor":"Open Space","community_board":"404","sequence_number":"1","tracking_number":"466358353","applicant_license":"002042","census_tract_2020":"459","job_filing_number":"Q01209935-S1","applicant_last_name":"LANDOLFI JR","estimated_job_costs":"0","owner_business_name":"Not Applicable","applicant_first_name":"RALPH","applicant_middle_name":"W","applicant_business_name":"RRP PLUMBING CORP","permittee_s_license_type":"P","applicant_business_address":"106-07 NORTHERN BOULEVARD","neighborhood_tabulation_area_nta_2020":"Elmhurst"},"geometry":{"type":"Point","coordinates":[-73.869187,40.74044]}},{"type":"Feature","properties":{"date":"2026-01-07T05:00:00.000Z","year":2026,"description":"M533 : EXTERIOR PLUMBING for the 5 Story Educational Structure with Entrance along Division Road; Install Connection of 10 Sanitary Sewer, 8 Sanitary Sewer, 8 Storm along Division Road and 8 Sanitary Sewer Connection Along Center Way.","metadescription":"Plumbing. M533 : EXTERIOR PLUMBING for the 5 Story Educational Structure with Entrance along Division Road; Install Connection of 10 Sanitary Sewer, 8 Sanitary Sewer, 8 Storm along Division Road and 8 Sanitary Sewer Connection Along Center Way.. Permit Issued. DIVISION ROAD","address":"DIVISION ROAD","bbl":"1000010010","lot":"10","c_b_no":"101","house_no":"800","approved_date":"2024 Jul 08 12:00:00 AM","filing_reason":"Initial Permit","work_on_floor":"Open Space","community_board":"101","sequence_number":"1","tracking_number":"534047872","applicant_license":"001736","census_tract_2020":"5","job_filing_number":"M00936068-S5","applicant_last_name":"KATRAGIS","estimated_job_costs":"0","owner_business_name":"THE TRUST FOR GOVERNORS ISLAND","applicant_first_name":"NICHOLAS","applicant_business_name":"EAGLE 1 MECHANICAL, INC","permittee_s_license_type":"P","applicant_business_address":"62-43 30TH AVENUE","neighborhood_tabulation_area_nta_2020":"The Battery-Governors Island-Ellis Island-Liberty Island"},"geometry":{"type":"Point","coordinates":[-74.020514,40.689943]}},{"type":"Feature","properties":{"date":"2025-12-05T05:00:00.000Z","year":2025,"description":"Civil site work - site prep, excavation of trenched for sewer connection to building, removal of existing sewer pipes connecting the building, backfill of utilities and temp stabilization of utility trenchs, removal of soil, landscape and hardscape elemen","metadescription":"Structural. Civil site work - site prep, excavation of trenched for sewer connection to building, removal of existing sewer pipes connecting the building, backfill of utilities and temp stabilization of utility trenchs, removal of soil, landscape and hardscape elemen. Permit Issued. BEDFORD AVENUE","address":"BEDFORD AVENUE","bbl":"3075560150","lot":"150","c_b_no":"314","house_no":"2895","approved_date":"2025 Jul 17 12:00:00 AM","filing_reason":"Initial Permit","work_on_floor":"Floor Number(s) 001 through 001, Open Space","community_board":"314","sequence_number":"1","tracking_number":"985881076","applicant_license":"606748","census_tract_2020":"772","job_filing_number":"B01235948-S2","applicant_last_name":"LITUCHY","estimated_job_costs":"5500000","owner_business_name":"DASNY","applicant_first_name":"MAX","applicant_business_name":"STEVEN DUBNER LANDSCAPING","permittee_s_license_type":"GC","applicant_business_address":"505 GRAND STREET","filing_representative_last_name":"THOMPSON","filing_representative_first_name":"ALFONSO","filing_representative_business_name":"STEVEN DUBNER LANDSCAPING, INC.","neighborhood_tabulation_area_nta_2020":"Flatbush"},"geometry":{"type":"Point","coordinates":[-73.952656,40.631818]}},{"type":"Feature","properties":{"date":"2025-12-05T05:00:00.000Z","year":2025,"description":"Civil site work - site prep, excavation of trenched for sewer connection to building, removal of existing sewer pipes connecting the building, backfill of utilities and temp stabilization of utility trenchs, removal of soil, landscape and hardscape elemen","metadescription":"General Construction. Civil site work - site prep, excavation of trenched for sewer connection to building, removal of existing sewer pipes connecting the building, backfill of utilities and temp stabilization of utility trenchs, removal of soil, landscape and hardscape elemen. Permit Issued. BEDFORD AVENUE","address":"BEDFORD AVENUE","bbl":"3075560150","lot":"150","c_b_no":"314","house_no":"2895","approved_date":"2025 Jul 17 12:00:00 AM","filing_reason":"Initial Permit","work_on_floor":"Floor Number(s) 001 through 001, Open Space","community_board":"314","sequence_number":"1","tracking_number":"985881076","applicant_license":"606748","census_tract_2020":"772","job_filing_number":"B01235948-S2","applicant_last_name":"LITUCHY","estimated_job_costs":"5500000","owner_business_name":"DASNY","applicant_first_name":"MAX","applicant_business_name":"STEVEN DUBNER LANDSCAPING","permittee_s_license_type":"GC","applicant_business_address":"505 GRAND STREET","filing_representative_last_name":"THOMPSON","filing_representative_first_name":"ALFONSO","filing_representative_business_name":"STEVEN DUBNER LANDSCAPING, INC.","neighborhood_tabulation_area_nta_2020":"Flatbush"},"geometry":{"type":"Point","coordinates":[-73.952656,40.631818]}},{"type":"Feature","properties":{"date":"2025-12-05T05:00:00.000Z","year":2025,"description":"Civil site work - site prep, excavation of trenched for sewer connection to building, removal of existing sewer pipes connecting the building, backfill of utilities and temp stabilization of utility trenchs, removal of soil, landscape and hardscape elemen","metadescription":"Earth Work. Civil site work - site prep, excavation of trenched for sewer connection to building, removal of existing sewer pipes connecting the building, backfill of utilities and temp stabilization of utility trenchs, removal of soil, landscape and hardscape elemen. Permit Issued. BEDFORD AVENUE","address":"BEDFORD AVENUE","bbl":"3075560150","lot":"150","c_b_no":"314","house_no":"2895","approved_date":"2025 Jul 17 12:00:00 AM","filing_reason":"Initial Permit","work_on_floor":"Floor Number(s) 001 through 001, Open Space","community_board":"314","sequence_number":"1","tracking_number":"985881076","applicant_license":"606748","census_tract_2020":"772","job_filing_number":"B01235948-S2","applicant_last_name":"LITUCHY","estimated_job_costs":"5500000","owner_business_name":"DASNY","applicant_first_name":"MAX","applicant_business_name":"STEVEN DUBNER LANDSCAPING","permittee_s_license_type":"GC","applicant_business_address":"505 GRAND STREET","filing_representative_last_name":"THOMPSON","filing_representative_first_name":"ALFONSO","filing_representative_business_name":"STEVEN DUBNER LANDSCAPING, INC.","neighborhood_tabulation_area_nta_2020":"Flatbush"},"geometry":{"type":"Point","coordinates":[-73.952656,40.631818]}},{"type":"Feature","properties":{"date":"2025-12-05T05:00:00.000Z","year":2025,"description":"Civil site work - site prep, excavation of trenched for sewer connection to building, removal of existing sewer pipes connecting the building, backfill of utilities and temp stabilization of utility trenchs, removal of soil, landscape and hardscape elemen","metadescription":"Foundation. Civil site work - site prep, excavation of trenched for sewer connection to building, removal of existing sewer pipes connecting the building, backfill of utilities and temp stabilization of utility trenchs, removal of soil, landscape and hardscape elemen. Permit Issued. BEDFORD AVENUE","address":"BEDFORD AVENUE","bbl":"3075560150","lot":"150","c_b_no":"314","house_no":"2895","approved_date":"2025 Jul 17 12:00:00 AM","filing_reason":"Initial Permit","work_on_floor":"Floor Number(s) 001 through 001, Open Space","community_board":"314","sequence_number":"1","tracking_number":"985881076","applicant_license":"606748","census_tract_2020":"772","job_filing_number":"B01235948-S2","applicant_last_name":"LITUCHY","estimated_job_costs":"5500000","owner_business_name":"DASNY","applicant_first_name":"MAX","applicant_business_name":"STEVEN DUBNER LANDSCAPING","permittee_s_license_type":"GC","applicant_business_address":"505 GRAND STREET","filing_representative_last_name":"THOMPSON","filing_representative_first_name":"ALFONSO","filing_representative_business_name":"STEVEN DUBNER LANDSCAPING, INC.","neighborhood_tabulation_area_nta_2020":"Flatbush"},"geometry":{"type":"Point","coordinates":[-73.952656,40.631818]}},{"type":"Feature","properties":{"date":"2025-09-25T04:00:00.000Z","year":2025,"description":"K358 : Site Plumbing : Installation of Detention tank, catch basins, Trench Drains, Storm Piping Connection, Sanitary Connection, Domestic Water Service, Combined Domestic & Sprinkler Connection","metadescription":"Plumbing. K358 : Site Plumbing : Installation of Detention tank, catch basins, Trench Drains, Storm Piping Connection, Sanitary Connection, Domestic Water Service, Combined Domestic & Sprinkler Connection. Permit Issued. AVENUE X","address":"AVENUE X","bbl":"3072080012","lot":"12","c_b_no":"313","house_no":"106","approved_date":"2023 May 02 12:00:00 AM","filing_reason":"Renewal Permit Without Changes","work_on_floor":"Open Space","community_board":"313","sequence_number":"3","tracking_number":"717347921","applicant_license":"000161","census_tract_2020":"308","job_filing_number":"B00795046-S5","applicant_last_name":"LEVINE","estimated_job_costs":"500000","owner_business_name":"NYC SCHOOL CONSTRUCTION AUTHORITY","applicant_first_name":"LAWRENCE J","applicant_business_name":"PAR PLUMBING CO., INC","permittee_s_license_type":"P","applicant_business_address":"101 PARK AVENUE LOWER LOBBY","filing_representative_last_name":"BERMUDEZ","filing_representative_first_name":"TATIANA","filing_representative_business_name":"TAREK M. ZEID, P.E., PLLC","neighborhood_tabulation_area_nta_2020":"Gravesend (South)"},"geometry":{"type":"Point","coordinates":[-73.979236,40.589545]}},{"type":"Feature","properties":{"date":"2025-06-02T04:00:00.000Z","year":2025,"description":"INSTALL WATER AND GAS SERVICES AND INSTALL NEW SEWER CONNECTION.","metadescription":"Plumbing. INSTALL WATER AND GAS SERVICES AND INSTALL NEW SEWER CONNECTION.. Permit Issued. HOPE STREET","address":"HOPE STREET","bbl":"3023740028","lot":"28","c_b_no":"301","house_no":"129","approved_date":"2024 Jul 01 12:00:00 AM","filing_reason":"Initial Permit","work_on_floor":"Floor Number(s) 1 through 1","community_board":"301","sequence_number":"1","tracking_number":"476354209","applicant_license":"002399","census_tract_2020":"513","job_filing_number":"B01066195-I1","applicant_last_name":"SEE","estimated_job_costs":"6000","owner_business_name":"PR","applicant_first_name":"LUIS","applicant_middle_name":"C","applicant_business_name":"FLUSHING PLUMBING CORP","permittee_s_license_type":"P","applicant_business_address":"73-04 METROPOLITAN AVENUE, FL 1","filing_representative_last_name":"LIN","filing_representative_first_name":"XINGSONG","filing_representative_business_name":"FLUSHING PLUMBING CORP","neighborhood_tabulation_area_nta_2020":"Williamsburg"},"geometry":{"type":"Point","coordinates":[-73.953122,40.712226]}},{"type":"Feature","properties":{"date":"2025-04-30T04:00:00.000Z","year":2025,"description":"INSTALL SEWER CONNECTION FOR SD1&2 ONLY","metadescription":"Plumbing. INSTALL SEWER CONNECTION FOR SD1&2 ONLY. Signed-off. 58 ROAD","address":"58 ROAD","bbl":"4063740014","lot":"14","c_b_no":"407","house_no":"136-32","approved_date":"2025 Apr 21 12:00:00 AM","filing_reason":"Initial Permit","work_on_floor":"Open Space","community_board":"407","sequence_number":"1","tracking_number":"707322668","applicant_license":"001901","census_tract_2020":"80301","job_filing_number":"Q00964899-S3","applicant_last_name":"WEIDNER","estimated_job_costs":"0","owner_business_name":"GOGO GAO 58 RD LLC","applicant_first_name":"DOUGLAS","applicant_middle_name":"M","applicant_business_name":"TRI STATE PLBG & HTG INC","permittee_s_license_type":"P","applicant_business_address":"33-70 PRINCE STREET, SUITE 706","neighborhood_tabulation_area_nta_2020":"Queensboro Hill"},"geometry":{"type":"Point","coordinates":[-73.82908,40.744892]}},{"type":"Feature","properties":{"date":"2025-02-14T05:00:00.000Z","year":2025,"description":"Provide domestic supply risers to future bathroom fixtures. Provide sanitary connection for each bathroom to main sanitary riser.","metadescription":"Plumbing. Provide domestic supply risers to future bathroom fixtures. Provide sanitary connection for each bathroom to main sanitary riser.. Permit Issued. RIVER AVENUE","address":"RIVER AVENUE","bbl":"2024837501","lot":"7501","c_b_no":"204","house_no":"810","approved_date":"2024 Dec 11 12:00:00 AM","filing_reason":"Initial Permit","work_on_floor":"Floor Number(s) 1 through 2","community_board":"204","sequence_number":"1","tracking_number":"668432415","applicant_license":"001864","census_tract_2020":"6301","job_filing_number":"X01147102-I1","applicant_last_name":"SMALL","estimated_job_costs":"4500","owner_business_name":"810 RIVER PARTNERS LLC","applicant_first_name":"ERROL","applicant_middle_name":"C","applicant_business_name":"ROCK E SMALL PLBG&HTG INC","permittee_s_license_type":"P","applicant_business_address":"152-32 ROCKAWAY BLVD","neighborhood_tabulation_area_nta_2020":"Concourse-Concourse Village"},"geometry":{"type":"Point","coordinates":[-73.926925,40.826092]}},{"type":"Feature","properties":{"date":"2025-02-04T05:00:00.000Z","year":2025,"description":"New Storm-water sewer work from the existing detention tank that is routed through the site. Work includes replacing the storm sewer connection to the city sewer in Autumn Avenue and associated sitework.","metadescription":"Plumbing. New Storm-water sewer work from the existing detention tank that is routed through the site. Work includes replacing the storm sewer connection to the city sewer in Autumn Avenue and associated sitework.. Permit Issued. WORTMAN AVENUE","address":"WORTMAN AVENUE","bbl":"3045300001","lot":"1","c_b_no":"305","house_no":"757","approved_date":"2023 Nov 13 12:00:00 AM","filing_reason":"Initial Permit","work_on_floor":"Open Space","community_board":"305","sequence_number":"1","tracking_number":"661877865","applicant_license":"001226","census_tract_2020":"1220","job_filing_number":"B00662355-S6","applicant_last_name":"BELLINI","estimated_job_costs":"500000","owner_business_name":"NYC SCHOOL CONSTRUCTION AUTHORITY","applicant_first_name":"THOMAS","applicant_middle_name":"J","applicant_business_name":"VARSITY PLBG AND HTG INC","permittee_s_license_type":"P","applicant_business_address":"31-99 123RD STREET","neighborhood_tabulation_area_nta_2020":"East New York-City Line"},"geometry":{"type":"Point","coordinates":[-73.866074,40.664077]}},{"type":"Feature","properties":{"date":"2025-01-22T05:00:00.000Z","year":2025,"description":"REROUTE CELLAR SANITARY PIPING TO COMPLY WITH SITE CONDITIONS AND SEWER CONNECTION.","metadescription":"Plumbing. REROUTE CELLAR SANITARY PIPING TO COMPLY WITH SITE CONDITIONS AND SEWER CONNECTION.. Signed-off. 137 STREET","address":"137 STREET","bbl":"4044100007","lot":"7","c_b_no":"407","house_no":"31-35","approved_date":"2022 Apr 24 12:00:00 AM","filing_reason":"Renewal Permit Without Changes","work_on_floor":"Cellar, Floor Number(s) 1 through 9, Roof","community_board":"407","sequence_number":"3","tracking_number":"143403811","applicant_license":"002042","census_tract_2020":"88902","job_filing_number":"Q00681133-I1","applicant_last_name":"LANDOLFI JR","estimated_job_costs":"50000","owner_business_name":"PR","applicant_first_name":"RALPH","applicant_business_name":"RRP PLUMBING CORP","permittee_s_license_type":"P","applicant_business_address":"106-07 NORTHERN BOULEVARD","neighborhood_tabulation_area_nta_2020":"Flushing-Willets Point"},"geometry":{"type":"Point","coordinates":[-73.831234,40.76898]}},{"type":"Feature","properties":{"date":"2024-12-05T05:00:00.000Z","year":2024,"description":"FILING HEREWITH PLUMBING WORK FOR INSTALLATION OF STORMWATER DETENTION TANK WITH ASSOCIATED PIPING, INLETS AND A COMBINED SEWER CONNECTION & SEPARATE SANITARY CONNECTION FOR A PROPOSED 8-STORY APARTMENT BUILDING.","metadescription":"Plumbing. FILING HEREWITH PLUMBING WORK FOR INSTALLATION OF STORMWATER DETENTION TANK WITH ASSOCIATED PIPING, INLETS AND A COMBINED SEWER CONNECTION & SEPARATE SANITARY CONNECTION FOR A PROPOSED 8-STORY APARTMENT BUILDING.. Signed-off. EAST  176 STREET","address":"EAST  176 STREET","bbl":"2028920034","lot":"34","c_b_no":"205","house_no":"334","approved_date":"2022 Feb 24 12:00:00 AM","filing_reason":"Renewal Permit Without Changes","work_on_floor":"Open Space, Sub-Cellar","community_board":"205","sequence_number":"3","tracking_number":"611837786","applicant_license":"001250","census_tract_2020":"231","job_filing_number":"X00569264-I1","applicant_last_name":"TALALOVSKY","estimated_job_costs":"1000.09","owner_business_name":"COMMUNITY ACCESS, INC.","applicant_first_name":"MARK","applicant_business_name":"HF GROUP PLMBG & SPNKLER","permittee_s_license_type":"P","applicant_business_address":"2618 WEST 13TH STREET","neighborhood_tabulation_area_nta_2020":"Mount Hope"},"geometry":{"type":"Point","coordinates":[-73.903209,40.847472]}},{"type":"Feature","properties":{"date":"2024-11-29T05:00:00.000Z","year":2024,"description":"PLUMBING SYSTEMS  FILED IN CONJUNCTION WITH ALT # X01079616-I1 INCLUDING NEW W/S FIXTURES, GAS FIXTURES AND STORM FIXTURE TO EXISTING SEWER CONNECTION","metadescription":"Plumbing. PLUMBING SYSTEMS  FILED IN CONJUNCTION WITH ALT # X01079616-I1 INCLUDING NEW W/S FIXTURES, GAS FIXTURES AND STORM FIXTURE TO EXISTING SEWER CONNECTION. Signed-off. BRONX RIVER AVENUE","address":"BRONX RIVER AVENUE","bbl":"2038850032","lot":"32","c_b_no":"209","house_no":"1406","approved_date":"2024 Nov 27 12:00:00 AM","filing_reason":"Initial Permit","work_on_floor":"Floor Number(s)-2-SO-9502-X01079616-I1, Basement-SO-9815-X01079616-I1, Basement-SO-5802-X01079616-I1, Floor Number(s)-1-SO-6178-X01079616-I1, Roof-SO-9427-X01079616-I1, Open Space","community_board":"209","sequence_number":"1","tracking_number":"440496494","applicant_license":"000613","census_tract_2020":"56","job_filing_number":"X01079616-S1","applicant_last_name":"HARRIS JR","estimated_job_costs":"110000","owner_business_name":"MJH CONSTRUCTION CORP","applicant_first_name":"JOSEPH","applicant_middle_name":"C","applicant_business_name":"A M B MECHANICAL INC","permittee_s_license_type":"P","applicant_business_address":"152-32 ROCKAWAY BLVD","filing_representative_last_name":"PL CONSULTING GROUP","filing_representative_first_name":"DOB","filing_representative_business_name":"PL CONSULTING GROUP","neighborhood_tabulation_area_nta_2020":"Soundview-Bruckner-Bronx River"},"geometry":{"type":"Point","coordinates":[-73.879605,40.833973]}},{"type":"Feature","properties":{"date":"2024-10-25T04:00:00.000Z","year":2024,"description":"K358 : Site Plumbing : Installation of Detention tank, catch basins, Trench Drains, Storm Piping Connection, Sanitary Connection, Domestic Water Service, Combined Domestic & Sprinkler Connection","metadescription":"Plumbing. K358 : Site Plumbing : Installation of Detention tank, catch basins, Trench Drains, Storm Piping Connection, Sanitary Connection, Domestic Water Service, Combined Domestic & Sprinkler Connection. Permit Issued. AVENUE X","address":"AVENUE X","bbl":"3072080012","lot":"12","c_b_no":"313","house_no":"106","approved_date":"2023 May 02 12:00:00 AM","filing_reason":"Renewal Permit Without Changes","work_on_floor":"Open Space","community_board":"313","sequence_number":"2","tracking_number":"520947165","applicant_license":"000161","census_tract_2020":"308","job_filing_number":"B00795046-S5","applicant_last_name":"LEVINE","estimated_job_costs":"500000","owner_business_name":"NYC SCHOOL CONSTRUCTION AUTHORITY","applicant_first_name":"LAWRENCE J","applicant_business_name":"PAR PLUMBING CO., INC","permittee_s_license_type":"P","applicant_business_address":"101 PARK AVENUE LOWER LOBBY","filing_representative_last_name":"BERMUDEZ","filing_representative_first_name":"TATIANA","filing_representative_business_name":"TAREK M. ZEID, P.E., PLLC","neighborhood_tabulation_area_nta_2020":"Gravesend (South)"},"geometry":{"type":"Point","coordinates":[-73.979236,40.589545]}},{"type":"Feature","properties":{"date":"2024-10-24T04:00:00.000Z","year":2024,"description":"PROPOSED DETENTION TANK IN CELLAR LEVEL. UNDERGROUND STORMWATER CONNECTION AND SANITARY CONNECTION ASSOCIATED WITH NEW 1-STORY COMMERCIAL BUILDING; CONNECT TO EXISTING NYC COMBINED SEWER.","metadescription":"Plumbing. PROPOSED DETENTION TANK IN CELLAR LEVEL. UNDERGROUND STORMWATER CONNECTION AND SANITARY CONNECTION ASSOCIATED WITH NEW 1-STORY COMMERCIAL BUILDING; CONNECT TO EXISTING NYC COMBINED SEWER.. Signed-off. 69 STREET","address":"69 STREET","bbl":"4025000013","lot":"13","c_b_no":"405","house_no":"55-31","approved_date":"2024 Sep 11 12:00:00 AM","filing_reason":"Initial Permit","work_on_floor":"Cellar-SO-6290-Q00927143-I1, Underground","community_board":"405","sequence_number":"1","tracking_number":"830256667","applicant_license":"002394","census_tract_2020":"49302","job_filing_number":"Q00927143-S7","applicant_last_name":"KREPA","estimated_job_costs":"0","owner_business_name":"MASPETH FEDERAL SAVINGS","applicant_first_name":"BOGDAN","applicant_business_name":"CARA PLUMBING GROUP INC","permittee_s_license_type":"P","applicant_business_address":"989 EAST 35TH STREET","neighborhood_tabulation_area_nta_2020":"Maspeth"},"geometry":{"type":"Point","coordinates":[-73.895456,40.727419]}},{"type":"Feature","properties":{"date":"2024-10-09T04:00:00.000Z","year":2024,"description":"NEW STORM AND SEWER CONNECTION TO EXISTING COMMERCIAL BUILDING","metadescription":"Plumbing. NEW STORM AND SEWER CONNECTION TO EXISTING COMMERCIAL BUILDING. Permit Issued. VICTORY BOULEVARD","address":"VICTORY BOULEVARD","bbl":"5021590015","lot":"15","c_b_no":"502","house_no":"3130","approved_date":"2024 Jun 06 12:00:00 AM","filing_reason":"Initial Permit","work_on_floor":"Floor Number(s) 1 through 1, Open Space","community_board":"502","sequence_number":"1","tracking_number":"526295534","applicant_license":"001039","census_tract_2020":"29105","job_filing_number":"S01011699-I1","applicant_last_name":"SARDANELLI","estimated_job_costs":"20000","owner_business_name":"QUENTIN AUTO CENTER","applicant_first_name":"THOMAS","applicant_business_name":"QUALITY PLUMBING, INC","permittee_s_license_type":"P","applicant_business_address":"40 LASALLE STREET","neighborhood_tabulation_area_nta_2020":"New Springville-Willowbrook-Bulls Head-Travis"},"geometry":{"type":"Point","coordinates":[-74.163959,40.607013]}},{"type":"Feature","properties":{"date":"2024-10-04T04:00:00.000Z","year":2024,"description":"Subsequent Filing for exterior plumbing work for sewer connection only","metadescription":"Plumbing. Subsequent Filing for exterior plumbing work for sewer connection only. Permit Issued. BAY   53 STREET","address":"BAY   53 STREET","bbl":"3069490076","lot":"76","c_b_no":"313","house_no":"154","approved_date":"2024 Oct 03 12:00:00 AM","filing_reason":"Initial Permit","work_on_floor":"Open Space","community_board":"313","sequence_number":"1","tracking_number":"755382588","applicant_license":"001892","census_tract_2020":"348","job_filing_number":"B00351777-S2","applicant_last_name":"HUNG","estimated_job_costs":"8000","owner_business_name":"M.S.Y. GROUP INC","applicant_first_name":"SIMON","applicant_business_name":"NYC MAINMAN CORP","permittee_s_license_type":"P","applicant_business_address":"32-37 62ND STREET","filing_representative_last_name":"HUNG","filing_representative_first_name":"SIMON","filing_representative_business_name":"QMB PLUMBING & HEATING INC","neighborhood_tabulation_area_nta_2020":"Coney Island-Sea Gate"},"geometry":{"type":"Point","coordinates":[-73.987565,40.58284]}},{"type":"Feature","properties":{"date":"2024-03-18T04:00:00.000Z","year":2024,"description":"All plumbing systems required for new car dealership building.  New storm drainage to connect to the storm sewer. New sanitary sewer connection with a new house trap. New gas connection for building heating systems.  New domestic water connection","metadescription":"Plumbing. All plumbing systems required for new car dealership building.  New storm drainage to connect to the storm sewer. New sanitary sewer connection with a new house trap. New gas connection for building heating systems.  New domestic water connection. Permit Issued. NORTHERN BOULEVARD","address":"NORTHERN BOULEVARD","lot":"500","c_b_no":"401","house_no":"44-16","approved_date":"2023 Mar 16 12:00:00 AM","filing_reason":"Renewal Permit with Changes","work_on_floor":"Floor Number(s)-2-SO-7384-Q00649860-I1, Floor Number(s)-2-SO-7384-Q00649860-I1, Roof, Underground","community_board":"401","sequence_number":"3","tracking_number":"566481860","applicant_license":"000161","census_tract_2020":"17102","job_filing_number":"Q00649860-S4","applicant_last_name":"LEVINE","estimated_job_costs":"1000","owner_business_name":"ARGONAUT HOLDINGS, LLC","applicant_first_name":"LAWRENCE J","applicant_business_name":"PAR PLUMBING CO., INC","permittee_s_license_type":"P","applicant_business_address":"101 PARK AVENUE LOWER LOBBY","filing_representative_last_name":"STROUSE","filing_representative_first_name":"PATRICIA","filing_representative_business_name":"AWS PLUMBIN HEATING & AC","neighborhood_tabulation_area_nta_2020":"Sunnyside Yards (North)"},"geometry":{"type":"Point","coordinates":[-73.91858,40.753686]}},{"type":"Feature","properties":{"date":"2024-03-11T04:00:00.000Z","year":2024,"description":"All plumbing systems required for new car dealership building.  New storm drainage to connect to the storm sewer. New sanitary sewer connection with a new house trap. New gas connection for building heating systems.  New domestic water connection","metadescription":"Plumbing. All plumbing systems required for new car dealership building.  New storm drainage to connect to the storm sewer. New sanitary sewer connection with a new house trap. New gas connection for building heating systems.  New domestic water connection. Permit Issued. NORTHERN BOULEVARD","address":"NORTHERN BOULEVARD","lot":"500","c_b_no":"401","house_no":"44-16","approved_date":"2023 Mar 16 12:00:00 AM","filing_reason":"Renewal Permit Without Changes","work_on_floor":"Floor Number(s)-2-SO-7384-Q00649860-I1, Floor Number(s)-2-SO-7384-Q00649860-I1, Roof, Underground","community_board":"401","sequence_number":"2","tracking_number":"119256423","applicant_license":"002458","census_tract_2020":"17102","job_filing_number":"Q00649860-S4","applicant_last_name":"BLAU","estimated_job_costs":"1000","owner_business_name":"ARGONAUT HOLDINGS, LLC","applicant_first_name":"ROBERT","applicant_business_name":"LIPSKY & ROSENTHAL, INC","permittee_s_license_type":"P","applicant_business_address":"101 PARK AVENUE","filing_representative_last_name":"STROUSE","filing_representative_first_name":"PATRICIA","filing_representative_business_name":"AWS PLUMBIN HEATING & AC","neighborhood_tabulation_area_nta_2020":"Sunnyside Yards (North)"},"geometry":{"type":"Point","coordinates":[-73.91858,40.753686]}},{"type":"Feature","properties":{"date":"2024-03-08T05:00:00.000Z","year":2024,"description":"K358 : Site Plumbing : Installation of Detention tank, catch basins, Trench Drains, Storm Piping Connection, Sanitary Connection, Domestic Water Service, Combined Domestic & Sprinkler Connection","metadescription":"Plumbing. K358 : Site Plumbing : Installation of Detention tank, catch basins, Trench Drains, Storm Piping Connection, Sanitary Connection, Domestic Water Service, Combined Domestic & Sprinkler Connection. Permit Issued. AVENUE X","address":"AVENUE X","bbl":"3072080012","lot":"12","c_b_no":"313","house_no":"106","approved_date":"2023 May 02 12:00:00 AM","filing_reason":"Initial Permit","work_on_floor":"Open Space","community_board":"313","sequence_number":"1","tracking_number":"690489698","applicant_license":"000161","census_tract_2020":"308","job_filing_number":"B00795046-S5","applicant_last_name":"LEVINE","estimated_job_costs":"500000","owner_business_name":"NYC SCHOOL CONSTRUCTION AUTHORITY","applicant_first_name":"LAWRENCE J","applicant_business_name":"PAR PLUMBING CO., INC","permittee_s_license_type":"P","applicant_business_address":"101 PARK AVENUE LOWER LOBBY","filing_representative_last_name":"BERMUDEZ","filing_representative_first_name":"TATIANA","filing_representative_business_name":"TAREK M. ZEID, P.E., PLLC","neighborhood_tabulation_area_nta_2020":"Gravesend (South)"},"geometry":{"type":"Point","coordinates":[-73.979236,40.589545]}},{"type":"Feature","properties":{"date":"2024-02-28T05:00:00.000Z","year":2024,"description":"Installation of new W/S piping, new backflow, new DEP sewer connection and new water service to two NYC Parks trailers as per plans filed herewith.","metadescription":"Plumbing. Installation of new W/S piping, new backflow, new DEP sewer connection and new water service to two NYC Parks trailers as per plans filed herewith.. Signed-off. ROCKAWAY BEACH BOULEVARD","address":"ROCKAWAY BEACH BOULEVARD","bbl":"4163250227","lot":"227","c_b_no":"484","house_no":"149-25","approved_date":"2024 Feb 05 12:00:00 AM","filing_reason":"Initial Permit","work_on_floor":"Floor Number(s) 1 through 1, Open Space","community_board":"484","sequence_number":"1","tracking_number":"237762260","applicant_license":"001914","census_tract_2020":"918","job_filing_number":"Q00858330-I1","applicant_last_name":"COMBATES","estimated_job_costs":"140000","owner_business_name":"ELMHURST HOSPITAL CENTER","applicant_first_name":"PETER","applicant_business_name":"A-1 UNDERGRND PLMBNG CON","permittee_s_license_type":"P","applicant_business_address":"22 RUTGERS STREET.CELLAR","filing_representative_last_name":"R LALBIHARI","filing_representative_first_name":"BIBI","filing_representative_business_name":"JENNY FLORES EXPEDITING","neighborhood_tabulation_area_nta_2020":"Jacob Riis Park-Fort Tilden-Breezy Point Tip"},"geometry":{"type":"Point","coordinates":[-73.864901,40.568958]}},{"type":"Feature","properties":{"date":"2024-01-04T05:00:00.000Z","year":2024,"description":"REROUTE CELLAR SANITARY PIPING TO COMPLY WITH SITE CONDITIONS AND SEWER CONNECTION.","metadescription":"Plumbing. REROUTE CELLAR SANITARY PIPING TO COMPLY WITH SITE CONDITIONS AND SEWER CONNECTION.. Signed-off. 137 STREET","address":"137 STREET","bbl":"4044100007","lot":"7","c_b_no":"407","house_no":"31-35","approved_date":"2022 Apr 24 12:00:00 AM","filing_reason":"Renewal Permit Without Changes","work_on_floor":"Cellar, Floor Number(s) 1 through 9, Roof","community_board":"407","sequence_number":"2","tracking_number":"811512714","applicant_license":"002042","census_tract_2020":"88902","job_filing_number":"Q00681133-I1","applicant_last_name":"LANDOLFI JR","estimated_job_costs":"50000","owner_business_name":"PR","applicant_first_name":"RALPH","applicant_business_name":"RRP PLUMBING CORP","permittee_s_license_type":"P","applicant_business_address":"106-07 NORTHERN BOULEVARD","neighborhood_tabulation_area_nta_2020":"Flushing-Willets Point"},"geometry":{"type":"Point","coordinates":[-73.831234,40.76898]}},{"type":"Feature","properties":{"date":"2023-12-06T05:00:00.000Z","year":2023,"description":"FILING HEREWITH PLUMBING WORK FOR INSTALLATION OF STORMWATER DETENTION TANK WITH ASSOCIATED PIPING, INLETS AND A COMBINED SEWER CONNECTION & SEPARATE SANITARY CONNECTION FOR A PROPOSED 8-STORY APARTMENT BUILDING.","metadescription":"Plumbing. FILING HEREWITH PLUMBING WORK FOR INSTALLATION OF STORMWATER DETENTION TANK WITH ASSOCIATED PIPING, INLETS AND A COMBINED SEWER CONNECTION & SEPARATE SANITARY CONNECTION FOR A PROPOSED 8-STORY APARTMENT BUILDING.. Signed-off. EAST  176 STREET","address":"EAST  176 STREET","bbl":"2028920034","lot":"34","c_b_no":"205","house_no":"334","approved_date":"2022 Feb 24 12:00:00 AM","filing_reason":"Renewal Permit Without Changes","work_on_floor":"Open Space, Sub-Cellar","community_board":"205","sequence_number":"2","tracking_number":"116173958","applicant_license":"001250","census_tract_2020":"231","job_filing_number":"X00569264-I1","applicant_last_name":"TALALOVSKY","estimated_job_costs":"1000.09","owner_business_name":"COMMUNITY ACCESS, INC.","applicant_first_name":"MARK","applicant_business_name":"HF GROUP PLMBG & SPNKLER","permittee_s_license_type":"P","applicant_business_address":"2618 WEST 13TH STREET","neighborhood_tabulation_area_nta_2020":"Mount Hope"},"geometry":{"type":"Point","coordinates":[-73.903209,40.847472]}},{"type":"Feature","properties":{"date":"2023-10-06T04:00:00.000Z","year":2023,"description":"Replacement of failing private on-site sewage disposal system at Property with a nitrogen-reducing system (referred to as I/A OWTS in other NYS counties). Sewer connection is unavailable for property location (Douglaston Manor).","metadescription":"Plumbing. Replacement of failing private on-site sewage disposal system at Property with a nitrogen-reducing system (referred to as I/A OWTS in other NYS counties). Sewer connection is unavailable for property location (Douglaston Manor).. Permit Issued. KNOLLWOOD AVENUE","address":"KNOLLWOOD AVENUE","bbl":"4080230026","lot":"26","c_b_no":"411","house_no":"348","approved_date":"2023 Jan 30 12:00:00 AM","filing_reason":"Initial Permit","work_on_floor":"Open Space","community_board":"411","sequence_number":"1","tracking_number":"716256188","applicant_license":"001575","census_tract_2020":"1483","job_filing_number":"Q08011936-I1","applicant_last_name":"MARCHESE","estimated_job_costs":"21000","owner_business_name":"PR","applicant_first_name":"PHILIP","applicant_business_name":"MARQUIS P & H CO., INC","permittee_s_license_type":"P","applicant_business_address":"243-47 MERRICK BOULEVARD","filing_representative_last_name":"RUBIN","filing_representative_first_name":"STEVEN","filing_representative_business_name":"LEWSAN CONSULTANTS","neighborhood_tabulation_area_nta_2020":"Douglaston-Little Neck"},"geometry":{"type":"Point","coordinates":[-73.750209,40.78001]}},{"type":"Feature","properties":{"date":"2023-09-27T04:00:00.000Z","year":2023,"description":"PL Civil application for repair and relay of the sanitary sewer connection and associated site removals and restoration","metadescription":"Plumbing. PL Civil application for repair and relay of the sanitary sewer connection and associated site removals and restoration. Signed-off. 131 STREET","address":"131 STREET","bbl":"4041370001","lot":"1","c_b_no":"407","house_no":"18-31","approved_date":"2023 Jun 23 12:00:00 AM","filing_reason":"Initial Permit","work_on_floor":"Open Space","community_board":"407","sequence_number":"1","tracking_number":"592349104","applicant_license":"002176","census_tract_2020":"945","job_filing_number":"Q00612420-S1","applicant_last_name":"WILLIAMS","estimated_job_costs":"15000","owner_business_name":"INFINITY QUEENS LLC","applicant_first_name":"MICHAEL","applicant_business_name":"CIVETTA MECHANICAL, LLC","permittee_s_license_type":"P","applicant_business_address":"732 GARRISON AVENUE","filing_representative_last_name":"PHAGOO","filing_representative_first_name":"JOEL","filing_representative_business_name":"JOEL PHAGOO P.E. PLLC","neighborhood_tabulation_area_nta_2020":"College Point"},"geometry":{"type":"Point","coordinates":[-73.837713,40.782958]}},{"type":"Feature","properties":{"date":"2023-09-08T04:00:00.000Z","year":2023,"description":"PROVIDE NEW PLUMBING SYSTEM IN CONJUNCTION WITH NB APPLICATION, NEW SEWER CONNECTION AND NEW WATER SERVICE.","metadescription":"Plumbing. PROVIDE NEW PLUMBING SYSTEM IN CONJUNCTION WITH NB APPLICATION, NEW SEWER CONNECTION AND NEW WATER SERVICE.. Signed-off. 20 STREET","address":"20 STREET","bbl":"3008857503","lot":"65","c_b_no":"307","house_no":"265","approved_date":"2023 Mar 01 12:00:00 AM","filing_reason":"Initial Permit","work_on_floor":"Cellar-SO-4623-B07999998-I1, Cellar-SO-9617-B07999998-I1, Cellar-SO-9192-B07999998-I1, Floor Number(s)-1-SO-5189-B07999998-I1, Floor Number(s)-2-SO-1673-B07999998-I1, Floor Number(s)-3-SO-6187-B07999998-I1, Floor Number(s)-4-SO-9229-B07999998-I1, Penthouse-4-SO-4066-B07999998-I1, Roof","community_board":"307","sequence_number":"1","tracking_number":"278152898","applicant_license":"001864","census_tract_2020":"143","job_filing_number":"B07999998-S4","applicant_last_name":"SMALL","estimated_job_costs":"1000","owner_business_name":"PR","applicant_first_name":"ERROL","applicant_business_name":"ROCK E SMALL PLBG&HTG INC","permittee_s_license_type":"P","applicant_business_address":"152-32 ROCKAWAY BLVD","neighborhood_tabulation_area_nta_2020":"Sunset Park (West)"},"geometry":{"type":"Point","coordinates":[-73.992096,40.661473]}},{"type":"Feature","properties":{"date":"2023-08-02T04:00:00.000Z","year":2023,"description":"Demo of existing domestic water system, water heater, and existing fixtures. Existing sanitary serving existing bathrooms to remain. New domestic water system, water heater, sanitary connection to new bathrooms, gas fireplaces, and plumbing fixtures.","metadescription":"Plumbing. Demo of existing domestic water system, water heater, and existing fixtures. Existing sanitary serving existing bathrooms to remain. New domestic water system, water heater, sanitary connection to new bathrooms, gas fireplaces, and plumbing fixtures.. Signed-off. DODGEWOOD ROAD","address":"DODGEWOOD ROAD","bbl":"2059240600","lot":"600","c_b_no":"208","house_no":"4675","approved_date":"2022 Feb 14 12:00:00 AM","filing_reason":"Renewal Permit Without Changes","work_on_floor":"Attic, Floor Number(s) 1 through 1, Open Space","community_board":"208","sequence_number":"2","tracking_number":"209288930","applicant_license":"000723","census_tract_2020":"309","job_filing_number":"X00648698-I1","applicant_last_name":"TIEGER","estimated_job_costs":"20000","owner_business_name":"PR","applicant_first_name":"SYLVAN","applicant_business_name":"S. TIEGER PLBG. CO., INC","permittee_s_license_type":"P","applicant_business_address":"461 WEST 261 STREET","neighborhood_tabulation_area_nta_2020":"Riverdale-Spuyten Duyvil"},"geometry":{"type":"Point","coordinates":[-73.912129,40.894048]}},{"type":"Feature","properties":{"date":"2023-04-19T04:00:00.000Z","year":2023,"description":"Plumbing, Sanitary and storm sewer connection work to be conducted in conjunction with DOB Alt 1 application # 540185011","metadescription":"Plumbing. Plumbing, Sanitary and storm sewer connection work to be conducted in conjunction with DOB Alt 1 application # 540185011. Signed-off. NEWBERRY AVENUE","address":"NEWBERRY AVENUE","bbl":"5032910014","lot":"14","c_b_no":"502","house_no":"56","approved_date":"2023 Mar 14 12:00:00 AM","filing_reason":"Initial Permit","work_on_floor":"Open Space","community_board":"502","sequence_number":"1","tracking_number":"974416801","applicant_license":"001599","census_tract_2020":"9601","job_filing_number":"S00830174-I1","applicant_last_name":"ROTUNNO","estimated_job_costs":"5000","owner_business_name":"PR","applicant_first_name":"JOSEPH","applicant_business_name":"JFR CONSTRUCTION CORP","permittee_s_license_type":"P","applicant_business_address":"16 NORTH MADA AVENUE","filing_representative_last_name":"PODLUCKY","filing_representative_first_name":"KAREN","filing_representative_business_name":"KAREN PODLUCKY","neighborhood_tabulation_area_nta_2020":"Grasmere-Arrochar-South Beach-Dongan Hills"},"geometry":{"type":"Point","coordinates":[-74.093894,40.594929]}},{"type":"Feature","properties":{"date":"2023-03-23T04:00:00.000Z","year":2023,"description":"All plumbing systems required for new car dealership building.  New storm drainage to connect to the storm sewer. New sanitary sewer connection with a new house trap. New gas connection for building heating systems.  New domestic water connection","metadescription":"Plumbing. All plumbing systems required for new car dealership building.  New storm drainage to connect to the storm sewer. New sanitary sewer connection with a new house trap. New gas connection for building heating systems.  New domestic water connection. Permit Issued. NORTHERN BOULEVARD","address":"NORTHERN BOULEVARD","lot":"500","c_b_no":"401","house_no":"44-16","approved_date":"2023 Mar 16 12:00:00 AM","filing_reason":"Initial Permit","work_on_floor":"Floor Number(s)-2-SO-7384-Q00649860-I1, Floor Number(s)-2-SO-7384-Q00649860-I1, Roof, Underground","community_board":"401","sequence_number":"1","tracking_number":"580074502","applicant_license":"002458","census_tract_2020":"17102","job_filing_number":"Q00649860-S4","applicant_last_name":"BLAU","estimated_job_costs":"1000","owner_business_name":"ARGONAUT HOLDINGS, LLC","applicant_first_name":"ROBERT","applicant_business_name":"LIPSKY & ROSENTHAL, INC","permittee_s_license_type":"P","applicant_business_address":"101 PARK AVENUE","filing_representative_last_name":"STROUSE","filing_representative_first_name":"PATRICIA","filing_representative_business_name":"AWS PLUMBIN HEATING & AC","neighborhood_tabulation_area_nta_2020":"Sunnyside Yards (North)"},"geometry":{"type":"Point","coordinates":[-73.91858,40.753686]}},{"type":"Feature","properties":{"date":"2022-11-22T05:00:00.000Z","year":2022,"description":"FILING HEREWITH PLUMBING WORK FOR INSTALLATION OF STORMWATER DETENTION TANK WITH ASSOCIATED PIPING, INLETS AND A COMBINED SEWER CONNECTION & SEPARATE SANITARY CONNECTION FOR A PROPOSED 8-STORY APARTMENT BUILDING.","metadescription":"Plumbing. FILING HEREWITH PLUMBING WORK FOR INSTALLATION OF STORMWATER DETENTION TANK WITH ASSOCIATED PIPING, INLETS AND A COMBINED SEWER CONNECTION & SEPARATE SANITARY CONNECTION FOR A PROPOSED 8-STORY APARTMENT BUILDING.. Signed-off. EAST  176 STREET","address":"EAST  176 STREET","bbl":"2028920034","lot":"34","c_b_no":"205","house_no":"334","approved_date":"2022 Feb 24 12:00:00 AM","filing_reason":"Initial Permit","work_on_floor":"Open Space, Sub-Cellar","community_board":"205","sequence_number":"1","tracking_number":"757253183","applicant_license":"001250","census_tract_2020":"231","job_filing_number":"X00569264-I1","applicant_last_name":"TALALOVSKY","estimated_job_costs":"1000.09","owner_business_name":"COMMUNITY ACCESS, INC.","applicant_first_name":"MARK","applicant_business_name":"HF GROUP PLMBG & SPNKLER","permittee_s_license_type":"P","applicant_business_address":"2618 WEST 13TH STREET","neighborhood_tabulation_area_nta_2020":"Mount Hope"},"geometry":{"type":"Point","coordinates":[-73.903209,40.847472]}},{"type":"Feature","properties":{"date":"2022-11-01T04:00:00.000Z","year":2022,"description":"REROUTE CELLAR SANITARY PIPING TO COMPLY WITH SITE CONDITIONS AND SEWER CONNECTION.","metadescription":"Plumbing. REROUTE CELLAR SANITARY PIPING TO COMPLY WITH SITE CONDITIONS AND SEWER CONNECTION.. Signed-off. 137 STREET","address":"137 STREET","bbl":"4044100007","lot":"7","c_b_no":"407","house_no":"31-35","approved_date":"2022 Apr 24 12:00:00 AM","filing_reason":"Initial Permit","work_on_floor":"Cellar, Floor Number(s) 1 through 9, Roof","community_board":"407","sequence_number":"1","tracking_number":"285999017","applicant_license":"002042","census_tract_2020":"88902","job_filing_number":"Q00681133-I1","applicant_last_name":"LANDOLFI JR","estimated_job_costs":"50000","owner_business_name":"PR","applicant_first_name":"RALPH","applicant_business_name":"RRP PLUMBING CORP","permittee_s_license_type":"P","applicant_business_address":"134-09 36TH ROAD","neighborhood_tabulation_area_nta_2020":"Flushing-Willets Point"},"geometry":{"type":"Point","coordinates":[-73.831234,40.76898]}},{"type":"Feature","properties":{"date":"2022-04-14T04:00:00.000Z","year":2022,"description":"Demo of existing domestic water system, water heater, and existing fixtures. Existing sanitary serving existing bathrooms to remain. New domestic water system, water heater, sanitary connection to new bathrooms, gas fireplaces, and plumbing fixtures.","metadescription":"Plumbing. Demo of existing domestic water system, water heater, and existing fixtures. Existing sanitary serving existing bathrooms to remain. New domestic water system, water heater, sanitary connection to new bathrooms, gas fireplaces, and plumbing fixtures.. Signed-off. DODGEWOOD ROAD","address":"DODGEWOOD ROAD","bbl":"2059240600","lot":"600","c_b_no":"208","house_no":"4675","approved_date":"2022 Feb 14 12:00:00 AM","filing_reason":"Initial Permit","work_on_floor":"Attic, Floor Number(s) 1 through 1, Open Space","community_board":"208","sequence_number":"1","tracking_number":"580413593","applicant_license":"000723","census_tract_2020":"309","job_filing_number":"X00648698-I1","applicant_last_name":"TIEGER","estimated_job_costs":"20000","owner_business_name":"PR","applicant_first_name":"SYLVAN","applicant_business_name":"S. TIEGER PLBG. CO., INC","permittee_s_license_type":"P","applicant_business_address":"461 WEST 261 STREET","neighborhood_tabulation_area_nta_2020":"Riverdale-Spuyten Duyvil"},"geometry":{"type":"Point","coordinates":[-73.912129,40.894048]}},{"type":"Feature","properties":{"date":"2022-02-07T05:00:00.000Z","year":2022,"description":"Filing to install new combined sewer connection.","metadescription":"Plumbing. Filing to install new combined sewer connection.. Signed-off. BROOME STREET","address":"BROOME STREET","bbl":"1005780078","lot":"78","c_b_no":"102","house_no":"574","approved_date":"2022 Jan 21 12:00:00 AM","filing_reason":"Initial Permit","work_on_floor":"Basement/Sub-basement","community_board":"102","sequence_number":"1","tracking_number":"979807061","applicant_license":"001223","census_tract_2020":"37","job_filing_number":"M00649312-I1","applicant_last_name":"DIFALCO","estimated_job_costs":"10000","owner_business_name":"MOORE RESIDENCE LLC","applicant_first_name":"JERRY","applicant_business_name":"PLBG INC","permittee_s_license_type":"P","applicant_business_address":"81-15 MYRTLE AVENUE","neighborhood_tabulation_area_nta_2020":"SoHo-Little Italy-Hudson Square"},"geometry":{"type":"Point","coordinates":[-74.006725,40.724477]}},{"type":"Feature","properties":{"date":"2021-11-05T04:00:00.000Z","year":2021,"description":"FILING HEREWITH PLANS FOR PLUMBING WORK ASSOCIATED WITH THE MODIFICATION TO A CARWASH, INCLUDING A NEW DETENTION SYSTEM, SEWER CONNECTION AND INSTALLATION OF DOMESTIC WATER WELL FOR NON-POTABLE USE. NO CHANGE TO USE, EGRESS, OR OCCUPANCY.","metadescription":"Plumbing. FILING HEREWITH PLANS FOR PLUMBING WORK ASSOCIATED WITH THE MODIFICATION TO A CARWASH, INCLUDING A NEW DETENTION SYSTEM, SEWER CONNECTION AND INSTALLATION OF DOMESTIC WATER WELL FOR NON-POTABLE USE. NO CHANGE TO USE, EGRESS, OR OCCUPANCY.. Signed-off. ROOSEVELT AVENUE","address":"ROOSEVELT AVENUE","bbl":"4001380060","lot":"60","c_b_no":"402","house_no":"49-13","approved_date":"2020 Dec 10 12:00:00 AM","filing_reason":"Initial Permit","work_on_floor":"Open Space","community_board":"402","sequence_number":"1","tracking_number":"711465699","applicant_license":"001101","census_tract_2020":"25301","job_filing_number":"Q00419380-I1","applicant_last_name":"KOUMPAROULIS","estimated_job_costs":"50000","owner_business_name":"N/A","applicant_first_name":"CONSTANTINE","applicant_business_name":"ARIANA CONTRACTING INC","permittee_s_license_type":"P","applicant_business_address":"44-03 28TH AVENUE","neighborhood_tabulation_area_nta_2020":"Sunnyside"},"geometry":{"type":"Point","coordinates":[-73.915612,40.74322]}},{"type":"Feature","properties":{"date":"2021-10-12T04:00:00.000Z","year":2021,"description":"Plumbing work type associated with the new parking lot at lot 85, including a new drywell system and sanitary sewer connection. Filed in conjunction with Alt-1 420667905","metadescription":"Plumbing. Plumbing work type associated with the new parking lot at lot 85, including a new drywell system and sanitary sewer connection. Filed in conjunction with Alt-1 420667905. Signed-off. ROCKAWAY BOULEVARD","address":"ROCKAWAY BOULEVARD","bbl":"4138950085","lot":"85","c_b_no":"413","house_no":"248-51","approved_date":"2020 Nov 30 12:00:00 AM","filing_reason":"Initial Permit","work_on_floor":"Underground","community_board":"413","sequence_number":"1","tracking_number":"679652121","applicant_license":"001744","census_tract_2020":"66401","job_filing_number":"Q00413935-I1","applicant_last_name":"ALISEO","estimated_job_costs":"50000","owner_business_name":"WILDFLOWER LTD LLC","applicant_first_name":"ANDREW","applicant_business_name":"AAA PLUMBING & HTNG LLC","permittee_s_license_type":"P","applicant_business_address":"4295 ARTHUR KILL ROAD,SUITE 2A","filing_representative_last_name":"PODLUCKY","filing_representative_first_name":"KAREN","filing_representative_business_name":"KAREN PODLUCKY","neighborhood_tabulation_area_nta_2020":"Rosedale"},"geometry":{"type":"Point","coordinates":[-73.742013,40.639234]}},{"type":"Feature","properties":{"date":"2021-04-13T04:00:00.000Z","year":2021,"description":"PLUMBING AND SITEWORK AS INDICATED ON PLANS                  PAA to add sewer connection and house trap manhole as per plans attached","metadescription":"Plumbing. PLUMBING AND SITEWORK AS INDICATED ON PLANS                  PAA to add sewer connection and house trap manhole as per plans attached. Signed-off. SOUTH AVENUE","address":"SOUTH AVENUE","bbl":"5017250510","lot":"510","c_b_no":"502","house_no":"1120","approved_date":"2019 Sep 25 12:00:00 AM","filing_reason":"Renewal Permit Without Changes","work_on_floor":"Open Space","community_board":"502","sequence_number":"2","tracking_number":"330035986","applicant_license":"000968","census_tract_2020":"29102","job_filing_number":"S00234155-I1","applicant_last_name":"O'DONNELL","estimated_job_costs":"50000","owner_business_name":"NICOTRA GROUUP","applicant_first_name":"JAMES","applicant_business_name":"RICHMOND P & H CO., INC","permittee_s_license_type":"P","applicant_business_address":"318 CLOVE ROAD","neighborhood_tabulation_area_nta_2020":"New Springville-Willowbrook-Bulls Head-Travis"},"geometry":{"type":"Point","coordinates":[-74.175268,40.612692]}},{"type":"Feature","properties":{"date":"2021-01-26T05:00:00.000Z","year":2021,"description":"PROPOSE TO RELOCATE STORM & SANITARY DRAINAGE PIPING WORKS FOR EXISTING SEWER CONNECTION OF TAX LOT #1 RESIDENTIAL BUILDINGS WITHIN SEWER EASEMENT AREA ON TAX LOT #20. NO CHANGE TO USE, EGRESS, AND OCCUPANCY.","metadescription":"Plumbing. PROPOSE TO RELOCATE STORM & SANITARY DRAINAGE PIPING WORKS FOR EXISTING SEWER CONNECTION OF TAX LOT #1 RESIDENTIAL BUILDINGS WITHIN SEWER EASEMENT AREA ON TAX LOT #20. NO CHANGE TO USE, EGRESS, AND OCCUPANCY.. Signed-off. LACOMBE AVENUE","address":"LACOMBE AVENUE","bbl":"2035150020","lot":"20","c_b_no":"209","house_no":"1739","approved_date":"2019 Oct 25 12:00:00 AM","filing_reason":"Renewal Permit with Changes","work_on_floor":"Open Space","community_board":"209","sequence_number":"4","tracking_number":"341198049","applicant_license":"000376","census_tract_2020":"2001","job_filing_number":"X00196695-I1","applicant_last_name":"WEINGARTEN","estimated_job_costs":"60000","owner_business_name":"REAL ESTATE DEVELOPMENT","applicant_first_name":"STEVEN","applicant_business_name":"APEC CORP","permittee_s_license_type":"P","applicant_business_address":"931 MORRIS PARK AVENUE","filing_representative_last_name":"PODLUCKY","filing_representative_first_name":"KAREN","filing_representative_business_name":"KAREN PODLUCKY","neighborhood_tabulation_area_nta_2020":"Soundview-Clason Point"},"geometry":{"type":"Point","coordinates":[-73.86528,40.814533]}},{"type":"Feature","properties":{"date":"2020-09-02T04:00:00.000Z","year":2020,"description":"PROPOSE TO RELOCATE STORM & SANITARY DRAINAGE PIPING WORKS FOR EXISTING SEWER CONNECTION OF TAX LOT #1 RESIDENTIAL BUILDINGS WITHIN SEWER EASEMENT AREA ON TAX LOT #20. NO CHANGE TO USE, EGRESS, AND OCCUPANCY.","metadescription":"Plumbing. PROPOSE TO RELOCATE STORM & SANITARY DRAINAGE PIPING WORKS FOR EXISTING SEWER CONNECTION OF TAX LOT #1 RESIDENTIAL BUILDINGS WITHIN SEWER EASEMENT AREA ON TAX LOT #20. NO CHANGE TO USE, EGRESS, AND OCCUPANCY.. Signed-off. LACOMBE AVENUE","address":"LACOMBE AVENUE","bbl":"2035150020","lot":"20","c_b_no":"209","house_no":"1739","approved_date":"2019 Oct 25 12:00:00 AM","filing_reason":"Renewal Permit Without Changes","work_on_floor":"Open Space","community_board":"209","sequence_number":"3","tracking_number":"679954317","applicant_license":"001366","census_tract_2020":"2001","job_filing_number":"X00196695-I1","applicant_last_name":"SUTHERLAND","estimated_job_costs":"60000","owner_business_name":"REAL ESTATE DEVELOPMENT","applicant_first_name":"ROBERT","applicant_business_name":"DESIGN PLBG & HTG SVC IN","permittee_s_license_type":"P","applicant_business_address":"2000 SOUTH AVENUE","filing_representative_last_name":"PODLUCKY","filing_representative_first_name":"KAREN","filing_representative_business_name":"KAREN PODLUCKY","neighborhood_tabulation_area_nta_2020":"Soundview-Clason Point"},"geometry":{"type":"Point","coordinates":[-73.86528,40.814533]}},{"type":"Feature","properties":{"date":"2020-03-10T04:00:00.000Z","year":2020,"description":"INSTALLATION OF PLUMBING FIXTURES ON NEW ROUGHING CONNECTED TO EXISTING HOUSE TRAP AND SEWER CONNECTION FOR BATHROOMS AND UTILITY ROOM IN EXISTING PLOT FOR STORAGE OF MORE THAN FIVE MOTOR VEHICLES AND GAS PUMPS. NO CHANGE IN USE, EGRESS OR OCCUPANCY.","metadescription":"Plumbing. INSTALLATION OF PLUMBING FIXTURES ON NEW ROUGHING CONNECTED TO EXISTING HOUSE TRAP AND SEWER CONNECTION FOR BATHROOMS AND UTILITY ROOM IN EXISTING PLOT FOR STORAGE OF MORE THAN FIVE MOTOR VEHICLES AND GAS PUMPS. NO CHANGE IN USE, EGRESS OR OCCUPANCY.. Signed-off. BEAVER ROAD","address":"BEAVER ROAD","bbl":"4101070090","lot":"90","c_b_no":"412","house_no":"150-24","approved_date":"2020 Mar 04 12:00:00 AM","filing_reason":"Initial Permit","work_on_floor":"Floor Number(s) 001 through 001","community_board":"412","sequence_number":"1","tracking_number":"263602071","applicant_license":"000642","census_tract_2020":"208","job_filing_number":"Q00316176-I1","applicant_last_name":"KIOUZELLIS","estimated_job_costs":"48750","owner_business_name":"EST. OF RITA STARK","applicant_first_name":"NICHOLAS","applicant_business_name":"PHOENIX PLBG & MECH CORP","permittee_s_license_type":"P","applicant_business_address":"854 HUMBOLDT STREET","neighborhood_tabulation_area_nta_2020":"Jamaica"},"geometry":{"type":"Point","coordinates":[-73.802628,40.699364]}},{"type":"Feature","properties":{"date":"2020-03-03T05:00:00.000Z","year":2020,"description":"PROPOSE TO RELOCATE STORM & SANITARY DRAINAGE PIPING WORKS FOR EXISTING SEWER CONNECTION OF TAX LOT #1 RESIDENTIAL BUILDINGS WITHIN SEWER EASEMENT AREA ON TAX LOT #20. NO CHANGE TO USE, EGRESS, AND OCCUPANCY.","metadescription":"Plumbing. PROPOSE TO RELOCATE STORM & SANITARY DRAINAGE PIPING WORKS FOR EXISTING SEWER CONNECTION OF TAX LOT #1 RESIDENTIAL BUILDINGS WITHIN SEWER EASEMENT AREA ON TAX LOT #20. NO CHANGE TO USE, EGRESS, AND OCCUPANCY.. Signed-off. LACOMBE AVENUE","address":"LACOMBE AVENUE","bbl":"2035150020","lot":"20","c_b_no":"209","house_no":"1739","approved_date":"2019 Oct 25 12:00:00 AM","filing_reason":"Renewal Permit Without Changes","work_on_floor":"Open Space","community_board":"209","sequence_number":"2","tracking_number":"279487516","applicant_license":"001366","census_tract_2020":"2001","job_filing_number":"X00196695-I1","applicant_last_name":"SUTHERLAND","estimated_job_costs":"60000","owner_business_name":"REAL ESTATE DEVELOPMENT","applicant_first_name":"ROBERT","applicant_business_name":"DESIGN PLBG & HTG SVC IN","permittee_s_license_type":"P","applicant_business_address":"2000 SOUTH AVENUE","filing_representative_last_name":"PODLUCKY","filing_representative_first_name":"KAREN","filing_representative_business_name":"KAREN PODLUCKY","neighborhood_tabulation_area_nta_2020":"Soundview-Clason Point"},"geometry":{"type":"Point","coordinates":[-73.86528,40.814533]}},{"type":"Feature","properties":{"date":"2020-02-18T05:00:00.000Z","year":2020,"description":"PROPOSE TO RELOCATE STORM & SANITARY DRAINAGE PIPING WORKS FOR EXISTING SEWER CONNECTION OF TAX LOT #1 RESIDENTIAL BUILDINGS WITHIN SEWER EASEMENT AREA ON TAX LOT #20. NO CHANGE TO USE, EGRESS, AND OCCUPANCY.","metadescription":"Plumbing. PROPOSE TO RELOCATE STORM & SANITARY DRAINAGE PIPING WORKS FOR EXISTING SEWER CONNECTION OF TAX LOT #1 RESIDENTIAL BUILDINGS WITHIN SEWER EASEMENT AREA ON TAX LOT #20. NO CHANGE TO USE, EGRESS, AND OCCUPANCY.. Signed-off. LACOMBE AVENUE","address":"LACOMBE AVENUE","bbl":"2035150020","lot":"20","c_b_no":"209","house_no":"1739","approved_date":"2019 Oct 25 12:00:00 AM","filing_reason":"Initial Permit","work_on_floor":"Open Space","community_board":"209","sequence_number":"1","tracking_number":"778205735","applicant_license":"001366","census_tract_2020":"2001","job_filing_number":"X00196695-I1","applicant_last_name":"SUTHERLAND","estimated_job_costs":"60000","owner_business_name":"REAL ESTATE DEVELOPMENT","applicant_first_name":"ROBERT","applicant_business_name":"DESIGN PLBG & HTG SVC IN","permittee_s_license_type":"P","applicant_business_address":"2000 SOUTH AVENUE","filing_representative_last_name":"PODLUCKY","filing_representative_first_name":"KAREN","filing_representative_business_name":"KAREN PODLUCKY","neighborhood_tabulation_area_nta_2020":"Soundview-Clason Point"},"geometry":{"type":"Point","coordinates":[-73.86528,40.814533]}},{"type":"Feature","properties":{"date":"2020-01-31T05:00:00.000Z","year":2020,"description":"Install 2 floor sinks, 1 bottle filler  and 2 floor drains in bar area on 1st floor and new domestic hot/cold water and sanitary connection to existing line in cellar. All as per plans.","metadescription":"Plumbing. Install 2 floor sinks, 1 bottle filler  and 2 floor drains in bar area on 1st floor and new domestic hot/cold water and sanitary connection to existing line in cellar. All as per plans.. Signed-off. 41 AVENUE","address":"41 AVENUE","bbl":"4004180024","lot":"24","c_b_no":"401","house_no":"29-21","approved_date":"2020 Jan 14 12:00:00 AM","filing_reason":"Initial Permit","work_on_floor":"Cellar, Floor Number(s) 1 through 1","community_board":"401","sequence_number":"1","tracking_number":"128093540","applicant_license":"001842","census_tract_2020":"3301","job_filing_number":"Q00281942-I1","applicant_last_name":"TESTERMAN","estimated_job_costs":"24000","owner_business_name":"LVP LIC HOTEL LLC","applicant_first_name":"DAVID","applicant_business_name":"TESTERMAN PLBG & HTG INC","permittee_s_license_type":"P","applicant_business_address":"88-60 MYRTLE AVENUE","neighborhood_tabulation_area_nta_2020":"Queensbridge-Ravenswood-Dutch Kills"},"geometry":{"type":"Point","coordinates":[-73.936637,40.750749]}},{"type":"Feature","properties":{"date":"2019-09-30T04:00:00.000Z","year":2019,"description":"PLUMBING AND SITEWORK AS INDICATED ON PLANS                  PAA to add sewer connection and house trap manhole as per plans attached","metadescription":"Plumbing. PLUMBING AND SITEWORK AS INDICATED ON PLANS                  PAA to add sewer connection and house trap manhole as per plans attached. Signed-off. SOUTH AVENUE","address":"SOUTH AVENUE","bbl":"5017250510","lot":"510","c_b_no":"502","house_no":"1120","approved_date":"2019 Sep 25 12:00:00 AM","filing_reason":"Initial Permit","work_on_floor":"Open Space","community_board":"502","sequence_number":"1","tracking_number":"966166344","applicant_license":"000968","census_tract_2020":"29102","job_filing_number":"S00234155-I1","applicant_last_name":"O'DONNELL","estimated_job_costs":"50000","owner_business_name":"NICOTRA GROUUP","applicant_first_name":"JAMES","applicant_business_name":"RICHMOND P & H CO., INC","permittee_s_license_type":"P","applicant_business_address":"318 CLOVE ROAD","neighborhood_tabulation_area_nta_2020":"New Springville-Willowbrook-Bulls Head-Travis"},"geometry":{"type":"Point","coordinates":[-74.175268,40.612692]}},{"type":"Feature","properties":{"date":"2019-09-19T04:00:00.000Z","year":2019,"description":"Legalization of bathrooms on first and mezzanine of existing steel warehouse.  First floor bathroom is a replacement of exisitng bathroon, Mezzanine Bathroom is a new installation.  Bathroom fixtures connected to existing sewer connection.  No change in o","metadescription":"Plumbing. Legalization of bathrooms on first and mezzanine of existing steel warehouse.  First floor bathroom is a replacement of exisitng bathroon, Mezzanine Bathroom is a new installation.  Bathroom fixtures connected to existing sewer connection.  No change in o. Permit Issued. EAST 49 STREET","address":"EAST 49 STREET","bbl":"3047860079","lot":"79","c_b_no":"317","house_no":"985","approved_date":"2019 Sep 19 12:00:00 AM","filing_reason":"No Work Permit","work_on_floor":"Ground Floor, Mezzanine 1 through 2","community_board":"317","sequence_number":"1","tracking_number":"170156317","applicant_license":"002238","census_tract_2020":"932","job_filing_number":"B00219816-I1","applicant_last_name":"TRAKTMAN","estimated_job_costs":"0","owner_business_name":"BRACCI FENCE","applicant_first_name":"PAUL","applicant_business_name":"PAUL TRAKTMAN LIC PLBR IN","permittee_s_license_type":"P","applicant_business_address":"4023 AVENUE T, 1ST FL","filing_representative_last_name":"BOTTA","filing_representative_first_name":"JOSEPH","filing_representative_business_name":"JOSEPH BOTTA PE PC","neighborhood_tabulation_area_nta_2020":"East Flatbush-Farragut"},"geometry":{"type":"Point","coordinates":[-73.929827,40.637186]}}]}
