{"type":"FeatureCollection","features":[{"type":"Feature","properties":{"date":"2026-05-21T00:00:00.000Z","year":2026,"description":"DEMO THE (E) 366 SQ. FT. GARAGE","metadescription":"Bldg-Demolition. 1 or 2 Family Dwelling. DEMO THE (E) 366 SQ. FT. GARAGE. Issued. 13223 W ROSE AVE","address":"13223 Rose Avenue, CA, Los Angeles, 90066, US","ct":"2714.00","ev":"N","apc":"West Los Angeles","cpa":"Palms - Mar Vista - Del Rey","zone":"R1V2","solar":"N","pin_nbr":"114B149   503","use_code":"23","status_date":"05/21/2026","permit_group":"Building","refresh_time":"06/10/2026","type_lat_lon":"ADDRESS","business_unit":"Plan Check at Counter"},"geometry":{"type":"Point","coordinates":[-118.45409,34.00886]}},{"type":"Feature","properties":{"date":"2025-09-01T00:00:00.000Z","year":2025,"description":"DEMO EXISTING DETACHED GARAGE.","metadescription":"Bldg-Demolition. 1 or 2 Family Dwelling. DEMO EXISTING DETACHED GARAGE.. Verifications in Progress. 13141 W ROSE AVE","address":"13141 Rose Avenue, CA, Los Angeles, 90066, US","ct":"2714.00","ev":"N","apc":"West Los Angeles","cpa":"Palms - Mar Vista - Del Rey","zone":"R1V2","solar":"N","pin_nbr":"114B149   460","use_code":"23","status_date":"09/23/2025","permit_group":"Building","refresh_time":"06/10/2026","type_lat_lon":"ADDRESS","business_unit":"Plan Check at Counter"},"geometry":{"type":"Point","coordinates":[-118.45334,34.00919]}},{"type":"Feature","properties":{"date":"2025-07-24T00:00:00.000Z","year":2025,"description":"Early start interior non-structural demolition of non-bearing partitions, fixtures, shelves and counters.  MEPs & fire sprinklers to remain as is, no change to the restrooms or exterior of the building.","metadescription":"Bldg-Alter/Repair. Commercial. Early start interior non-structural demolition of non-bearing partitions, fixtures, shelves and counters.  MEPs & fire sprinklers to remain as is, no change to the restrooms or exterior of the building.. Issued. 235 S MAIN ST","address":"235 Main Street, CA, Venice, 90291, US","ct":"2734.04","ev":"N","apc":"West Los Angeles","cpa":"Venice","zone":"(Q)C4-2D","solar":"N","pin_nbr":"111B141   545","use_code":"17","status_date":"07/24/2025","permit_group":"Building","refresh_time":"06/10/2026","type_lat_lon":"ADDRESS","business_unit":"Plan Check at Counter"},"geometry":{"type":"Point","coordinates":[-118.47874,33.99683]}},{"type":"Feature","properties":{"date":"2025-03-06T00:00:00.000Z","year":2025,"description":"Supplemental permit to 24014-20000-02705 to revise demo plan and structural plans","metadescription":"Bldg-Alter/Repair. 1 or 2 Family Dwelling. Supplemental permit to 24014-20000-02705 to revise demo plan and structural plans. Permit Finaled. 13235 W LAKE ST","address":"13235 Lake Street, CA, Los Angeles, 90066, US","ct":"2714.00","ev":"N","apc":"West Los Angeles","cpa":"Palms - Mar Vista - Del Rey","zone":"R1V2","solar":"N","pin_nbr":"114B149   656","use_code":"1","status_date":"03/09/2026","permit_group":"Building","refresh_time":"06/10/2026","type_lat_lon":"BUILDING","business_unit":"Plan Check at Counter"},"geometry":{"type":"Point","coordinates":[-118.45402024,34.00787485]}},{"type":"Feature","properties":{"date":"2024-12-10T00:00:00.000Z","year":2024,"description":"DEMOLISH THE (E) 10' X 18' DETACHED GARAGE.","metadescription":"Bldg-Demolition. 1 or 2 Family Dwelling. DEMOLISH THE (E) 10' X 18' DETACHED GARAGE.. Permit Finaled. 866 E COMMONWEALTH AVE","address":"866 Commonwealth Avenue, CA, Venice, 90291, US","ct":"2731.00","ev":"N","apc":"West Los Angeles","cpa":"Venice","zone":"R1V2","solar":"N","pin_nbr":"111B145   204","use_code":"7","status_date":"12/12/2024","permit_group":"Building","refresh_time":"06/10/2026","type_lat_lon":"ADDRESS","business_unit":"Plan Check at Counter"},"geometry":{"type":"Point","coordinates":[-118.46734,34.00339]}},{"type":"Feature","properties":{"date":"2024-04-17T00:00:00.000Z","year":2024,"description":"TI OF EXISTING RESTAURANT INTERIOR INCLUDING: DEMO OF NON STRUCTURAL WALLS, DEMO OF MEZZANINE LEVEL, REMODEL OF COMMERCIAL KITCHEN, AND CONSTRUCTION OF NEW WALLS, BUILT IN BAR, AND SEATING, NO CHANGE OF OCCUPANCY AND NO CHANGE OF USE","metadescription":"Bldg-Alter/Repair. Commercial. TI OF EXISTING RESTAURANT INTERIOR INCLUDING: DEMO OF NON STRUCTURAL WALLS, DEMO OF MEZZANINE LEVEL, REMODEL OF COMMERCIAL KITCHEN, AND CONSTRUCTION OF NEW WALLS, BUILT IN BAR, AND SEATING, NO CHANGE OF OCCUPANCY AND NO CHANGE OF USE. Quality Review Completed. 5-7 E DUDLEY AVE","address":"5 Dudley Avenue, CA, Venice, 90291, US","ct":"2734.03","ev":"N","apc":"West Los Angeles","cpa":"Venice","zone":"C1-1","solar":"N","pin_nbr":"109-5A141 122","status_date":"05/20/2026","permit_group":"Building","refresh_time":"06/10/2026","type_lat_lon":"ADDRESS","business_unit":"Regular Plan Check"},"geometry":{"type":"Point","coordinates":[-118.47985,33.99411]}},{"type":"Feature","properties":{"date":"2023-04-03T00:00:00.000Z","year":2023,"description":"Demolition of (E) 1-Story Detached Garage","metadescription":"Bldg-Demolition. 1 or 2 Family Dwelling. Demolition of (E) 1-Story Detached Garage. Corrections Issued. 22 1/2 E DUDLEY AVE","address":"22 1/2 Dudley Avenue, CA, Venice, 90291, US","ct":"2734.04","ev":"N","apc":"West Los Angeles","cpa":"Venice","zone":"RD1.5-1","solar":"N","pin_nbr":"109-5A141 123","use_code":"7","status_date":"04/03/2023","permit_group":"Building","refresh_time":"06/10/2026","type_lat_lon":"ADDRESS","business_unit":"Plan Check at Counter"},"geometry":{"type":"Point","coordinates":[-118.47914,33.99429]}},{"type":"Feature","properties":{"date":"2022-06-23T00:00:00.000Z","year":2022,"description":"Demolition of (E) S.F.D, Sewer Cap and 8' High Chain Link Fence Required, Method of Demolition by Hand Wreck","metadescription":"Bldg-Demolition. 1 or 2 Family Dwelling. Demolition of (E) S.F.D, Sewer Cap and 8' High Chain Link Fence Required, Method of Demolition by Hand Wreck. Issued. 664 N KINGMAN AVE","address":"664 Kingman Avenue, CA, Santa Monica, 90402, US","ct":"2628.02","ev":"N","hl":"YES","apc":"West Los Angeles","zone":"R1H1","solar":"N","pin_nbr":"124-5A133  76","use_code":"1","status_date":"06/23/2022","permit_group":"Building","refresh_time":"06/10/2026","type_lat_lon":"ADDRESS","business_unit":"Plan Check at Counter"},"geometry":{"type":"Point","coordinates":[-118.50829,34.03602]}},{"type":"Feature","properties":{"date":"2022-03-31T00:00:00.000Z","year":2022,"description":"DEMOLITION  (E) S.F.D AND ATTACHED GARAGE TO CLEAR LOT","metadescription":"Bldg-Demolition. 1 or 2 Family Dwelling. DEMOLITION  (E) S.F.D AND ATTACHED GARAGE TO CLEAR LOT. Permit Finaled. 13137 W WARREN AVE","address":"13137 Warren Avenue, CA, Los Angeles, 90066, US","ct":"2714.00","ev":"N","apc":"West Los Angeles","cpa":"Palms - Mar Vista - Del Rey","zone":"R1V2","solar":"N","pin_nbr":"114B149   308","use_code":"1","status_date":"04/08/2022","permit_group":"Building","refresh_time":"06/10/2026","type_lat_lon":"ADDRESS","business_unit":"Plan Check at Counter"},"geometry":{"type":"Point","coordinates":[-118.45341,34.01008]}},{"type":"Feature","properties":{"date":"2021-11-16T00:00:00.000Z","year":2021,"description":"DEMO (E) S.F.D. AND (E) DETACHED GARAGE - SEWER CAP REQUIRED. PEDESTRIAN FENCE REQUIRED. CLEAR LOT.","metadescription":"Bldg-Demolition. 1 or 2 Family Dwelling. DEMO (E) S.F.D. AND (E) DETACHED GARAGE - SEWER CAP REQUIRED. PEDESTRIAN FENCE REQUIRED. CLEAR LOT.. Permit Finaled. 854 E COMMONWEALTH AVE","address":"854 Commonwealth Avenue, CA, Venice, 90291, US","ct":"2731.00","ev":"N","apc":"West Los Angeles","cpa":"Venice","zone":"R1V2","solar":"N","pin_nbr":"111B145   243","use_code":"1","status_date":"01/18/2022","permit_group":"Building","refresh_time":"06/10/2026","type_lat_lon":"ADDRESS","business_unit":"Plan Check at Counter"},"geometry":{"type":"Point","coordinates":[-118.46767,34.00321]}},{"type":"Feature","properties":{"date":"2021-10-18T00:00:00.000Z","year":2021,"description":"Demolish  (E) 2-car garage. Sewer cap and pedestrian protection fence required.","metadescription":"Bldg-Demolition. 1 or 2 Family Dwelling. Demolish  (E) 2-car garage. Sewer cap and pedestrian protection fence required.. Permit Finaled. 1410 S GLENAVON AVE","address":"1410 Glenavon Avenue, CA, Venice, 90291, US","ct":"2731.00","ev":"N","apc":"West Los Angeles","cpa":"Venice","zone":"R1V2","solar":"N","pin_nbr":"114B149   741","use_code":"7","status_date":"11/19/2021","permit_group":"Building","refresh_time":"06/10/2026","type_lat_lon":"ADDRESS","business_unit":"Plan Check at Counter"},"geometry":{"type":"Point","coordinates":[-118.45553,34.00723]}},{"type":"Feature","properties":{"date":"2021-10-04T00:00:00.000Z","year":2021,"description":"REMODEL AND ADDITION (499 SQ FT) TO 2 STORY SFD. PARTIAL DEMOLITION OF EXISTING POOL AND SPA.","metadescription":"Bldg-Addition. 1 or 2 Family Dwelling. REMODEL AND ADDITION (499 SQ FT) TO 2 STORY SFD. PARTIAL DEMOLITION OF EXISTING POOL AND SPA.. CofO Issued. 464 N EAST CHANNEL ROAD","address":"464 East Channel Road, CA, Santa Monica, 90402, US","ct":"2628.02","ev":"N","hl":"YES","apc":"West Los Angeles","zone":"R1-1","solar":"N","pin_nbr":"123B129   535","use_code":"1","status_date":"01/12/2024","construction":"Type V-B Construction","permit_group":"Building","refresh_time":"06/10/2026","type_lat_lon":"BUILDING","business_unit":"Regular Plan Check","square_footage":"498"},"geometry":{"type":"Point","coordinates":[-118.51232532,34.032965]}},{"type":"Feature","properties":{"date":"2021-06-17T00:00:00.000Z","year":2021,"description":"DEMO (E) FENCE TO CREATE NEW DRIVEWAY AND APPROACH AT REAR/SIDEYARD PER BC 2002-02","metadescription":"Nonbldg-New. 1 or 2 Family Dwelling. DEMO (E) FENCE TO CREATE NEW DRIVEWAY AND APPROACH AT REAR/SIDEYARD PER BC 2002-02. Permit Finaled. 103 E ROSE AVE","address":"103 Rose Avenue, CA, Venice, 90291, US","ct":"2734.02","ev":"N","apc":"West Los Angeles","cpa":"Venice","zone":"R3-1","solar":"N","pin_nbr":"109-5A141 172","use_code":"23","status_date":"12/11/2023","permit_group":"Building","refresh_time":"06/10/2026","type_lat_lon":"ADDRESS","business_unit":"Plan Check at Counter"},"geometry":{"type":"Point","coordinates":[-118.47859,33.99583]}},{"type":"Feature","properties":{"date":"2021-04-13T00:00:00.000Z","year":2021,"description":"EARLY START DEMO PERMIT TO REMOVE INTERIOR NON BEARING PARTITION WALLS @ 1ST AND 2ND FLOOR. (BATHROOMS TO REMAIN) . \"COMPLY WITH DEPARTMENT ORDER effective date 09/10/2014. PERMIT WILL EXPIRE 30 DAYS FROM ISSUANCE DATE\".","metadescription":"Bldg-Alter/Repair. Commercial. EARLY START DEMO PERMIT TO REMOVE INTERIOR NON BEARING PARTITION WALLS @ 1ST AND 2ND FLOOR. (BATHROOMS TO REMAIN) . \"COMPLY WITH DEPARTMENT ORDER effective date 09/10/2014. PERMIT WILL EXPIRE 30 DAYS FROM ISSUANCE DATE\".. Issued. 63 E NAVY ST","address":"63 Navy Street, CA, Venice, 90291, US","ct":"2734.02","ev":"N","apc":"West Los Angeles","cpa":"Venice","zone":"R3-1","solar":"N","pin_nbr":"111B141   554","use_code":"16","status_date":"04/13/2021","permit_group":"Building","refresh_time":"06/10/2026","type_lat_lon":"ADDRESS","business_unit":"Plan Check at Counter"},"geometry":{"type":"Point","coordinates":[-118.47987,33.99699]}},{"type":"Feature","properties":{"date":"2020-12-07T00:00:00.000Z","year":2020,"description":"Supplemental to 20016-40000-09211 to demo exterior glazing, door and install (n) multi-sliding panel door","metadescription":"Bldg-Alter/Repair. 1 or 2 Family Dwelling. Supplemental to 20016-40000-09211 to demo exterior glazing, door and install (n) multi-sliding panel door. Issued. 525 N ENTRADA DR","address":"521 Entrada Drive, CA, Santa Monica, 90402, US","ct":"2628.02","ev":"N","hl":"YES","apc":"West Los Angeles","zone":"R1H1-O","solar":"N","pin_nbr":"123A133   110","use_code":"23","status_date":"12/07/2020","permit_group":"Building","refresh_time":"06/10/2026","type_lat_lon":"ADDRESS","business_unit":"Plan Check at Counter"},"geometry":{"type":"Point","coordinates":[-118.51092,34.03293]}},{"type":"Feature","properties":{"date":"2020-10-05T00:00:00.000Z","year":2020,"description":"Patch and repair plaster & stucco on exterior of historic landmark portion of the building, paint and finish to match existing condition, replace exterior windows. Renovation of entire interior space, repaint, installation of new millwork, low voltage redesign, demo portion of interio slab for re-pour, new equipment and furniture.  Monument # LA-800. Remove and replace skylight and deck.","metadescription":"Bldg-Alter/Repair. 1 or 2 Family Dwelling. Patch and repair plaster & stucco on exterior of historic landmark portion of the building, paint and finish to match existing condition, replace exterior windows. Renovation of entire interior space, repaint, installation of new millwork, low voltage redesign, demo portion of interio slab for re-pour, new equipment and furniture.  Monument # LA-800. Remove and replace skylight and deck.. Permit Finaled. 525 N ENTRADA DR","address":"521 Entrada Drive, CA, Santa Monica, 90402, US","ct":"2628.02","ev":"N","hl":"YES","apc":"West Los Angeles","zone":"R1H1-O","solar":"N","pin_nbr":"123A133   110","use_code":"23","status_date":"05/25/2021","permit_group":"Building","refresh_time":"06/10/2026","type_lat_lon":"ADDRESS","business_unit":"Plan Check at Counter"},"geometry":{"type":"Point","coordinates":[-118.51092,34.03293]}},{"type":"Feature","properties":{"date":"2020-09-01T00:00:00.000Z","year":2020,"description":"DEMOLISH EXISTING 1-STORY DETACHED GARAGE,  HANDWRECK, FENCE REQUIRED","metadescription":"Bldg-Demolition. 1 or 2 Family Dwelling. DEMOLISH EXISTING 1-STORY DETACHED GARAGE,  HANDWRECK, FENCE REQUIRED. Permit Finaled. 1501 S GLYNDON AVE","address":"1501 Glyndon Avenue, CA, Venice, 90291, US","ct":"2731.00","ev":"N","apc":"West Los Angeles","cpa":"Venice","zone":"R1V2","solar":"N","pin_nbr":"114B149   976","use_code":"7","status_date":"12/20/2021","permit_group":"Building","refresh_time":"06/10/2026","type_lat_lon":"ADDRESS","business_unit":"Plan Check at Counter"},"geometry":{"type":"Point","coordinates":[-118.45697,34.00531]}},{"type":"Feature","properties":{"date":"2020-01-28T00:00:00.000Z","year":2020,"description":"DEMO (E) SFD W/ATTACHED GARAGE. SEWER CAP REQUIRED.","metadescription":"Bldg-Demolition. 1 or 2 Family Dwelling. DEMO (E) SFD W/ATTACHED GARAGE. SEWER CAP REQUIRED.. Permit Finaled. 13206 W DEWEY ST","address":"13206 Dewey Street, CA, Los Angeles, 90066, US","ct":"2714.00","ev":"N","apc":"West Los Angeles","cpa":"Palms - Mar Vista - Del Rey","zone":"R1V2","solar":"N","pin_nbr":"114B149   320","use_code":"1","status_date":"07/20/2021","permit_group":"Building","refresh_time":"06/10/2026","type_lat_lon":"ADDRESS","business_unit":"Plan Check at Counter"},"geometry":{"type":"Point","coordinates":[-118.4544,34.01025]}},{"type":"Feature","properties":{"date":"2019-12-04T00:00:00.000Z","year":2019,"description":"DEMO (E) SFD AND DETACHED GARAGE TO CLEAR THE LOT - SEWER CAP REQUIRED","metadescription":"Bldg-Demolition. 1 or 2 Family Dwelling. DEMO (E) SFD AND DETACHED GARAGE TO CLEAR THE LOT - SEWER CAP REQUIRED. Permit Finaled. 1332 S GLENAVON AVE","address":"1332 Glenavon Avenue, CA, Venice, 90291, US","ct":"2731.00","ev":"N","apc":"West Los Angeles","cpa":"Venice","zone":"R1V2","solar":"N","pin_nbr":"114B149   543","use_code":"1","geolocation":"POINT (-118.45637 34.00853)","status_date":"12/17/2019","permit_group":"Building","refresh_time":"06/10/2026","type_lat_lon":"ADDRESS","business_unit":"Plan Check at Counter"},"geometry":{"type":"Point","coordinates":[-118.45637,34.00853]}},{"type":"Feature","properties":{"date":"2019-08-30T00:00:00.000Z","year":2019,"description":"DEMO AN EXISTING RESTROOM FACILITY AND THE SURRONDING PLAZA AND LOW WALLS","metadescription":"Bldg-Demolition. Commercial. DEMO AN EXISTING RESTROOM FACILITY AND THE SURRONDING PLAZA AND LOW WALLS. Permit Finaled. 210 S OCEAN FRONT WALK","address":"213 Ocean Front Walk, CA, Venice, 90291, US","ct":"2734.02","ev":"N","apc":"West Los Angeles","cpa":"Venice","zone":"OS-1XL-O","solar":"N","pin_nbr":"109-5A141 168","use_code":"23","geolocation":"POINT (-118.48086 33.99485)","status_date":"10/03/2019","permit_group":"Building","refresh_time":"06/10/2026","type_lat_lon":"ADDRESS","business_unit":"Plan Check at Counter"},"geometry":{"type":"Point","coordinates":[-118.48086,33.99485]}},{"type":"Feature","properties":{"date":"2019-08-08T00:00:00.000Z","year":2019,"description":"SUPPLEMENTAL TO PERMT #17014-10000-04862 TO CAPTURE STRUCTURAL CHANGES AND ADDITION DEMOLITION WORK FOR URM BLDG PER (LAMC 12.23A.6). NO CHANGE TO FOOTPRINT OR SIZE","metadescription":"Bldg-Alter/Repair. Commercial. SUPPLEMENTAL TO PERMT #17014-10000-04862 TO CAPTURE STRUCTURAL CHANGES AND ADDITION DEMOLITION WORK FOR URM BLDG PER (LAMC 12.23A.6). NO CHANGE TO FOOTPRINT OR SIZE. Permit Finaled. 201 S OCEAN FRONT WALK 1-8","address":"201 Ocean Front Walk, CA, Venice, 90291, US","ct":"2734.02","ev":"N","apc":"West Los Angeles","cpa":"Venice","zone":"C1-1","solar":"N","pin_nbr":"109-5A141  65","use_code":"4","geolocation":"POINT (-118.48087 33.99521)","status_date":"06/02/2022","permit_group":"Building","refresh_time":"06/10/2026","type_lat_lon":"ADDRESS","business_unit":"Regular Plan Check"},"geometry":{"type":"Point","coordinates":[-118.48087,33.99521]}},{"type":"Feature","properties":{"date":"2019-04-02T00:00:00.000Z","year":2019,"description":"Demo (E) 1-story duplex to clear lot. Sewer cap, canopy and pedestrian protection fence required.","metadescription":"Bldg-Demolition. 1 or 2 Family Dwelling. Demo (E) 1-story duplex to clear lot. Sewer cap, canopy and pedestrian protection fence required.. Permit Finaled. 33 E NAVY ST","address":"33 Navy Street, CA, Venice, 90291, US","ct":"2734.02","ev":"N","apc":"West Los Angeles","cpa":"Venice","zone":"R3-1","solar":"N","pin_nbr":"111B141   653","use_code":"2","geolocation":"POINT (-118.48066 33.99648)","status_date":"06/22/2019","permit_group":"Building","refresh_time":"06/10/2026","type_lat_lon":"ADDRESS","business_unit":"Plan Check at Counter"},"geometry":{"type":"Point","coordinates":[-118.48066,33.99648]}},{"type":"Feature","properties":{"date":"2019-01-28T00:00:00.000Z","year":2019,"description":"DEMO 1 STORY COMMERCIAL RETAIL USING HAND WRECK METHOD TO CLEAR LOT. PEDESTRIAN FENCE AND SEWER CAP REQUIRED.","metadescription":"Bldg-Demolition. Commercial. DEMO 1 STORY COMMERCIAL RETAIL USING HAND WRECK METHOD TO CLEAR LOT. PEDESTRIAN FENCE AND SEWER CAP REQUIRED.. Permit Finaled. 305-309 S OCEAN FRONT WALK","address":"1-3, 305 Ocean Front Walk, CA, Venice, 90291, US","ct":"2734.02","ev":"N","apc":"West Los Angeles","cpa":"Venice","zone":"C1-1","solar":"N","pin_nbr":"109-5A141 106","use_code":"16","geolocation":"POINT (-118.48022 33.99451)","status_date":"04/26/2019","construction":"Type V-A Construction","permit_group":"Building","refresh_time":"06/10/2026","type_lat_lon":"ADDRESS","business_unit":"Plan Check at Counter"},"geometry":{"type":"Point","coordinates":[-118.48022,33.99451]}},{"type":"Feature","properties":{"date":"2019-01-18T00:00:00.000Z","year":2019,"description":"SUPPLEMENTAL TO 18014-10000-05252 TO DEMO AND RE-CONSTRUCT ONE WALL; NO CHANGE IN BUILDING FOOTPRINT OR AREA","metadescription":"Bldg-Alter/Repair. 1 or 2 Family Dwelling. SUPPLEMENTAL TO 18014-10000-05252 TO DEMO AND RE-CONSTRUCT ONE WALL; NO CHANGE IN BUILDING FOOTPRINT OR AREA. Permit Finaled. 625 N KINGMAN AVE","address":"625 Kingman Avenue, CA, Santa Monica, 90402, US","ct":"2628.02","ev":"N","hl":"YES","apc":"West Los Angeles","zone":"R1H1","solar":"N","pin_nbr":"124-5A133 153","use_code":"1","geolocation":"POINT (-118.50896441 34.03517948)","status_date":"09/23/2020","permit_group":"Building","refresh_time":"06/10/2026","type_lat_lon":"BUILDING","business_unit":"Expanded Counter Plan Check"},"geometry":{"type":"Point","coordinates":[-118.50896441,34.03517948]}},{"type":"Feature","properties":{"date":"2018-10-30T00:00:00.000Z","year":2018,"description":"(N) GROUND FLOOR ADDITION, (N) 2ND STORY ADDITION , (N)  ATTACHED  2-CAR GARAGE,  AND DEMO PORTIONS OF EXISTING SFR. SPRINKLERED THROUGHOUT NFPA 13D","metadescription":"Bldg-Addition. 1 or 2 Family Dwelling. (N) GROUND FLOOR ADDITION, (N) 2ND STORY ADDITION , (N)  ATTACHED  2-CAR GARAGE,  AND DEMO PORTIONS OF EXISTING SFR. SPRINKLERED THROUGHOUT NFPA 13D. CofO Issued. 625 N KINGMAN AVE","address":"625 Kingman Avenue, CA, Santa Monica, 90402, US","ct":"2628.02","ev":"N","hl":"YES","apc":"West Los Angeles","zone":"R1H1","solar":"N","height":"23.17","pin_nbr":"124-5A133 153","use_code":"1","geolocation":"POINT (-118.50896441 34.03517948)","status_date":"12/03/2020","construction":"Type V-B Construction","permit_group":"Building","refresh_time":"06/10/2026","type_lat_lon":"BUILDING","business_unit":"Regular Plan Check","square_footage":"3169"},"geometry":{"type":"Point","coordinates":[-118.50896441,34.03517948]}},{"type":"Feature","properties":{"date":"2018-08-13T00:00:00.000Z","year":2018,"description":"CONVERT 5 UNIT APARTMENT BUILDING INTO 4 UNITS.  DEMOLITION OF KITCHEN; NEW INTERIOR NONBEARING WALLS TO CREATE BEDROOMS. NEW KITCHEN REMODEL TO UNIT #2.","metadescription":"Bldg-Alter/Repair. Apartment. CONVERT 5 UNIT APARTMENT BUILDING INTO 4 UNITS.  DEMOLITION OF KITCHEN; NEW INTERIOR NONBEARING WALLS TO CREATE BEDROOMS. NEW KITCHEN REMODEL TO UNIT #2.. CofO Issued. 42 E NAVY ST","address":"42 Navy Street, CA, Venice, 90291, US","ct":"2734.02","ev":"N","apc":"West Los Angeles","cpa":"Venice","zone":"R3-1","solar":"N","pin_nbr":"111B141   677","use_code":"5","geolocation":"POINT (-118.48025 33.99651)","status_date":"12/27/2019","construction":"Type V-B Construction","permit_group":"Building","refresh_time":"06/10/2026","type_lat_lon":"ADDRESS","business_unit":"Regular Plan Check","square_footage":"0"},"geometry":{"type":"Point","coordinates":[-118.48025,33.99651]}},{"type":"Feature","properties":{"date":"2018-06-06T00:00:00.000Z","year":2018,"description":"DEMO (E) DWELLING AND DETAHCED GARAGE TO CLEAR LOT. SEWER CAP AND PEDESTRIAN PROTECTION FENCER REQUIRED.","metadescription":"Bldg-Demolition. 1 or 2 Family Dwelling. DEMO (E) DWELLING AND DETAHCED GARAGE TO CLEAR LOT. SEWER CAP AND PEDESTRIAN PROTECTION FENCER REQUIRED.. Permit Finaled. 879 E COMMONWEALTH AVE","address":"879 Commonwealth Avenue, CA, Venice, 90291, US","ct":"2731.00","ev":"N","apc":"West Los Angeles","cpa":"Venice","zone":"R1V2","solar":"N","pin_nbr":"111B145   102","use_code":"1","geolocation":"POINT (-118.46713 34.00373)","status_date":"10/18/2019","permit_group":"Building","refresh_time":"06/10/2026","type_lat_lon":"ADDRESS","business_unit":"Plan Check at Counter"},"geometry":{"type":"Point","coordinates":[-118.46713,34.00373]}},{"type":"Feature","properties":{"date":"2017-09-14T00:00:00.000Z","year":2017,"description":"Demo detached garage.  Fence required. (See comments.)","metadescription":"Bldg-Demolition. 1 or 2 Family Dwelling. Demo detached garage.  Fence required. (See comments.). Permit Finaled. 874 E COMMONWEALTH AVE","address":"874 Commonwealth Avenue, CA, Venice, 90291, US","ct":"2731.00","ev":"N","apc":"West Los Angeles","cpa":"Venice","zone":"R1V2","solar":"N","pin_nbr":"111B145   181","use_code":"7","geolocation":"POINT (-118.46712 34.0035)","status_date":"09/16/2017","permit_group":"Building","refresh_time":"06/10/2026","type_lat_lon":"ADDRESS","business_unit":"Plan Check at Counter"},"geometry":{"type":"Point","coordinates":[-118.46712,34.0035]}},{"type":"Feature","properties":{"date":"2017-07-11T00:00:00.000Z","year":2017,"description":"DEMOLISH (E) SFD.","metadescription":"Bldg-Demolition. 1 or 2 Family Dwelling. DEMOLISH (E) SFD.. Permit Finaled. 28 E OZONE AVE","address":"28 Ozone Avenue, CA, Venice, 90291, US","ct":"2734.02","ev":"N","apc":"West Los Angeles","cpa":"Venice","zone":"RD1.5-1","solar":"N","pin_nbr":"109-5A141  43","use_code":"1","geolocation":"POINT (-118.48011 33.9957)","status_date":"07/20/2017","permit_group":"Building","refresh_time":"06/10/2026","type_lat_lon":"ADDRESS","business_unit":"Plan Check at Counter","square_footage":"0"},"geometry":{"type":"Point","coordinates":[-118.48011,33.9957]}},{"type":"Feature","properties":{"date":"2017-03-15T00:00:00.000Z","year":2017,"description":"DEMOLITION OF 1 STORY SFD AND ATTACHED GARAGE. CLEAR LOT. HANDWRECK METHOD.","metadescription":"Bldg-Demolition. 1 or 2 Family Dwelling. DEMOLITION OF 1 STORY SFD AND ATTACHED GARAGE. CLEAR LOT. HANDWRECK METHOD.. Permit Expired. 801 N ALISAL CT","address":"801 Alisal Court, CA, Santa Monica, 90402, US","ct":"2628.02","ev":"N","hl":"YES","apc":"West Los Angeles","zone":"RE20-1","solar":"N","pin_nbr":"126B133   163","use_code":"1","geolocation":"POINT (-118.50939 34.0407)","status_date":"06/02/2024","permit_group":"Building","refresh_time":"06/10/2026","type_lat_lon":"ADDRESS","business_unit":"Plan Check at Counter"},"geometry":{"type":"Point","coordinates":[-118.50939,34.0407]}},{"type":"Feature","properties":{"date":"2016-09-06T00:00:00.000Z","year":2016,"description":"Demo detached garage and rec room","metadescription":"Bldg-Demolition. 1 or 2 Family Dwelling. Demo detached garage and rec room. Permit Finaled. 1427 S WALGROVE AVE","address":"1427 Walgrove Avenue, CA, Los Angeles, 90066, US","ct":"2731.00","ev":"N","apc":"West Los Angeles","cpa":"Venice","zone":"R1-1VLD","solar":"N","height":"0","pin_nbr":"114B149   735","use_code":"7","geolocation":"POINT (-118.45438 34.0074)","status_date":"08/11/2018","construction":"Type V-B Construction","permit_group":"Building","refresh_time":"06/10/2026","type_lat_lon":"ADDRESS","business_unit":"Regular Plan Check"},"geometry":{"type":"Point","coordinates":[-118.45438,34.0074]}},{"type":"Feature","properties":{"date":"2016-06-30T00:00:00.000Z","year":2016,"description":"DEMOLISH 1247 SF SFD BY HAND WRECKING.  SEWER CAP IS REQUIRED.  CLEAR AND FENCE LOT.","metadescription":"Bldg-Demolition. 1 or 2 Family Dwelling. DEMOLISH 1247 SF SFD BY HAND WRECKING.  SEWER CAP IS REQUIRED.  CLEAR AND FENCE LOT.. Permit Finaled. 632 N SAN LORENZO ST","address":"632 San Lorenzo Street, CA, Santa Monica, 90402, US","ct":"2628.02","ev":"N","hl":"YES","apc":"West Los Angeles","zone":"R1-1","solar":"N","pin_nbr":"124-5A133 125","use_code":"1","geolocation":"POINT (-118.50927 34.03553)","status_date":"09/12/2016","construction":"Type V-B Construction","permit_group":"Building","refresh_time":"06/10/2026","type_lat_lon":"ADDRESS","business_unit":"Plan Check at Counter"},"geometry":{"type":"Point","coordinates":[-118.50927,34.03553]}},{"type":"Feature","properties":{"date":"2016-06-10T00:00:00.000Z","year":2016,"description":"DEMOLISH (E) SFD TO CLEAR LOT. DPI AND POSTING UNDER 16019-30000-01044, SEWER CAP AND FENCE REQUIRED.","metadescription":"Bldg-Demolition. 1 or 2 Family Dwelling. DEMOLISH (E) SFD TO CLEAR LOT. DPI AND POSTING UNDER 16019-30000-01044, SEWER CAP AND FENCE REQUIRED.. Permit Finaled. 541 N STASSI LANE","address":"541 Stassi Lane, CA, Santa Monica, 90402, US","ct":"2628.02","ev":"N","hl":"YES","apc":"West Los Angeles","zone":"R1-1D-O","solar":"N","height":"0","pin_nbr":"124-5A133 254","use_code":"1","geolocation":"POINT (-118.51002 34.03308)","status_date":"08/04/2016","construction":"Type V-B Construction","permit_group":"Building","refresh_time":"06/10/2026","type_lat_lon":"ADDRESS","business_unit":"Plan Check at Counter","square_footage":"0"},"geometry":{"type":"Point","coordinates":[-118.51002,34.03308]}},{"type":"Feature","properties":{"date":"2016-01-08T00:00:00.000Z","year":2016,"description":"DEMO SFD AND DETACHED GARAGE TO CLEAR LOT.  SEWER CAP AND PEDESTRIAN PROTECTION FENCE ARE REQUIRED.","metadescription":"Bldg-Demolition. 1 or 2 Family Dwelling. DEMO SFD AND DETACHED GARAGE TO CLEAR LOT.  SEWER CAP AND PEDESTRIAN PROTECTION FENCE ARE REQUIRED.. Permit Finaled. 1421 S WALGROVE AVE","address":"1421 Walgrove Avenue, CA, Los Angeles, 90066, US","ct":"2731.00","ev":"N","apc":"West Los Angeles","cpa":"Venice","zone":"R1-1VLD","solar":"N","pin_nbr":"114B149   722","use_code":"1","geolocation":"POINT (-118.45457533 34.00743164)","status_date":"03/19/2016","permit_group":"Building","refresh_time":"06/10/2026","type_lat_lon":"PIN","business_unit":"Plan Check at Counter"},"geometry":{"type":"Point","coordinates":[-118.45457533,34.00743164]}},{"type":"Feature","properties":{"date":"2014-10-27T00:00:00.000Z","year":2014,"description":"DEMOLITION OF A SINGLE STORY S.F.D. AND A 2-CAR GARAGE. CLEAR THE LOT.","metadescription":"Bldg-Demolition. 1 or 2 Family Dwelling. DEMOLITION OF A SINGLE STORY S.F.D. AND A 2-CAR GARAGE. CLEAR THE LOT.. Permit Finaled. 13213 W ROSE AVE","address":"13213 Rose Avenue, CA, Los Angeles, 90066, US","ct":"2714.00","ev":"N","apc":"West Los Angeles","cpa":"Palms - Mar Vista - Del Rey","zone":"R1-1","solar":"N","pin_nbr":"114B149   484","use_code":"1","geolocation":"POINT (-118.45386 34.00899)","status_date":"11/03/2014","permit_group":"Building","refresh_time":"06/10/2026","type_lat_lon":"ADDRESS","business_unit":"Plan Check at Counter","square_footage":"0"},"geometry":{"type":"Point","coordinates":[-118.45386,34.00899]}},{"type":"Feature","properties":{"date":"2014-10-14T00:00:00.000Z","year":2014,"description":"Demolish existing 5-unit apartment building to clear the lot. See comments.","metadescription":"Bldg-Demolition. Apartment. Demolish existing 5-unit apartment building to clear the lot. See comments.. Permit Finaled. 60-62 E OZONE AVE","address":"60 Ozone Avenue, CA, Venice, 90291, US","ct":"2734.02","ev":"N","apc":"West Los Angeles","cpa":"Venice","zone":"RD1.5-1","solar":"N","pin_nbr":"111B141   716","use_code":"5","geolocation":"POINT (-118.47931 33.99625)","status_date":"06/23/2015","permit_group":"Building","refresh_time":"06/10/2026","type_lat_lon":"ADDRESS","business_unit":"Plan Check at Counter","square_footage":"0"},"geometry":{"type":"Point","coordinates":[-118.47931,33.99625]}},{"type":"Feature","properties":{"date":"2014-03-21T00:00:00.000Z","year":2014,"description":"***SUPPLEMENTAL TO 12014-10000-04390 TO CORRECT THE WORK DESCRIPTION TO REMOVE THE PATIO COVER ON THE ROOF. REVISE THE FRAMING PLAN OF A PORTION OF THE BUILDING FOR THE 12' STUDS. SHOW THAT THE ENTIRE BUILDING EXCEPT A PORTION OF THE (E) FOOTING WILL BE DEMOLISHED. ALL OTHER WORK IS THE SAME. NO CHANGE TO HEIGHT, FLOOR AREA OR LOCATION OF THE BUILDING. ***SEE COMMENTS.","metadescription":"Bldg-Alter/Repair. 1 or 2 Family Dwelling. ***SUPPLEMENTAL TO 12014-10000-04390 TO CORRECT THE WORK DESCRIPTION TO REMOVE THE PATIO COVER ON THE ROOF. REVISE THE FRAMING PLAN OF A PORTION OF THE BUILDING FOR THE 12' STUDS. SHOW THAT THE ENTIRE BUILDING EXCEPT A PORTION OF THE (E) FOOTING WILL BE DEMOLISHED. ALL OTHER WORK IS THE SAME. NO CHANGE TO HEIGHT, FLOOR AREA OR LOCATION OF THE BUILDING. ***SEE COMMENTS.. Permit Finaled. 28 E OZONE AVE REAR UNIT","address":"28 Ozone Avenue, CA, Venice, 90291, US","ct":"2734.02","ev":"N","apc":"West Los Angeles","cpa":"Venice","zone":"RD1.5-1","solar":"N","pin_nbr":"109-5A141  43","use_code":"2","geolocation":"POINT (-118.48011 33.9957)","status_date":"08/14/2018","permit_group":"Building","refresh_time":"06/10/2026","type_lat_lon":"ADDRESS","business_unit":"Plan Check at Counter"},"geometry":{"type":"Point","coordinates":[-118.48011,33.9957]}},{"type":"Feature","properties":{"date":"2014-01-14T00:00:00.000Z","year":2014,"description":"Demolition of (e) SFD and detached garage to clear lot; DPI #13019-30000-03188","metadescription":"Bldg-Demolition. 1 or 2 Family Dwelling. Demolition of (e) SFD and detached garage to clear lot; DPI #13019-30000-03188. Permit Finaled. 898 E COMMONWEALTH AVE","address":"894 Commonwealth Avenue, CA, Venice, 90291, US","ct":"2731.00","ev":"N","apc":"West Los Angeles","cpa":"Venice","zone":"R1-1","solar":"N","pin_nbr":"111B145   109","use_code":"1","geolocation":"POINT (-118.46645 34.00386)","status_date":"08/17/2017","permit_group":"Building","refresh_time":"06/10/2026","type_lat_lon":"ADDRESS","business_unit":"Plan Check at Counter"},"geometry":{"type":"Point","coordinates":[-118.46645,34.00386]}},{"type":"Feature","properties":{"date":"2012-05-18T00:00:00.000Z","year":2012,"description":"DEMO EXISTING SFD & DETACHED GARAGE. SEWER CAP AND PEDESTRIAN PROTECTION FENCE REQUIRED","metadescription":"Bldg-Demolition. 1 or 2 Family Dwelling. DEMO EXISTING SFD & DETACHED GARAGE. SEWER CAP AND PEDESTRIAN PROTECTION FENCE REQUIRED. Permit Finaled. 42 E OZONE AVE","address":"42 Ozone Avenue, CA, Venice, 90291, US","ct":"2734.02","ev":"N","apc":"West Los Angeles","cpa":"Venice","zone":"RD1.5-1","solar":"N","pin_nbr":"109-5A141  20","use_code":"1","geolocation":"POINT (-118.47976 33.99593)","status_date":"02/27/2014","construction":"Type V-B Construction","permit_group":"Building","refresh_time":"06/10/2026","type_lat_lon":"ADDRESS","business_unit":"Plan Check at Counter"},"geometry":{"type":"Point","coordinates":[-118.47976,33.99593]}},{"type":"Feature","properties":{"date":"2011-02-02T00:00:00.000Z","year":2011,"description":"HANDWRECK DEMOLITION  OF SFD ATT GARAGE. CLEAR THE LOT. CAP THE SEWER.","metadescription":"Bldg-Demolition. 1 or 2 Family Dwelling. HANDWRECK DEMOLITION  OF SFD ATT GARAGE. CLEAR THE LOT. CAP THE SEWER.. Permit Finaled. 806 N ALISAL CT","address":"806 Alisal Court, CA, Santa Monica, 90402, US","ct":"2628.02","ev":"N","hl":"YES","apc":"West Los Angeles","zone":"RE20-1","solar":"N","pin_nbr":"126B133   155","use_code":"1","geolocation":"POINT (-118.50907 34.04085)","status_date":"07/23/2013","permit_group":"Building","refresh_time":"06/10/2026","type_lat_lon":"ADDRESS","business_unit":"Plan Check at Counter","square_footage":"0"},"geometry":{"type":"Point","coordinates":[-118.50907,34.04085]}},{"type":"Feature","properties":{"date":"2010-09-22T00:00:00.000Z","year":2010,"description":"RESIDENTIAL REMODEL INCLUDING DEMOLITION OF EXISTING FIREPLACE AND STRUCTURAL UPGRADE OF ENTRY PORCH COLUMN.","metadescription":"Bldg-Alter/Repair. 1 or 2 Family Dwelling. RESIDENTIAL REMODEL INCLUDING DEMOLITION OF EXISTING FIREPLACE AND STRUCTURAL UPGRADE OF ENTRY PORCH COLUMN.. Permit Expired. 43 E DUDLEY AVE A","address":"1-2, 43 Dudley Avenue, CA, Venice, 90291, US","ct":"2734.00","ev":"N","apc":"West Los Angeles","cpa":"Venice","zone":"RD1.5-1","solar":"N","pin_nbr":"109-5A141  90","use_code":"1","geolocation":"POINT (-118.47871 33.99489)","status_date":"12/13/2012","permit_group":"Building","refresh_time":"06/10/2026","type_lat_lon":"ADDRESS","business_unit":"Plan Check at Counter"},"geometry":{"type":"Point","coordinates":[-118.47871,33.99489]}},{"type":"Feature","properties":{"date":"2010-08-30T00:00:00.000Z","year":2010,"description":"DEMOLITION OF (E) 1-STORY SFD. #1 AT THE FRONT OF LOT. FENCE AND SEWER CAP REQUIRED PER DPI#10019-30000-01345. CLEAR LOT","metadescription":"Bldg-Demolition. 1 or 2 Family Dwelling. DEMOLITION OF (E) 1-STORY SFD. #1 AT THE FRONT OF LOT. FENCE AND SEWER CAP REQUIRED PER DPI#10019-30000-01345. CLEAR LOT. Permit Finaled. 60 E NAVY ST","address":"60 East Navy Street, CA, Venice, 90291, US","ct":"2734.00","ev":"N","apc":"West Los Angeles","cpa":"Venice","zone":"R3-1","solar":"N","height":"0","pin_nbr":"111B141   624","use_code":"1","geolocation":"POINT (-118.47979 33.99682)","status_date":"09/24/2013","construction":"Type V-B Construction","permit_group":"Building","refresh_time":"06/10/2026","type_lat_lon":"ADDRESS","business_unit":"Plan Check at Counter","square_footage":"0"},"geometry":{"type":"Point","coordinates":[-118.47979,33.99682]}},{"type":"Feature","properties":{"date":"2010-08-30T00:00:00.000Z","year":2010,"description":"DEMOLITION OF EXISTING  1-STORY DUPLEX BLDG#3, AND SFD AT THE REAR OF LOT. FENCE AND SEWER CAP REQUIRED. DEMO BY HAND WRECKING AND DOZER. CLEAR LOT.","metadescription":"Bldg-Demolition. 1 or 2 Family Dwelling. DEMOLITION OF EXISTING  1-STORY DUPLEX BLDG#3, AND SFD AT THE REAR OF LOT. FENCE AND SEWER CAP REQUIRED. DEMO BY HAND WRECKING AND DOZER. CLEAR LOT.. Permit Finaled. 58 E NAVY ST","address":"58 Navy Street, CA, Venice, 90291, US","ct":"2734.00","ev":"N","apc":"West Los Angeles","cpa":"Venice","zone":"R3-1","solar":"N","pin_nbr":"111B141   632","use_code":"2","geolocation":"POINT (-118.47986 33.99677)","status_date":"06/15/2011","permit_group":"Building","refresh_time":"06/10/2026","type_lat_lon":"ADDRESS","business_unit":"Plan Check at Counter","square_footage":"0"},"geometry":{"type":"Point","coordinates":[-118.47986,33.99677]}},{"type":"Feature","properties":{"date":"2010-08-30T00:00:00.000Z","year":2010,"description":"DEMOLITION OF (E) 1-STORY 2-CAR TO GARAGE BLDG. #2 AT THE REAR OF LOT. FENCE REQUIRED PER DPI#10019-30000-01345.","metadescription":"Bldg-Demolition. 1 or 2 Family Dwelling. DEMOLITION OF (E) 1-STORY 2-CAR TO GARAGE BLDG. #2 AT THE REAR OF LOT. FENCE REQUIRED PER DPI#10019-30000-01345.. Permit Finaled. 58 E NAVY ST","address":"58 Navy Street, CA, Venice, 90291, US","ct":"2734.00","ev":"N","apc":"West Los Angeles","cpa":"Venice","zone":"R3-1","solar":"N","height":"0","pin_nbr":"111B141   632","use_code":"7","geolocation":"POINT (-118.47986 33.99677)","status_date":"06/15/2011","permit_group":"Building","refresh_time":"06/10/2026","type_lat_lon":"ADDRESS","business_unit":"Plan Check at Counter","square_footage":"0"},"geometry":{"type":"Point","coordinates":[-118.47986,33.99677]}},{"type":"Feature","properties":{"date":"2009-05-15T00:00:00.000Z","year":2009,"description":"TENANT IMPROVEMENT ONLY.  COMBINE EXISTING SMALL RESTAURANT and  retail space  INTO ONE restaurant (48.75'x  30')(  5  and  7  Dudley ).   NO STRUCTURAL WORK.  NO ADDITIONAL FLOOR AREA.  NO EXTERIOR WORK.  THE WORK IS CONFINED TO TWO EXISTING ADJACENT TENANT SPACES SEPARATED BY NON-STRUCTURAL PARTITION.  THE WORK INCLUDES MINOR DEMOLITION, TRIM WORK AND MILL WORK , non bearing  partittions. (URM BLDG)","metadescription":"Bldg-Alter/Repair. Commercial. TENANT IMPROVEMENT ONLY.  COMBINE EXISTING SMALL RESTAURANT and  retail space  INTO ONE restaurant (48.75'x  30')(  5  and  7  Dudley ).   NO STRUCTURAL WORK.  NO ADDITIONAL FLOOR AREA.  NO EXTERIOR WORK.  THE WORK IS CONFINED TO TWO EXISTING ADJACENT TENANT SPACES SEPARATED BY NON-STRUCTURAL PARTITION.  THE WORK INCLUDES MINOR DEMOLITION, TRIM WORK AND MILL WORK , non bearing  partittions. (URM BLDG). CofO Issued. 321 S OCEAN FRONT WALK","address":"1-5, 321 Ocean Front Walk, CA, Venice, 90291, US","ct":"2734.00","ev":"N","apc":"West Los Angeles","cpa":"Venice","zone":"C1-1","solar":"N","pin_nbr":"109-5A141 122","use_code":"17","geolocation":"POINT (-118.4799 33.99414)","status_date":"05/24/2012","construction":"Type III-B Construction","permit_group":"Building","refresh_time":"06/10/2026","type_lat_lon":"ADDRESS","business_unit":"Regular Plan Check","square_footage":"1462.5"},"geometry":{"type":"Point","coordinates":[-118.4799,33.99414]}},{"type":"Feature","properties":{"date":"2006-11-15T00:00:00.000Z","year":2006,"description":"DEMO EXISTING POOL 18' X 40'. (APPROX. 200 C.Y. OF FILL. RE-COMPACTION REQ'D 90% )","metadescription":"Grading. 1 or 2 Family Dwelling. DEMO EXISTING POOL 18' X 40'. (APPROX. 200 C.Y. OF FILL. RE-COMPACTION REQ'D 90% ). Permit Finaled. 744 N SAN LORENZO ST","address":"744 San Lorenzo Street, CA, Santa Monica, 90402, US","ct":"2628.00","ev":"N","hl":"YES","apc":"West Los Angeles","zone":"R1-1","solar":"N","pin_nbr":"126B133   231","use_code":"70","geolocation":"POINT (-118.50933 34.03922)","status_date":"07/01/2009","permit_group":"Building","refresh_time":"06/10/2026","type_lat_lon":"ADDRESS","business_unit":"Plan Check at Counter"},"geometry":{"type":"Point","coordinates":[-118.50933,34.03922]}},{"type":"Feature","properties":{"date":"2006-08-25T00:00:00.000Z","year":2006,"description":"DEMLOLISH SCHOOL, TWO-STORY W/ BASEMENT.  SEWER CAP REQUIRED.  CLEAR LOT.","metadescription":"Bldg-Demolition. Commercial. DEMLOLISH SCHOOL, TWO-STORY W/ BASEMENT.  SEWER CAP REQUIRED.  CLEAR LOT.. Permit Finaled. 204 S HAMPTON DR","address":"3007 2nd Street, CA, Santa Monica, 90405, US","ct":"2733.00","ev":"N","apc":"West Los Angeles","cpa":"Venice","zone":"RD1.5-1","solar":"N","pin_nbr":"111B141   372","use_code":"18","geolocation":"POINT (-118.47832 33.99809)","status_date":"07/16/2008","permit_group":"Building","refresh_time":"06/10/2026","type_lat_lon":"ADDRESS","business_unit":"Plan Check at Counter","square_footage":"0"},"geometry":{"type":"Point","coordinates":[-118.47832,33.99809]}},{"type":"Feature","properties":{"date":"2006-04-18T00:00:00.000Z","year":2006,"description":"417 S.F.  2ND STORY ADDITION AND A 7' X 16' (312 SF) ADDITIONAT REAR TO CREATE A NEW WIC., GARAGE REMOVAL & KITCHEN REMODEL. (DEMO THE EXISTING ATTACEHED GARAGE AND REBUILD GARAGE AND NEW 2ND FLOOR GAMEROOM AND BATHROOM.","metadescription":"Bldg-Addition. 1 or 2 Family Dwelling. 417 S.F.  2ND STORY ADDITION AND A 7' X 16' (312 SF) ADDITIONAT REAR TO CREATE A NEW WIC., GARAGE REMOVAL & KITCHEN REMODEL. (DEMO THE EXISTING ATTACEHED GARAGE AND REBUILD GARAGE AND NEW 2ND FLOOR GAMEROOM AND BATHROOM.. CofO Issued. 1338 S GLENAVON AVE","address":"1338 Glenavon Avenue, CA, Venice, 90291, US","ct":"2731.00","ev":"N","apc":"West Los Angeles","zone":"R1-1","solar":"N","pin_nbr":"114B149   558","use_code":"1","geolocation":"POINT (-118.45624 34.00841)","status_date":"12/26/2008","construction":"Type V-N Construction","permit_group":"Building","refresh_time":"06/10/2026","type_lat_lon":"ADDRESS","business_unit":"Regular Plan Check","square_footage":"729"},"geometry":{"type":"Point","coordinates":[-118.45624,34.00841]}},{"type":"Feature","properties":{"date":"2005-08-18T00:00:00.000Z","year":2005,"description":"Demo (E) SFD and detached storage building.  Demo by handwreck, sewer cap is req'd, fence the lot.  DPI #L13716. SINGLE STORY CITY MONUMENT TO BE REMAIN ON SITE. (MODOFICATION AND AFF. FILED)","metadescription":"Bldg-Demolition. 1 or 2 Family Dwelling. Demo (E) SFD and detached storage building.  Demo by handwreck, sewer cap is req'd, fence the lot.  DPI #L13716. SINGLE STORY CITY MONUMENT TO BE REMAIN ON SITE. (MODOFICATION AND AFF. FILED). Permit Finaled. 505 N ENTRADA DR","address":"501 Entrada Drive, CA, Santa Monica, 90402, US","ct":"2628.00","ev":"N","hl":"YES","apc":"West Los Angeles","zone":"R1-1-O","solar":"N","pin_nbr":"123A133    18","use_code":"1","geolocation":"POINT (-118.51104 34.03263)","status_date":"11/16/2005","permit_group":"Building","refresh_time":"06/10/2026","type_lat_lon":"ADDRESS","business_unit":"Plan Check at Counter","square_footage":"0"},"geometry":{"type":"Point","coordinates":[-118.51104,34.03263]}},{"type":"Feature","properties":{"date":"2005-08-17T00:00:00.000Z","year":2005,"description":"DEMO (E) APT. CLEAR LOT","metadescription":"Bldg-Demolition. Apartment. DEMO (E) APT. CLEAR LOT. Permit Finaled. 211 S PACIFIC AVE","address":"58 1/4 Ozone Avenue, CA, Venice, 90291, US","ct":"2734.00","ev":"N","apc":"West Los Angeles","cpa":"Venice","zone":"RD1.5-1","solar":"N","pin_nbr":"111B141   716","use_code":"5","geolocation":"POINT (-118.47907 33.9961)","status_date":"07/16/2015","permit_group":"Building","refresh_time":"06/10/2026","type_lat_lon":"ADDRESS","business_unit":"Plan Check at Counter","square_footage":"0"},"geometry":{"type":"Point","coordinates":[-118.47907,33.9961]}},{"type":"Feature","properties":{"date":"2005-02-14T00:00:00.000Z","year":2005,"description":"DEMO. OF EXISTING SFD WITH DETACHED GARAGE.  CLEAR LOT.  REFER TO L13504 FOR DPI.   SEWAGE CAP REQUIRED.","metadescription":"Bldg-Demolition. 1 or 2 Family Dwelling. DEMO. OF EXISTING SFD WITH DETACHED GARAGE.  CLEAR LOT.  REFER TO L13504 FOR DPI.   SEWAGE CAP REQUIRED.. Permit Finaled. 562 N STASSI LANE","address":"562 Stassi Lane, CA, Santa Monica, 90402, US","ct":"2628.00","ev":"N","hl":"YES","apc":"West Los Angeles","zone":"R1-1D-O","solar":"N","pin_nbr":"124-5A133 236","use_code":"1","geolocation":"POINT (-118.50958 34.03346)","status_date":"10/05/2006","permit_group":"Building","refresh_time":"06/10/2026","type_lat_lon":"ADDRESS","business_unit":"Plan Check at Counter","square_footage":"0"},"geometry":{"type":"Point","coordinates":[-118.50958,34.03346]}},{"type":"Feature","properties":{"date":"2005-01-25T00:00:00.000Z","year":2005,"description":"DEMO (E) SFD WITH ATTACH GARAGE. NEW SFD UNDER PERMIT 04010-30000-04783. DPI#L13336.DEMO METHOD BY HANDWRECKING.  SEWER CAP REQUIRED","metadescription":"Bldg-Demolition. 1 or 2 Family Dwelling. DEMO (E) SFD WITH ATTACH GARAGE. NEW SFD UNDER PERMIT 04010-30000-04783. DPI#L13336.DEMO METHOD BY HANDWRECKING.  SEWER CAP REQUIRED. Permit Finaled. 630 N KINGMAN AVE","address":"624 Kingman Avenue, CA, Santa Monica, 90402, US","ct":"2628.00","ev":"N","hl":"YES","apc":"West Los Angeles","zone":"R1-1","solar":"N","pin_nbr":"124-5A133 158","use_code":"1","geolocation":"POINT (-118.50858 34.03509)","status_date":"07/20/2005","permit_group":"Building","refresh_time":"06/10/2026","type_lat_lon":"ADDRESS","business_unit":"Regular Plan Check","square_footage":"0"},"geometry":{"type":"Point","coordinates":[-118.50858,34.03509]}},{"type":"Feature","properties":{"date":"2004-06-01T00:00:00.000Z","year":2004,"description":"Demolish major portion of existing 1-story dwelling (996 sf) with attached 1-car garage (200 sf) and rebuild.  Add 370 sf to enlarge 1st floor and change location of garage.  New 2nd story addition, 1550 sf.","metadescription":"Bldg-Addition. 1 or 2 Family Dwelling. Demolish major portion of existing 1-story dwelling (996 sf) with attached 1-car garage (200 sf) and rebuild.  Add 370 sf to enlarge 1st floor and change location of garage.  New 2nd story addition, 1550 sf.. Permit Finaled. 599 N ENTRADA DR","address":"599 Entrada Drive, CA, Santa Monica, 90402, US","ct":"2628.00","ev":"N","hl":"N/A - STD HILLSIDE ST","apc":"West Los Angeles","zone":"R1-1","solar":"N","pin_nbr":"124-5A133 184","use_code":"1","geolocation":"POINT (-118.50913 34.03458)","status_date":"01/28/2005","construction":"Type V-N Construction","permit_group":"Building","refresh_time":"06/10/2026","type_lat_lon":"ADDRESS","business_unit":"Regular Plan Check","square_footage":"2916"},"geometry":{"type":"Point","coordinates":[-118.50913,34.03458]}},{"type":"Feature","properties":{"date":"2004-04-22T00:00:00.000Z","year":2004,"description":"demolish single family dwelling and attached garage (  clear lot )  sewer cap required.  (- 1300 s.f.)(removal of spa and retaining walls under seperate grading permit)demo pre inspection L-13109.","metadescription":"Bldg-Demolition. 1 or 2 Family Dwelling. demolish single family dwelling and attached garage (  clear lot )  sewer cap required.  (- 1300 s.f.)(removal of spa and retaining walls under seperate grading permit)demo pre inspection L-13109.. Permit Finaled. 700 N KINGMAN AVE","address":"694 Kingman Avenue, CA, Santa Monica, 90402, US","ct":"2628.00","ev":"N","hl":"YES","apc":"West Los Angeles","zone":"R1-1","solar":"N","pin_nbr":"124-5A133  17","use_code":"1","geolocation":"POINT (-118.50831 34.03698)","status_date":"09/23/2004","permit_group":"Building","refresh_time":"06/10/2026","type_lat_lon":"ADDRESS","business_unit":"Plan Check at Counter","square_footage":"-1300"},"geometry":{"type":"Point","coordinates":[-118.50831,34.03698]}},{"type":"Feature","properties":{"date":"2003-06-17T00:00:00.000Z","year":2003,"description":"DEMOLITION OF (E) 700 SF SFD.  SEWER CAP PERMIT REQUIRED.  HANDWRECK METHOD ONLY.","metadescription":"Bldg-Demolition. 1 or 2 Family Dwelling. DEMOLITION OF (E) 700 SF SFD.  SEWER CAP PERMIT REQUIRED.  HANDWRECK METHOD ONLY.. Permit Finaled. 55 E ROSE AVE","address":"A, 55 Rose Avenue, CA, Venice, 90291, US","ct":"2734.00","ev":"N","apc":"West Los Angeles","cpa":"Venice","zone":"R3-1","solar":"N","pin_nbr":"109-5A141  27","use_code":"1","geolocation":"POINT (-118.479 33.99568)","status_date":"05/26/2004","construction":"Type V-N Construction","permit_group":"Building","refresh_time":"06/10/2026","type_lat_lon":"ADDRESS","business_unit":"Plan Check at Counter","square_footage":"-700"},"geometry":{"type":"Point","coordinates":[-118.479,33.99568]}},{"type":"Feature","properties":{"date":"2002-01-15T00:00:00.000Z","year":2002,"description":"Supplemental to reduce work description from original permit 01014-70000-06701.  New addition is 3'6\" x 8'.  Work will also include kitchen remodel, (e) bathroom remodel, and the enlargement of the front porch by demolishing one (e) closet.  New addition will enlarge (e) master bathroom.","metadescription":"Bldg-Addition. 1 or 2 Family Dwelling. Supplemental to reduce work description from original permit 01014-70000-06701.  New addition is 3'6\" x 8'.  Work will also include kitchen remodel, (e) bathroom remodel, and the enlargement of the front porch by demolishing one (e) closet.  New addition will enlarge (e) master bathroom.. Permit Finaled. 1409 S WALGROVE AVE","address":"1409 Walgrove Avenue, CA, Los Angeles, 90066, US","ct":"2731.00","ev":"N","hl":"YES","apc":"West Los Angeles","zone":"R1-1VLD","solar":"N","pin_nbr":"114B149   683","use_code":"1","geolocation":"POINT (-118.45473846 34.00767071)","status_date":"09/16/2008","construction":"Type V-N Construction","permit_group":"Building","refresh_time":"06/10/2026","type_lat_lon":"PIN","business_unit":"Express Permit","square_footage":"28"},"geometry":{"type":"Point","coordinates":[-118.45473846,34.00767071]}},{"type":"Feature","properties":{"date":"2002-01-07T00:00:00.000Z","year":2002,"description":"DEMOLISH EXISTIN SINGLE FAMILY RESIDENCE. (900 SQFT).","metadescription":"Bldg-Demolition. 1 or 2 Family Dwelling. DEMOLISH EXISTIN SINGLE FAMILY RESIDENCE. (900 SQFT).. Permit Finaled. 116 S PACIFIC AVE","address":"116 Pacific Avenue, CA, Venice, 90291, US","ct":"2734.00","ev":"N","apc":"West Los Angeles","zone":"R3-1","solar":"N","pin_nbr":"111B141   640","use_code":"1","geolocation":"POINT (-118.47926 33.99668)","status_date":"03/18/2002","permit_group":"Building","refresh_time":"06/10/2026","type_lat_lon":"ADDRESS","business_unit":"Plan Check at Counter"},"geometry":{"type":"Point","coordinates":[-118.47926,33.99668]}},{"type":"Feature","properties":{"date":"2001-11-20T00:00:00.000Z","year":2001,"description":"Demo (e) 20 x20 garage","metadescription":"Bldg-Demolition. 1 or 2 Family Dwelling. Demo (e) 20 x20 garage. Permit Expired. 1409 S WALGROVE AVE","address":"1409 Walgrove Avenue, CA, Los Angeles, 90066, US","ct":"2731.00","ev":"N","hl":"YES","apc":"West Los Angeles","zone":"R1-1VLD","solar":"N","pin_nbr":"114B149   683","use_code":"7","geolocation":"POINT (-118.45473846 34.00767071)","status_date":"09/16/2008","permit_group":"Building","refresh_time":"06/10/2026","type_lat_lon":"PIN","business_unit":"Express Permit"},"geometry":{"type":"Point","coordinates":[-118.45473846,34.00767071]}},{"type":"Feature","properties":{"date":"2001-09-14T00:00:00.000Z","year":2001,"description":"DEMOLISH EXISTING BEARING WALL BET MASTER BEDRM AND LIVING RM. ADD NEW RECESS OF APPROX 24\" INTO THE LIVING ROOM. ADD FULL HT. PARTITION WALLS IN LIVING ROOM TO MAKE NEW STUDY ROOM.","metadescription":"Bldg-Alter/Repair. 1 or 2 Family Dwelling. DEMOLISH EXISTING BEARING WALL BET MASTER BEDRM AND LIVING RM. ADD NEW RECESS OF APPROX 24\" INTO THE LIVING ROOM. ADD FULL HT. PARTITION WALLS IN LIVING ROOM TO MAKE NEW STUDY ROOM.. Permit Finaled. 13136 W DEWEY ST","address":"13136 Dewey Street, CA, Los Angeles, 90066, US","ct":"2714.00","ev":"N","hl":"YES","apc":"West Los Angeles","zone":"R1-1","solar":"N","pin_nbr":"114B149   268","use_code":"1","geolocation":"POINT (-118.45373 34.01061)","status_date":"06/11/2008","permit_group":"Building","refresh_time":"06/10/2026","type_lat_lon":"ADDRESS","business_unit":"Plan Check at Counter"},"geometry":{"type":"Point","coordinates":[-118.45373,34.01061]}},{"type":"Feature","properties":{"date":"2001-08-23T00:00:00.000Z","year":2001,"description":"EXTEND/CONVERT(E)BATHRM TO SAUNA(2.5'X8',20S.F), DEMOLISH POOL ENCLOSURE(2184 S.F), ADD ROOF& STAIRWAY TO(E)TERRACE(7'X22',154S.F) REPLACE(E)WOOD COLUMNS W/STEEL@COVERED PATIO,REPLACE 3 WINDOWS&1 DOOR IN(E)FAMILY ROOM(1 OF 3 TOTAL VAL $125,000)","metadescription":"Bldg-Alter/Repair. 1 or 2 Family Dwelling. EXTEND/CONVERT(E)BATHRM TO SAUNA(2.5'X8',20S.F), DEMOLISH POOL ENCLOSURE(2184 S.F), ADD ROOF& STAIRWAY TO(E)TERRACE(7'X22',154S.F) REPLACE(E)WOOD COLUMNS W/STEEL@COVERED PATIO,REPLACE 3 WINDOWS&1 DOOR IN(E)FAMILY ROOM(1 OF 3 TOTAL VAL $125,000). Permit Finaled. 719 N KINGMAN AVE","address":"719 Kingman Avenue, CA, Santa Monica, 90402, US","ct":"2628.00","ev":"N","hl":"YES","apc":"West Los Angeles","zone":"R1-1","solar":"N","pin_nbr":"126B133   341","use_code":"1","geolocation":"POINT (-118.50869 34.03747)","status_date":"02/27/2002","construction":"Type V-N Construction","permit_group":"Building","refresh_time":"06/10/2026","type_lat_lon":"ADDRESS","business_unit":"Appointment Plan Check","square_footage":"-2010"},"geometry":{"type":"Point","coordinates":[-118.50869,34.03747]}},{"type":"Feature","properties":{"date":"2001-03-28T00:00:00.000Z","year":2001,"description":"DEMOLISH (E) 2-STORY RESIDENCE, RECREATION ROOM AND STORAGE METAL SHED. HANDWRECK, CAP SEWER AND FENCE LOT. [NO BASEMENTS]","metadescription":"Bldg-Demolition. 1 or 2 Family Dwelling. DEMOLISH (E) 2-STORY RESIDENCE, RECREATION ROOM AND STORAGE METAL SHED. HANDWRECK, CAP SEWER AND FENCE LOT. [NO BASEMENTS]. Permit Finaled. 534 N DRYAD ROAD","address":"534 Dryad Road, CA, Santa Monica, 90402, US","ct":"2628.00","ev":"N","hl":"YES","apc":"West Los Angeles","zone":"R1-1-O","solar":"N","pin_nbr":"124-5A133 205","use_code":"1","geolocation":"POINT (-118.51059 34.03421)","status_date":"04/21/2004","permit_group":"Building","refresh_time":"06/10/2026","type_lat_lon":"ADDRESS","business_unit":"Plan Check at Counter"},"geometry":{"type":"Point","coordinates":[-118.51059,34.03421]}},{"type":"Feature","properties":{"date":"2000-04-12T00:00:00.000Z","year":2000,"description":"DEMOLISH SFD WITH ATTACHED GARAGE, HANDWRECK - NO BASEMENT. ------CLEAR LOT --------( TOTAL EXIST SFD SQUARE FOOTAGE=1278SQ.FT) VERIFY BY LUPAMS.","metadescription":"Bldg-Demolition. 1 or 2 Family Dwelling. DEMOLISH SFD WITH ATTACHED GARAGE, HANDWRECK - NO BASEMENT. ------CLEAR LOT --------( TOTAL EXIST SFD SQUARE FOOTAGE=1278SQ.FT) VERIFY BY LUPAMS.. Permit Finaled. 549 N DRYAD ROAD","address":"549 Dryad Road, CA, Santa Monica, 90402, US","ct":"2628.00","ev":"N","hl":"YES","apc":"West Los Angeles","zone":"R1-1-O","solar":"N","pin_nbr":"124-5A133 171","use_code":"1","geolocation":"POINT (-118.51064 34.03473)","status_date":"04/26/2000","permit_group":"Building","refresh_time":"06/10/2026","type_lat_lon":"ADDRESS","business_unit":"Plan Check at Counter","square_footage":"-1278"},"geometry":{"type":"Point","coordinates":[-118.51064,34.03473]}},{"type":"Feature","properties":{"date":"1998-07-08T00:00:00.000Z","year":1998,"description":"DEMOLISH SFD DAMAGED BY FIRE PER ABATE ORDER DATED 5-6-98. HANDWRECKING. SEWER CAP IS REQUIRED.","metadescription":"Bldg-Demolition. 1 or 2 Family Dwelling. DEMOLISH SFD DAMAGED BY FIRE PER ABATE ORDER DATED 5-6-98. HANDWRECKING. SEWER CAP IS REQUIRED.. Permit Finaled. 32 E OZONE AVE","address":"1-6, 34 Ozone Avenue, CA, Venice, 90291, US","ct":"2734.00","ev":"N","apc":"West Los Angeles","zone":"RD1.5-1","solar":"N","pin_nbr":"109-5A141  38","use_code":"1","geolocation":"POINT (-118.48003 33.99576)","status_date":"02/25/2000","construction":"Type V-N Construction","permit_group":"Building","refresh_time":"06/10/2026","type_lat_lon":"ADDRESS","business_unit":"Plan Check at Counter","square_footage":"-1100"},"geometry":{"type":"Point","coordinates":[-118.48003,33.99576]}}]}
