{"type":"FeatureCollection","features":[{"type":"Feature","properties":{"date":"2026-05-19T00:00:00.000Z","year":2026,"description":"EXCAVATION FOR POOL AND SPA","metadescription":"Grading. 1 or 2 Family Dwelling. EXCAVATION FOR POOL AND SPA. Issued. 13223 W ROSE AVE","address":"13223 Rose Avenue, CA, Los Angeles, 90066, US","ct":"2714.00","ev":"N","apc":"West Los Angeles","cpa":"Palms - Mar Vista - Del Rey","zone":"R1V2","solar":"N","pin_nbr":"114B149   503","use_code":"70","status_date":"05/19/2026","permit_group":"Building","refresh_time":"06/10/2026","type_lat_lon":"ADDRESS","business_unit":"Expanded Counter Plan Check"},"geometry":{"type":"Point","coordinates":[-118.45409,34.00886]}},{"type":"Feature","properties":{"date":"2026-03-03T00:00:00.000Z","year":2026,"description":"GRADING/ EXCAVATION FOR THE NEW SWIMMING POOL.","metadescription":"Grading. 1 or 2 Family Dwelling. GRADING/ EXCAVATION FOR THE NEW SWIMMING POOL.. Issued. 1380 W ROSE AVE","address":"1380 Rose Avenue, CA, Venice, 90291, US","ct":"2731.00","ev":"N","apc":"West Los Angeles","cpa":"Venice","zone":"R1V2","solar":"N","pin_nbr":"114B149   678","use_code":"70","status_date":"03/03/2026","permit_group":"Building","refresh_time":"06/10/2026","type_lat_lon":"ADDRESS","business_unit":"Plan Check at Counter"},"geometry":{"type":"Point","coordinates":[-118.45522,34.00789]}},{"type":"Feature","properties":{"date":"2024-11-06T00:00:00.000Z","year":2024,"description":"EXCAVATION AND BACKFILL  FOR NEW SB 9 UNIT AND POOL AND RETAINING WALL.","metadescription":"Grading. 1 or 2 Family Dwelling. EXCAVATION AND BACKFILL  FOR NEW SB 9 UNIT AND POOL AND RETAINING WALL.. Issued. 454 N ENTRADA DR","address":"454 Entrada Drive, CA, Santa Monica, 90402, US","ct":"2628.02","ev":"N","hl":"YES","apc":"West Los Angeles","zone":"R1H1-1D-O","solar":"N","pin_nbr":"123A133    54","use_code":"70","status_date":"11/06/2024","permit_group":"Building","refresh_time":"06/10/2026","type_lat_lon":"ADDRESS","business_unit":"Regular Plan Check"},"geometry":{"type":"Point","coordinates":[-118.51111,34.03207]}},{"type":"Feature","properties":{"date":"2023-02-10T00:00:00.000Z","year":2023,"description":"ePLAN-   ATTN: JAD BASMA    1.  NEW RETAINING WALL for a SFD related to building permit 22010-10000-06666 / 82179.  [Soil Report] 2. EXCAVATION AND BACKFILL FOR RW***PC to create Grading app","metadescription":"Nonbldg-New. 1 or 2 Family Dwelling. ePLAN-   ATTN: JAD BASMA    1.  NEW RETAINING WALL for a SFD related to building permit 22010-10000-06666 / 82179.  [Soil Report] 2. EXCAVATION AND BACKFILL FOR RW***PC to create Grading app. Quality Review Completed. 664 N KINGMAN AVE","address":"664 Kingman Avenue, CA, Santa Monica, 90402, US","ct":"2628.02","ev":"N","hl":"YES","apc":"West Los Angeles","zone":"R1H1","solar":"N","pin_nbr":"124-5A133  76","use_code":"23","status_date":"03/15/2023","permit_group":"Building","refresh_time":"06/10/2026","type_lat_lon":"ADDRESS","business_unit":"Regular Plan Check"},"geometry":{"type":"Point","coordinates":[-118.50829,34.03602]}},{"type":"Feature","properties":{"date":"2023-02-10T00:00:00.000Z","year":2023,"description":"ePLAN-   ATTN: JAD BASMA    1.  NEW RETAINING WALL for a SFD related to building permit 22010-10000-06666 / 82179.  [Soil Report] 2. EXCAVATION AND BACKFILL FOR RW***PC to create Grading app","metadescription":"Grading. 1 or 2 Family Dwelling. ePLAN-   ATTN: JAD BASMA    1.  NEW RETAINING WALL for a SFD related to building permit 22010-10000-06666 / 82179.  [Soil Report] 2. EXCAVATION AND BACKFILL FOR RW***PC to create Grading app. Quality Review Completed. 664 N KINGMAN AVE","address":"664 Kingman Avenue, CA, Santa Monica, 90402, US","ct":"2628.02","ev":"N","hl":"YES","apc":"West Los Angeles","zone":"R1H1","solar":"N","pin_nbr":"124-5A133  76","status_date":"03/15/2023","permit_group":"Building","refresh_time":"06/10/2026","type_lat_lon":"ADDRESS","business_unit":"Regular Plan Check"},"geometry":{"type":"Point","coordinates":[-118.50829,34.03602]}},{"type":"Feature","properties":{"date":"2022-12-15T00:00:00.000Z","year":2022,"description":"Excavation and backfill for new swiming pool","metadescription":"Grading. 1 or 2 Family Dwelling. Excavation and backfill for new swiming pool. Permit Finaled. 1327 S WALGROVE AVE","address":"1327 Walgrove Avenue, CA, Los Angeles, 90066, US","ct":"2731.00","ev":"N","apc":"West Los Angeles","cpa":"Venice","zone":"R1V2","solar":"N","pin_nbr":"114B149   472","use_code":"70","status_date":"07/27/2023","permit_group":"Building","refresh_time":"06/10/2026","type_lat_lon":"ADDRESS","business_unit":"Plan Check at Counter"},"geometry":{"type":"Point","coordinates":[-118.45568,34.00915]}},{"type":"Feature","properties":{"date":"2022-03-22T00:00:00.000Z","year":2022,"description":"GRADING EXCAVATION FOR THE NEW POOL AND SPA.","metadescription":"Grading. 1 or 2 Family Dwelling. GRADING EXCAVATION FOR THE NEW POOL AND SPA.. Permit Finaled. 1320 S GLENAVON AVE","address":"1320 Glenavon Avenue, CA, Venice, 90291, US","ct":"2731.00","ev":"N","apc":"West Los Angeles","cpa":"Venice","zone":"R1V2","solar":"N","pin_nbr":"114B149   500","use_code":"70","status_date":"09/08/2022","permit_group":"Building","refresh_time":"06/10/2026","type_lat_lon":"ADDRESS","business_unit":"Plan Check at Counter"},"geometry":{"type":"Point","coordinates":[-118.45649,34.00882]}},{"type":"Feature","properties":{"date":"2021-10-05T00:00:00.000Z","year":2021,"description":"GRADING EXCAVATION FOR NEW POOL AND SPA.","metadescription":"Grading. 1 or 2 Family Dwelling. GRADING EXCAVATION FOR NEW POOL AND SPA.. Permit Finaled. 13201 W ROSE AVE","address":"13201 Rose Avenue, CA, Los Angeles, 90066, US","ct":"2714.00","ev":"N","apc":"West Los Angeles","cpa":"Palms - Mar Vista - Del Rey","zone":"R1V2","solar":"N","pin_nbr":"114B149   466","use_code":"70","status_date":"09/13/2022","permit_group":"Building","refresh_time":"06/10/2026","type_lat_lon":"ADDRESS","business_unit":"Expanded Counter Plan Check"},"geometry":{"type":"Point","coordinates":[-118.45353,34.00914]}},{"type":"Feature","properties":{"date":"2021-10-05T00:00:00.000Z","year":2021,"description":"GRADING EXCAVATION FOR THE NEW POOL AND SPA.","metadescription":"Grading. 1 or 2 Family Dwelling. GRADING EXCAVATION FOR THE NEW POOL AND SPA.. Permit Finaled. 1344 S GLENAVON AVE","address":"1344 Glenavon Avenue, CA, Venice, 90291, US","ct":"2731.00","ev":"N","apc":"West Los Angeles","cpa":"Venice","zone":"R1V2","solar":"N","pin_nbr":"114B149   582","use_code":"70","status_date":"04/04/2022","permit_group":"Building","refresh_time":"06/10/2026","type_lat_lon":"ADDRESS","business_unit":"Plan Check at Counter"},"geometry":{"type":"Point","coordinates":[-118.45616,34.00829]}},{"type":"Feature","properties":{"date":"2020-07-14T00:00:00.000Z","year":2020,"description":"EXCAVATION FOR NEW POOL","metadescription":"Grading. 1 or 2 Family Dwelling. EXCAVATION FOR NEW POOL. Permit Finaled. 1409 S WALGROVE AVE","address":"1409 Walgrove Avenue, CA, Los Angeles, 90066, US","ct":"2731.00","ev":"N","apc":"West Los Angeles","cpa":"Venice","zone":"R1V2","solar":"N","pin_nbr":"114B149   683","use_code":"70","status_date":"10/09/2020","permit_group":"Building","refresh_time":"06/10/2026","type_lat_lon":"ADDRESS","business_unit":"Plan Check at Counter"},"geometry":{"type":"Point","coordinates":[-118.45458,34.00779]}},{"type":"Feature","properties":{"date":"2019-12-19T00:00:00.000Z","year":2019,"description":"EXCAVATION FOR NEW SWIMMINGPOOL/SPA  65 CYU.YDS. [19047-10000-02145]","metadescription":"Grading. 1 or 2 Family Dwelling. EXCAVATION FOR NEW SWIMMINGPOOL/SPA  65 CYU.YDS. [19047-10000-02145]. Permit Finaled. 1332 S GLENAVON AVE","address":"1332 Glenavon Avenue, CA, Venice, 90291, US","ct":"2731.00","ev":"N","apc":"West Los Angeles","cpa":"Venice","zone":"R1V2","solar":"N","pin_nbr":"114B149   543","use_code":"70","geolocation":"POINT (-118.45637 34.00853)","status_date":"09/14/2020","permit_group":"Building","refresh_time":"06/10/2026","type_lat_lon":"ADDRESS","business_unit":"Plan Check at Counter"},"geometry":{"type":"Point","coordinates":[-118.45637,34.00853]}},{"type":"Feature","properties":{"date":"2019-08-27T00:00:00.000Z","year":2019,"description":"GRADING EXCAVATION FOR NEW POOL AND SPA.","metadescription":"Grading. 1 or 2 Family Dwelling. GRADING EXCAVATION FOR NEW POOL AND SPA.. Permit Finaled. 625 N KINGMAN AVE","address":"625 Kingman Avenue, CA, Santa Monica, 90402, US","ct":"2628.02","ev":"N","hl":"YES","apc":"West Los Angeles","zone":"R1H1","solar":"N","pin_nbr":"124-5A133 153","use_code":"70","geolocation":"POINT (-118.50885 34.03507)","status_date":"05/20/2020","permit_group":"Building","refresh_time":"06/10/2026","type_lat_lon":"ADDRESS","business_unit":"Plan Check at Counter"},"geometry":{"type":"Point","coordinates":[-118.50885,34.03507]}},{"type":"Feature","properties":{"date":"2019-03-08T00:00:00.000Z","year":2019,"description":"GRADING EXCAVATION FOR BASEMENT AND RETAINING WALL BACKFILL, FOR NEW 4 STORY MIXED USE BUILDING FOR NEW 4 STORY MIXED BUILDING WITH ONE LEVEL OF SUBTERRANEAN PARKING GARAGE AND MECHANICAL ROOM.","metadescription":"Grading. Commercial. GRADING EXCAVATION FOR BASEMENT AND RETAINING WALL BACKFILL, FOR NEW 4 STORY MIXED USE BUILDING FOR NEW 4 STORY MIXED BUILDING WITH ONE LEVEL OF SUBTERRANEAN PARKING GARAGE AND MECHANICAL ROOM.. Permit Finaled. 305 S OCEAN FRONT WALK 1-3","address":"1-3, 305 Ocean Front Walk, CA, Venice, 90291, US","ct":"2734.02","ev":"N","apc":"West Los Angeles","cpa":"Venice","zone":"C1-1","solar":"N","pin_nbr":"109-5A141 110","use_code":"60","geolocation":"POINT (-118.48022 33.99451)","status_date":"09/04/2020","permit_group":"Building","refresh_time":"06/10/2026","type_lat_lon":"ADDRESS","business_unit":"Plan Check at Counter"},"geometry":{"type":"Point","coordinates":[-118.48022,33.99451]}},{"type":"Feature","properties":{"date":"2019-01-04T00:00:00.000Z","year":2019,"description":"GRADING EXCAVATION FOR NEW POOL AND SPA","metadescription":"Grading. 1 or 2 Family Dwelling. GRADING EXCAVATION FOR NEW POOL AND SPA. Permit Finaled. 596 N ENTRADA DR","address":"592 Entrada Drive, CA, Santa Monica, 90402, US","ct":"2628.02","ev":"N","hl":"YES","apc":"West Los Angeles","zone":"R1H1-1D-O","solar":"N","pin_nbr":"124-5A133 207","use_code":"70","geolocation":"POINT (-118.50936 34.03425)","status_date":"02/24/2022","permit_group":"Building","refresh_time":"06/10/2026","type_lat_lon":"ADDRESS","business_unit":"Plan Check at Counter"},"geometry":{"type":"Point","coordinates":[-118.50936,34.03425]}},{"type":"Feature","properties":{"date":"2018-03-29T00:00:00.000Z","year":2018,"description":"GRADING EXCAVATION FOR NEW POOL","metadescription":"Grading. 1 or 2 Family Dwelling. GRADING EXCAVATION FOR NEW POOL. Permit Finaled. 1525 E SAN VICENTE BLVD","address":"1525 San Vicente Boulevard, CA, Pacific Palisades, 90272, US","ct":"2628.02","ev":"N","hl":"YES","apc":"West Los Angeles","zone":"R1H1","solar":"N","pin_nbr":"126B133   140","use_code":"70","geolocation":"POINT (-118.50346 34.04184)","status_date":"08/28/2019","permit_group":"Building","refresh_time":"06/10/2026","type_lat_lon":"ADDRESS","business_unit":"Regular Plan Check"},"geometry":{"type":"Point","coordinates":[-118.50346,34.04184]}},{"type":"Feature","properties":{"date":"2018-01-08T00:00:00.000Z","year":2018,"description":"GRADING EXCAVATION FOR NEW POOL AND SPA.","metadescription":"Grading. 1 or 2 Family Dwelling. GRADING EXCAVATION FOR NEW POOL AND SPA.. Permit Finaled. 739 N KINGMAN AVE","address":"739 Kingman Avenue, CA, Santa Monica, 90402, US","ct":"2628.02","ev":"N","hl":"YES","apc":"West Los Angeles","zone":"R1H1","solar":"N","pin_nbr":"126B133   295","use_code":"70","geolocation":"POINT (-118.50881 34.03814)","status_date":"01/10/2020","permit_group":"Building","refresh_time":"06/10/2026","type_lat_lon":"ADDRESS","business_unit":"Plan Check at Counter"},"geometry":{"type":"Point","coordinates":[-118.50881,34.03814]}},{"type":"Feature","properties":{"date":"2016-09-22T00:00:00.000Z","year":2016,"description":"GRADING PERMIT FOR EXCAVATION AND BACKFILL FOR (N) SWIMMING POOL","metadescription":"Grading. 1 or 2 Family Dwelling. GRADING PERMIT FOR EXCAVATION AND BACKFILL FOR (N) SWIMMING POOL. Permit Finaled. 13142 W DEWEY ST","address":"13142 Dewey Street, CA, Los Angeles, 90066, US","ct":"2714.00","ev":"N","apc":"West Los Angeles","cpa":"Palms - Mar Vista - Del Rey","zone":"R1-1","solar":"N","pin_nbr":"114B149   277","use_code":"70","geolocation":"POINT (-118.45393 34.0105)","status_date":"06/14/2017","permit_group":"Building","refresh_time":"06/10/2026","type_lat_lon":"ADDRESS","business_unit":"Regular Plan Check"},"geometry":{"type":"Point","coordinates":[-118.45393,34.0105]}},{"type":"Feature","properties":{"date":"2016-02-29T00:00:00.000Z","year":2016,"description":"Grading for removal and recompaction for new basement slabs and for new piles and basement excavation under (E) SFD and (E) deck.","metadescription":"Grading. 1 or 2 Family Dwelling. Grading for removal and recompaction for new basement slabs and for new piles and basement excavation under (E) SFD and (E) deck.. Permit Finaled. 519 N STASSI LANE","address":"506 Entrada Drive, CA, Santa Monica, 90402, US","ct":"2628.02","ev":"N","hl":"YES","apc":"West Los Angeles","zone":"R1-1D-O","solar":"N","pin_nbr":"123A133    30","use_code":"70","geolocation":"POINT (-118.51045 34.03245)","status_date":"07/13/2017","permit_group":"Building","refresh_time":"06/10/2026","type_lat_lon":"ADDRESS","business_unit":"Plan Check at Counter"},"geometry":{"type":"Point","coordinates":[-118.51045,34.03245]}},{"type":"Feature","properties":{"date":"2014-04-01T00:00:00.000Z","year":2014,"description":"STIE GRADING: EXCAVATION AND SITE PREP FOR NEW POOL/SPA  UNDER PCIS #13047-10000-01243.  ALSO REMOVE POOL/SPA SHELL AND BACKFILL WITH STRUCTURAL COMPACTED FILL","metadescription":"Grading. 1 or 2 Family Dwelling. STIE GRADING: EXCAVATION AND SITE PREP FOR NEW POOL/SPA  UNDER PCIS #13047-10000-01243.  ALSO REMOVE POOL/SPA SHELL AND BACKFILL WITH STRUCTURAL COMPACTED FILL. Permit Finaled. 645 N ADELAIDE DR","address":"645 Adelaide Drive, CA, Santa Monica, 90402, US","ct":"2628.02","ev":"N","hl":"YES","apc":"West Los Angeles","zone":"R1-1-O","solar":"N","pin_nbr":"124-5A133 255","use_code":"70","geolocation":"POINT (-118.50905 34.03297)","status_date":"05/29/2014","permit_group":"Building","refresh_time":"06/10/2026","type_lat_lon":"ADDRESS","business_unit":"Regular Plan Check"},"geometry":{"type":"Point","coordinates":[-118.50905,34.03297]}},{"type":"Feature","properties":{"date":"2014-01-27T00:00:00.000Z","year":2014,"description":"GRADING EXCAVATION AND BACKFILL OF RETAINING WALL.","metadescription":"Grading. 1 or 2 Family Dwelling. GRADING EXCAVATION AND BACKFILL OF RETAINING WALL.. Permit Finaled. 765 N KINGMAN AVE","address":"765 Kingman Avenue, CA, Santa Monica, 90402, US","ct":"2628.02","ev":"N","hl":"YES","apc":"West Los Angeles","zone":"R1-1","solar":"N","pin_nbr":"126B133   228","use_code":"70","geolocation":"POINT (-118.50859 34.03913)","status_date":"05/19/2014","permit_group":"Building","refresh_time":"06/10/2026","type_lat_lon":"ADDRESS","business_unit":"Plan Check at Counter"},"geometry":{"type":"Point","coordinates":[-118.50859,34.03913]}},{"type":"Feature","properties":{"date":"2012-10-02T00:00:00.000Z","year":2012,"description":"Grading for excavation for  new pool.","metadescription":"Grading. 1 or 2 Family Dwelling. Grading for excavation for  new pool.. Permit Finaled. 14173 W ALISAL LANE","address":"14173 Alisal Lane, CA, Santa Monica, 90402, US","ct":"2628.00","ev":"N","hl":"YES","apc":"West Los Angeles","zone":"RE20-1","solar":"N","pin_nbr":"126B133   170","use_code":"70","geolocation":"POINT (-118.50966 34.04032)","status_date":"12/20/2012","permit_group":"Building","refresh_time":"06/10/2026","type_lat_lon":"ADDRESS","business_unit":"Plan Check at Counter"},"geometry":{"type":"Point","coordinates":[-118.50966,34.04032]}},{"type":"Feature","properties":{"date":"2012-06-04T00:00:00.000Z","year":2012,"description":"SHORING FOR BASEMENT EXCAVATION. ***permit 2 of 3***","metadescription":"Nonbldg-New. 1 or 2 Family Dwelling. SHORING FOR BASEMENT EXCAVATION. ***permit 2 of 3***. Permit Finaled. 42 E OZONE AVE","address":"42 Ozone Avenue, CA, Venice, 90291, US","ct":"2734.02","ev":"N","apc":"West Los Angeles","cpa":"Venice","zone":"RD1.5-1","solar":"N","pin_nbr":"109-5A141  20","use_code":"23","geolocation":"POINT (-118.47976 33.99593)","status_date":"02/27/2014","permit_group":"Building","refresh_time":"06/10/2026","type_lat_lon":"ADDRESS","business_unit":"Regular Plan Check"},"geometry":{"type":"Point","coordinates":[-118.47976,33.99593]}},{"type":"Feature","properties":{"date":"2012-06-04T00:00:00.000Z","year":2012,"description":"GRADING PERMIT FOR OVEREXCAVATION AND BACKFILL FOR SHORING AND NEW BASEMENT ***permit 3 of 3***","metadescription":"Grading. 1 or 2 Family Dwelling. GRADING PERMIT FOR OVEREXCAVATION AND BACKFILL FOR SHORING AND NEW BASEMENT ***permit 3 of 3***. Permit Finaled. 42 E OZONE AVE","address":"42 Ozone Avenue, CA, Venice, 90291, US","ct":"2734.02","ev":"N","apc":"West Los Angeles","cpa":"Venice","zone":"RD1.5-1","solar":"N","pin_nbr":"109-5A141  20","use_code":"60","geolocation":"POINT (-118.47976 33.99593)","status_date":"02/27/2014","permit_group":"Building","refresh_time":"06/10/2026","type_lat_lon":"ADDRESS","business_unit":"Regular Plan Check"},"geometry":{"type":"Point","coordinates":[-118.47976,33.99593]}},{"type":"Feature","properties":{"date":"2010-12-15T00:00:00.000Z","year":2010,"description":"EXCAVATION AND GRADING OF APPROXIMATELY 33,000 CY OF EXCAVATION AND 19,000 CY OF EXPORT FOR A 2.75 MILLION GALLON UNDERGROUND RESERVOIR AND A SMALL PUMP STATION UNDERGROUND (ON A SEPARATE PERMIT) TO BE PLACED UNDER A CITY PARK. ** BBSC approved an application to export 19,354 c.y. on Dec 15,2009 - okay to issue permit after 10 days (Dec 25,2009)**","metadescription":"Grading. Commercial. EXCAVATION AND GRADING OF APPROXIMATELY 33,000 CY OF EXCAVATION AND 19,000 CY OF EXPORT FOR A 2.75 MILLION GALLON UNDERGROUND RESERVOIR AND A SMALL PUMP STATION UNDERGROUND (ON A SEPARATE PERMIT) TO BE PLACED UNDER A CITY PARK. ** BBSC approved an application to export 19,354 c.y. on Dec 15,2009 - okay to issue permit after 10 days (Dec 25,2009)**. Permit Finaled. 1216 E ROSE AVE","address":"1216 Rose Avenue, CA, Venice, 90291, US","ct":"2731.00","ev":"N","apc":"West Los Angeles","cpa":"Venice","zone":"R1-1VLD","solar":"N","pin_nbr":"114B145   123","use_code":"70","geolocation":"POINT (-118.45896 34.00586)","status_date":"05/22/2013","permit_group":"Building","refresh_time":"06/10/2026","type_lat_lon":"ADDRESS","business_unit":"Regular Plan Check"},"geometry":{"type":"Point","coordinates":[-118.45896,34.00586]}},{"type":"Feature","properties":{"date":"2010-10-15T00:00:00.000Z","year":2010,"description":"SITE EXCAVATION & REMOVE & RECOMPACTION   & SITE RETAINING WALLS BACKFILL TOTAL 1022 C.Y.SEE COMMENTS","metadescription":"Grading. 1 or 2 Family Dwelling. SITE EXCAVATION & REMOVE & RECOMPACTION   & SITE RETAINING WALLS BACKFILL TOTAL 1022 C.Y.SEE COMMENTS. Permit Finaled. 60 E NAVY ST","address":"60 East Navy Street, CA, Venice, 90291, US","ct":"2734.00","ev":"N","apc":"West Los Angeles","cpa":"Venice","zone":"R3-1","solar":"N","pin_nbr":"111B141   624","use_code":"60","geolocation":"POINT (-118.47979 33.99682)","status_date":"08/13/2013","permit_group":"Building","refresh_time":"06/10/2026","type_lat_lon":"ADDRESS","business_unit":"Plan Check at Counter"},"geometry":{"type":"Point","coordinates":[-118.47979,33.99682]}},{"type":"Feature","properties":{"date":"2010-09-09T00:00:00.000Z","year":2010,"description":"EXCAVATION AND RETAINING WALL BACKFILL FOR A KOI POND.  POND DIMENSION: 15' X 25'-2\" X 3.5' DEEP. IRREGULAR SHAPE. POND PERMIT NUMBER 10047-30000-00840.","metadescription":"Grading. 1 or 2 Family Dwelling. EXCAVATION AND RETAINING WALL BACKFILL FOR A KOI POND.  POND DIMENSION: 15' X 25'-2\" X 3.5' DEEP. IRREGULAR SHAPE. POND PERMIT NUMBER 10047-30000-00840.. Permit Finaled. 561 N STASSI LANE","address":"561 Stassi Lane, CA, Santa Monica, 90402, US","ct":"2628.00","ev":"N","hl":"YES","apc":"West Los Angeles","zone":"R1-1D-O","solar":"N","pin_nbr":"124-5A133 240","use_code":"70","geolocation":"POINT (-118.50976 34.03343)","status_date":"09/16/2010","permit_group":"Building","refresh_time":"06/10/2026","type_lat_lon":"ADDRESS","business_unit":"Plan Check at Counter"},"geometry":{"type":"Point","coordinates":[-118.50976,34.03343]}},{"type":"Feature","properties":{"date":"2010-01-22T00:00:00.000Z","year":2010,"description":"EXCAVATION TO APPLY WATER PROOFING MEMBRANE TO BELOW GRADE GARAGE RETAINING WALLS.","metadescription":"Grading. 1 or 2 Family Dwelling. EXCAVATION TO APPLY WATER PROOFING MEMBRANE TO BELOW GRADE GARAGE RETAINING WALLS.. Permit Finaled. 630 N KINGMAN AVE","address":"624 Kingman Avenue, CA, Santa Monica, 90402, US","ct":"2628.00","ev":"N","hl":"YES","apc":"West Los Angeles","zone":"R1-1","solar":"N","pin_nbr":"124-5A133 158","use_code":"70","geolocation":"POINT (-118.50858 34.03509)","status_date":"01/08/2013","permit_group":"Building","refresh_time":"06/10/2026","type_lat_lon":"ADDRESS","business_unit":"Plan Check at Counter"},"geometry":{"type":"Point","coordinates":[-118.50858,34.03509]}},{"type":"Feature","properties":{"date":"2008-06-25T00:00:00.000Z","year":2008,"description":"GRADING PERMIT FOR POOL EQUIPEMENT VAULT EXCAVATION.","metadescription":"Grading. 1 or 2 Family Dwelling. GRADING PERMIT FOR POOL EQUIPEMENT VAULT EXCAVATION.. Permit Finaled. 644 N KINGMAN AVE","address":"640 Kingman Avenue, CA, Santa Monica, 90402, US","ct":"2628.00","ev":"N","hl":"YES","apc":"West Los Angeles","zone":"R1-1","solar":"N","pin_nbr":"124-5A133 133","use_code":"70","geolocation":"POINT (-118.50845 34.03549)","status_date":"12/22/2008","permit_group":"Building","refresh_time":"06/10/2026","type_lat_lon":"ADDRESS","business_unit":"Plan Check at Counter"},"geometry":{"type":"Point","coordinates":[-118.50845,34.03549]}},{"type":"Feature","properties":{"date":"2008-06-20T00:00:00.000Z","year":2008,"description":"EXCAVATION FOR POOL AND SPA - HILLSIDE GRADING AREA","metadescription":"Grading. 1 or 2 Family Dwelling. EXCAVATION FOR POOL AND SPA - HILLSIDE GRADING AREA. Permit Finaled. 556 N DRYAD ROAD","address":"552 Dryad Road, CA, Santa Monica, 90402, US","ct":"2628.00","ev":"N","hl":"YES","apc":"West Los Angeles","zone":"R1-1","solar":"N","pin_nbr":"124-5A133 167","use_code":"70","geolocation":"POINT (-118.51026 34.03494)","status_date":"12/18/2008","permit_group":"Building","refresh_time":"06/10/2026","type_lat_lon":"ADDRESS","business_unit":"Plan Check at Counter"},"geometry":{"type":"Point","coordinates":[-118.51026,34.03494]}},{"type":"Feature","properties":{"date":"2008-05-23T00:00:00.000Z","year":2008,"description":"GRADING FOR BASEMENT EXCAVATION.","metadescription":"Grading. 1 or 2 Family Dwelling. GRADING FOR BASEMENT EXCAVATION.. Permit Finaled. 800 N SAN LORENZO ST","address":"800 San Lorenzo Street, CA, Santa Monica, 90402, US","ct":"2628.00","ev":"N","hl":"YES","apc":"West Los Angeles","zone":"RE20-1","solar":"N","pin_nbr":"126B133   174","use_code":"70","geolocation":"POINT (-118.50841 34.0403)","status_date":"06/21/2010","permit_group":"Building","refresh_time":"06/10/2026","type_lat_lon":"ADDRESS","business_unit":"Plan Check at Counter"},"geometry":{"type":"Point","coordinates":[-118.50841,34.0403]}},{"type":"Feature","properties":{"date":"2008-05-12T00:00:00.000Z","year":2008,"description":"EXCAVATION FOR POOL & SPA - HILLSIDE GRADING AREA","metadescription":"Grading. 1 or 2 Family Dwelling. EXCAVATION FOR POOL & SPA - HILLSIDE GRADING AREA. Permit Finaled. 800 N SAN LORENZO ST","address":"800 San Lorenzo Street, CA, Santa Monica, 90402, US","ct":"2628.00","ev":"N","hl":"YES","apc":"West Los Angeles","zone":"RE20-1","solar":"N","pin_nbr":"126B133   174","use_code":"70","geolocation":"POINT (-118.50841 34.0403)","status_date":"06/22/2010","permit_group":"Building","refresh_time":"06/10/2026","type_lat_lon":"ADDRESS","business_unit":"Plan Check at Counter"},"geometry":{"type":"Point","coordinates":[-118.50841,34.0403]}},{"type":"Feature","properties":{"date":"2008-02-20T00:00:00.000Z","year":2008,"description":"POOL EXCAVATION & RETAINING WALL BACKFILL -- HILLSIDE GRADING AREA","metadescription":"Grading. 1 or 2 Family Dwelling. POOL EXCAVATION & RETAINING WALL BACKFILL -- HILLSIDE GRADING AREA. Permit Finaled. 644 N KINGMAN AVE","address":"640 Kingman Avenue, CA, Santa Monica, 90402, US","ct":"2628.00","ev":"N","hl":"YES","apc":"West Los Angeles","zone":"R1-1","solar":"N","pin_nbr":"124-5A133 133","use_code":"70","geolocation":"POINT (-118.50845 34.03549)","status_date":"12/22/2008","permit_group":"Building","refresh_time":"06/10/2026","type_lat_lon":"ADDRESS","business_unit":"Plan Check at Counter"},"geometry":{"type":"Point","coordinates":[-118.50845,34.03549]}},{"type":"Feature","properties":{"date":"2007-08-30T00:00:00.000Z","year":2007,"description":"EXCAVATION FOR ADDITION TO A SFD, AND BACKFILL BEHIND TWO RETAINING WALLS. ADDITION PERMIT IS 06014-30002-03183, RETAINING WALL PERMIT # IS 07020-30000-01386","metadescription":"Grading. 1 or 2 Family Dwelling. EXCAVATION FOR ADDITION TO A SFD, AND BACKFILL BEHIND TWO RETAINING WALLS. ADDITION PERMIT IS 06014-30002-03183, RETAINING WALL PERMIT # IS 07020-30000-01386. Permit Finaled. 690 N KINGMAN AVE","address":"684 Kingman Avenue, CA, Santa Monica, 90402, US","ct":"2628.00","ev":"N","hl":"YES","apc":"West Los Angeles","zone":"R1-1","solar":"N","pin_nbr":"124-5A133  32","use_code":"70","geolocation":"POINT (-118.50825 34.03671)","status_date":"05/28/2008","permit_group":"Building","refresh_time":"06/10/2026","type_lat_lon":"ADDRESS","business_unit":"Plan Check at Counter"},"geometry":{"type":"Point","coordinates":[-118.50825,34.03671]}},{"type":"Feature","properties":{"date":"2007-08-01T00:00:00.000Z","year":2007,"description":"Site excavation for propose addition to existing 1 story SFD.","metadescription":"Grading. 1 or 2 Family Dwelling. Site excavation for propose addition to existing 1 story SFD.. Issued. 410 N ENTRADA DR","address":"410 Entrada Drive, CA, Santa Monica, 90402, US","ct":"2628.00","ev":"N","hl":"YES","apc":"West Los Angeles","zone":"R1-1D-O","solar":"N","pin_nbr":"123B129   759","use_code":"70","geolocation":"POINT (-118.51211 34.03118)","status_date":"08/01/2007","permit_group":"Building","refresh_time":"06/10/2026","type_lat_lon":"ADDRESS","business_unit":"Plan Check at Counter"},"geometry":{"type":"Point","coordinates":[-118.51211,34.03118]}},{"type":"Feature","properties":{"date":"2006-10-27T00:00:00.000Z","year":2006,"description":"EXCAVATION AND BACKFILL AND COMPACTION UNDER PROPOSED ACCSSORY LIVING QUARTERS, PAVIILION STRUCTURE AND TRELLIS.","metadescription":"Grading. 1 or 2 Family Dwelling. EXCAVATION AND BACKFILL AND COMPACTION UNDER PROPOSED ACCSSORY LIVING QUARTERS, PAVIILION STRUCTURE AND TRELLIS.. Permit Finaled. 504 S AMALFI CT","address":"504 Amalfi Court, CA, Santa Monica, 90402, US","ct":"2628.00","ev":"N","hl":"YES","apc":"West Los Angeles","zone":"R1-1-O","solar":"N","pin_nbr":"123A133    18","use_code":"70","geolocation":"POINT (-118.51151 34.03317)","status_date":"02/08/2010","permit_group":"Building","refresh_time":"06/10/2026","type_lat_lon":"ADDRESS","business_unit":"Regular Plan Check"},"geometry":{"type":"Point","coordinates":[-118.51151,34.03317]}},{"type":"Feature","properties":{"date":"2006-10-26T00:00:00.000Z","year":2006,"description":"Excavation for new pool and spa. New spa and pool permit under 05047-30000-00552.","metadescription":"Grading. 1 or 2 Family Dwelling. Excavation for new pool and spa. New spa and pool permit under 05047-30000-00552.. Permit Finaled. 700 N KINGMAN AVE","address":"694 Kingman Avenue, CA, Santa Monica, 90402, US","ct":"2628.00","ev":"N","hl":"YES","apc":"West Los Angeles","zone":"R1-1","solar":"N","pin_nbr":"124-5A133  17","use_code":"70","geolocation":"POINT (-118.50831 34.03698)","status_date":"02/02/2010","permit_group":"Building","refresh_time":"06/10/2026","type_lat_lon":"ADDRESS","business_unit":"Plan Check at Counter"},"geometry":{"type":"Point","coordinates":[-118.50831,34.03698]}},{"type":"Feature","properties":{"date":"2006-08-04T00:00:00.000Z","year":2006,"description":"SITE PREP. REMOVAL AND RECOMPACTION (444 CU.YD.), RETAINING WALL EXCAVATION AND BACKFILL.","metadescription":"Grading. 1 or 2 Family Dwelling. SITE PREP. REMOVAL AND RECOMPACTION (444 CU.YD.), RETAINING WALL EXCAVATION AND BACKFILL.. Permit Finaled. 43 E OZONE AVE","address":"43 Ozone Avenue, CA, Venice, 90291, US","ct":"2734.00","ev":"N","apc":"West Los Angeles","cpa":"Venice","zone":"RD1.5-1","solar":"N","pin_nbr":"111B141   722","use_code":"60","geolocation":"POINT (-118.4799 33.99613)","status_date":"04/10/2008","permit_group":"Building","refresh_time":"06/10/2026","type_lat_lon":"ADDRESS","business_unit":"Regular Plan Check"},"geometry":{"type":"Point","coordinates":[-118.4799,33.99613]}},{"type":"Feature","properties":{"date":"2006-02-28T00:00:00.000Z","year":2006,"description":"GRADING - EXCAVATE AND BACKFILL FOR POOL / SPA","metadescription":"Grading. 1 or 2 Family Dwelling. GRADING - EXCAVATE AND BACKFILL FOR POOL / SPA. Permit Finaled. 562 N STASSI LANE","address":"562 Stassi Lane, CA, Santa Monica, 90402, US","ct":"2628.00","ev":"N","hl":"YES","apc":"West Los Angeles","zone":"R1-1D-O","solar":"N","pin_nbr":"124-5A133 236","use_code":"70","geolocation":"POINT (-118.50958 34.03346)","status_date":"09/12/2006","permit_group":"Building","refresh_time":"06/10/2026","type_lat_lon":"ADDRESS","business_unit":"Plan Check at Counter"},"geometry":{"type":"Point","coordinates":[-118.50958,34.03346]}},{"type":"Feature","properties":{"date":"2005-08-31T00:00:00.000Z","year":2005,"description":"POOL AND SPA EXCAVATION: 85 C.Y.","metadescription":"Grading. 1 or 2 Family Dwelling. POOL AND SPA EXCAVATION: 85 C.Y.. Permit Finaled. 14112 W ATTILLA ROAD","address":"14112 Attilla Road, CA, Santa Monica, 90402, US","ct":"2628.00","ev":"N","hl":"YES","apc":"West Los Angeles","zone":"R1-1-O","solar":"N","pin_nbr":"124-5A133 238","use_code":"70","geolocation":"POINT (-118.51088 34.03357)","status_date":"12/29/2005","permit_group":"Building","refresh_time":"06/10/2026","type_lat_lon":"ADDRESS","business_unit":"Plan Check at Counter"},"geometry":{"type":"Point","coordinates":[-118.51088,34.03357]}},{"type":"Feature","properties":{"date":"2005-07-08T00:00:00.000Z","year":2005,"description":"BASEMENT AND RET WALL EXCAVATION (330 C Y CUT).","metadescription":"Grading. 1 or 2 Family Dwelling. BASEMENT AND RET WALL EXCAVATION (330 C Y CUT).. Permit Finaled. 546 N STASSI LANE","address":"546 Stassi Lane, CA, Santa Monica, 90402, US","ct":"2628.00","ev":"N","hl":"YES","apc":"West Los Angeles","zone":"R1-1D-O","solar":"N","pin_nbr":"123A133    11","use_code":"70","geolocation":"POINT (-118.5098 34.0331)","status_date":"08/24/2006","permit_group":"Building","refresh_time":"06/10/2026","type_lat_lon":"ADDRESS","business_unit":"Plan Check at Counter"},"geometry":{"type":"Point","coordinates":[-118.5098,34.0331]}},{"type":"Feature","properties":{"date":"2005-04-13T00:00:00.000Z","year":2005,"description":"GRADING PERMIT FOR EXCAVATION AND BACKFILL FOR NEW 5' RETAINING WALL UNDER PERMIT 04020-30000-02923.","metadescription":"Grading. 1 or 2 Family Dwelling. GRADING PERMIT FOR EXCAVATION AND BACKFILL FOR NEW 5' RETAINING WALL UNDER PERMIT 04020-30000-02923.. Permit Finaled. 694 N KINGMAN AVE","address":"694 Kingman Avenue, CA, Santa Monica, 90402, US","ct":"2628.00","ev":"N","hl":"YES","apc":"West Los Angeles","zone":"R1-1","solar":"N","pin_nbr":"124-5A133  24","use_code":"70","geolocation":"POINT (-118.50828 34.03684)","status_date":"05/11/2005","permit_group":"Building","refresh_time":"06/10/2026","type_lat_lon":"ADDRESS","business_unit":"Plan Check at Counter"},"geometry":{"type":"Point","coordinates":[-118.50828,34.03684]}},{"type":"Feature","properties":{"date":"2005-03-16T00:00:00.000Z","year":2005,"description":"site grading for new retaining wall. R/R for new SFD.  EXCAVATION SHALL START AFTER 2/25/2005.","metadescription":"Grading. 1 or 2 Family Dwelling. site grading for new retaining wall. R/R for new SFD.  EXCAVATION SHALL START AFTER 2/25/2005.. Permit Finaled. 630 N KINGMAN AVE","address":"624 Kingman Avenue, CA, Santa Monica, 90402, US","ct":"2628.00","ev":"N","hl":"YES","apc":"West Los Angeles","zone":"R1-1","solar":"N","pin_nbr":"124-5A133 158","use_code":"70","geolocation":"POINT (-118.50858 34.03509)","status_date":"05/10/2007","permit_group":"Building","refresh_time":"06/10/2026","type_lat_lon":"ADDRESS","business_unit":"Regular Plan Check"},"geometry":{"type":"Point","coordinates":[-118.50858,34.03509]}},{"type":"Feature","properties":{"date":"2005-02-18T00:00:00.000Z","year":2005,"description":"SPA EXCAVATION, 20 CUBIC YARDS","metadescription":"Grading. 1 or 2 Family Dwelling. SPA EXCAVATION, 20 CUBIC YARDS. Permit Finaled. 757 N KINGMAN AVE","address":"757 Kingman Avenue, CA, Santa Monica, 90402, US","ct":"2628.00","ev":"N","hl":"YES","apc":"West Los Angeles","zone":"R1-1","solar":"N","pin_nbr":"126B133   253","use_code":"70","geolocation":"POINT (-118.5087 34.03869)","status_date":"06/21/2006","permit_group":"Building","refresh_time":"06/10/2026","type_lat_lon":"ADDRESS","business_unit":"Plan Check at Counter"},"geometry":{"type":"Point","coordinates":[-118.5087,34.03869]}},{"type":"Feature","properties":{"date":"2004-02-18T00:00:00.000Z","year":2004,"description":"RETAINING WALL EXCAVATION AND BACKFILL.","metadescription":"Grading. 1 or 2 Family Dwelling. RETAINING WALL EXCAVATION AND BACKFILL.. Permit Finaled. 450 N ENTRADA DR","address":"444 Entrada Drive, CA, Santa Monica, 90402, US","ct":"2628.00","ev":"N","hl":"YES","apc":"West Los Angeles","zone":"R1-1D-O","solar":"N","pin_nbr":"123A133    53","use_code":"70","geolocation":"POINT (-118.51123 34.03197)","status_date":"01/17/2014","permit_group":"Building","refresh_time":"06/10/2026","type_lat_lon":"ADDRESS","business_unit":"Appointment Plan Check"},"geometry":{"type":"Point","coordinates":[-118.51123,34.03197]}},{"type":"Feature","properties":{"date":"2003-10-23T00:00:00.000Z","year":2003,"description":"EXCAVATION AND BACKFILL FOR RETAINING WALL.","metadescription":"Grading. 1 or 2 Family Dwelling. EXCAVATION AND BACKFILL FOR RETAINING WALL.. Permit Finaled. 13200 W WARREN AVE","address":"13200 Warren Avenue, CA, Los Angeles, 90066, US","ct":"2714.00","ev":"N","hl":"YES","apc":"West Los Angeles","cpa":"Palms - Del Rey - Mar Vista","zone":"R1-1","solar":"N","pin_nbr":"114B149   408","use_code":"70","geolocation":"POINT (-118.4538 34.00968)","status_date":"02/22/2005","permit_group":"Building","refresh_time":"06/10/2026","type_lat_lon":"ADDRESS","business_unit":"Appointment Plan Check"},"geometry":{"type":"Point","coordinates":[-118.4538,34.00968]}},{"type":"Feature","properties":{"date":"2003-06-20T00:00:00.000Z","year":2003,"description":"GRADING PERMIT FOR EXCAVATION (63 C.Y.), FILL (7 C.Y.), & SITE PREPARATION.  See Also Permit 02010-10000-04316","metadescription":"Grading. 1 or 2 Family Dwelling. GRADING PERMIT FOR EXCAVATION (63 C.Y.), FILL (7 C.Y.), & SITE PREPARATION.  See Also Permit 02010-10000-04316. Permit Finaled. 55 E ROSE AVE","address":"A, 55 Rose Avenue, CA, Venice, 90291, US","ct":"2734.00","ev":"N","apc":"West Los Angeles","zone":"R3-1","solar":"N","pin_nbr":"109-5A141  27","use_code":"60","geolocation":"POINT (-118.479 33.99568)","status_date":"10/08/2003","permit_group":"Building","refresh_time":"06/10/2026","type_lat_lon":"ADDRESS","business_unit":"Express Permit"},"geometry":{"type":"Point","coordinates":[-118.479,33.99568]}},{"type":"Feature","properties":{"date":"2002-01-08T00:00:00.000Z","year":2002,"description":"EXCAVATION FOR NEW SWIMMING POOL / SPA.  INCLUDE BACKFILL AND COMPACTION OF FILL UNDER POOL FOUNDATION AND BEHIND EXISTING RETAINING WALL.  (+60 C.Y.)","metadescription":"Grading. 1 or 2 Family Dwelling. EXCAVATION FOR NEW SWIMMING POOL / SPA.  INCLUDE BACKFILL AND COMPACTION OF FILL UNDER POOL FOUNDATION AND BEHIND EXISTING RETAINING WALL.  (+60 C.Y.). Permit Finaled. 534 N DRYAD ROAD","address":"534 Dryad Road, CA, Santa Monica, 90402, US","ct":"2628.00","ev":"N","hl":"YES","apc":"West Los Angeles","zone":"R1-1-O","solar":"N","pin_nbr":"124-5A133 205","use_code":"70","geolocation":"POINT (-118.51059 34.03421)","status_date":"12/30/2004","permit_group":"Building","refresh_time":"06/10/2026","type_lat_lon":"ADDRESS","business_unit":"Appointment Plan Check"},"geometry":{"type":"Point","coordinates":[-118.51059,34.03421]}},{"type":"Feature","properties":{"date":"2001-10-18T00:00:00.000Z","year":2001,"description":"TEMPORARY EARTH SHORING FOR EXCAVATION OF 4 STORY APT. BLDG. (TOTAL OF 72 CANTILEVEL SOLDIER PILES). CONTRACTOR CAL OSHA PERMIT#","metadescription":"Nonbldg-New. Apartment. TEMPORARY EARTH SHORING FOR EXCAVATION OF 4 STORY APT. BLDG. (TOTAL OF 72 CANTILEVEL SOLDIER PILES). CONTRACTOR CAL OSHA PERMIT#. Permit Finaled. 151 S OCEAN FRONT WALK","address":"153 Ocean Front Walk, CA, Venice, 90291, US","ct":"2734.00","ev":"N","apc":"West Los Angeles","zone":"(T)(Q)R3-1","solar":"N","pin_nbr":"109.5A141  23","use_code":"23","geolocation":"POINT (-118.48136 33.99577)","status_date":"03/19/2007","permit_group":"Building","refresh_time":"06/10/2026","type_lat_lon":"ADDRESS","business_unit":"Regular Plan Check"},"geometry":{"type":"Point","coordinates":[-118.48136,33.99577]}},{"type":"Feature","properties":{"date":"2001-05-01T00:00:00.000Z","year":2001,"description":"EXCAVATE APPROX 100 C.Y. remedial SLOPE REPAIR FROM NOTICE TO COMPLY DATED (2-3-00).","metadescription":"Grading. 1 or 2 Family Dwelling. EXCAVATE APPROX 100 C.Y. remedial SLOPE REPAIR FROM NOTICE TO COMPLY DATED (2-3-00).. Permit Finaled. 536 N STASSI LANE","address":"536 Stassi Lane, CA, Santa Monica, 90402, US","ct":"2628.00","ev":"N","hl":"YES","apc":"West Los Angeles","zone":"R1-1D-O","solar":"N","pin_nbr":"123A133    25","use_code":"70","geolocation":"POINT (-118.50997 34.03288)","status_date":"06/22/2001","permit_group":"Building","refresh_time":"06/10/2026","type_lat_lon":"ADDRESS","business_unit":"Regular Plan Check"},"geometry":{"type":"Point","coordinates":[-118.50997,34.03288]}},{"type":"Feature","properties":{"date":"2001-04-18T00:00:00.000Z","year":2001,"description":"Excavation/site preparation / retaining wall backfill, 90 c.y.","metadescription":"Grading. Apartment. Excavation/site preparation / retaining wall backfill, 90 c.y.. Permit Finaled. 13212 W DEWEY ST","address":"13212 Dewey Street, CA, Los Angeles, 90066, US","ct":"2714.00","ev":"N","hl":"YES","apc":"West Los Angeles","zone":"R1-1","solar":"N","pin_nbr":"114B149   330","use_code":"70","geolocation":"POINT (-118.45456 34.01017)","status_date":"07/23/2001","permit_group":"Building","refresh_time":"06/10/2026","type_lat_lon":"ADDRESS","business_unit":"Express Permit"},"geometry":{"type":"Point","coordinates":[-118.45456,34.01017]}},{"type":"Feature","properties":{"date":"2001-04-10T00:00:00.000Z","year":2001,"description":"POOL EXCAVATION APPROX. 50 CU. YDS.","metadescription":"Grading. 1 or 2 Family Dwelling. POOL EXCAVATION APPROX. 50 CU. YDS.. Permit Finaled. 545 N DRYAD ROAD","address":"545 Dryad Road, CA, Santa Monica, 90402, US","ct":"2628.00","ev":"N","hl":"YES","apc":"West Los Angeles","zone":"R1-1-O","solar":"N","pin_nbr":"124-5A133 179","use_code":"70","geolocation":"POINT (-118.51071 34.03458)","status_date":"11/10/2003","permit_group":"Building","refresh_time":"06/10/2026","type_lat_lon":"ADDRESS","business_unit":"Express Permit"},"geometry":{"type":"Point","coordinates":[-118.51071,34.03458]}},{"type":"Feature","properties":{"date":"2001-04-02T00:00:00.000Z","year":2001,"description":"excavation of 4 CY for construction of a new spa (01047-30000-00217)","metadescription":"Grading. 1 or 2 Family Dwelling. excavation of 4 CY for construction of a new spa (01047-30000-00217). Permit Finaled. 792 N SAN LORENZO ST","address":"784 San Lorenzo Street, CA, Santa Monica, 90402, US","ct":"2628.00","ev":"N","hl":"YES","apc":"West Los Angeles","zone":"RE20-1","solar":"N","pin_nbr":"126B133   184","use_code":"70","geolocation":"POINT (-118.50826 34.04014)","status_date":"10/20/2005","permit_group":"Building","refresh_time":"06/10/2026","type_lat_lon":"ADDRESS","business_unit":"Express Permit"},"geometry":{"type":"Point","coordinates":[-118.50826,34.04014]}},{"type":"Feature","properties":{"date":"2001-03-22T00:00:00.000Z","year":2001,"description":"SPA EXCAVATION (5 CUBIC YARDS).","metadescription":"Grading. 1 or 2 Family Dwelling. SPA EXCAVATION (5 CUBIC YARDS).. Permit Finaled. 102 N ESPARTA WAY","address":"104 Esparta Way, CA, Santa Monica, 90402, US","ct":"2628.00","ev":"N","solar":"N","pin_nbr":"126B133   332","use_code":"70","geolocation":"POINT (-118.50763 34.03771)","status_date":"05/21/2001","permit_group":"Building","refresh_time":"06/10/2026","type_lat_lon":"ADDRESS","business_unit":"Plan Check at Counter"},"geometry":{"type":"Point","coordinates":[-118.50763,34.03771]}},{"type":"Feature","properties":{"date":"1999-05-06T00:00:00.000Z","year":1999,"description":"Spa excavation","metadescription":"Grading. 1 or 2 Family Dwelling. Spa excavation. Permit Finaled. 784 N SAN LORENZO ST","address":"784 San Lorenzo Street, CA, Santa Monica, 90402, US","ct":"2628.00","ev":"N","hl":"YES","apc":"West Los Angeles","zone":"RE20-1","solar":"N","pin_nbr":"126B133   189","use_code":"70","geolocation":"POINT (-118.50876 34.04003)","status_date":"11/03/1999","permit_group":"Building","refresh_time":"06/10/2026","type_lat_lon":"ADDRESS","business_unit":"Plan Check at Counter"},"geometry":{"type":"Point","coordinates":[-118.50876,34.04003]}},{"type":"Feature","properties":{"date":"1998-10-29T00:00:00.000Z","year":1998,"description":"POOL EXCAVATION & RET WALL BACKFILL","metadescription":"Grading. 1 or 2 Family Dwelling. POOL EXCAVATION & RET WALL BACKFILL. Permit Closed. 710 N KINGMAN AVE","address":"710 Kingman Avenue, CA, Santa Monica, 90402, US","ct":"2628.00","ev":"N","hl":"YES","apc":"West Los Angeles","zone":"R1-1","solar":"N","pin_nbr":"126B133   353","use_code":"70","geolocation":"POINT (-118.50836 34.03725)","status_date":"07/26/1999","permit_group":"Building","refresh_time":"06/10/2026","type_lat_lon":"ADDRESS","business_unit":"Plan Check at Counter"},"geometry":{"type":"Point","coordinates":[-118.50836,34.03725]}},{"type":"Feature","properties":{"date":"1997-01-09T00:00:00.000Z","year":1997,"description":"POOL EXCAVATION, 75 CU YDS.","metadescription":"Grading. 1 or 2 Family Dwelling. POOL EXCAVATION, 75 CU YDS.. Permit Closed. 14121 W ATTILLA ROAD","address":"14121 Attilla Road, CA, Santa Monica, 90402, US","ct":"2628.00","ev":"N","hl":"Y","apc":"West Los Angeles","zone":"R1-1","solar":"N","pin_nbr":"124-5A133 215","use_code":"70","geolocation":"POINT (-118.51117 34.03401)","status_date":"07/30/1999","permit_group":"Building","refresh_time":"06/10/2026","type_lat_lon":"ADDRESS","business_unit":"Express Permit"},"geometry":{"type":"Point","coordinates":[-118.51117,34.03401]}}]}
