{"type":"FeatureCollection","features":[{"type":"Feature","properties":{"date":"2026-05-21T00:00:00.000Z","year":2026,"description":"ALTERATION TO SINGLE FAMILY DWELLING ROOF FOR NEW HVAC EQUIPMENT.","metadescription":"Bldg-Alter/Repair. 1 or 2 Family Dwelling. ALTERATION TO SINGLE FAMILY DWELLING ROOF FOR NEW HVAC EQUIPMENT.. Permit Finaled. 13243 W WARREN AVE","address":"13243 Warren Avenue, CA, Los Angeles, 90066, US","ct":"2714.00","ev":"N","apc":"West Los Angeles","cpa":"Palms - Mar Vista - Del Rey","zone":"R1V2","solar":"N","pin_nbr":"114B149   451","use_code":"1","status_date":"05/29/2026","permit_group":"Building","refresh_time":"06/10/2026","type_lat_lon":"ADDRESS","business_unit":"Plan Check at Counter"},"geometry":{"type":"Point","coordinates":[-118.4551,34.00935]}},{"type":"Feature","properties":{"date":"2021-09-09T00:00:00.000Z","year":2021,"description":"*ePlan Check* 2 roof curbs for new HVAC","metadescription":"Bldg-Alter/Repair. Commercial. *ePlan Check* 2 roof curbs for new HVAC. Permit Finaled. 248 S MAIN ST","address":"248 Main Street, CA, Venice, 90291, US","ct":"2734.02","ev":"N","apc":"West Los Angeles","cpa":"Venice","zone":"M1-1","solar":"N","pin_nbr":"111B141   614","use_code":"16","status_date":"09/14/2021","permit_group":"Building","refresh_time":"06/10/2026","type_lat_lon":"ADDRESS","business_unit":"Plan Check at Counter"},"geometry":{"type":"Point","coordinates":[-118.47804,33.99669]}},{"type":"Feature","properties":{"date":"2020-06-03T00:00:00.000Z","year":2020,"description":"SUPPLEMENTAL PERMIT TO 17010-100001504 FOR 2 HR -MECHANICAL SHAFT DETAIL (GA FILE NO. WP 7125).","metadescription":"Bldg-Alter/Repair. Commercial. SUPPLEMENTAL PERMIT TO 17010-100001504 FOR 2 HR -MECHANICAL SHAFT DETAIL (GA FILE NO. WP 7125).. Permit Finaled. 305 S OCEAN FRONT WALK 1-3","address":"1-3, 305 Ocean Front Walk, CA, Venice, 90291, US","ct":"2734.02","ev":"N","apc":"West Los Angeles","cpa":"Venice","zone":"C1-1","solar":"N","pin_nbr":"109-5A141 110","use_code":"5","status_date":"09/02/2020","permit_group":"Building","refresh_time":"06/10/2026","type_lat_lon":"ADDRESS","business_unit":"Plan Check at Counter"},"geometry":{"type":"Point","coordinates":[-118.48022,33.99451]}},{"type":"Feature","properties":{"date":"2019-12-23T00:00:00.000Z","year":2019,"description":"(6)WINDOW CHANGE-OUT (SAME SIZE & TYPE) FOR RESIDENTIAL BUILDINGS.  THREE BATHROOM REMODEL COMBINED WITH ELECTRICAL, PLUMBING, AND HVAC FOR RESIDENTIAL BUILDINGS (NO STRUCTURAL CHANGES). REPLACE DRYWALL (NO NEW WALLS ADDED) FOR SINGLE FAMILY DWELLINGS AND DUPLEX ONLY.","metadescription":"Bldg-Alter/Repair. 1 or 2 Family Dwelling. (6)WINDOW CHANGE-OUT (SAME SIZE & TYPE) FOR RESIDENTIAL BUILDINGS.  THREE BATHROOM REMODEL COMBINED WITH ELECTRICAL, PLUMBING, AND HVAC FOR RESIDENTIAL BUILDINGS (NO STRUCTURAL CHANGES). REPLACE DRYWALL (NO NEW WALLS ADDED) FOR SINGLE FAMILY DWELLINGS AND DUPLEX ONLY.. Permit Expired. 392 N ENTRADA DR","address":"392 Entrada Drive, CA, Santa Monica, 90402, US","ct":"2628.02","ev":"N","hl":"YES","apc":"West Los Angeles","zone":"R1-1D-O","solar":"N","pin_nbr":"123B129   795","use_code":"1","geolocation":"POINT (-118.5124 34.03087)","status_date":"11/22/2023","permit_group":"Building","refresh_time":"06/10/2026","type_lat_lon":"ADDRESS","business_unit":"Express Permit"},"geometry":{"type":"Point","coordinates":[-118.5124,34.03087]}},{"type":"Feature","properties":{"date":"2019-11-12T00:00:00.000Z","year":2019,"description":"SUPPLEMENTAL TO PERMIT NO. 18014-30000-05424 TO REVISE FLOOR AND FRAMING PLANS FOR (N) ELEVATOR SHAFT AND MECHANICAL ROOM ADDITION ON GROUND FLOOR","metadescription":"Bldg-Addition. 1 or 2 Family Dwelling. SUPPLEMENTAL TO PERMIT NO. 18014-30000-05424 TO REVISE FLOOR AND FRAMING PLANS FOR (N) ELEVATOR SHAFT AND MECHANICAL ROOM ADDITION ON GROUND FLOOR. Permit Finaled. 552 N STASSI LANE","address":"552 Stassi Lane, CA, Santa Monica, 90402, US","ct":"2628.02","ev":"N","hl":"YES","apc":"West Los Angeles","zone":"R1H1-1D-O","solar":"N","height":"28","pin_nbr":"124-5A133 256","use_code":"1","geolocation":"POINT (-118.50960034 34.03322766)","status_date":"10/14/2021","construction":"Type V-B Construction","permit_group":"Building","refresh_time":"06/10/2026","type_lat_lon":"BUILDING","business_unit":"Regular Plan Check","square_footage":"3818"},"geometry":{"type":"Point","coordinates":[-118.50960034,34.03322766]}},{"type":"Feature","properties":{"date":"2019-08-20T00:00:00.000Z","year":2019,"description":"(16) Window change-out (same size & type) for residential buildings.  Dual glazing, labeled and certified by National Fenestration Rating Council (NFRC), is required for doors and windows replaced in all residential buildings, three stories or less, per Section 150.2(b) 1B of Title 24.      Re-stucco for single family dwellings and duplexes only.","metadescription":"Bldg-Alter/Repair. 1 or 2 Family Dwelling. (16) Window change-out (same size & type) for residential buildings.  Dual glazing, labeled and certified by National Fenestration Rating Council (NFRC), is required for doors and windows replaced in all residential buildings, three stories or less, per Section 150.2(b) 1B of Title 24.      Re-stucco for single family dwellings and duplexes only.. Permit Finaled. 313 S OCEAN FRONT WALK UNITS#1-2","address":"313 S OCEAN FRONT WALK UNITS#1-2","ct":"2734.02","ev":"N","apc":"West Los Angeles","cpa":"Venice","zone":"C1-1","solar":"N","pin_nbr":"109-5A141 115","use_code":"2","geolocation":"POINT (-118.48008 33.99436)","status_date":"11/19/2019","permit_group":"Building","refresh_time":"06/10/2026","type_lat_lon":"ADDRESS","business_unit":"Express Permit"},"geometry":{"type":"Point","coordinates":[-118.48008,33.99436]}},{"type":"Feature","properties":{"date":"2019-08-05T00:00:00.000Z","year":2019,"description":"Bathroom remodel for residential buildings (no structural changes) combined electrical/plumbing/HVAC.","metadescription":"Bldg-Alter/Repair. 1 or 2 Family Dwelling. Bathroom remodel for residential buildings (no structural changes) combined electrical/plumbing/HVAC.. Issued. 13221 W DEWEY ST","address":"13221 Dewey Street, CA, Los Angeles, 90066, US","ct":"2714.00","ev":"N","apc":"West Los Angeles","cpa":"Palms - Mar Vista - Del Rey","zone":"R1V2","solar":"N","pin_nbr":"114B149   287","use_code":"1","geolocation":"POINT (-118.45495 34.01028)","status_date":"08/05/2019","permit_group":"Building","refresh_time":"06/10/2026","type_lat_lon":"ADDRESS","business_unit":"Express Permit"},"geometry":{"type":"Point","coordinates":[-118.45495,34.01028]}},{"type":"Feature","properties":{"date":"2019-04-26T00:00:00.000Z","year":2019,"description":"SUPPLEMTAL PERMIT TO 18014-10000-05252 TO INCREASE  PARAPET HEIGHT, CHANGE OUT TUB FOR SHOWER IN GUEST BATH ROOM CHANGE LAYOUT OF UPSTAIRS BATHROOM","metadescription":"Bldg-Alter/Repair. 1 or 2 Family Dwelling. SUPPLEMTAL PERMIT TO 18014-10000-05252 TO INCREASE  PARAPET HEIGHT, CHANGE OUT TUB FOR SHOWER IN GUEST BATH ROOM CHANGE LAYOUT OF UPSTAIRS BATHROOM. Permit Finaled. 625 N KINGMAN AVE","address":"625 N KINGMAN AVE","ct":"2628.02","ev":"N","hl":"YES","apc":"West Los Angeles","zone":"R1H1","solar":"N","pin_nbr":"124-5A133 153","use_code":"1","geolocation":"POINT (-118.50896441 34.03517948)","status_date":"09/23/2020","permit_group":"Building","refresh_time":"06/10/2026","type_lat_lon":"BUILDING","business_unit":"Plan Check at Counter","square_footage":"0"},"geometry":{"type":"Point","coordinates":[-118.50896441,34.03517948]}},{"type":"Feature","properties":{"date":"2019-04-16T00:00:00.000Z","year":2019,"description":"Re-plaster existing swimming pool (a separate express mechanical permit  for new skimmer(s) and a separate express electrical permit for new pool luminaire is required, when applicable, except for one or two-family dwellings).","metadescription":"Nonbldg-Alter/Repair. 1 or 2 Family Dwelling. Re-plaster existing swimming pool (a separate express mechanical permit  for new skimmer(s) and a separate express electrical permit for new pool luminaire is required, when applicable, except for one or two-family dwellings).. Permit Finaled. 659 N KINGMAN AVE","address":"659 Kingman Avenue, CA, Santa Monica, 90402, US","ct":"2628.02","ev":"N","hl":"YES","apc":"West Los Angeles","zone":"R1H1","solar":"N","pin_nbr":"124-5A133  81","use_code":"20","geolocation":"POINT (-118.5086 34.0359)","status_date":"05/07/2020","permit_group":"Building","refresh_time":"06/10/2026","type_lat_lon":"ADDRESS","business_unit":"Express Permit"},"geometry":{"type":"Point","coordinates":[-118.5086,34.0359]}},{"type":"Feature","properties":{"date":"2019-04-15T00:00:00.000Z","year":2019,"description":"(22)Window and (15)door change-out (same size & type) for residential buildings.  Dual glazing, labeled and certified by National Fenestration Rating Council (NFRC), is required for doors and windows replaced in all residential buildings, three stories or less, per Section 150.2(b)1B of Title 24.","metadescription":"Bldg-Alter/Repair. Apartment. (22)Window and (15)door change-out (same size & type) for residential buildings.  Dual glazing, labeled and certified by National Fenestration Rating Council (NFRC), is required for doors and windows replaced in all residential buildings, three stories or less, per Section 150.2(b)1B of Title 24.. Permit Finaled. 116 E ROSE AVE 2-12 &-14-18","address":"116 E ROSE AVE 2-12 &-14-18","ct":"2734.02","ev":"N","apc":"West Los Angeles","cpa":"Venice","zone":"R3-1","solar":"N","pin_nbr":"109-5A143  34","use_code":"5","geolocation":"POINT (-118.47815 33.99574)","status_date":"07/19/2019","permit_group":"Building","refresh_time":"06/10/2026","type_lat_lon":"ADDRESS","business_unit":"Express Permit"},"geometry":{"type":"Point","coordinates":[-118.47815,33.99574]}},{"type":"Feature","properties":{"date":"2019-03-08T00:00:00.000Z","year":2019,"description":"NEW 4 STORY MIXED USE BUILDING: 2 STORY TYPE VB, 3-UNIT APARTMENT WITH ROOF DECK OVER 2-STORY, TYPE 1A, RETAIL & PARKING GARAGE, AND ONE LEVEL BASEMENT GARAGE & MECHANICAL ROOM.","metadescription":"Bldg-New. Commercial. NEW 4 STORY MIXED USE BUILDING: 2 STORY TYPE VB, 3-UNIT APARTMENT WITH ROOF DECK OVER 2-STORY, TYPE 1A, RETAIL & PARKING GARAGE, AND ONE LEVEL BASEMENT GARAGE & MECHANICAL ROOM.. CofO Issued. 305 S OCEAN FRONT WALK 1-3","address":"1-3, 305 Ocean Front Walk, CA, Venice, 90291, US","ct":"2734.02","ev":"N","apc":"West Los Angeles","cpa":"Venice","zone":"C1-1","solar":"N","height":"34.88","pin_nbr":"109-5A141 110","use_code":"16","geolocation":"POINT (-118.48022 33.99451)","status_date":"05/02/2024","construction":"Type V-B Construction","permit_group":"Building","refresh_time":"06/10/2026","type_lat_lon":"ADDRESS","business_unit":"Regular Plan Check","square_footage":"10430"},"geometry":{"type":"Point","coordinates":[-118.48022,33.99451]}},{"type":"Feature","properties":{"date":"2019-03-08T00:00:00.000Z","year":2019,"description":"TEMPORARY SHORING FOR NEW 4 STORY MIXED BUILDING WITH ONE LEVEL OF SUBTERRANEAN PARKING GARAGE AND MECHANICAL ROOM.","metadescription":"Nonbldg-New. Commercial. TEMPORARY SHORING FOR NEW 4 STORY MIXED BUILDING WITH ONE LEVEL OF SUBTERRANEAN PARKING GARAGE AND MECHANICAL ROOM.. Permit Finaled. 305 S OCEAN FRONT WALK 1-3","address":"1-3, 305 Ocean Front Walk, CA, Venice, 90291, US","ct":"2734.02","ev":"N","apc":"West Los Angeles","cpa":"Venice","zone":"C1-1","solar":"N","pin_nbr":"109-5A141 110","use_code":"23","geolocation":"POINT (-118.48022 33.99451)","status_date":"08/08/2019","permit_group":"Building","refresh_time":"06/10/2026","type_lat_lon":"ADDRESS","business_unit":"Plan Check at Counter"},"geometry":{"type":"Point","coordinates":[-118.48022,33.99451]}},{"type":"Feature","properties":{"date":"2019-03-08T00:00:00.000Z","year":2019,"description":"GRADING EXCAVATION FOR BASEMENT AND RETAINING WALL BACKFILL, FOR NEW 4 STORY MIXED USE BUILDING FOR NEW 4 STORY MIXED BUILDING WITH ONE LEVEL OF SUBTERRANEAN PARKING GARAGE AND MECHANICAL ROOM.","metadescription":"Grading. Commercial. GRADING EXCAVATION FOR BASEMENT AND RETAINING WALL BACKFILL, FOR NEW 4 STORY MIXED USE BUILDING FOR NEW 4 STORY MIXED BUILDING WITH ONE LEVEL OF SUBTERRANEAN PARKING GARAGE AND MECHANICAL ROOM.. Permit Finaled. 305 S OCEAN FRONT WALK 1-3","address":"1-3, 305 Ocean Front Walk, CA, Venice, 90291, US","ct":"2734.02","ev":"N","apc":"West Los Angeles","cpa":"Venice","zone":"C1-1","solar":"N","pin_nbr":"109-5A141 110","use_code":"60","geolocation":"POINT (-118.48022 33.99451)","status_date":"09/04/2020","permit_group":"Building","refresh_time":"06/10/2026","type_lat_lon":"ADDRESS","business_unit":"Plan Check at Counter"},"geometry":{"type":"Point","coordinates":[-118.48022,33.99451]}},{"type":"Feature","properties":{"date":"2019-01-09T00:00:00.000Z","year":2019,"description":"(3)WINDOW and (1) DOOR CHANGE-OUT (SAME SIZE & TYPE) FOR RESIDENTIAL BUILDINGS.RE-STUCCO (NO NEW WALLS ADDED) FOR SINGLE FAMILY DWELLINGS AND DUPLEXES ONLY.BATHROOM REMODEL FOR RESIDENTIAL BUILDINGS (NO STRUCTURAL CHANGES).","metadescription":"Bldg-Alter/Repair. Apartment. (3)WINDOW and (1) DOOR CHANGE-OUT (SAME SIZE & TYPE) FOR RESIDENTIAL BUILDINGS.RE-STUCCO (NO NEW WALLS ADDED) FOR SINGLE FAMILY DWELLINGS AND DUPLEXES ONLY.BATHROOM REMODEL FOR RESIDENTIAL BUILDINGS (NO STRUCTURAL CHANGES).. Permit Finaled. 17 E DUDLEY AVE 1-4","address":"17 E DUDLEY AVE 1-4","ct":"2734.02","ev":"N","apc":"West Los Angeles","cpa":"Venice","zone":"RD1.5-1","solar":"N","pin_nbr":"109-5A141 111","use_code":"5","geolocation":"POINT (-118.47935 33.99438)","status_date":"05/01/2025","permit_group":"Building","refresh_time":"06/10/2026","type_lat_lon":"ADDRESS","business_unit":"Express Permit"},"geometry":{"type":"Point","coordinates":[-118.47935,33.99438]}},{"type":"Feature","properties":{"date":"2018-12-24T00:00:00.000Z","year":2018,"description":"KITCHEN/BATHROOM REMODEL FOR RESIDENTIAL BUILDING  COMBINED WITH: ELECTRICAL, PLUMBING, HVAC ( NO STRUCTURAL CHANGES).","metadescription":"Bldg-Alter/Repair. 1 or 2 Family Dwelling. KITCHEN/BATHROOM REMODEL FOR RESIDENTIAL BUILDING  COMBINED WITH: ELECTRICAL, PLUMBING, HVAC ( NO STRUCTURAL CHANGES).. Permit Finaled. 13200 W WARREN AVE","address":"13200 Warren Avenue, CA, Los Angeles, 90066, US","ct":"2714.00","ev":"N","apc":"West Los Angeles","cpa":"Palms - Mar Vista - Del Rey","zone":"R1V2","solar":"N","pin_nbr":"114B149   408","use_code":"1","geolocation":"POINT (-118.4538 34.00968)","status_date":"06/10/2019","permit_group":"Building","refresh_time":"06/10/2026","type_lat_lon":"ADDRESS","business_unit":"Express Permit"},"geometry":{"type":"Point","coordinates":[-118.4538,34.00968]}},{"type":"Feature","properties":{"date":"2018-03-14T00:00:00.000Z","year":2018,"description":"SUPPLIMENTAL TO 18016-10000-06578 TO CAPTURE COMBO PERMIT FEES (HVAC AND PLUMBING). DEPARTMENT ERROR NO  SUBMITTAL FEE.","metadescription":"Bldg-Alter/Repair. 1 or 2 Family Dwelling. SUPPLIMENTAL TO 18016-10000-06578 TO CAPTURE COMBO PERMIT FEES (HVAC AND PLUMBING). DEPARTMENT ERROR NO  SUBMITTAL FEE.. Permit Finaled. 416 N ENTRADA DR","address":"416 Entrada Drive, CA, Santa Monica, 90402, US","ct":"2628.02","ev":"N","hl":"Yes","apc":"West Los Angeles","zone":"R1-1D-O","solar":"N","pin_nbr":"123B129   745","use_code":"1","geolocation":"POINT (-118.512 34.03127)","status_date":"04/12/2018","permit_group":"Building","refresh_time":"06/10/2026","type_lat_lon":"ADDRESS","business_unit":"Plan Check at Counter"},"geometry":{"type":"Point","coordinates":[-118.512,34.03127]}},{"type":"Feature","properties":{"date":"2018-02-22T00:00:00.000Z","year":2018,"description":"INTERIOR REMODEL TO (E) ACCESSORY LIVING QUARTERS. REMODEL BATHROOM, REMOVE NON-BEARING WALLS, CREATE MECHANICAL CLOSET AND BAR SINK ALCOVE.","metadescription":"Bldg-Alter/Repair. 1 or 2 Family Dwelling. INTERIOR REMODEL TO (E) ACCESSORY LIVING QUARTERS. REMODEL BATHROOM, REMOVE NON-BEARING WALLS, CREATE MECHANICAL CLOSET AND BAR SINK ALCOVE.. Permit Finaled. 765 N KINGMAN AVE","address":"765 Kingman Avenue, CA, Santa Monica, 90402, US","ct":"2628.02","ev":"N","hl":"YES","apc":"West Los Angeles","zone":"R1H1","solar":"N","pin_nbr":"126B133   228","use_code":"23","geolocation":"POINT (-118.50859 34.03913)","status_date":"07/13/2018","permit_group":"Building","refresh_time":"06/10/2026","type_lat_lon":"ADDRESS","business_unit":"Plan Check at Counter"},"geometry":{"type":"Point","coordinates":[-118.50859,34.03913]}},{"type":"Feature","properties":{"date":"2017-06-16T00:00:00.000Z","year":2017,"description":"(18)WINDOW and (5) DOOR CHANGE-OUT (SAME SIZE & TYPE) FOR RESIDENTIAL BUILDINGS. KITCHEN REMODEL COMBINED WITH ELECTRICAL, PLUMBING, AND HVAC FOR RESIDENTIAL BUILDINGS (NO STRUCTURAL CHANGES). BATHROOM REMODEL COMBINED WITH ELECTRICAL, PLUMBING, AND HVAC FOR RESIDENTIAL BUILDINGS (NO STRUCTURAL CHANGES). RE-STUCCO (NO NEW WALLS ADDED) FOR SINGLE FAMILY DWELLINGS AND DUPLEXES ONLY.","metadescription":"Bldg-Alter/Repair. 1 or 2 Family Dwelling. (18)WINDOW and (5) DOOR CHANGE-OUT (SAME SIZE & TYPE) FOR RESIDENTIAL BUILDINGS. KITCHEN REMODEL COMBINED WITH ELECTRICAL, PLUMBING, AND HVAC FOR RESIDENTIAL BUILDINGS (NO STRUCTURAL CHANGES). BATHROOM REMODEL COMBINED WITH ELECTRICAL, PLUMBING, AND HVAC FOR RESIDENTIAL BUILDINGS (NO STRUCTURAL CHANGES). RE-STUCCO (NO NEW WALLS ADDED) FOR SINGLE FAMILY DWELLINGS AND DUPLEXES ONLY.. Permit Finaled. 1325 S WALGROVE AVE","address":"1325 Walgrove Avenue, CA, Los Angeles, 90066, US","ct":"2731.00","ev":"N","apc":"West Los Angeles","cpa":"Venice","zone":"R1V2","solar":"N","pin_nbr":"114B149   469","use_code":"1","geolocation":"POINT (-118.45598 34.00921)","status_date":"04/03/2018","permit_group":"Building","refresh_time":"06/10/2026","type_lat_lon":"ADDRESS","business_unit":"Express Permit"},"geometry":{"type":"Point","coordinates":[-118.45598,34.00921]}},{"type":"Feature","properties":{"date":"2017-04-27T00:00:00.000Z","year":2017,"description":"Re-plaster existing swimming pool (a separate express mechanical permit  for new skimmer(s) and a separate express electrical permit for new pool luminaire is required, when applicable, except for one or two-family dwellings).","metadescription":"Nonbldg-Alter/Repair. 1 or 2 Family Dwelling. Re-plaster existing swimming pool (a separate express mechanical permit  for new skimmer(s) and a separate express electrical permit for new pool luminaire is required, when applicable, except for one or two-family dwellings).. Permit Finaled. 772 N KINGMAN AVE","address":"772 Kingman Avenue, CA, Santa Monica, 90402, US","ct":"2628.02","ev":"N","hl":"YES","apc":"West Los Angeles","zone":"RE20-1","solar":"N","pin_nbr":"126B133   210","use_code":"20","geolocation":"POINT (-118.50826 34.03943)","status_date":"07/02/2018","permit_group":"Building","refresh_time":"06/10/2026","type_lat_lon":"ADDRESS","business_unit":"Express Permit"},"geometry":{"type":"Point","coordinates":[-118.50826,34.03943]}},{"type":"Feature","properties":{"date":"2016-09-12T00:00:00.000Z","year":2016,"description":"REPLACE EXISTING PRE-FABRICATED FIREPLACE WITH THE SAME SIZE AND IN SAME LOCATION. INSTALLATION SHALL BE PER MANUFACTURER'S RECOMMENDATIONS. AN HVAC PERMIT IS REQUIRED.","metadescription":"Bldg-Alter/Repair. Apartment. REPLACE EXISTING PRE-FABRICATED FIREPLACE WITH THE SAME SIZE AND IN SAME LOCATION. INSTALLATION SHALL BE PER MANUFACTURER'S RECOMMENDATIONS. AN HVAC PERMIT IS REQUIRED.. Permit Expired. 22 E NAVY ST 305","address":"1-21, 22 Navy Street, CA, Venice, 90291, US","ct":"2734.02","ev":"N","apc":"West Los Angeles","cpa":"Venice","zone":"R3-1","solar":"N","pin_nbr":"111B141   711","use_code":"35","geolocation":"POINT (-118.48083 33.99615)","status_date":"05/24/2023","permit_group":"Building","refresh_time":"06/10/2026","type_lat_lon":"ADDRESS","business_unit":"Express Permit"},"geometry":{"type":"Point","coordinates":[-118.48083,33.99615]}},{"type":"Feature","properties":{"date":"2016-07-27T00:00:00.000Z","year":2016,"description":"CHIMNEY REPAIR FOR RESIDENTIAL BUILDING PER LA CITY STANDARD DETAILS. WITH HVAC","metadescription":"Bldg-Alter/Repair. 1 or 2 Family Dwelling. CHIMNEY REPAIR FOR RESIDENTIAL BUILDING PER LA CITY STANDARD DETAILS. WITH HVAC. Permit Finaled. 45 E NAVY ST","address":"45 Navy Street, CA, Venice, 90291, US","ct":"2734.02","ev":"N","apc":"West Los Angeles","cpa":"Venice","zone":"R3-1","solar":"N","pin_nbr":"111B141   612","use_code":"1","geolocation":"POINT (-118.48035 33.99668)","status_date":"08/03/2017","permit_group":"Building","refresh_time":"06/10/2026","type_lat_lon":"ADDRESS","business_unit":"Express Permit"},"geometry":{"type":"Point","coordinates":[-118.48035,33.99668]}},{"type":"Feature","properties":{"date":"2016-06-10T00:00:00.000Z","year":2016,"description":"NEW MECHANICAL EQUIPMENT BUILDING IN PARK","metadescription":"Bldg-New. Commercial. NEW MECHANICAL EQUIPMENT BUILDING IN PARK. CofO Issued. 1216 E ROSE AVE","address":"1216 Rose Avenue, CA, Venice, 90291, US","ct":"2731.00","ev":"N","apc":"West Los Angeles","cpa":"Venice","zone":"R1-1VLD","solar":"N","height":"15","pin_nbr":"114B145   123","use_code":"23","geolocation":"POINT (-118.45904887 34.00581254)","status_date":"06/07/2018","construction":"Type V-B Construction","permit_group":"Building","refresh_time":"06/10/2026","type_lat_lon":"BUILDING","business_unit":"Regular Plan Check","square_footage":"0"},"geometry":{"type":"Point","coordinates":[-118.45904887,34.00581254]}},{"type":"Feature","properties":{"date":"2013-11-21T00:00:00.000Z","year":2013,"description":"Expand kitchen into existing attached patio cover. Related electrical, plumbing, and hvac.","metadescription":"Bldg-Alter/Repair. 1 or 2 Family Dwelling. Expand kitchen into existing attached patio cover. Related electrical, plumbing, and hvac.. Issued. 13127 W DEWEY ST","address":"13127 Dewey Street, CA, Los Angeles, 90066, US","ct":"2714.00","ev":"N","apc":"West Los Angeles","cpa":"Palms - Mar Vista - Del Rey","zone":"R1-1","solar":"N","pin_nbr":"114B149   191","use_code":"1","geolocation":"POINT (-118.45359 34.01096)","status_date":"11/21/2013","permit_group":"Building","refresh_time":"06/10/2026","type_lat_lon":"ADDRESS","business_unit":"Plan Check at Counter"},"geometry":{"type":"Point","coordinates":[-118.45359,34.01096]}},{"type":"Feature","properties":{"date":"2013-11-18T00:00:00.000Z","year":2013,"description":"CHANGE OUT (8) WINDOW(S) AND (2) DOOR(S)  (SAME SIZE & TYPE FOR RESIDENTIAL BUILDINGS ONLY) DUAL GLAZING, LABELED AND CERTIFIED BY NATIONAL FENESTRATION RATING COUNCIL (NFRC), IS REQUIRED FOR DOORS AND WINDOWS REPLACED IN ALL RESIDENTIAL BUILDINGS, THREE STORIES OR LESS, PER SECTION 152(B) OF TITLE 24. (2) BATHROOM REMODEL COMBINED WITH ELECTRICAL, PLUMBING AND HVAC (FOR RESIDENTIAL BUILDINGS; NO STRUCTURAL CHANGES).","metadescription":"Bldg-Alter/Repair. 1 or 2 Family Dwelling. CHANGE OUT (8) WINDOW(S) AND (2) DOOR(S)  (SAME SIZE & TYPE FOR RESIDENTIAL BUILDINGS ONLY) DUAL GLAZING, LABELED AND CERTIFIED BY NATIONAL FENESTRATION RATING COUNCIL (NFRC), IS REQUIRED FOR DOORS AND WINDOWS REPLACED IN ALL RESIDENTIAL BUILDINGS, THREE STORIES OR LESS, PER SECTION 152(B) OF TITLE 24. (2) BATHROOM REMODEL COMBINED WITH ELECTRICAL, PLUMBING AND HVAC (FOR RESIDENTIAL BUILDINGS; NO STRUCTURAL CHANGES).. Permit Finaled. 1360 W ROSE AVE","address":"1360 Rose Avenue, CA, Venice, 90291, US","ct":"2731.00","ev":"N","apc":"West Los Angeles","cpa":"Venice","zone":"R1-1VLD","solar":"N","pin_nbr":"114B149   717","use_code":"1","geolocation":"POINT (-118.45581 34.00755)","status_date":"08/15/2014","permit_group":"Building","refresh_time":"06/10/2026","type_lat_lon":"ADDRESS","business_unit":"Express Permit"},"geometry":{"type":"Point","coordinates":[-118.45581,34.00755]}},{"type":"Feature","properties":{"date":"2011-01-28T00:00:00.000Z","year":2011,"description":"Window change-out (same size, type, and location) for residential buildings.  Dual glazing, labeled and certified by National Fenestration Rating Council (NFRC), is required for doors and windows replaced in all residential buildings, three stories or less, per Section 152(b) of Title 24.  No structural changes.  Valuation to be verified by the field inspector.  UNITS 101, 114, 201, 215","metadescription":"Bldg-Alter/Repair. Apartment. Window change-out (same size, type, and location) for residential buildings.  Dual glazing, labeled and certified by National Fenestration Rating Council (NFRC), is required for doors and windows replaced in all residential buildings, three stories or less, per Section 152(b) of Title 24.  No structural changes.  Valuation to be verified by the field inspector.  UNITS 101, 114, 201, 215. Permit Expired. 55 E NAVY ST","address":"55 E NAVY ST","ct":"2734.00","ev":"N","apc":"West Los Angeles","cpa":"Venice","zone":"R3-1","solar":"N","pin_nbr":"111B141   576","use_code":"5","geolocation":"POINT (-118.48 33.99691)","status_date":"02/22/2013","permit_group":"Building","refresh_time":"06/10/2026","type_lat_lon":"ADDRESS","business_unit":"Express Permit"},"geometry":{"type":"Point","coordinates":[-118.48,33.99691]}},{"type":"Feature","properties":{"date":"2010-10-19T00:00:00.000Z","year":2010,"description":"KITCHEN REMODEL COMBINED WITH ELECTRICAL, PLUMBING AND HVAC (FOR RESIDENTIAL BUILDINGS; NO STRUCTURAL CHANGES).","metadescription":"Bldg-Alter/Repair. 1 or 2 Family Dwelling. KITCHEN REMODEL COMBINED WITH ELECTRICAL, PLUMBING AND HVAC (FOR RESIDENTIAL BUILDINGS; NO STRUCTURAL CHANGES).. Permit Finaled. 773 N KINGMAN AVE","address":"773 Kingman Avenue, CA, Santa Monica, 90402, US","ct":"2628.00","ev":"N","hl":"YES","apc":"West Los Angeles","zone":"RE20-1","solar":"N","pin_nbr":"126B133   205","use_code":"1","geolocation":"POINT (-118.50831 34.03945)","status_date":"12/27/2010","permit_group":"Building","refresh_time":"06/10/2026","type_lat_lon":"ADDRESS","business_unit":"Express Permit"},"geometry":{"type":"Point","coordinates":[-118.50831,34.03945]}},{"type":"Feature","properties":{"date":"2010-08-02T00:00:00.000Z","year":2010,"description":"CHANGE OUT 15 WINDOW(S)   (SAME SIZE & TYPE FOR RESIDENTIAL BUILDINGS ONLY) DUAL GLAZING, LABELED AND CERTIFIED BY NATIONAL FENESTRATION RATING COUNCIL (NFRC), IS REQUIRED FOR DOORS AND WINDOWS REPLACED IN ALL RESIDENTIAL BUILDINGS, THREE STORIES OR LESS, PER SECTION 152(B) OF TITLE 24.   IN UNIT # 1, 2, 3, 4, 5, 6, 9, 10, 11, 12, 13, 14, 18, 19, 20, AND 21.","metadescription":"Bldg-Alter/Repair. Apartment. CHANGE OUT 15 WINDOW(S)   (SAME SIZE & TYPE FOR RESIDENTIAL BUILDINGS ONLY) DUAL GLAZING, LABELED AND CERTIFIED BY NATIONAL FENESTRATION RATING COUNCIL (NFRC), IS REQUIRED FOR DOORS AND WINDOWS REPLACED IN ALL RESIDENTIAL BUILDINGS, THREE STORIES OR LESS, PER SECTION 152(B) OF TITLE 24.   IN UNIT # 1, 2, 3, 4, 5, 6, 9, 10, 11, 12, 13, 14, 18, 19, 20, AND 21.. Permit Finaled. 51 E ROSE AVE","address":"51 E ROSE AVE","ct":"2734.00","ev":"N","apc":"West Los Angeles","cpa":"Venice","zone":"R3-1","solar":"N","pin_nbr":"109-5A141  32","use_code":"5","geolocation":"POINT (-118.47905 33.99566)","status_date":"10/12/2010","permit_group":"Building","refresh_time":"06/10/2026","type_lat_lon":"ADDRESS","business_unit":"Express Permit"},"geometry":{"type":"Point","coordinates":[-118.47905,33.99566]}},{"type":"Feature","properties":{"date":"2010-07-23T00:00:00.000Z","year":2010,"description":"CHANGE OUT # 12  WINDOW(S)  (SAME SIZE & TYPE FOR RESIDENTIAL BUILDINGS ONLY) DUAL GLAZING, LABELED AND CERTIFIED BY NATIONAL FENESTRATION RATING COUNCIL (NFRC), IS REQUIRED FOR DOORS AND WINDOWS REPLACED IN ALL RESIDENTIAL BUILDINGS, THREE STORIES OR LESS, PER SECTION 152(B) OF TITLE 24.","metadescription":"Bldg-Alter/Repair. 1 or 2 Family Dwelling. CHANGE OUT # 12  WINDOW(S)  (SAME SIZE & TYPE FOR RESIDENTIAL BUILDINGS ONLY) DUAL GLAZING, LABELED AND CERTIFIED BY NATIONAL FENESTRATION RATING COUNCIL (NFRC), IS REQUIRED FOR DOORS AND WINDOWS REPLACED IN ALL RESIDENTIAL BUILDINGS, THREE STORIES OR LESS, PER SECTION 152(B) OF TITLE 24.. Permit Finaled. 31 E ROSE AVE UNIT A","address":"31 E ROSE AVE UNIT A","ct":"2734.00","ev":"N","apc":"West Los Angeles","cpa":"Venice","zone":"R3-1","solar":"N","pin_nbr":"109-5A141  58","use_code":"2","geolocation":"POINT (-118.47966 33.9953)","status_date":"07/27/2010","permit_group":"Building","refresh_time":"06/10/2026","type_lat_lon":"ADDRESS","business_unit":"Express Permit"},"geometry":{"type":"Point","coordinates":[-118.47966,33.9953]}},{"type":"Feature","properties":{"date":"2010-07-20T00:00:00.000Z","year":2010,"description":"Window change-out (same size, type, and location) for residential buildings.  Dual glazing, labeled and certified by National Fenestration Rating Council (NFRC), is required for doors and windows replaced in all residential buildings, three stories or less, per Section 152(b) of Title 24.  No structural changes.  Valuation to be verified by the field inspector","metadescription":"Bldg-Alter/Repair. Apartment. Window change-out (same size, type, and location) for residential buildings.  Dual glazing, labeled and certified by National Fenestration Rating Council (NFRC), is required for doors and windows replaced in all residential buildings, three stories or less, per Section 152(b) of Title 24.  No structural changes.  Valuation to be verified by the field inspector. Permit Finaled. 58 E DUDLEY AVE 1","address":"58 E DUDLEY AVE 1","ct":"2734.00","ev":"N","apc":"West Los Angeles","cpa":"Venice","zone":"RD1.5-1","solar":"N","pin_nbr":"109-5A143 115","use_code":"5","geolocation":"POINT (-118.47817 33.99494)","status_date":"07/29/2010","permit_group":"Building","refresh_time":"06/10/2026","type_lat_lon":"ADDRESS","business_unit":"Express Permit"},"geometry":{"type":"Point","coordinates":[-118.47817,33.99494]}},{"type":"Feature","properties":{"date":"2010-07-20T00:00:00.000Z","year":2010,"description":"Window and door change-out (same size, type, and location) for residential buildings.  Dual glazing, labeled and certified by National Fenestration Rating Council (NFRC), is required for doors and windows replaced in all residential buildings, three stories or less, per Section 152(b) of Title 24.  No structural changes.  Valuation to be verified by the field inspector.","metadescription":"Bldg-Alter/Repair. 1 or 2 Family Dwelling. Window and door change-out (same size, type, and location) for residential buildings.  Dual glazing, labeled and certified by National Fenestration Rating Council (NFRC), is required for doors and windows replaced in all residential buildings, three stories or less, per Section 152(b) of Title 24.  No structural changes.  Valuation to be verified by the field inspector.. Permit Finaled. 486 N EAST CHANNEL ROAD","address":"486 N EAST CHANNEL ROAD","ct":"2628.02","ev":"N","hl":"YES","apc":"West Los Angeles","zone":"R1-1-O","solar":"N","pin_nbr":"123B129   463","use_code":"1","geolocation":"POINT (-118.51238 34.03339)","status_date":"02/03/2017","permit_group":"Building","refresh_time":"06/10/2026","type_lat_lon":"ADDRESS","business_unit":"Express Permit"},"geometry":{"type":"Point","coordinates":[-118.51238,34.03339]}},{"type":"Feature","properties":{"date":"2010-06-28T00:00:00.000Z","year":2010,"description":"LOWER THE SECURITY BAR RELEASE HANDLE TO BE MAX 48\" FROM THE FINISH FLOOR OF UNIT 2-12. CHANGE OUT 3 WINDOW(S) AND 2 DOOR(S)  (SAME SIZE & TYPE FOR RESIDENTIAL BUILDINGS ONLY)","metadescription":"Bldg-Alter/Repair. Apartment. LOWER THE SECURITY BAR RELEASE HANDLE TO BE MAX 48\" FROM THE FINISH FLOOR OF UNIT 2-12. CHANGE OUT 3 WINDOW(S) AND 2 DOOR(S)  (SAME SIZE & TYPE FOR RESIDENTIAL BUILDINGS ONLY). Permit Finaled. 45 E ROSE AVE 2-12","address":"45 E ROSE AVE 2-12","ct":"2734.00","ev":"N","apc":"West Los Angeles","cpa":"Venice","zone":"R3-1","solar":"N","pin_nbr":"109-5A141  42","use_code":"5","geolocation":"POINT (-118.47924 33.9956)","status_date":"07/16/2010","permit_group":"Building","refresh_time":"06/10/2026","type_lat_lon":"ADDRESS","business_unit":"Express Permit"},"geometry":{"type":"Point","coordinates":[-118.47924,33.9956]}},{"type":"Feature","properties":{"date":"2010-05-12T00:00:00.000Z","year":2010,"description":"CHANGE OUT 1 WINDOW  (SAME SIZE & TYPE FOR RESIDENTIAL BUILDINGS ONLY) DUAL GLAZING, LABELED AND CERTIFIED BY NATIONAL FENESTRATION RATING COUNCIL (NFRC), IS REQUIRED FOR DOORS AND WINDOWS REPLACED IN ALL RESIDENTIAL BUILDINGS, THREE STORIES OR LESS, PER SECTION 152(B) OF TITLE 24.  KITCHEN REMODEL COMBINED WITH ELECTRICAL, PLUMBING AND HVAC (FOR RESIDENTIAL BUILDINGS; NO STRUCTURAL CHANGES).  NEW STUCCO; SPECIFIC LOCATION: AROUND RELACEMENT WINDOW.  REPLACE DRYWALL (NO NEW WALLS ADDED) SPECIFIC LOCATION: KITCHEN CEILING AND WALLS.","metadescription":"Bldg-Alter/Repair. 1 or 2 Family Dwelling. CHANGE OUT 1 WINDOW  (SAME SIZE & TYPE FOR RESIDENTIAL BUILDINGS ONLY) DUAL GLAZING, LABELED AND CERTIFIED BY NATIONAL FENESTRATION RATING COUNCIL (NFRC), IS REQUIRED FOR DOORS AND WINDOWS REPLACED IN ALL RESIDENTIAL BUILDINGS, THREE STORIES OR LESS, PER SECTION 152(B) OF TITLE 24.  KITCHEN REMODEL COMBINED WITH ELECTRICAL, PLUMBING AND HVAC (FOR RESIDENTIAL BUILDINGS; NO STRUCTURAL CHANGES).  NEW STUCCO; SPECIFIC LOCATION: AROUND RELACEMENT WINDOW.  REPLACE DRYWALL (NO NEW WALLS ADDED) SPECIFIC LOCATION: KITCHEN CEILING AND WALLS.. Permit Finaled. 13224 W WARREN AVE","address":"13218 Warren Avenue, CA, Los Angeles, 90066, US","ct":"2714.00","ev":"N","apc":"West Los Angeles","cpa":"Palms - Mar Vista - Del Rey","zone":"R1-1","solar":"N","pin_nbr":"114B149   468","use_code":"1","geolocation":"POINT (-118.45445 34.00936)","status_date":"07/12/2015","permit_group":"Building","refresh_time":"06/10/2026","type_lat_lon":"ADDRESS","business_unit":"Express Permit"},"geometry":{"type":"Point","coordinates":[-118.45445,34.00936]}},{"type":"Feature","properties":{"date":"2009-07-10T00:00:00.000Z","year":2009,"description":"Window change-out (same size, type, and location) for residential buildings.  Dual glazing, labeled and certified by National Fenestration Rating Council (NFRC), is required for doors and windows replaced in all residential buildings, three stories or less, per Section 152(b) of Title 24.  No structural changes.  Valuation to be verified by the field inspector.","metadescription":"Bldg-Alter/Repair. Apartment. Window change-out (same size, type, and location) for residential buildings.  Dual glazing, labeled and certified by National Fenestration Rating Council (NFRC), is required for doors and windows replaced in all residential buildings, three stories or less, per Section 152(b) of Title 24.  No structural changes.  Valuation to be verified by the field inspector.. Permit Finaled. 22 E NAVY ST #307","address":"22 E NAVY ST #307","ct":"2734.00","ev":"N","apc":"West Los Angeles","cpa":"Venice","zone":"R3-1","solar":"N","pin_nbr":"111B141   711","use_code":"5","geolocation":"POINT (-118.48083 33.99615)","status_date":"07/28/2009","permit_group":"Building","refresh_time":"06/10/2026","type_lat_lon":"ADDRESS","business_unit":"Express Permit"},"geometry":{"type":"Point","coordinates":[-118.48083,33.99615]}},{"type":"Feature","properties":{"date":"2009-06-11T00:00:00.000Z","year":2009,"description":"CHANGE OUT 3 WINDOWS  (SAME SIZE & TYPE FOR RESIDENTIAL BUILDINGS ONLY) DUAL GLAZING, LABELED AND CERTIFIED BY NATIONAL FENESTRATION RATING COUNCIL (NFRC), IS REQUIRED FOR DOORS AND WINDOWS REPLACED IN ALL RESIDENTIAL BUILDINGS, THREE STORIES OR LESS, PER SECTION 152(B) OF TITLE 24.  KITCHEN REMODEL COMBINED WITH ELECTRICAL AND PLUMBING (FOR RESIDENTIAL BUILDINGS; NO STRUCTURAL CHANGES).   COMPLY WITH DEPARTMENT ORDER EFFECTIVE DATE 09/16/08.  PERMIT WILL EXPIRE 30 DAYS FROM ISSUANCE DATE.","metadescription":"Bldg-Alter/Repair. 1 or 2 Family Dwelling. CHANGE OUT 3 WINDOWS  (SAME SIZE & TYPE FOR RESIDENTIAL BUILDINGS ONLY) DUAL GLAZING, LABELED AND CERTIFIED BY NATIONAL FENESTRATION RATING COUNCIL (NFRC), IS REQUIRED FOR DOORS AND WINDOWS REPLACED IN ALL RESIDENTIAL BUILDINGS, THREE STORIES OR LESS, PER SECTION 152(B) OF TITLE 24.  KITCHEN REMODEL COMBINED WITH ELECTRICAL AND PLUMBING (FOR RESIDENTIAL BUILDINGS; NO STRUCTURAL CHANGES).   COMPLY WITH DEPARTMENT ORDER EFFECTIVE DATE 09/16/08.  PERMIT WILL EXPIRE 30 DAYS FROM ISSUANCE DATE.. Permit Expired. 380 N ENTRADA DR","address":"380 N ENTRADA DR","ct":"2628.00","ev":"N","hl":"YES","apc":"West Los Angeles","zone":"R1-1D-O","solar":"N","pin_nbr":"123B129   815","use_code":"1","geolocation":"POINT (-118.51253 34.03072)","status_date":"06/14/2012","permit_group":"Building","refresh_time":"06/10/2026","type_lat_lon":"ADDRESS","business_unit":"Express Permit"},"geometry":{"type":"Point","coordinates":[-118.51253,34.03072]}},{"type":"Feature","properties":{"date":"2009-04-24T00:00:00.000Z","year":2009,"description":"CHANGE OUT 1 WINDOW (SAME SIZE & TYPE FOR RESIDENTIAL BUILDINGS ONLY) DUAL GLAZING, LABELED AND CERTIFIED BY NATIONAL FENESTRATION RATING COUNCIL (NFRC), IS REQUIRED FOR DOORS AND WINDOWS REPLACED IN ALL RESIDENTIAL BUILDINGS, THREE STORIES OR LESS, PER SECTION 152(B) OF TITLE 24.  BATHROOM REMODEL COMBINED WITH ELECTRICL AND PLUMBINBG  (FOR RESIDENTIAL BUILDINGS; NO STRUCTURAL CHANGES).  RE-STUCCO; SPECIFIC LOCATION: AROUND THE OUTSIDE BATHROOM WINDOW.  INVESTIGATION FEES PAID ON THIS PERMIT.","metadescription":"Bldg-Alter/Repair. 1 or 2 Family Dwelling. CHANGE OUT 1 WINDOW (SAME SIZE & TYPE FOR RESIDENTIAL BUILDINGS ONLY) DUAL GLAZING, LABELED AND CERTIFIED BY NATIONAL FENESTRATION RATING COUNCIL (NFRC), IS REQUIRED FOR DOORS AND WINDOWS REPLACED IN ALL RESIDENTIAL BUILDINGS, THREE STORIES OR LESS, PER SECTION 152(B) OF TITLE 24.  BATHROOM REMODEL COMBINED WITH ELECTRICL AND PLUMBINBG  (FOR RESIDENTIAL BUILDINGS; NO STRUCTURAL CHANGES).  RE-STUCCO; SPECIFIC LOCATION: AROUND THE OUTSIDE BATHROOM WINDOW.  INVESTIGATION FEES PAID ON THIS PERMIT.. Permit Finaled. 687 N KINGMAN AVE","address":"687 N KINGMAN AVE","ct":"2628.00","ev":"N","hl":"YES","apc":"West Los Angeles","zone":"R1-1","solar":"N","pin_nbr":"124-5A133  41","use_code":"1","geolocation":"POINT (-118.5086 34.03656)","status_date":"11/05/2009","permit_group":"Building","refresh_time":"06/10/2026","type_lat_lon":"ADDRESS","business_unit":"Express Permit"},"geometry":{"type":"Point","coordinates":[-118.5086,34.03656]}},{"type":"Feature","properties":{"date":"2009-04-21T00:00:00.000Z","year":2009,"description":"Window and door change-out (same size & type and location) for residential buildings.  Valuation to be verified by field inspector.  Dual glazing, labeled and certified by National Fenestration Rating Council (NFRC), is required for doors and windows replaced in all residential buildings, three stories or less, per Section 152(b) of Title 24.","metadescription":"Bldg-Alter/Repair. 1 or 2 Family Dwelling. Window and door change-out (same size & type and location) for residential buildings.  Valuation to be verified by field inspector.  Dual glazing, labeled and certified by National Fenestration Rating Council (NFRC), is required for doors and windows replaced in all residential buildings, three stories or less, per Section 152(b) of Title 24.. Permit Finaled. 13243 W WARREN AVE","address":"13243 W WARREN AVE","ct":"2714.00","ev":"N","apc":"West Los Angeles","cpa":"Palms - Mar Vista - Del Rey","zone":"R1-1","solar":"N","pin_nbr":"114B149   451","use_code":"1","geolocation":"POINT (-118.4551 34.00935)","status_date":"05/22/2009","permit_group":"Building","refresh_time":"06/10/2026","type_lat_lon":"ADDRESS","business_unit":"Express Permit"},"geometry":{"type":"Point","coordinates":[-118.4551,34.00935]}},{"type":"Feature","properties":{"date":"2008-09-23T00:00:00.000Z","year":2008,"description":"REPLACE EXISTING PREFAB FIREPLACE WITH SAME SIZE & IN SAME LOCATION; INSTALLATION SHALL BE PER MAUFACTURER'S REOMMENDATION. HVAC PERMIT IS REQUIRED.","metadescription":"Bldg-Alter/Repair. Apartment. REPLACE EXISTING PREFAB FIREPLACE WITH SAME SIZE & IN SAME LOCATION; INSTALLATION SHALL BE PER MAUFACTURER'S REOMMENDATION. HVAC PERMIT IS REQUIRED.. Permit Finaled. 255 S MAIN ST","address":"255 Main Street, CA, Venice, 90291, US","ct":"2734.00","ev":"N","apc":"West Los Angeles","cpa":"Venice","zone":"(Q)C4-2D","solar":"N","pin_nbr":"111B141   545","use_code":"5","geolocation":"POINT (-118.4787 33.99679)","status_date":"02/24/2009","permit_group":"Building","refresh_time":"06/10/2026","type_lat_lon":"ADDRESS","business_unit":"Express Permit"},"geometry":{"type":"Point","coordinates":[-118.4787,33.99679]}},{"type":"Feature","properties":{"date":"2008-03-26T00:00:00.000Z","year":2008,"description":"REPLACE DAMAGED FRAMING MEMBERS (LESS THAN 10% OF REPLACEMENT COST OF BUILDING) FOR HOUSES & DUPLEXES (NOT INCLUDING DECKS).TERMITE DAMAGE/DRY ROT REPAIR LESS THAN 10% OF REPLACEMENT COST OF BUILDING. REPLACE EXISTING PREFAB FIREPLACE WITH SAME SIZE & IN SAME LOCATION; INSTALLATION SHALL BE PER MAUFACTURER'S REOMMENDATION. HVAC PERMIT IS REQUIRED.","metadescription":"Bldg-Alter/Repair. 1 or 2 Family Dwelling. REPLACE DAMAGED FRAMING MEMBERS (LESS THAN 10% OF REPLACEMENT COST OF BUILDING) FOR HOUSES & DUPLEXES (NOT INCLUDING DECKS).TERMITE DAMAGE/DRY ROT REPAIR LESS THAN 10% OF REPLACEMENT COST OF BUILDING. REPLACE EXISTING PREFAB FIREPLACE WITH SAME SIZE & IN SAME LOCATION; INSTALLATION SHALL BE PER MAUFACTURER'S REOMMENDATION. HVAC PERMIT IS REQUIRED.. Permit Finaled. 26 E DUDLEY AVE","address":"26 Dudley Avenue, CA, Venice, 90291, US","ct":"2734.00","ev":"N","apc":"West Los Angeles","cpa":"Venice","zone":"RD1.5-1","solar":"N","pin_nbr":"109-5A141 119","use_code":"1","geolocation":"POINT (-118.47899 33.99439)","status_date":"01/30/2009","permit_group":"Building","refresh_time":"06/10/2026","type_lat_lon":"ADDRESS","business_unit":"Express Permit"},"geometry":{"type":"Point","coordinates":[-118.47899,33.99439]}},{"type":"Feature","properties":{"date":"2008-03-18T00:00:00.000Z","year":2008,"description":"CHANGE OUT 1 WINDOW AND 1 DOOR   (SAME SIZE & TYPE FOR RESIDENTIAL BUILDINGS ONLY) DUAL GLAZING, LABELED AND CERTIFIED BY NATIONAL FENESTRATION RATING COUNCIL (NFRC), IS REQUIRED FOR DOORS AND WINDOWS REPLACED IN ALL RESIDENTIAL BUILDINGS, THREE STORIES OR LESS, PER SECTION 152(B) OF TITLE 24.  BATHROOM REMODEL COMBINED WITH ELECTRICAL, PLUMBING AND HVAC (FOR RESIDENTIAL BUILDINGS; NO STRUCTURAL CHANGES). REPLACE EXISTING PREFAB FIREPLACE WITH SAME SIZE & IN SAME LOCATION; INSTALLATION SHALL BE PER MAUFACTURER'S REOMMENDATION.","metadescription":"Bldg-Alter/Repair. 1 or 2 Family Dwelling. CHANGE OUT 1 WINDOW AND 1 DOOR   (SAME SIZE & TYPE FOR RESIDENTIAL BUILDINGS ONLY) DUAL GLAZING, LABELED AND CERTIFIED BY NATIONAL FENESTRATION RATING COUNCIL (NFRC), IS REQUIRED FOR DOORS AND WINDOWS REPLACED IN ALL RESIDENTIAL BUILDINGS, THREE STORIES OR LESS, PER SECTION 152(B) OF TITLE 24.  BATHROOM REMODEL COMBINED WITH ELECTRICAL, PLUMBING AND HVAC (FOR RESIDENTIAL BUILDINGS; NO STRUCTURAL CHANGES). REPLACE EXISTING PREFAB FIREPLACE WITH SAME SIZE & IN SAME LOCATION; INSTALLATION SHALL BE PER MAUFACTURER'S REOMMENDATION.. Permit Finaled. 708 N KINGMAN AVE","address":"708 Kingman Avenue, CA, Santa Monica, 90402, US","ct":"2628.00","ev":"N","hl":"YES","apc":"West Los Angeles","zone":"R1-1","solar":"N","pin_nbr":"124-5A133  10","use_code":"1","geolocation":"POINT (-118.50834 34.03711)","status_date":"05/02/2012","permit_group":"Building","refresh_time":"06/10/2026","type_lat_lon":"ADDRESS","business_unit":"Express Permit"},"geometry":{"type":"Point","coordinates":[-118.50834,34.03711]}},{"type":"Feature","properties":{"date":"2007-08-02T00:00:00.000Z","year":2007,"description":"SUPPLEMENTAL PERMIT TO PERMIT #03010-30000-00242  TO COMPLETE WORK, INCLUDING ELECTRIC, HVAC, AND PLUMBING.  75% COMPLETED PER INSPECTOR'S REPORT.","metadescription":"Bldg-Alter/Repair. 1 or 2 Family Dwelling. SUPPLEMENTAL PERMIT TO PERMIT #03010-30000-00242  TO COMPLETE WORK, INCLUDING ELECTRIC, HVAC, AND PLUMBING.  75% COMPLETED PER INSPECTOR'S REPORT.. Permit Finaled. 1339 S WALGROVE AVE","address":"1339 Walgrove Avenue, CA, Los Angeles, 90066, US","ct":"2731.00","ev":"N","hl":"YES","apc":"West Los Angeles","zone":"R1-1","solar":"N","pin_nbr":"114B149   518","use_code":"1","geolocation":"POINT (-118.45561824 34.00884)","status_date":"12/28/2009","permit_group":"Building","refresh_time":"06/10/2026","type_lat_lon":"PIN","business_unit":"Express Permit"},"geometry":{"type":"Point","coordinates":[-118.45561824,34.00884]}},{"type":"Feature","properties":{"date":"2005-09-22T00:00:00.000Z","year":2005,"description":"CHANGE OUT 3 WINDOWS AND 2 DOORS (SAME SIZE AND LOCATION). RESIDENTIAL KITCHEN AND  BATHROOM REMODEL COMBINED WITH ELECTRICAL/PLUMBING AND HVAC. REPAIR/REPLACE EXISTING SIDING. DRYWALL/PLASTER PATCH AND PAINT. REPLACE (DRY ROT, WATER, TERMITE) DAMAGED (ROOF RAFTER,JOIST OR OTHER) WITH SAME SIZE AND SPACING(LESS THAN 10% DAMAGED)CHANGE OF CONTRACTOR.","metadescription":"Bldg-Alter/Repair. 1 or 2 Family Dwelling. CHANGE OUT 3 WINDOWS AND 2 DOORS (SAME SIZE AND LOCATION). RESIDENTIAL KITCHEN AND  BATHROOM REMODEL COMBINED WITH ELECTRICAL/PLUMBING AND HVAC. REPAIR/REPLACE EXISTING SIDING. DRYWALL/PLASTER PATCH AND PAINT. REPLACE (DRY ROT, WATER, TERMITE) DAMAGED (ROOF RAFTER,JOIST OR OTHER) WITH SAME SIZE AND SPACING(LESS THAN 10% DAMAGED)CHANGE OF CONTRACTOR.. Permit Finaled. 760 N SAN LORENZO ST","address":"760 San Lorenzo Street, CA, Santa Monica, 90402, US","ct":"2628.00","ev":"N","hl":"YES","apc":"West Los Angeles","zone":"RE20-1","solar":"N","pin_nbr":"126B133   206","use_code":"1","geolocation":"POINT (-118.50905 34.03949)","status_date":"12/12/2006","permit_group":"Building","refresh_time":"06/10/2026","type_lat_lon":"ADDRESS","business_unit":"Express Permit"},"geometry":{"type":"Point","coordinates":[-118.50905,34.03949]}},{"type":"Feature","properties":{"date":"2004-09-24T00:00:00.000Z","year":2004,"description":"CHANGE OUT 2 WINDOWS (SAME SIZE AND LOCATION)  RESIDENTIAL KITCHEN REMODEL-REPAIR/REPLACE ONLY.  NO CHANGES IN WALLS OR OPENINGS.  COMBINED WITH ELECTRICAL, PLUMBING AND HVAC.","metadescription":"Bldg-Alter/Repair. 1 or 2 Family Dwelling. CHANGE OUT 2 WINDOWS (SAME SIZE AND LOCATION)  RESIDENTIAL KITCHEN REMODEL-REPAIR/REPLACE ONLY.  NO CHANGES IN WALLS OR OPENINGS.  COMBINED WITH ELECTRICAL, PLUMBING AND HVAC.. Permit Finaled. 694 N KINGMAN AVE","address":"694 Kingman Avenue, CA, Santa Monica, 90402, US","ct":"2628.00","ev":"N","hl":"YES","apc":"West Los Angeles","zone":"R1-1","solar":"N","pin_nbr":"124-5A133  24","use_code":"1","geolocation":"POINT (-118.50828 34.03684)","status_date":"11/16/2004","permit_group":"Building","refresh_time":"06/10/2026","type_lat_lon":"ADDRESS","business_unit":"Express Permit"},"geometry":{"type":"Point","coordinates":[-118.50828,34.03684]}},{"type":"Feature","properties":{"date":"2003-08-21T00:00:00.000Z","year":2003,"description":"complete work started under permit 00010 30000 01247, 80% completed per inspector's report.  combined electrical, plumbing and hvac.","metadescription":"Bldg-Alter/Repair. 1 or 2 Family Dwelling. complete work started under permit 00010 30000 01247, 80% completed per inspector's report.  combined electrical, plumbing and hvac.. Permit Finaled. 587 N ENTRADA DR","address":"540 Dryad Road, CA, Santa Monica, 90402, US","ct":"2628.00","ev":"N","hl":"YES","apc":"West Los Angeles","zone":"R1-1-O","solar":"N","pin_nbr":"124-5A133 204","use_code":"1","geolocation":"POINT (-118.51006 34.0342)","status_date":"03/12/2004","permit_group":"Building","refresh_time":"06/10/2026","type_lat_lon":"ADDRESS","business_unit":"Express Permit"},"geometry":{"type":"Point","coordinates":[-118.51006,34.0342]}},{"type":"Feature","properties":{"date":"2003-08-21T00:00:00.000Z","year":2003,"description":"complete work started under permit 00010 30000 01246, 80% completed per inspector's report.  combined electrical, plumbing and hvac.","metadescription":"Bldg-Alter/Repair. 1 or 2 Family Dwelling. complete work started under permit 00010 30000 01246, 80% completed per inspector's report.  combined electrical, plumbing and hvac.. Permit Finaled. 591 N ENTRADA DR","address":"601 San Lorenzo Street, CA, Santa Monica, 90402, US","ct":"2628.00","ev":"N","hl":"YES","apc":"West Los Angeles","zone":"R1-1-0","solar":"N","pin_nbr":"124-5A133 204","use_code":"1","geolocation":"POINT (-118.50985 34.03435)","status_date":"02/26/2004","permit_group":"Building","refresh_time":"06/10/2026","type_lat_lon":"ADDRESS","business_unit":"Express Permit"},"geometry":{"type":"Point","coordinates":[-118.50985,34.03435]}},{"type":"Feature","properties":{"date":"2003-07-07T00:00:00.000Z","year":2003,"description":"PROPOSED 98 S.F. ADDITION TO (E) M BED/BATH REMODEL OF (E) M. BEDROOM/BATH, AND 93 S.F ADDTION AT FRONT ENTRY ROOF OVERHANG.  RE-ROOF ENTIRE HOUSE.   RELATED E,P,HVAC WORK.","metadescription":"Bldg-Addition. 1 or 2 Family Dwelling. PROPOSED 98 S.F. ADDITION TO (E) M BED/BATH REMODEL OF (E) M. BEDROOM/BATH, AND 93 S.F ADDTION AT FRONT ENTRY ROOF OVERHANG.  RE-ROOF ENTIRE HOUSE.   RELATED E,P,HVAC WORK.. Permit Finaled. 773 N KINGMAN AVE","address":"773 Kingman Avenue, CA, Santa Monica, 90402, US","ct":"2628.00","ev":"N","hl":"YES","apc":"West Los Angeles","zone":"RE20-1","solar":"N","pin_nbr":"126B133   205","use_code":"1","geolocation":"POINT (-118.50831 34.03945)","status_date":"06/23/2004","construction":"Type V-N Construction","permit_group":"Building","refresh_time":"06/10/2026","type_lat_lon":"ADDRESS","business_unit":"Regular Plan Check","square_footage":"191"},"geometry":{"type":"Point","coordinates":[-118.50831,34.03945]}},{"type":"Feature","properties":{"date":"2002-07-11T00:00:00.000Z","year":2002,"description":"kitchen remodel - repair/replace only.  no changes in walls or openings.  electrical, plumbing and hvac combined.","metadescription":"Bldg-Alter/Repair. 1 or 2 Family Dwelling. kitchen remodel - repair/replace only.  no changes in walls or openings.  electrical, plumbing and hvac combined.. Permit Finaled. 1418 S GLENAVON AVE","address":"1418 Glenavon Avenue, CA, Venice, 90291, US","ct":"2731.00","ev":"N","hl":"YES","apc":"West Los Angeles","zone":"R1-1VLD","solar":"N","pin_nbr":"114B149   733","use_code":"1","geolocation":"POINT (-118.45525 34.00727)","status_date":"01/30/2003","permit_group":"Building","refresh_time":"06/10/2026","type_lat_lon":"ADDRESS","business_unit":"Express Permit"},"geometry":{"type":"Point","coordinates":[-118.45525,34.00727]}},{"type":"Feature","properties":{"date":"2001-01-16T00:00:00.000Z","year":2001,"description":"4' x 12'-6\" BATHRM ADDITION TO SIDE OF (E) SFD. REMODEL KITCHEN : NEW CABNT, TILE, ELECTRICAL, PLUMBING AND HVAC WORKS.","metadescription":"Bldg-Addition. 1 or 2 Family Dwelling. 4' x 12'-6\" BATHRM ADDITION TO SIDE OF (E) SFD. REMODEL KITCHEN : NEW CABNT, TILE, ELECTRICAL, PLUMBING AND HVAC WORKS.. Permit Finaled. 757 N KINGMAN AVE","address":"757 Kingman Avenue, CA, Santa Monica, 90402, US","ct":"2628.00","ev":"N","hl":"YES","apc":"West Los Angeles","zone":"R1-1","solar":"N","pin_nbr":"126B133   253","use_code":"1","geolocation":"POINT (-118.5087 34.03869)","status_date":"06/02/2003","construction":"Type V-N Construction","permit_group":"Building","refresh_time":"06/10/2026","type_lat_lon":"ADDRESS","business_unit":"Plan Check at Counter","square_footage":"50"},"geometry":{"type":"Point","coordinates":[-118.5087,34.03869]}},{"type":"Feature","properties":{"date":"2000-12-15T00:00:00.000Z","year":2000,"description":"Add den in rear of(E)SFD(10.83'x12.5',135.38s.f.)& exterior stairway. Electrical/HVAC","metadescription":"Bldg-Addition. 1 or 2 Family Dwelling. Add den in rear of(E)SFD(10.83'x12.5',135.38s.f.)& exterior stairway. Electrical/HVAC. Permit Finaled. 619 N SAN LORENZO ST","address":"619 San Lorenzo Street, CA, Santa Monica, 90402, US","ct":"2628.00","ev":"N","hl":"YES","apc":"West Los Angeles","zone":"R1-1","solar":"N","pin_nbr":"124-5A133 154","use_code":"1","geolocation":"POINT (-118.5096 34.03508)","status_date":"03/06/2002","construction":"Type V-N Construction","permit_group":"Building","refresh_time":"06/10/2026","type_lat_lon":"ADDRESS","business_unit":"Regular Plan Check","square_footage":"135.38"},"geometry":{"type":"Point","coordinates":[-118.5096,34.03508]}},{"type":"Feature","properties":{"date":"2000-12-04T00:00:00.000Z","year":2000,"description":"NEW 2'X3'X80' LONG SHAFT FOR MECHANICAL DUCT ON ROOF TOP","metadescription":"Bldg-Alter/Repair. 1 or 2 Family Dwelling. NEW 2'X3'X80' LONG SHAFT FOR MECHANICAL DUCT ON ROOF TOP. Permit Finaled. 46-46 1/2 E ROSE AVE","address":"46 1/2 Rose Avenue, CA, Venice, 90291, US","ct":"2734.00","ev":"N","apc":"West Los Angeles","zone":"R3-1","solar":"N","pin_nbr":"109-5A141  68","use_code":"2","geolocation":"POINT (-118.47901 33.99533)","status_date":"04/06/2001","permit_group":"Building","refresh_time":"06/10/2026","type_lat_lon":"ADDRESS","business_unit":"Regular Plan Check"},"geometry":{"type":"Point","coordinates":[-118.47901,33.99533]}},{"type":"Feature","properties":{"date":"2000-09-15T00:00:00.000Z","year":2000,"description":"change out of 3 window and 22 doors(same size and location) restucco/ sandblast over existing. kitchen and bathromm remodel - repair/replac e only. no changes in walls or openings. combined electrical and plum bing. drywall/plaster patch and paint. repair/replace masonry chimne y pre fab unit per city std detail. combined hvac","metadescription":"Bldg-Alter/Repair. 1 or 2 Family Dwelling. change out of 3 window and 22 doors(same size and location) restucco/ sandblast over existing. kitchen and bathromm remodel - repair/replac e only. no changes in walls or openings. combined electrical and plum bing. drywall/plaster patch and paint. repair/replace masonry chimne y pre fab unit per city std detail. combined hvac. Permit Finaled. 602 N KINGMAN AVE","address":"602 Kingman Avenue, CA, Santa Monica, 90402, US","ct":"2628.00","ev":"N","hl":"YES","apc":"West Los Angeles","zone":"R1-1","solar":"N","pin_nbr":"124-5A133 193","use_code":"1","geolocation":"POINT (-118.5087 34.03451)","status_date":"07/31/2002","permit_group":"Building","refresh_time":"06/10/2026","type_lat_lon":"ADDRESS","business_unit":"Express Permit"},"geometry":{"type":"Point","coordinates":[-118.5087,34.03451]}},{"type":"Feature","properties":{"date":"2000-02-03T00:00:00.000Z","year":2000,"description":"1-story addition to expand the master bedroom (approx. 10'x14'7\"); remove non-bearing partition in the master bathroom; remove and add new plumbing fixtures in the bathroom; add non-bearing partitions; new door in existing window opening; Combine Elec/HVAC/Plumbing.","metadescription":"Bldg-Addition. 1 or 2 Family Dwelling. 1-story addition to expand the master bedroom (approx. 10'x14'7\"); remove non-bearing partition in the master bathroom; remove and add new plumbing fixtures in the bathroom; add non-bearing partitions; new door in existing window opening; Combine Elec/HVAC/Plumbing.. Permit Finaled. 13236 W WARREN AVE","address":"13236 Warren Avenue, CA, Los Angeles, 90066, US","ct":"2714.00","ev":"N","hl":"YES","apc":"West Los Angeles","zone":"R1-1","solar":"N","pin_nbr":"114B149   487","use_code":"1","geolocation":"POINT (-118.45477 34.00921)","status_date":"06/06/2001","construction":"Type V-N Construction","permit_group":"Building","refresh_time":"06/10/2026","type_lat_lon":"ADDRESS","business_unit":"Plan Check at Counter","square_footage":"146"},"geometry":{"type":"Point","coordinates":[-118.45477,34.00921]}},{"type":"Feature","properties":{"date":"1999-12-20T00:00:00.000Z","year":1999,"description":"CONSTRUCTION OF BELOW GRADE RETAINING WALLS AND SUMP PIT FOR THE INSTALLATION OF MECHANICAL SUMPS. CONSTRUCTION OF SLAB ON GRADE BETWEEN BUILDINGS. $3800 5 OF 5 T.V. $19000.","metadescription":"Nonbldg-New. 1 or 2 Family Dwelling. CONSTRUCTION OF BELOW GRADE RETAINING WALLS AND SUMP PIT FOR THE INSTALLATION OF MECHANICAL SUMPS. CONSTRUCTION OF SLAB ON GRADE BETWEEN BUILDINGS. $3800 5 OF 5 T.V. $19000.. Permit Finaled. 117-119 OCEAN FRONT WALK","address":"5 Navy Street, CA, Venice, 90291, US","ct":"2734.00","ev":"N","apc":"West Los Angeles","zone":"R3-1","solar":"N","pin_nbr":"109-5A141  13","use_code":"23","geolocation":"POINT (-118.48142612 33.99601757)","status_date":"05/17/2002","permit_group":"Building","refresh_time":"06/10/2026","type_lat_lon":"PIN","business_unit":"Regular Plan Check"},"geometry":{"type":"Point","coordinates":[-118.48142612,33.99601757]}},{"type":"Feature","properties":{"date":"1998-09-17T00:00:00.000Z","year":1998,"description":"add 2nd story (1008 sf., 40'6\" x 51'7\" irreg. shape) include plumbing, electric & hvac","metadescription":"Bldg-Addition. 1 or 2 Family Dwelling. add 2nd story (1008 sf., 40'6\" x 51'7\" irreg. shape) include plumbing, electric & hvac. Permit Finaled. 600 N SAN LORENZO ST","address":"600 San Lorenzo Street, CA, Santa Monica, 90402, US","ct":"2628.00","ev":"N","hl":"YES","apc":"West Los Angeles","zone":"R1-1","solar":"N","pin_nbr":"124-5A133 183","use_code":"1","geolocation":"POINT (-118.50937 34.03473)","status_date":"09/27/1999","construction":"Type V-N Construction","permit_group":"Building","refresh_time":"06/10/2026","type_lat_lon":"ADDRESS","business_unit":"Regular Plan Check","square_footage":"1008"},"geometry":{"type":"Point","coordinates":[-118.50937,34.03473]}},{"type":"Feature","properties":{"date":"1998-05-12T00:00:00.000Z","year":1998,"description":"Interior remodel.Remove/add interior partitions to create a new floorplan: kitchen, 2 bathrooms, 3 bedrooms, living/dining. Replace 11 windows, 2 doors; add insulation. Electrical/ plumbing/ HVAC","metadescription":"Bldg-Alter/Repair. 1 or 2 Family Dwelling. Interior remodel.Remove/add interior partitions to create a new floorplan: kitchen, 2 bathrooms, 3 bedrooms, living/dining. Replace 11 windows, 2 doors; add insulation. Electrical/ plumbing/ HVAC. Permit Closed. 26 E DUDLEY AVE","address":"26 Dudley Avenue, CA, Venice, 90291, US","ct":"2734.00","ev":"N","apc":"West Los Angeles","zone":"RD1.5-1","solar":"N","pin_nbr":"109-5A141 119","use_code":"1","geolocation":"POINT (-118.47899 33.99439)","status_date":"08/16/1999","construction":"Type V-N Construction","permit_group":"Building","refresh_time":"06/10/2026","type_lat_lon":"ADDRESS","business_unit":"Plan Check at Counter"},"geometry":{"type":"Point","coordinates":[-118.47899,33.99439]}},{"type":"Feature","properties":{"date":"1998-03-06T00:00:00.000Z","year":1998,"description":"Expand living room (5'x22', irr., 90.0S.F.), Add prefabricated fireplace, remodel kitchen, convert 3 bedrooms into 2 of larger size, relocate/remodel 2 bathrooms. Electrical/plumbing/HVAC. AUTOMATIC GAS SHUTOFF VALVE IS REQUIRED","metadescription":"Bldg-Addition. 1 or 2 Family Dwelling. Expand living room (5'x22', irr., 90.0S.F.), Add prefabricated fireplace, remodel kitchen, convert 3 bedrooms into 2 of larger size, relocate/remodel 2 bathrooms. Electrical/plumbing/HVAC. AUTOMATIC GAS SHUTOFF VALVE IS REQUIRED. Permit Closed. 14100 W ATTILLA ROAD","address":"521 Entrada Drive, CA, Santa Monica, 90402, US","ct":"2628.00","ev":"N","hl":"Y","apc":"West Los Angeles","zone":"R1-1, O","solar":"N","pin_nbr":"124-5A133 248","use_code":"1","geolocation":"POINT (-118.51076 34.03334)","status_date":"08/06/1999","construction":"Type V-N Construction","permit_group":"Building","refresh_time":"06/10/2026","type_lat_lon":"ADDRESS","business_unit":"Plan Check at Counter","square_footage":"90"},"geometry":{"type":"Point","coordinates":[-118.51076,34.03334]}},{"type":"Feature","properties":{"date":"1997-09-24T00:00:00.000Z","year":1997,"description":"Remodel interior of (E) SFD, relocate 2 bathrooms within (E) space; expand (E) bedroom (14.5'x6.5', 104.0 Sq Ft);rebuild deteriorated front deck, add deck in rear of SFD (24.0'x14.0',irr., 167.0 Sq Ft) Add 2skylights.Replace doors & windows. Add insulation Electrical/plumbing/HVAC","metadescription":"Bldg-Addition. 1 or 2 Family Dwelling. Remodel interior of (E) SFD, relocate 2 bathrooms within (E) space; expand (E) bedroom (14.5'x6.5', 104.0 Sq Ft);rebuild deteriorated front deck, add deck in rear of SFD (24.0'x14.0',irr., 167.0 Sq Ft) Add 2skylights.Replace doors & windows. Add insulation Electrical/plumbing/HVAC. Permit Closed. 524 N DRYAD ROAD","address":"524 Dryad Road, CA, Santa Monica, 90402, US","ct":"2628.00","ev":"N","hl":"Y","apc":"West Los Angeles","zone":"R1-1","solar":"N","pin_nbr":"124-5A133 220","use_code":"1","geolocation":"POINT (-118.51069 34.03392)","status_date":"07/23/1999","construction":"Type V-N Construction","permit_group":"Building","refresh_time":"06/10/2026","type_lat_lon":"ADDRESS","business_unit":"Plan Check at Counter","square_footage":"104"},"geometry":{"type":"Point","coordinates":[-118.51069,34.03392]}},{"type":"Feature","properties":{"date":"1997-07-23T00:00:00.000Z","year":1997,"description":"Remodel & expand 1-st floor kitchen , line-up exterior walls with (E) 2-nd floor cantilevering over the 1-st to provide continuous support for the second floor walls. (4'x 27' &4'x35', 227 Sq.Ft) .electrical/plumbing/HVAC.","metadescription":"Bldg-Alter/Repair. 1 or 2 Family Dwelling. Remodel & expand 1-st floor kitchen , line-up exterior walls with (E) 2-nd floor cantilevering over the 1-st to provide continuous support for the second floor walls. (4'x 27' &4'x35', 227 Sq.Ft) .electrical/plumbing/HVAC.. Permit Closed. 792 N SAN LORENZO ST","address":"784 San Lorenzo Street, CA, Santa Monica, 90402, US","ct":"2628.00","ev":"N","hl":"Y","apc":"West Los Angeles","zone":"RE20-1","solar":"N","pin_nbr":"126B133   184","use_code":"1","geolocation":"POINT (-118.50826 34.04014)","status_date":"08/02/1999","construction":"Type V-N Construction","permit_group":"Building","refresh_time":"06/10/2026","type_lat_lon":"ADDRESS","business_unit":"Plan Check at Counter","square_footage":"227"},"geometry":{"type":"Point","coordinates":[-118.50826,34.04014]}}]}
