{"type":"FeatureCollection","features":[{"type":"Feature","properties":{"date":"2024-10-14T00:00:00.000Z","year":2024,"description":"EPLAN***Supplemental to 19014-10000-01637 Revision work includes:Interior layout modificationsMinor revisions to window and door sizes including additional replacement windowsAdditional replacement siding and sheathing as required by existing conditions.Additional laundryNo change to building size, footprint, floor area or occupancy.","metadescription":"Bldg-Alter/Repair. 1 or 2 Family Dwelling. EPLAN***Supplemental to 19014-10000-01637 Revision work includes:Interior layout modificationsMinor revisions to window and door sizes including additional replacement windowsAdditional replacement siding and sheathing as required by existing conditions.Additional laundryNo change to building size, footprint, floor area or occupancy.. Permit Finaled. 24 E DUDLEY AVE","address":"24 Dudley Avenue, CA, Venice, 90291, US","ct":"2734.02","ev":"N","apc":"West Los Angeles","cpa":"Venice","zone":"RD1.5-1","solar":"N","pin_nbr":"109-5A141 121","use_code":"1","status_date":"09/04/2025","permit_group":"Building","refresh_time":"06/10/2026","type_lat_lon":"ADDRESS","business_unit":"Regular Plan Check"},"geometry":{"type":"Point","coordinates":[-118.47909,33.99435]}},{"type":"Feature","properties":{"date":"2024-09-30T00:00:00.000Z","year":2024,"description":"EPLAN***SUPPLEMENTAL TO 19014-10000-01638.  Revision work includes:Interior layout modificationsMinor revisions to window and door sizes including additional replacement windowsAdditional replacement siding and sheathing as required by existing conditions.Revision to bedrrom layout on 2nd floor No change to building size, footprint, floor area or occupancy","metadescription":"Bldg-Alter/Repair. 1 or 2 Family Dwelling. EPLAN***SUPPLEMENTAL TO 19014-10000-01638.  Revision work includes:Interior layout modificationsMinor revisions to window and door sizes including additional replacement windowsAdditional replacement siding and sheathing as required by existing conditions.Revision to bedrrom layout on 2nd floor No change to building size, footprint, floor area or occupancy. Permit Finaled. 24 1/2 E DUDLEY AVE","address":"24 Dudley Avenue, CA, Venice, 90291, US","ct":"2734.04","ev":"N","apc":"West Los Angeles","cpa":"Venice","zone":"RD1.5-1","solar":"N","pin_nbr":"109-5A141 121","use_code":"1","status_date":"09/04/2025","permit_group":"Building","refresh_time":"06/10/2026","type_lat_lon":"ADDRESS","business_unit":"Regular Plan Check"},"geometry":{"type":"Point","coordinates":[-118.47909,33.99435]}},{"type":"Feature","properties":{"date":"2024-04-17T00:00:00.000Z","year":2024,"description":"TI OF EXISTING RESTAURANT INTERIOR INCLUDING: DEMO OF NON STRUCTURAL WALLS, DEMO OF MEZZANINE LEVEL, REMODEL OF COMMERCIAL KITCHEN, AND CONSTRUCTION OF NEW WALLS, BUILT IN BAR, AND SEATING, NO CHANGE OF OCCUPANCY AND NO CHANGE OF USE","metadescription":"Bldg-Alter/Repair. Commercial. TI OF EXISTING RESTAURANT INTERIOR INCLUDING: DEMO OF NON STRUCTURAL WALLS, DEMO OF MEZZANINE LEVEL, REMODEL OF COMMERCIAL KITCHEN, AND CONSTRUCTION OF NEW WALLS, BUILT IN BAR, AND SEATING, NO CHANGE OF OCCUPANCY AND NO CHANGE OF USE. Quality Review Completed. 5-7 E DUDLEY AVE","address":"5 Dudley Avenue, CA, Venice, 90291, US","ct":"2734.03","ev":"N","apc":"West Los Angeles","cpa":"Venice","zone":"C1-1","solar":"N","pin_nbr":"109-5A141 122","status_date":"05/20/2026","permit_group":"Building","refresh_time":"06/10/2026","type_lat_lon":"ADDRESS","business_unit":"Regular Plan Check"},"geometry":{"type":"Point","coordinates":[-118.47985,33.99411]}},{"type":"Feature","properties":{"date":"2019-11-20T00:00:00.000Z","year":2019,"description":"TO ISSUE CERTIFICATE OF OCCUPANCY FOR PERMIT  99016-10000-23645 THAT WAS ISSUED ON 12-22-1999 AND TO DOCUMENT STRUCTURAL INVENTORY. NO CONSTRUCTION","metadescription":"Bldg-Alter/Repair. Commercial. TO ISSUE CERTIFICATE OF OCCUPANCY FOR PERMIT  99016-10000-23645 THAT WAS ISSUED ON 12-22-1999 AND TO DOCUMENT STRUCTURAL INVENTORY. NO CONSTRUCTION. CofO Issued. 221 E ROSE AVE","address":"219 Rose Avenue, CA, Venice, 90291, US","ct":"2734.00","ev":"N","apc":"West Los Angeles","zone":"M1-1","solar":"N","pin_nbr":"111B141   645","use_code":"23","geolocation":"POINT (-118.47744452 33.99656875)","status_date":"10/20/2020","construction":"Type V-B Construction","permit_group":"Building","refresh_time":"06/10/2026","type_lat_lon":"PIN","business_unit":"Plan Check at Counter","square_footage":"5077"},"geometry":{"type":"Point","coordinates":[-118.47744452,33.99656875]}},{"type":"Feature","properties":{"date":"2017-03-01T00:00:00.000Z","year":2017,"description":"CORRECT THE VERBIAGE FOR THE USE ON CERTIFICATE OF OCCUPANCY FOR 64WLA53190 TO COINCIDE WITH BUILDING PERMIT VERBIAGE OF APARTMENT HOTEL. No fee, Department error.","metadescription":"Bldg-Alter/Repair. Apartment. CORRECT THE VERBIAGE FOR THE USE ON CERTIFICATE OF OCCUPANCY FOR 64WLA53190 TO COINCIDE WITH BUILDING PERMIT VERBIAGE OF APARTMENT HOTEL. No fee, Department error.. CofO Issued. 15 E ROSE AVE","address":"1-10, 15 Rose Avenue, CA, Venice, 90291, US","ct":"2734.02","ev":"N","apc":"West Los Angeles","cpa":"Venice","zone":"R3-1","solar":"N","pin_nbr":"109-5A141  74","use_code":"5","geolocation":"POINT (-118.48006 33.99513)","status_date":"03/08/2017","construction":"Type V-B Construction","permit_group":"Building","refresh_time":"06/10/2026","type_lat_lon":"ADDRESS","business_unit":"Plan Check at Counter","square_footage":"0"},"geometry":{"type":"Point","coordinates":[-118.48006,33.99513]}},{"type":"Feature","properties":{"date":"2003-04-17T00:00:00.000Z","year":2003,"description":"REVISE DESCRIPTION OF WORK UNDER PCIS#00010-10000-01349 TO \"64 UNITS 4-STORY SENIOR APARTMENT BUILDING OVER SUBTERRANEAN PARKING. TYPE V-ONE HOUR. ***SPRINKLERS THRU-OUT*** R 2.1 OCCUPANCY AT 1ST AND 2ND FLOORS(SEE APPLICATION COMMENTS). R 1 OCCUPANCY AT 3RD AND 4TH FLOORS.\"","metadescription":"Bldg-Alter/Repair. Apartment. REVISE DESCRIPTION OF WORK UNDER PCIS#00010-10000-01349 TO \"64 UNITS 4-STORY SENIOR APARTMENT BUILDING OVER SUBTERRANEAN PARKING. TYPE V-ONE HOUR. ***SPRINKLERS THRU-OUT*** R 2.1 OCCUPANCY AT 1ST AND 2ND FLOORS(SEE APPLICATION COMMENTS). R 1 OCCUPANCY AT 3RD AND 4TH FLOORS.\". Permit Finaled. 151 S OCEAN FRONT WALK","address":"153 Ocean Front Walk, CA, Venice, 90291, US","ct":"2734.00","ev":"N","apc":"West Los Angeles","zone":"(T)(Q)R3-1","solar":"N","height":"45","pin_nbr":"109.5A141  23","use_code":"5","geolocation":"POINT (-118.48136 33.99577)","status_date":"03/19/2007","construction":"Type V-1HR Construction","permit_group":"Building","refresh_time":"06/10/2026","type_lat_lon":"ADDRESS","business_unit":"Plan Check at Counter","square_footage":"64109"},"geometry":{"type":"Point","coordinates":[-118.48136,33.99577]}}]}
