{"type":"FeatureCollection","features":[{"type":"Feature","properties":{"date":"2024-04-16T00:00:00.000Z","year":2024,"description":"Shoring for new retaining walls","metadescription":"Nonbldg-New. 1 or 2 Family Dwelling. Shoring for new retaining walls. Issued. 664 N KINGMAN AVE","address":"664 N KINGMAN AVE","ct":"2628.02","ev":"N","hl":"YES","apc":"West Los Angeles","zone":"R1H1","solar":"N","pin_nbr":"124-5A133  76","use_code":"23","status_date":"04/16/2024","permit_group":"Building","refresh_time":"06/10/2026","type_lat_lon":"ADDRESS","business_unit":"Regular Plan Check"},"geometry":{"type":"Point","coordinates":[-118.50829,34.03602]}}]}
