{"type":"FeatureCollection","features":[{"type":"Feature","properties":{"date":"2025-10-09T00:00:00.000Z","year":2025,"description":"EPLANSupplemental to 24010-10000-02652. Revision to deck design from original proposal. Non-structural","metadescription":"Bldg-Alter/Repair. 1 or 2 Family Dwelling. EPLANSupplemental to 24010-10000-02652. Revision to deck design from original proposal. Non-structural. Permit Finaled. 1344 S GLENAVON AVE","address":"1344 Glenavon Avenue, CA, Venice, 90291, US","ct":"2731.00","ev":"N","apc":"West Los Angeles","cpa":"Venice","zone":"R1V2","solar":"N","pin_nbr":"114B149   582","use_code":"1","status_date":"11/04/2025","permit_group":"Building","refresh_time":"06/10/2026","type_lat_lon":"ADDRESS","business_unit":"Plan Check at Counter"},"geometry":{"type":"Point","coordinates":[-118.45616,34.00829]}},{"type":"Feature","properties":{"date":"2025-01-09T00:00:00.000Z","year":2025,"description":"[ePlan]  PROPOSED SWIMMING POOL AND SPA  PER ENGINEERING DESIGN","metadescription":"Swimming-Pool/Spa. 1 or 2 Family Dwelling. [ePlan]  PROPOSED SWIMMING POOL AND SPA  PER ENGINEERING DESIGN. Issued. 664 N KINGMAN AVE","address":"664 Kingman Avenue, CA, Santa Monica, 90402, US","ct":"2628.02","ev":"N","hl":"YES","apc":"West Los Angeles","zone":"R1H1","solar":"N","pin_nbr":"124-5A133  76","use_code":"20","status_date":"01/09/2025","permit_group":"Building","refresh_time":"06/10/2026","type_lat_lon":"ADDRESS","business_unit":"Regular Plan Check"},"geometry":{"type":"Point","coordinates":[-118.50829,34.03602]}},{"type":"Feature","properties":{"date":"2024-08-01T00:00:00.000Z","year":2024,"description":"EPLAN Supp to 22014-10000-06221 to redesign and propose ADU and J-ADU units within Existing foot print of single family dwelling","metadescription":"Bldg-Alter/Repair. 1 or 2 Family Dwelling. EPLAN Supp to 22014-10000-06221 to redesign and propose ADU and J-ADU units within Existing foot print of single family dwelling. Verifications in Progress. 2382-2386 W DEWEY ST","address":"2384 Dewey Street, CA, Venice, 90291, US","ct":"2731.00","ev":"N","apc":"West Los Angeles","cpa":"Venice","zone":"R1V2","solar":"N","pin_nbr":"114B149   423","use_code":"1","status_date":"11/13/2024","permit_group":"Building","refresh_time":"06/10/2026","type_lat_lon":"PIN","business_unit":"Regular Plan Check"},"geometry":{"type":"Point","coordinates":[-118.45651116,34.00949609]}},{"type":"Feature","properties":{"date":"2024-07-26T00:00:00.000Z","year":2024,"description":"CONVERT EXISTING 2-CAR GARAGE OF 360 SQFT INTO LIVING ROOM. BUILD NEW ATTACHED 2-CAR GARAGE OF 450 SQFT WITH ROOFTOP DECK. CHANGE AND ADD WINDOWS ON FRONT ELEVATION AND REMODEL EXISTING 2 STORY SINGLE FAMILY DEWLLING WITH ATTACHED GARAGE PER ENGINEER DESIGN. COMPLY WITH DEPARTMENT ORDER effective date 10/31/2023. PERMIT WILL EXPIRE 30 DAYS FROM ISSUANCE DATE.","metadescription":"Bldg-Addition. 1 or 2 Family Dwelling. CONVERT EXISTING 2-CAR GARAGE OF 360 SQFT INTO LIVING ROOM. BUILD NEW ATTACHED 2-CAR GARAGE OF 450 SQFT WITH ROOFTOP DECK. CHANGE AND ADD WINDOWS ON FRONT ELEVATION AND REMODEL EXISTING 2 STORY SINGLE FAMILY DEWLLING WITH ATTACHED GARAGE PER ENGINEER DESIGN. COMPLY WITH DEPARTMENT ORDER effective date 10/31/2023. PERMIT WILL EXPIRE 30 DAYS FROM ISSUANCE DATE.. CofO Issued. 13213 W WARREN AVE","address":"13213 Warren Avenue, CA, Los Angeles, 90066, US","ct":"2714.00","ev":"N","apc":"West Los Angeles","cpa":"Palms - Mar Vista - Del Rey","zone":"R1V2","solar":"N","pin_nbr":"114B149   366","use_code":"1","status_date":"03/19/2026","construction":"Type V-B Construction","permit_group":"Building","refresh_time":"06/10/2026","type_lat_lon":"ADDRESS","business_unit":"Expanded Counter Plan Check","square_footage":"360"},"geometry":{"type":"Point","coordinates":[-118.45426,34.00978]}},{"type":"Feature","properties":{"date":"2024-04-30T00:00:00.000Z","year":2024,"description":"eplan: New non-illuminated projecting sign","metadescription":"Sign. Onsite. eplan: New non-illuminated projecting sign. Permit Finaled. 245 S MAIN ST 3C","address":"245 Main Street, CA, Venice, 90291, US","ct":"2734.04","ev":"N","apc":"West Los Angeles","cpa":"Venice","zone":"(Q)C4-2D","solar":"N","pin_nbr":"111B141   545","use_code":"19","status_date":"10/07/2024","permit_group":"Building","refresh_time":"06/10/2026","type_lat_lon":"ADDRESS","business_unit":"Plan Check at Counter"},"geometry":{"type":"Point","coordinates":[-118.47872,33.99681]}},{"type":"Feature","properties":{"date":"2024-04-29T00:00:00.000Z","year":2024,"description":"eplan SIGN A:  install (1) Dual-lit Channel Letters wall sign, 16'x2'-4\" (37sf with 19'-10\" above grade, read as Jersy Mike's Subs)","metadescription":"Sign. Onsite. eplan SIGN A:  install (1) Dual-lit Channel Letters wall sign, 16'x2'-4\" (37sf with 19'-10\" above grade, read as Jersy Mike's Subs). Permit Finaled. 245 S MAIN ST 3C","address":"245 Main Street, CA, Venice, 90291, US","ct":"2734.04","ev":"N","apc":"West Los Angeles","cpa":"Venice","zone":"(Q)C4-2D","solar":"N","pin_nbr":"111B141   545","use_code":"19","status_date":"10/07/2024","permit_group":"Building","refresh_time":"06/10/2026","type_lat_lon":"ADDRESS","business_unit":"Plan Check at Counter"},"geometry":{"type":"Point","coordinates":[-118.47872,33.99681]}},{"type":"Feature","properties":{"date":"2024-04-29T00:00:00.000Z","year":2024,"description":"FOUNDATION REPAIR FOR EXISTING APARTMENT PER STANDARD PLAN AND ENGINEER DESIGN","metadescription":"Bldg-Alter/Repair. Apartment. FOUNDATION REPAIR FOR EXISTING APARTMENT PER STANDARD PLAN AND ENGINEER DESIGN. Permit Finaled. 34 E DUDLEY AVE","address":"34 Dudley Avenue, CA, Venice, 90291, US","ct":"2734.04","ev":"N","apc":"West Los Angeles","cpa":"Venice","zone":"RD1.5-1","solar":"N","pin_nbr":"109-5A141 112","use_code":"5","status_date":"08/21/2024","permit_group":"Building","refresh_time":"06/10/2026","type_lat_lon":"ADDRESS","business_unit":"Plan Check at Counter"},"geometry":{"type":"Point","coordinates":[-118.47878,33.99455]}},{"type":"Feature","properties":{"date":"2024-04-10T00:00:00.000Z","year":2024,"description":"eplan:  Spa per engineer's design.","metadescription":"Swimming-Pool/Spa. 1 or 2 Family Dwelling. eplan:  Spa per engineer's design.. CofO Issued. 556 N DRYAD ROAD","address":"552 Dryad Road, CA, Santa Monica, 90402, US","ct":"2628.02","ev":"N","hl":"YES","apc":"West Los Angeles","zone":"R1H1","solar":"N","pin_nbr":"124-5A133 167","use_code":"20","status_date":"10/30/2024","permit_group":"Building","refresh_time":"06/10/2026","type_lat_lon":"ADDRESS","business_unit":"Regular Plan Check"},"geometry":{"type":"Point","coordinates":[-118.51026,34.03494]}},{"type":"Feature","properties":{"date":"2023-09-29T00:00:00.000Z","year":2023,"description":"ePlan ***Supplemental to 19014-10000-01638 : revised Methane plans  Methane Mitigation System, Design Level I","metadescription":"Bldg-Alter/Repair. 1 or 2 Family Dwelling. ePlan ***Supplemental to 19014-10000-01638 : revised Methane plans  Methane Mitigation System, Design Level I. Permit Finaled. 24 E DUDLEY AVE","address":"24 Dudley Avenue, CA, Venice, 90291, US","ct":"2734.04","ev":"N","apc":"West Los Angeles","cpa":"Venice","zone":"RD1.5-1","solar":"N","pin_nbr":"109-5A141 121","use_code":"1","status_date":"09/04/2025","permit_group":"Building","refresh_time":"06/10/2026","type_lat_lon":"ADDRESS","business_unit":"Expanded Counter Plan Check"},"geometry":{"type":"Point","coordinates":[-118.47909,33.99435]}},{"type":"Feature","properties":{"date":"2023-06-09T00:00:00.000Z","year":2023,"description":"New Illuminated Storefront Wall Sign to Read STANDING'S\"Sign: 12\" x 60\", Height from Grade: 10ft Sign Area: 5sq.ft","metadescription":"Sign. Onsite. New Illuminated Storefront Wall Sign to Read STANDING'S\"Sign: 12\" x 60\", Height from Grade: 10ft Sign Area: 5sq.ft. Issued. 202 S MAIN ST","address":"202 Main Street, CA, Venice, 90291, US","ct":"2734.04","ev":"N","apc":"West Los Angeles","cpa":"Venice","zone":"M1-1","solar":"N","pin_nbr":"111B141   444","use_code":"19","status_date":"06/09/2023","permit_group":"Building","refresh_time":"06/10/2026","type_lat_lon":"ADDRESS","business_unit":"Plan Check at Counter"},"geometry":{"type":"Point","coordinates":[-118.47899,33.99763]}},{"type":"Feature","properties":{"date":"2022-09-29T00:00:00.000Z","year":2022,"description":"NEW FREE STANDING FENCE AND GATE AT REAR OF PROPERTY. ( 9' H X 29'-11\" L ). WORK PER DESIGN.","metadescription":"Nonbldg-New. Apartment. NEW FREE STANDING FENCE AND GATE AT REAR OF PROPERTY. ( 9' H X 29'-11\" L ). WORK PER DESIGN.. Corrections Issued. 35 E OZONE AVE","address":"1-4, 35 Ozone Avenue, CA, Venice, 90291, US","ct":"2734.04","ev":"N","apc":"West Los Angeles","cpa":"Venice","zone":"RD1.5-1","solar":"N","height":"9","pin_nbr":"109-5A141  11","use_code":"23","status_date":"10/07/2022","permit_group":"Building","refresh_time":"06/10/2026","type_lat_lon":"ADDRESS","business_unit":"Expanded Counter Plan Check"},"geometry":{"type":"Point","coordinates":[-118.48015,33.99601]}},{"type":"Feature","properties":{"date":"2022-09-09T00:00:00.000Z","year":2022,"description":"SUPPLEMENTAL PERMIT TO 19016-30000-10105 TO REVISE THE PLANS DUE TO REMOVAL OF PORTION OF THE EXISTING FOUNDATION. THE FOUNDATION FOR THE EXISTING EXTERIOR WALL PER ORIGINAL PERMIT IS MAINTAINED. NO CHANGE IN DESIGN FOOTPRING.","metadescription":"Bldg-Alter/Repair. 1 or 2 Family Dwelling. SUPPLEMENTAL PERMIT TO 19016-30000-10105 TO REVISE THE PLANS DUE TO REMOVAL OF PORTION OF THE EXISTING FOUNDATION. THE FOUNDATION FOR THE EXISTING EXTERIOR WALL PER ORIGINAL PERMIT IS MAINTAINED. NO CHANGE IN DESIGN FOOTPRING.. Issued. 1379 E LAKE ST","address":"1387 Lake Street, CA, Venice, 90291, US","ct":"2731.00","ev":"N","apc":"West Los Angeles","cpa":"Venice","zone":"R1V2","solar":"N","pin_nbr":"114B149   707","use_code":"1","status_date":"09/09/2022","permit_group":"Building","refresh_time":"06/10/2026","type_lat_lon":"ADDRESS","business_unit":"Regular Plan Check"},"geometry":{"type":"Point","coordinates":[-118.45477,34.00719]}},{"type":"Feature","properties":{"date":"2022-05-26T00:00:00.000Z","year":2022,"description":"ADD FENCE WALL AND EXTEND (E) WALL HEIGHT PER DESIGN (220' LF)","metadescription":"Nonbldg-Alter/Repair. 1 or 2 Family Dwelling. ADD FENCE WALL AND EXTEND (E) WALL HEIGHT PER DESIGN (220' LF). Permit Finaled. 596 N ENTRADA DR","address":"592 Entrada Drive, CA, Santa Monica, 90402, US","ct":"2628.02","ev":"N","hl":"YES","apc":"West Los Angeles","zone":"R1H1-1D-O","solar":"N","pin_nbr":"124-5A133 207","use_code":"23","status_date":"01/27/2023","permit_group":"Building","refresh_time":"06/10/2026","type_lat_lon":"ADDRESS","business_unit":"Plan Check at Counter"},"geometry":{"type":"Point","coordinates":[-118.50936,34.03425]}},{"type":"Feature","properties":{"date":"2022-01-10T00:00:00.000Z","year":2022,"description":"RETRO FIT OF FOOTING OF  THE (E) APT. BUILDING. WITH APPROVED ANCHOR SIDE PLATE AND PLYWOOD PER ENG. DESIGN","metadescription":"Bldg-Alter/Repair. Apartment. RETRO FIT OF FOOTING OF  THE (E) APT. BUILDING. WITH APPROVED ANCHOR SIDE PLATE AND PLYWOOD PER ENG. DESIGN. Permit Finaled. 15 E ROSE AVE 1-10","address":"1-10, 15 Rose Avenue, CA, Venice, 90291, US","ct":"2734.02","ev":"N","apc":"West Los Angeles","cpa":"Venice","zone":"R3-1","solar":"N","pin_nbr":"109-5A141  74","use_code":"5","status_date":"01/14/2022","permit_group":"Building","refresh_time":"06/10/2026","type_lat_lon":"ADDRESS","business_unit":"Plan Check at Counter"},"geometry":{"type":"Point","coordinates":[-118.48006,33.99513]}},{"type":"Feature","properties":{"date":"2021-09-09T00:00:00.000Z","year":2021,"description":"ONE (1) ILLUMINATED WALL SIGN 1'-8 1/2\" H X 22'-10 3/8\" W @ 37.17 SF 17'-11\"  GRADE TO BOTTOM OF SIGN","metadescription":"Sign. Onsite. ONE (1) ILLUMINATED WALL SIGN 1'-8 1/2\" H X 22'-10 3/8\" W @ 37.17 SF 17'-11\"  GRADE TO BOTTOM OF SIGN. Issued. 235 S MAIN ST","address":"235 Main Street, CA, Venice, 90291, US","ct":"2734.02","ev":"N","apc":"West Los Angeles","cpa":"Venice","zone":"(Q)C4-2D","solar":"N","pin_nbr":"111B141   545","use_code":"19","status_date":"09/09/2021","permit_group":"Building","refresh_time":"06/10/2026","type_lat_lon":"ADDRESS","business_unit":"Plan Check at Counter"},"geometry":{"type":"Point","coordinates":[-118.47874,33.99683]}},{"type":"Feature","properties":{"date":"2021-08-30T00:00:00.000Z","year":2021,"description":"SUPPLEMENTAL PERMIT TO 19016-30000-10105 TO REVISE THE PLANS DUE TO REMOVAL OF THE EXISTING WALL. THE FOUNDATION FOR THE EXISTING WALL PER ORIGINAL PERMIT IS MAINTAINED. NO CHANGE IN DESIGN FOOTPRING.","metadescription":"Bldg-Alter/Repair. 1 or 2 Family Dwelling. SUPPLEMENTAL PERMIT TO 19016-30000-10105 TO REVISE THE PLANS DUE TO REMOVAL OF THE EXISTING WALL. THE FOUNDATION FOR THE EXISTING WALL PER ORIGINAL PERMIT IS MAINTAINED. NO CHANGE IN DESIGN FOOTPRING.. Issued. 1379 E LAKE ST","address":"1387 Lake Street, CA, Venice, 90291, US","ct":"2731.00","ev":"N","apc":"West Los Angeles","cpa":"Venice","zone":"R1V2","solar":"N","pin_nbr":"114B149   707","use_code":"1","status_date":"08/30/2021","permit_group":"Building","refresh_time":"06/10/2026","type_lat_lon":"ADDRESS","business_unit":"Plan Check at Counter"},"geometry":{"type":"Point","coordinates":[-118.45477,34.00719]}},{"type":"Feature","properties":{"date":"2021-06-25T00:00:00.000Z","year":2021,"description":"TWO (2) NON-ILLUMINATED WINDOW SIGNS3.1: 50 1/4\" H X 20 7/8\" W @ 7.28 SF,   3.2: 4\" H X 56 1/8\" W @ 1.56 SF, 4'-8 1/2\" GRADE TO BOTTOM OF SIGN, BUILDING FRONAGE IS 73'-3\".","metadescription":"Sign. Onsite. TWO (2) NON-ILLUMINATED WINDOW SIGNS3.1: 50 1/4\" H X 20 7/8\" W @ 7.28 SF,   3.2: 4\" H X 56 1/8\" W @ 1.56 SF, 4'-8 1/2\" GRADE TO BOTTOM OF SIGN, BUILDING FRONAGE IS 73'-3\".. Corrections Issued. 235 S MAIN ST","address":"235 Main Street, CA, Venice, 90291, US","ct":"2734.02","ev":"N","apc":"West Los Angeles","cpa":"Venice","zone":"(Q)C4-2D","solar":"N","pin_nbr":"111B141   545","use_code":"19","status_date":"06/28/2021","permit_group":"Building","refresh_time":"06/10/2026","type_lat_lon":"ADDRESS","business_unit":"Plan Check at Counter"},"geometry":{"type":"Point","coordinates":[-118.47874,33.99683]}},{"type":"Feature","properties":{"date":"2021-05-20T00:00:00.000Z","year":2021,"description":"FRONT LIT, CHANNEL LETTERS SIGN MOUNTED OVER THE FRONT ENTRANCE. 22\" TALL X 131\" LONG (19.97 SQ. FT.)","metadescription":"Sign. Onsite. FRONT LIT, CHANNEL LETTERS SIGN MOUNTED OVER THE FRONT ENTRANCE. 22\" TALL X 131\" LONG (19.97 SQ. FT.). Permit Finaled. 215 S OCEAN FRONT WALK","address":"215 Ocean Front Walk, CA, Venice, 90291, US","ct":"2734.02","ev":"N","apc":"West Los Angeles","cpa":"Venice","zone":"C1-1","solar":"N","pin_nbr":"109-5A141  88","use_code":"19","status_date":"05/25/2021","permit_group":"Building","refresh_time":"06/10/2026","type_lat_lon":"ADDRESS","business_unit":"Plan Check at Counter"},"geometry":{"type":"Point","coordinates":[-118.48052,33.99485]}},{"type":"Feature","properties":{"date":"2021-04-30T00:00:00.000Z","year":2021,"description":"**No Fee, Department Error**  Supplemental to permit 21048-10000-00201 to revise work description to match approved plans.  Revised scope of work to read:  \"Install three (3) illuminated wall signs;  Two (2) reading \"201\" (Sign A, 1' x 2', 2 SF each) and One (1) reading \"203\" (Sign B, 1' x 2', 2 SF each)  **No Fee, Department Error**","metadescription":"Sign. Onsite. **No Fee, Department Error**  Supplemental to permit 21048-10000-00201 to revise work description to match approved plans.  Revised scope of work to read:  \"Install three (3) illuminated wall signs;  Two (2) reading \"201\" (Sign A, 1' x 2', 2 SF each) and One (1) reading \"203\" (Sign B, 1' x 2', 2 SF each)  **No Fee, Department Error**. Permit Finaled. 201 S OCEAN FRONT WALK","address":"201 Ocean Front Walk, CA, Venice, 90291, US","ct":"2734.02","ev":"N","apc":"West Los Angeles","cpa":"Venice","zone":"C1-1","solar":"N","pin_nbr":"109-5A141  65","use_code":"19","status_date":"05/05/2021","permit_group":"Building","refresh_time":"06/10/2026","type_lat_lon":"ADDRESS","business_unit":"Plan Check at Counter"},"geometry":{"type":"Point","coordinates":[-118.48087,33.99521]}},{"type":"Feature","properties":{"date":"2021-04-09T00:00:00.000Z","year":2021,"description":"INSTALL (3) NEW ILLUMINATED WALL SIGNS TO READ \"201\" 2 SQFT (1' X 2') EACH","metadescription":"Sign. Onsite. INSTALL (3) NEW ILLUMINATED WALL SIGNS TO READ \"201\" 2 SQFT (1' X 2') EACH. Permit Closed. 201 S OCEAN FRONT WALK","address":"201 Ocean Front Walk, CA, Venice, 90291, US","ct":"2734.02","ev":"N","apc":"West Los Angeles","cpa":"Venice","zone":"C1-1","solar":"N","pin_nbr":"109-5A141  65","use_code":"19","status_date":"05/05/2021","permit_group":"Building","refresh_time":"06/10/2026","type_lat_lon":"ADDRESS","business_unit":"Plan Check at Counter"},"geometry":{"type":"Point","coordinates":[-118.48087,33.99521]}},{"type":"Feature","properties":{"date":"2020-11-24T00:00:00.000Z","year":2020,"description":"Remodel (E) Single family dwelling. Add master bedroom under (E) roof area at second floor. Per engineering design.","metadescription":"Bldg-Alter/Repair. 1 or 2 Family Dwelling. Remodel (E) Single family dwelling. Add master bedroom under (E) roof area at second floor. Per engineering design.. Permit Finaled. 561 N STASSI LANE","address":"561 Stassi Lane, CA, Santa Monica, 90402, US","ct":"2628.02","ev":"N","hl":"YES","apc":"West Los Angeles","zone":"R1H1-1D-O","solar":"N","pin_nbr":"124-5A133 237","use_code":"1","status_date":"11/03/2022","permit_group":"Building","refresh_time":"06/10/2026","type_lat_lon":"ADDRESS","business_unit":"Plan Check at Counter"},"geometry":{"type":"Point","coordinates":[-118.50976,34.03343]}},{"type":"Feature","properties":{"date":"2020-10-05T00:00:00.000Z","year":2020,"description":"Patch and repair plaster & stucco on exterior of historic landmark portion of the building, paint and finish to match existing condition, replace exterior windows. Renovation of entire interior space, repaint, installation of new millwork, low voltage redesign, demo portion of interio slab for re-pour, new equipment and furniture.  Monument # LA-800. Remove and replace skylight and deck.","metadescription":"Bldg-Alter/Repair. 1 or 2 Family Dwelling. Patch and repair plaster & stucco on exterior of historic landmark portion of the building, paint and finish to match existing condition, replace exterior windows. Renovation of entire interior space, repaint, installation of new millwork, low voltage redesign, demo portion of interio slab for re-pour, new equipment and furniture.  Monument # LA-800. Remove and replace skylight and deck.. Permit Finaled. 525 N ENTRADA DR","address":"521 Entrada Drive, CA, Santa Monica, 90402, US","ct":"2628.02","ev":"N","hl":"YES","apc":"West Los Angeles","zone":"R1H1-O","solar":"N","pin_nbr":"123A133   110","use_code":"23","status_date":"05/25/2021","permit_group":"Building","refresh_time":"06/10/2026","type_lat_lon":"ADDRESS","business_unit":"Plan Check at Counter"},"geometry":{"type":"Point","coordinates":[-118.51092,34.03293]}},{"type":"Feature","properties":{"date":"2020-07-24T00:00:00.000Z","year":2020,"description":"(N) ILLUMINATED WALL SIGN","metadescription":"Sign. Onsite. (N) ILLUMINATED WALL SIGN. Issued. 245 S MAIN ST","address":"245 Main Street, CA, Venice, 90291, US","ct":"2734.02","ev":"N","apc":"West Los Angeles","cpa":"Venice","zone":"(Q)C4-2D","solar":"N","pin_nbr":"111B141   545","use_code":"19","status_date":"07/24/2020","permit_group":"Building","refresh_time":"06/10/2026","type_lat_lon":"ADDRESS","business_unit":"Plan Check at Counter"},"geometry":{"type":"Point","coordinates":[-118.47872,33.99681]}},{"type":"Feature","properties":{"date":"2020-07-24T00:00:00.000Z","year":2020,"description":"DOUBLE SIDED PROJECTED SIGN ILLUMINATED BY LEDS","metadescription":"Sign. Onsite. DOUBLE SIDED PROJECTED SIGN ILLUMINATED BY LEDS. Issued. 245 S MAIN ST","address":"245 Main Street, CA, Venice, 90291, US","ct":"2734.02","ev":"N","apc":"West Los Angeles","cpa":"Venice","zone":"(Q)C4-2D","solar":"N","pin_nbr":"111B141   545","use_code":"19","status_date":"07/24/2020","permit_group":"Building","refresh_time":"06/10/2026","type_lat_lon":"ADDRESS","business_unit":"Plan Check at Counter"},"geometry":{"type":"Point","coordinates":[-118.47872,33.99681]}},{"type":"Feature","properties":{"date":"2019-12-18T00:00:00.000Z","year":2019,"description":"INSTALL ONE 1' X 5' ILLUMINATED CHANNEL LETTER WALL SIGN 5.4 SQ. FT.","metadescription":"Sign. Onsite. INSTALL ONE 1' X 5' ILLUMINATED CHANNEL LETTER WALL SIGN 5.4 SQ. FT.. Issued. 110 E NAVY ST","address":"110 Navy Street, CA, Venice, 90291, US","ct":"2734.02","ev":"N","apc":"West Los Angeles","cpa":"Venice","zone":"(Q)C4-2D","solar":"N","pin_nbr":"111B141   545","use_code":"19","geolocation":"POINT (-118.47917 33.9972)","status_date":"12/18/2019","permit_group":"Building","refresh_time":"06/10/2026","type_lat_lon":"ADDRESS","business_unit":"Plan Check at Counter"},"geometry":{"type":"Point","coordinates":[-118.47917,33.9972]}},{"type":"Feature","properties":{"date":"2019-12-11T00:00:00.000Z","year":2019,"description":"suppplemental ref to pcis # 18016-30000-16641, to revise design for 2-story s.f.d. w/ structural changes","metadescription":"Bldg-Alter/Repair. 1 or 2 Family Dwelling. suppplemental ref to pcis # 18016-30000-16641, to revise design for 2-story s.f.d. w/ structural changes. Permit Finaled. 32 E DUDLEY AVE","address":"32 Dudley Avenue, CA, Venice, 90291, US","ct":"2734.02","ev":"N","apc":"West Los Angeles","cpa":"Venice","zone":"RD1.5-1","solar":"N","pin_nbr":"109-5A141 116","use_code":"1","geolocation":"POINT (-118.47879295 33.9944149)","status_date":"06/25/2021","construction":"Type V-B Construction","permit_group":"Building","refresh_time":"06/10/2026","type_lat_lon":"BUILDING","business_unit":"Regular Plan Check","square_footage":"8.5"},"geometry":{"type":"Point","coordinates":[-118.47879295,33.9944149]}},{"type":"Feature","properties":{"date":"2019-08-05T00:00:00.000Z","year":2019,"description":"INSTALL (1) ILLUMINATED CHANNEL LETTER WALL SIGN;  (B1)  1'-9.75\" x 10'-0\" READING \"LEOREVER\" (18.1 sf, 14.42' ABOVE GRADE)","metadescription":"Sign. Onsite. INSTALL (1) ILLUMINATED CHANNEL LETTER WALL SIGN;  (B1)  1'-9.75\" x 10'-0\" READING \"LEOREVER\" (18.1 sf, 14.42' ABOVE GRADE). Issued. 220 S MAIN ST","address":"220 Main Street, CA, Venice, 90291, US","ct":"2734.02","ev":"N","apc":"West Los Angeles","cpa":"Venice","zone":"M1-1","solar":"N","pin_nbr":"111B141   522","use_code":"19","geolocation":"POINT (-118.47861 33.99728)","status_date":"08/05/2019","permit_group":"Building","refresh_time":"06/10/2026","type_lat_lon":"ADDRESS","business_unit":"Plan Check at Counter"},"geometry":{"type":"Point","coordinates":[-118.47861,33.99728]}},{"type":"Feature","properties":{"date":"2019-07-23T00:00:00.000Z","year":2019,"description":"INTERIOR REMODEL TO (E) SINGLE FAMILY DWELLING TO REMODELBATHROOM, KITCHEN, & LIVING ROOM, REMOVE TWO LOAD BEARING WALLS AND ADD (3) CEILING BEAMS. ALL WORK DONE PER ENGINEER DESIGN","metadescription":"Bldg-Alter/Repair. 1 or 2 Family Dwelling. INTERIOR REMODEL TO (E) SINGLE FAMILY DWELLING TO REMODELBATHROOM, KITCHEN, & LIVING ROOM, REMOVE TWO LOAD BEARING WALLS AND ADD (3) CEILING BEAMS. ALL WORK DONE PER ENGINEER DESIGN. Permit Finaled. 1374 W ROSE AVE","address":"1374 Rose Avenue, CA, Venice, 90291, US","ct":"2731.00","ev":"N","apc":"West Los Angeles","cpa":"Venice","zone":"R1V2","solar":"N","pin_nbr":"114B149   693","use_code":"1","geolocation":"POINT (-118.45555 34.00772)","status_date":"02/04/2020","permit_group":"Building","refresh_time":"06/10/2026","type_lat_lon":"ADDRESS","business_unit":"Plan Check at Counter"},"geometry":{"type":"Point","coordinates":[-118.45555,34.00772]}},{"type":"Feature","properties":{"date":"2019-04-25T00:00:00.000Z","year":2019,"description":"INSTALL (1) ILLUMINATED \"BOWLOLOGY\" WALL SIGN 161\"X22\" (24.5SF)","metadescription":"Sign. Onsite. INSTALL (1) ILLUMINATED \"BOWLOLOGY\" WALL SIGN 161\"X22\" (24.5SF). Permit Expired. 215 S OCEAN FRONT WALK","address":"215 Ocean Front Walk, CA, Venice, 90291, US","ct":"2734.02","ev":"N","apc":"West Los Angeles","cpa":"Venice","zone":"C1-1","solar":"N","pin_nbr":"109-5A141  88","use_code":"19","geolocation":"POINT (-118.48052 33.99485)","status_date":"06/16/2021","permit_group":"Building","refresh_time":"06/10/2026","type_lat_lon":"ADDRESS","business_unit":"Plan Check at Counter"},"geometry":{"type":"Point","coordinates":[-118.48052,33.99485]}},{"type":"Feature","properties":{"date":"2019-01-25T00:00:00.000Z","year":2019,"description":"NEW NON-ILLUMINATED WALL SIGN (5-1/2\" X 12'-0\")","metadescription":"Sign. Onsite. NEW NON-ILLUMINATED WALL SIGN (5-1/2\" X 12'-0\"). Issued. 151 S OCEAN FRONT WALK","address":"153 Ocean Front Walk, CA, Venice, 90291, US","ct":"2734.02","ev":"N","apc":"West Los Angeles","cpa":"Venice","zone":"(Q)R3-1","solar":"N","pin_nbr":"109-5A141  23","use_code":"19","geolocation":"POINT (-118.48136 33.99577)","status_date":"01/25/2019","permit_group":"Building","refresh_time":"06/10/2026","type_lat_lon":"ADDRESS","business_unit":"Plan Check at Counter"},"geometry":{"type":"Point","coordinates":[-118.48136,33.99577]}},{"type":"Feature","properties":{"date":"2018-06-11T00:00:00.000Z","year":2018,"description":"INSTALL THREE ILLUMINATED, CHANNEL LETTERS WALL SIGNS: \"CVS PHARMACY WITH LOGO\"[1] 10'-4\" X 5'-9\" (52.2 SF);[2] 6' X 2'-11\" (17.4 SF);[3] 17'-8\" X 23\" (33.1 SF);","metadescription":"Sign. Onsite. INSTALL THREE ILLUMINATED, CHANNEL LETTERS WALL SIGNS: \"CVS PHARMACY WITH LOGO\"[1] 10'-4\" X 5'-9\" (52.2 SF);[2] 6' X 2'-11\" (17.4 SF);[3] 17'-8\" X 23\" (33.1 SF);. Permit Finaled. 255 S MAIN ST","address":"255 Main Street, CA, Venice, 90291, US","ct":"2734.02","ev":"N","apc":"West Los Angeles","cpa":"Venice","zone":"(Q)C4-2D","solar":"N","pin_nbr":"111B141   545","use_code":"19","geolocation":"POINT (-118.4787 33.99679)","status_date":"10/03/2018","permit_group":"Building","refresh_time":"06/10/2026","type_lat_lon":"ADDRESS","business_unit":"Plan Check at Counter"},"geometry":{"type":"Point","coordinates":[-118.4787,33.99679]}},{"type":"Feature","properties":{"date":"2018-03-22T00:00:00.000Z","year":2018,"description":"INTERIOR REMODEL TO INCLUDE FINISH FLOORING UPDATE, REPAINTING, COUNTERS, INTERIOR SIGNAGE REPLACEMENT, AND ACCESSIBILITY UPGRADES TO (E) BATHROOMS  (NO CHANGE OF USE)","metadescription":"Bldg-Alter/Repair. Commercial. INTERIOR REMODEL TO INCLUDE FINISH FLOORING UPDATE, REPAINTING, COUNTERS, INTERIOR SIGNAGE REPLACEMENT, AND ACCESSIBILITY UPGRADES TO (E) BATHROOMS  (NO CHANGE OF USE). Permit Finaled. 255 S MAIN ST","address":"255 Main Street, CA, Venice, 90291, US","ct":"2734.02","ev":"N","apc":"West Los Angeles","cpa":"Venice","zone":"(Q)C4-2D","solar":"N","pin_nbr":"111B141   545","use_code":"16","geolocation":"POINT (-118.4787 33.99679)","status_date":"08/03/2018","permit_group":"Building","refresh_time":"06/10/2026","type_lat_lon":"ADDRESS","business_unit":"Plan Check at Counter"},"geometry":{"type":"Point","coordinates":[-118.4787,33.99679]}},{"type":"Feature","properties":{"date":"2018-02-05T00:00:00.000Z","year":2018,"description":"UNDERPIN PORTION OF (E) FOOTINGS. REMOVE AND REPLACE PAD FOOTINGS AND POSTS PER ENGINEER DESIGN.","metadescription":"Bldg-Alter/Repair. 1 or 2 Family Dwelling. UNDERPIN PORTION OF (E) FOOTINGS. REMOVE AND REPLACE PAD FOOTINGS AND POSTS PER ENGINEER DESIGN.. Permit Finaled. 875 E COMMONWEALTH AVE","address":"875 Commonwealth Avenue, CA, Venice, 90291, US","ct":"2731.00","ev":"N","apc":"West Los Angeles","cpa":"Venice","zone":"R1V2","solar":"N","pin_nbr":"111B145   111","use_code":"1","geolocation":"POINT (-118.46725 34.00367)","status_date":"03/13/2018","permit_group":"Building","refresh_time":"06/10/2026","type_lat_lon":"ADDRESS","business_unit":"Plan Check at Counter"},"geometry":{"type":"Point","coordinates":[-118.46725,34.00367]}},{"type":"Feature","properties":{"date":"2017-01-06T00:00:00.000Z","year":2017,"description":"Add irregular 10'10\" x 29'2\" (214 sf) to remodel entrance, create a laundry room and hallway closet. All work per engineer's design.","metadescription":"Bldg-Addition. 1 or 2 Family Dwelling. Add irregular 10'10\" x 29'2\" (214 sf) to remodel entrance, create a laundry room and hallway closet. All work per engineer's design.. Issued. 601 N SAN LORENZO ST","address":"601 San Lorenzo Street, CA, Santa Monica, 90402, US","ct":"2628.02","ev":"N","hl":"Yes","apc":"West Los Angeles","zone":"R1-1-O","solar":"N","pin_nbr":"124-5A133 295","use_code":"1","geolocation":"POINT (-118.50972648 34.03448263)","status_date":"01/06/2017","construction":"Type V-B Construction","permit_group":"Building","refresh_time":"06/10/2026","type_lat_lon":"BUILDING","business_unit":"Expanded Counter Plan Check","square_footage":"214"},"geometry":{"type":"Point","coordinates":[-118.50972648,34.03448263]}},{"type":"Feature","properties":{"date":"2016-11-09T00:00:00.000Z","year":2016,"description":"***SUPPLEMENTAL TO 12014-10000-04390 TO CAPTURE COASTAL CLEARANCE AGAIN BECAUSE IT WAS SIGNED OFF IN ERROR.***","metadescription":"Bldg-Alter/Repair. 1 or 2 Family Dwelling. ***SUPPLEMENTAL TO 12014-10000-04390 TO CAPTURE COASTAL CLEARANCE AGAIN BECAUSE IT WAS SIGNED OFF IN ERROR.***. Permit Finaled. 28 E OZONE AVE REAR UNIT","address":"28 Ozone Avenue, CA, Venice, 90291, US","ct":"2734.02","ev":"N","apc":"West Los Angeles","cpa":"Venice","zone":"RD1.5-1","solar":"N","pin_nbr":"109-5A141  43","use_code":"2","geolocation":"POINT (-118.48011 33.9957)","status_date":"07/20/2017","permit_group":"Building","refresh_time":"06/10/2026","type_lat_lon":"ADDRESS","business_unit":"Plan Check at Counter"},"geometry":{"type":"Point","coordinates":[-118.48011,33.9957]}},{"type":"Feature","properties":{"date":"2015-06-10T00:00:00.000Z","year":2015,"description":"INSTALL (1) ILLUMINATED ONSITE CHANNEL LETTERS WALL SIGN HEIGHT 2' x LENGTH 18'- 5 3/4\" = 36.96 SQ. READING \"PALM BEACH TAN\"","metadescription":"Sign. Onsite. INSTALL (1) ILLUMINATED ONSITE CHANNEL LETTERS WALL SIGN HEIGHT 2' x LENGTH 18'- 5 3/4\" = 36.96 SQ. READING \"PALM BEACH TAN\". Permit Finaled. 245 S MAIN ST","address":"245 Main Street, CA, Venice, 90291, US","ct":"2734.02","ev":"N","apc":"West Los Angeles","cpa":"Venice","zone":"(Q)C4-2D","solar":"N","pin_nbr":"111B141   545","use_code":"19","geolocation":"POINT (-118.47872 33.99681)","status_date":"11/19/2015","permit_group":"Building","refresh_time":"06/10/2026","type_lat_lon":"ADDRESS","business_unit":"Plan Check at Counter"},"geometry":{"type":"Point","coordinates":[-118.47872,33.99681]}},{"type":"Feature","properties":{"date":"2014-10-14T00:00:00.000Z","year":2014,"description":"New illuminated 15'-5\" x 3'-3 1/2\" channel letter wall sign reading \"House Beer co.\"","metadescription":"Sign. Onsite. New illuminated 15'-5\" x 3'-3 1/2\" channel letter wall sign reading \"House Beer co.\". Permit Finaled. 219 E ROSE AVE","address":"219 Rose Avenue, CA, Venice, 90291, US","ct":"2734.02","ev":"N","apc":"West Los Angeles","cpa":"Venice","zone":"M1-1","solar":"N","pin_nbr":"111B141   645","use_code":"19","geolocation":"POINT (-118.47736 33.99647)","status_date":"11/03/2014","permit_group":"Building","refresh_time":"06/10/2026","type_lat_lon":"ADDRESS","business_unit":"Plan Check at Counter"},"geometry":{"type":"Point","coordinates":[-118.47736,33.99647]}},{"type":"Feature","properties":{"date":"2014-05-08T00:00:00.000Z","year":2014,"description":"SUPPLEMENTAL TO 13048-10000-02165 TO CHANGE INTERNALLY ILLUMINATED SIGN TO NON-ILLUMINATED FOAM LETTERS WALL SIGN.","metadescription":"Sign. Onsite. SUPPLEMENTAL TO 13048-10000-02165 TO CHANGE INTERNALLY ILLUMINATED SIGN TO NON-ILLUMINATED FOAM LETTERS WALL SIGN.. Permit Finaled. 245 S MAIN ST Ste 3D","address":"245 Main Street, CA, Venice, 90291, US","ct":"2734.02","ev":"N","apc":"West Los Angeles","cpa":"Venice","zone":"(Q)C4-2D","solar":"N","pin_nbr":"111B141   545","use_code":"19","geolocation":"POINT (-118.47872 33.99681)","status_date":"07/31/2014","permit_group":"Building","refresh_time":"06/10/2026","type_lat_lon":"ADDRESS","business_unit":"Plan Check at Counter"},"geometry":{"type":"Point","coordinates":[-118.47872,33.99681]}},{"type":"Feature","properties":{"date":"2014-03-03T00:00:00.000Z","year":2014,"description":"New non- illuminated circular wall sign(10' diameter)   \"GUNPOWDER  POWER OF TEA\" .Non- illuminated Wall sign under canopy(2'6\" x 18')\"GUNPOWDER\" per Engineer's detail.","metadescription":"Sign. Onsite. New non- illuminated circular wall sign(10' diameter)   \"GUNPOWDER  POWER OF TEA\" .Non- illuminated Wall sign under canopy(2'6\" x 18')\"GUNPOWDER\" per Engineer's detail.. Permit Finaled. 202 S MAIN ST","address":"202 Main Street, CA, Venice, 90291, US","ct":"2734.02","ev":"N","apc":"West Los Angeles","cpa":"Venice","zone":"M1-1","solar":"N","pin_nbr":"111B141   444","use_code":"19","geolocation":"POINT (-118.47899 33.99763)","status_date":"07/31/2014","permit_group":"Building","refresh_time":"06/10/2026","type_lat_lon":"ADDRESS","business_unit":"Plan Check at Counter"},"geometry":{"type":"Point","coordinates":[-118.47899,33.99763]}},{"type":"Feature","properties":{"date":"2013-10-28T00:00:00.000Z","year":2013,"description":"INTERNALLY ILLUMINATED LED WALL SIGN(2' 6\" X 11' 8\") TO READ AS  \"SPA210 CAFFE\".","metadescription":"Sign. Onsite. INTERNALLY ILLUMINATED LED WALL SIGN(2' 6\" X 11' 8\") TO READ AS  \"SPA210 CAFFE\".. Permit Finaled. 245 S MAIN ST","address":"245 Main Street, CA, Venice, 90291, US","ct":"2734.02","ev":"N","apc":"West Los Angeles","cpa":"Venice","zone":"(Q)C4-2D","solar":"N","pin_nbr":"111B141   545","use_code":"19","geolocation":"POINT (-118.47872 33.99681)","status_date":"07/31/2014","permit_group":"Building","refresh_time":"06/10/2026","type_lat_lon":"ADDRESS","business_unit":"Plan Check at Counter"},"geometry":{"type":"Point","coordinates":[-118.47872,33.99681]}},{"type":"Feature","properties":{"date":"2013-09-19T00:00:00.000Z","year":2013,"description":"NEW ILLUMINATED WALL SIGN FOR RESTAURANT .","metadescription":"Sign. Onsite. NEW ILLUMINATED WALL SIGN FOR RESTAURANT .. Permit Finaled. 245 S MAIN ST","address":"245 Main Street, CA, Venice, 90291, US","ct":"2734.02","ev":"N","apc":"West Los Angeles","cpa":"Venice","zone":"(Q)C4-2D","solar":"N","pin_nbr":"111B141   545","use_code":"19","geolocation":"POINT (-118.47872 33.99681)","status_date":"04/01/2014","permit_group":"Building","refresh_time":"06/10/2026","type_lat_lon":"ADDRESS","business_unit":"Plan Check at Counter"},"geometry":{"type":"Point","coordinates":[-118.47872,33.99681]}},{"type":"Feature","properties":{"date":"2012-09-07T00:00:00.000Z","year":2012,"description":"NEW GUARDRAIL AS PER ENGINEERS DESIGN","metadescription":"Bldg-Alter/Repair. 1 or 2 Family Dwelling. NEW GUARDRAIL AS PER ENGINEERS DESIGN. Permit Finaled. 765 N KINGMAN AVE","address":"765 Kingman Avenue, CA, Santa Monica, 90402, US","ct":"2628.00","ev":"N","hl":"YES","apc":"West Los Angeles","zone":"R1-1","solar":"N","pin_nbr":"126B133   237","use_code":"1","geolocation":"POINT (-118.50859 34.03913)","status_date":"09/26/2012","permit_group":"Building","refresh_time":"06/10/2026","type_lat_lon":"ADDRESS","business_unit":"Plan Check at Counter"},"geometry":{"type":"Point","coordinates":[-118.50859,34.03913]}},{"type":"Feature","properties":{"date":"2009-12-31T00:00:00.000Z","year":2009,"description":"REVISE DESIGN FOR NEW RETAINING WALL, SUPPLEMENTAL TO 08020-10000-03375","metadescription":"Nonbldg-New. 1 or 2 Family Dwelling. REVISE DESIGN FOR NEW RETAINING WALL, SUPPLEMENTAL TO 08020-10000-03375. Permit Expired. 111 E DUDLEY AVE","address":"111 Dudley Avenue, CA, Venice, 90291, US","ct":"2734.00","ev":"N","apc":"West Los Angeles","cpa":"Venice","zone":"R3-1","solar":"N","pin_nbr":"109-5A143  58","use_code":"23","geolocation":"POINT (-118.47784 33.99541)","status_date":"07/16/2012","permit_group":"Building","refresh_time":"06/10/2026","type_lat_lon":"ADDRESS","business_unit":"Plan Check at Counter"},"geometry":{"type":"Point","coordinates":[-118.47784,33.99541]}},{"type":"Feature","properties":{"date":"2009-12-03T00:00:00.000Z","year":2009,"description":"SIGN INSTALLATION:  2'-8\"  X  17'-3\"  LOGO (ILLUMINATED) AND CHANNEL LETTERS (ILLUMINATED) - 48.88 SQ FT.","metadescription":"Sign. Onsite. SIGN INSTALLATION:  2'-8\"  X  17'-3\"  LOGO (ILLUMINATED) AND CHANNEL LETTERS (ILLUMINATED) - 48.88 SQ FT.. Permit Finaled. 245 S MAIN ST","address":"245 Main Street, CA, Venice, 90291, US","ct":"2734.00","ev":"N","apc":"West Los Angeles","cpa":"Venice","zone":"(Q)C4-2D","solar":"N","pin_nbr":"111B141   912","use_code":"19","geolocation":"POINT (-118.47872 33.99681)","status_date":"03/24/2010","permit_group":"Building","refresh_time":"06/10/2026","type_lat_lon":"ADDRESS","business_unit":"Plan Check at Counter"},"geometry":{"type":"Point","coordinates":[-118.47872,33.99681]}},{"type":"Feature","properties":{"date":"2009-08-27T00:00:00.000Z","year":2009,"description":"(N) ROOF FRAMING ABOVE (E) ROOF FRAMING FOR PURPOSES OF ADDING (N) INSULATION...ALL CONSTRUCTION PER ENGINEER'S DESIGN/DETAILS...","metadescription":"Bldg-Alter/Repair. 1 or 2 Family Dwelling. (N) ROOF FRAMING ABOVE (E) ROOF FRAMING FOR PURPOSES OF ADDING (N) INSULATION...ALL CONSTRUCTION PER ENGINEER'S DESIGN/DETAILS.... Permit Finaled. 620 N SAN LORENZO ST","address":"620 San Lorenzo Street, CA, Santa Monica, 90402, US","ct":"2628.00","ev":"N","hl":"YES","apc":"West Los Angeles","zone":"R1-1","solar":"N","height":"13","pin_nbr":"124-5A133 159","use_code":"1","geolocation":"POINT (-118.50934 34.03501)","status_date":"04/04/2023","permit_group":"Building","refresh_time":"06/10/2026","type_lat_lon":"ADDRESS","business_unit":"Plan Check at Counter"},"geometry":{"type":"Point","coordinates":[-118.50934,34.03501]}},{"type":"Feature","properties":{"date":"2009-05-13T00:00:00.000Z","year":2009,"description":"(3) ILLUMINATED WALL SIGNS.  (1) NON-ILLUMINATED WALL SIGN.","metadescription":"Sign. Onsite. (3) ILLUMINATED WALL SIGNS.  (1) NON-ILLUMINATED WALL SIGN.. Permit Finaled. 255 S MAIN ST","address":"255 Main Street, CA, Venice, 90291, US","ct":"2734.00","ev":"N","apc":"West Los Angeles","cpa":"Venice","zone":"(Q)C4-2D","solar":"N","pin_nbr":"111B141   545","use_code":"19","geolocation":"POINT (-118.4787 33.99679)","status_date":"08/11/2009","permit_group":"Building","refresh_time":"06/10/2026","type_lat_lon":"ADDRESS","business_unit":"Plan Check at Counter"},"geometry":{"type":"Point","coordinates":[-118.4787,33.99679]}},{"type":"Feature","properties":{"date":"2009-03-16T00:00:00.000Z","year":2009,"description":"NEW 31 LINEAR FEET 5'-6\" HIGH CMU WALL PER ENGINEER DESIGN.","metadescription":"Nonbldg-New. 1 or 2 Family Dwelling. NEW 31 LINEAR FEET 5'-6\" HIGH CMU WALL PER ENGINEER DESIGN.. Permit Finaled. 711 N KINGMAN AVE","address":"711 Kingman Avenue, CA, Santa Monica, 90402, US","ct":"2628.00","ev":"N","hl":"YES","apc":"West Los Angeles","zone":"R1-1","solar":"N","pin_nbr":"124-5A133   9","use_code":"23","geolocation":"POINT (-118.50863 34.03719)","status_date":"09/29/2009","permit_group":"Building","refresh_time":"06/10/2026","type_lat_lon":"ADDRESS","business_unit":"Regular Plan Check"},"geometry":{"type":"Point","coordinates":[-118.50863,34.03719]}},{"type":"Feature","properties":{"date":"2008-05-22T00:00:00.000Z","year":2008,"description":"NEW ILLUMINATED CHANNEL LETTER'S SIGN (69\"X 13\"X14\") \"SIT STILL\".","metadescription":"Sign. Onsite. NEW ILLUMINATED CHANNEL LETTER'S SIGN (69\"X 13\"X14\") \"SIT STILL\".. Permit Finaled. 255 S MAIN ST","address":"255 Main Street, CA, Venice, 90291, US","ct":"2734.00","ev":"N","apc":"West Los Angeles","cpa":"Venice","zone":"(Q)C4-2D","solar":"N","pin_nbr":"111B141   545","use_code":"19","geolocation":"POINT (-118.4787 33.99679)","status_date":"06/25/2008","permit_group":"Building","refresh_time":"06/10/2026","type_lat_lon":"ADDRESS","business_unit":"Plan Check at Counter"},"geometry":{"type":"Point","coordinates":[-118.4787,33.99679]}},{"type":"Feature","properties":{"date":"2008-05-15T00:00:00.000Z","year":2008,"description":"Enclose existing porch as part of the duplex.  Interior remodel. New vaulted ceiling. Replace existing door in existing opening. Five new skylights. All work per Engineer's design.","metadescription":"Bldg-Addition. 1 or 2 Family Dwelling. Enclose existing porch as part of the duplex.  Interior remodel. New vaulted ceiling. Replace existing door in existing opening. Five new skylights. All work per Engineer's design.. CofO Issued. 26 E OZONE AVE","address":"26 1/2 Ozone Avenue, CA, Venice, 90291, US","ct":"2734.00","ev":"N","apc":"West Los Angeles","cpa":"Venice","zone":"RD1.5-1","solar":"N","pin_nbr":"109-5A141  46","use_code":"2","geolocation":"POINT (-118.48018 33.99565)","status_date":"02/19/2009","construction":"Type V-N Construction","permit_group":"Building","refresh_time":"06/10/2026","type_lat_lon":"ADDRESS","business_unit":"Plan Check at Counter","square_footage":"70"},"geometry":{"type":"Point","coordinates":[-118.48018,33.99565]}},{"type":"Feature","properties":{"date":"2008-04-28T00:00:00.000Z","year":2008,"description":"INSTALL 3 INFORMATION SIGNS INCLUDING 1 DIRECTORY AND 1 WALL SIGN; SIGNS ARE ALL NON-ILLUMINATED.9 Signs total.","metadescription":"Sign. Onsite. INSTALL 3 INFORMATION SIGNS INCLUDING 1 DIRECTORY AND 1 WALL SIGN; SIGNS ARE ALL NON-ILLUMINATED.9 Signs total.. Permit Finaled. 204 S HAMPTON DR","address":"3007 2nd Street, CA, Santa Monica, 90405, US","ct":"2733.00","ev":"N","apc":"West Los Angeles","cpa":"Venice","zone":"RD1.5-1","solar":"N","pin_nbr":"111B141   372","use_code":"19","geolocation":"POINT (-118.47832 33.99809)","status_date":"07/16/2008","permit_group":"Building","refresh_time":"06/10/2026","type_lat_lon":"ADDRESS","business_unit":"Plan Check at Counter"},"geometry":{"type":"Point","coordinates":[-118.47832,33.99809]}},{"type":"Feature","properties":{"date":"2007-06-12T00:00:00.000Z","year":2007,"description":"SUPPLEMENTAL REF TO PCIS # 06014-30000-09509... REDESIGN OF PLANS DUE TO CONSTRUCTION NEAR A FUTURE STREET...","metadescription":"Bldg-Addition. 1 or 2 Family Dwelling. SUPPLEMENTAL REF TO PCIS # 06014-30000-09509... REDESIGN OF PLANS DUE TO CONSTRUCTION NEAR A FUTURE STREET.... Permit Finaled. 492 N EAST CHANNEL ROAD","address":"492 East Channel Road, CA, Santa Monica, 90402, US","ct":"2628.00","ev":"N","hl":"YES","apc":"West Los Angeles","zone":"R1-1-O","solar":"N","height":"16.5","pin_nbr":"123B129  1081","use_code":"1","geolocation":"POINT (-118.51208 34.03314)","status_date":"08/08/2008","construction":"Type V-N Construction","permit_group":"Building","refresh_time":"06/10/2026","type_lat_lon":"ADDRESS","business_unit":"Appointment Plan Check","square_footage":"1287"},"geometry":{"type":"Point","coordinates":[-118.51208,34.03314]}},{"type":"Feature","properties":{"date":"2007-05-31T00:00:00.000Z","year":2007,"description":"NON-ILLUM. AWNING SIGNS: (2) 4'-0\" x 1'-0\" AND (1) 6'-0\" x 1'-0\"","metadescription":"Sign. Onsite. NON-ILLUM. AWNING SIGNS: (2) 4'-0\" x 1'-0\" AND (1) 6'-0\" x 1'-0\". Permit Finaled. 245 S MAIN ST","address":"245 Main Street, CA, Venice, 90291, US","ct":"2734.00","ev":"N","apc":"West Los Angeles","cpa":"Venice","zone":"(Q)C4-2D","solar":"N","pin_nbr":"111B141   545","use_code":"19","geolocation":"POINT (-118.47872 33.99681)","status_date":"06/07/2007","permit_group":"Building","refresh_time":"06/10/2026","type_lat_lon":"ADDRESS","business_unit":"Plan Check at Counter"},"geometry":{"type":"Point","coordinates":[-118.47872,33.99681]}},{"type":"Feature","properties":{"date":"2007-03-02T00:00:00.000Z","year":2007,"description":"SUPPLEMENTAL TO PERMIT  06048-10000-01674 TO REVISE SIZE OF SIGNS AS FOLLOWS: (1) 5'-4\"X 14'-1\"(110 SQ.FT),  (1) 1'-3 1/4\"X 12'-6\"(26 SQ.FT), AND (1) 2'-6\"X 20'-9\"(52 SQ.FT); ALSO CAPTURE ADDITIONAL CLEARANCES.","metadescription":"Sign. Onsite. SUPPLEMENTAL TO PERMIT  06048-10000-01674 TO REVISE SIZE OF SIGNS AS FOLLOWS: (1) 5'-4\"X 14'-1\"(110 SQ.FT),  (1) 1'-3 1/4\"X 12'-6\"(26 SQ.FT), AND (1) 2'-6\"X 20'-9\"(52 SQ.FT); ALSO CAPTURE ADDITIONAL CLEARANCES.. Permit Finaled. 255 S MAIN ST","address":"255 Main Street, CA, Venice, 90291, US","ct":"2734.00","ev":"N","apc":"West Los Angeles","cpa":"Venice","zone":"(Q)C4-2D","solar":"N","pin_nbr":"111B141   545","use_code":"19","geolocation":"POINT (-118.4787 33.99679)","status_date":"05/07/2007","permit_group":"Building","refresh_time":"06/10/2026","type_lat_lon":"ADDRESS","business_unit":"Plan Check at Counter"},"geometry":{"type":"Point","coordinates":[-118.4787,33.99679]}},{"type":"Feature","properties":{"date":"2006-12-14T00:00:00.000Z","year":2006,"description":"INSTALL FOUR ILLUMINATED WALL SIGNS AS FOLLOWS: (1) 2'-6\" X 12', (1) 1'-7\" X 15'-8\", (1) 9\" X 8'-6\",  (1) 2'-6\" X 44'","metadescription":"Sign. Onsite. INSTALL FOUR ILLUMINATED WALL SIGNS AS FOLLOWS: (1) 2'-6\" X 12', (1) 1'-7\" X 15'-8\", (1) 9\" X 8'-6\",  (1) 2'-6\" X 44'. Permit Finaled. 255 S MAIN ST","address":"255 Main Street, CA, Venice, 90291, US","ct":"2734.00","ev":"N","apc":"West Los Angeles","cpa":"Venice","zone":"(Q)C4-2D","solar":"N","pin_nbr":"111B141   545","use_code":"19","geolocation":"POINT (-118.4787 33.99679)","status_date":"05/07/2007","permit_group":"Building","refresh_time":"06/10/2026","type_lat_lon":"ADDRESS","business_unit":"Plan Check at Counter"},"geometry":{"type":"Point","coordinates":[-118.4787,33.99679]}},{"type":"Feature","properties":{"date":"2005-07-06T00:00:00.000Z","year":2005,"description":"NON-ILLUMINATED WALL SIGN 28'-5\" x 15'-6\", READS : (ON SITE SIGN PAINTED ON  WALL ALONG DUDLEY CT)","metadescription":"Sign. Onsite. NON-ILLUMINATED WALL SIGN 28'-5\" x 15'-6\", READS : (ON SITE SIGN PAINTED ON  WALL ALONG DUDLEY CT). Permit Finaled. 401 S OCEAN FRONT WALK","address":"1-45, 401 Ocean Front Walk, CA, Venice, 90291, US","ct":"2734.00","ev":"N","apc":"West Los Angeles","cpa":"Venice","zone":"R3-1","solar":"N","pin_nbr":"109-5A141 128","use_code":"19","geolocation":"POINT (-118.47965 33.99386)","status_date":"11/07/2006","permit_group":"Building","refresh_time":"06/10/2026","type_lat_lon":"ADDRESS","business_unit":"Plan Check at Counter"},"geometry":{"type":"Point","coordinates":[-118.47965,33.99386]}},{"type":"Feature","properties":{"date":"2005-03-09T00:00:00.000Z","year":2005,"description":"INSTALL (1) 2'-8\" X 9' S/F ILLUM. CHANNEL LETTERS;  READS: \"ST, SUNSET TAN\"","metadescription":"Sign. Onsite. INSTALL (1) 2'-8\" X 9' S/F ILLUM. CHANNEL LETTERS;  READS: \"ST, SUNSET TAN\". Permit Finaled. 245 S MAIN ST","address":"245 Main Street, CA, Venice, 90291, US","ct":"2734.00","ev":"N","apc":"West Los Angeles","cpa":"Venice","zone":"(Q)C4-2D","solar":"N","pin_nbr":"111B141   545","use_code":"19","geolocation":"POINT (-118.47872 33.99681)","status_date":"05/09/2005","permit_group":"Building","refresh_time":"06/10/2026","type_lat_lon":"ADDRESS","business_unit":"Plan Check at Counter"},"geometry":{"type":"Point","coordinates":[-118.47872,33.99681]}},{"type":"Feature","properties":{"date":"2005-02-17T00:00:00.000Z","year":2005,"description":"Replace 30' long section of damaged (wood and stucco) exterior wall with same, per engineer's design.  South side of building.","metadescription":"Bldg-Alter/Repair. Commercial. Replace 30' long section of damaged (wood and stucco) exterior wall with same, per engineer's design.  South side of building.. Permit Finaled. 6 E ROSE AVE","address":"6 Rose Avenue, CA, Venice, 90291, US","ct":"2734.00","ev":"N","apc":"West Los Angeles","cpa":"Venice","zone":"C1-1","solar":"N","pin_nbr":"109-5A141 102","use_code":"13","geolocation":"POINT (-118.48006 33.99475)","status_date":"03/08/2005","construction":"Type V-N Construction","permit_group":"Building","refresh_time":"06/10/2026","type_lat_lon":"ADDRESS","business_unit":"Plan Check at Counter"},"geometry":{"type":"Point","coordinates":[-118.48006,33.99475]}},{"type":"Feature","properties":{"date":"2003-10-23T00:00:00.000Z","year":2003,"description":"BLOCK RETAINING WALL 7' HIGH X 65' LENGTH PER ENGINEER'S DESIGN.  SEE GRADING PERMIT #: 03020-10000-03115","metadescription":"Nonbldg-New. 1 or 2 Family Dwelling. BLOCK RETAINING WALL 7' HIGH X 65' LENGTH PER ENGINEER'S DESIGN.  SEE GRADING PERMIT #: 03020-10000-03115. Permit Finaled. 13200 W WARREN AVE","address":"13200 Warren Avenue, CA, Los Angeles, 90066, US","ct":"2714.00","ev":"N","hl":"YES","apc":"West Los Angeles","cpa":"Palms - Del Rey - Mar Vista","zone":"R1-1","solar":"N","pin_nbr":"114B149   408","use_code":"23","geolocation":"POINT (-118.4538 34.00968)","status_date":"04/18/2005","permit_group":"Building","refresh_time":"06/10/2026","type_lat_lon":"ADDRESS","business_unit":"Appointment Plan Check"},"geometry":{"type":"Point","coordinates":[-118.4538,34.00968]}},{"type":"Feature","properties":{"date":"2003-09-19T00:00:00.000Z","year":2003,"description":"Proposed 6'x16' wall sign (painted letters) (\"DAGWOODS\")","metadescription":"Sign. Onsite. Proposed 6'x16' wall sign (painted letters) (\"DAGWOODS\"). Permit Finaled. 202 S MAIN ST","address":"202 Main Street, CA, Venice, 90291, US","ct":"2734.00","ev":"N","apc":"West Los Angeles","cpa":"Venice","zone":"M1-1","solar":"N","pin_nbr":"111B141   444","use_code":"19","geolocation":"POINT (-118.47899 33.99763)","status_date":"03/26/2004","permit_group":"Building","refresh_time":"06/10/2026","type_lat_lon":"ADDRESS","business_unit":"Plan Check at Counter"},"geometry":{"type":"Point","coordinates":[-118.47899,33.99763]}},{"type":"Feature","properties":{"date":"2003-06-13T00:00:00.000Z","year":2003,"description":"INSTALL (1) 18' X 10'8\" ILLUM. CHANNEL LETTER WALL SIGN.","metadescription":"Sign. Onsite. INSTALL (1) 18' X 10'8\" ILLUM. CHANNEL LETTER WALL SIGN.. Permit Finaled. 235 S MAIN ST","address":"235 Main Street, CA, Venice, 90291, US","ct":"2734.00","ev":"N","apc":"West Los Angeles","cpa":"Venice","zone":"(Q)C4-2D","solar":"N","pin_nbr":"111B141   545","use_code":"19","geolocation":"POINT (-118.47874 33.99683)","status_date":"06/25/2003","permit_group":"Building","refresh_time":"06/10/2026","type_lat_lon":"ADDRESS","business_unit":"Plan Check at Counter"},"geometry":{"type":"Point","coordinates":[-118.47874,33.99683]}},{"type":"Feature","properties":{"date":"2002-12-09T00:00:00.000Z","year":2002,"description":"14'-6\" X 13\" ILLUMINATED WALL SIGN.","metadescription":"Sign. Onsite. 14'-6\" X 13\" ILLUMINATED WALL SIGN.. Permit Finaled. 245 S MAIN ST","address":"245 Main Street, CA, Venice, 90291, US","ct":"2734.00","ev":"N","apc":"West Los Angeles","zone":"(T)(Q)C4-2D","solar":"N","pin_nbr":"111B141   545","use_code":"19","geolocation":"POINT (-118.47872 33.99681)","status_date":"08/27/2003","permit_group":"Building","refresh_time":"06/10/2026","type_lat_lon":"ADDRESS","business_unit":"Plan Check at Counter"},"geometry":{"type":"Point","coordinates":[-118.47872,33.99681]}},{"type":"Feature","properties":{"date":"2002-10-16T00:00:00.000Z","year":2002,"description":"PROPOSED 1'-10\" X 9' S/F NON-ILLUM. WALL SIGN;  READS:  \"SACRED MOVEMENT CENTER FOR YOGA AND HEALING\"","metadescription":"Sign. Onsite. PROPOSED 1'-10\" X 9' S/F NON-ILLUM. WALL SIGN;  READS:  \"SACRED MOVEMENT CENTER FOR YOGA AND HEALING\". Permit Finaled. 245 S MAIN ST","address":"245 Main Street, CA, Venice, 90291, US","ct":"2734.00","ev":"N","apc":"West Los Angeles","zone":"(T)(Q)C4-2D","solar":"N","pin_nbr":"111B141   545","use_code":"19","geolocation":"POINT (-118.47872 33.99681)","status_date":"08/27/2003","permit_group":"Building","refresh_time":"06/10/2026","type_lat_lon":"ADDRESS","business_unit":"Plan Check at Counter"},"geometry":{"type":"Point","coordinates":[-118.47872,33.99681]}},{"type":"Feature","properties":{"date":"2002-02-08T00:00:00.000Z","year":2002,"description":"new 3'11\" x 11'4\" ill wall sign and 2'4\" x 2'4\"non ill.  projection sign.","metadescription":"Sign. Onsite. new 3'11\" x 11'4\" ill wall sign and 2'4\" x 2'4\"non ill.  projection sign.. Permit Finaled. 245 S MAIN ST","address":"245 Main Street, CA, Venice, 90291, US","ct":"2734.00","ev":"N","apc":"West Los Angeles","zone":"(T)(Q)C4-2D","solar":"N","pin_nbr":"111B141   545","use_code":"19","geolocation":"POINT (-118.47872 33.99681)","status_date":"02/03/2003","permit_group":"Building","refresh_time":"06/10/2026","type_lat_lon":"ADDRESS","business_unit":"Plan Check at Counter"},"geometry":{"type":"Point","coordinates":[-118.47872,33.99681]}},{"type":"Feature","properties":{"date":"2001-06-29T00:00:00.000Z","year":2001,"description":"STRUC & SIZE REVISION WITH NEW 4'-9\" OFFSET TO #98048-10000-01811. NO CHANGE IN HT., # OF FACES OR ORIENTATION. (NO FINAL INSPECTION SHALL BE GRANTED UNTIL THE SOILS REPORT IS APPROV ED) WORK SHALL BE COMPLETED WITHIN 60 DAYS OF PERMIT ISSUANCE AS AGREED ON JUNE 13, 2001 OR WORK SHALL BE REVERTED BACK TO THE ORIGINAL 12'x25' SIZE SIGN.","metadescription":"Sign. Offsite. STRUC & SIZE REVISION WITH NEW 4'-9\" OFFSET TO #98048-10000-01811. NO CHANGE IN HT., # OF FACES OR ORIENTATION. (NO FINAL INSPECTION SHALL BE GRANTED UNTIL THE SOILS REPORT IS APPROV ED) WORK SHALL BE COMPLETED WITHIN 60 DAYS OF PERMIT ISSUANCE AS AGREED ON JUNE 13, 2001 OR WORK SHALL BE REVERTED BACK TO THE ORIGINAL 12'x25' SIZE SIGN.. Permit Finaled. 248 S MAIN ST VENICE","address":"248 Main Street, CA, Venice, 90291, US","ct":"2734.00","ev":"N","apc":"West Los Angeles","zone":"M1-1","solar":"N","pin_nbr":"111B141   634","use_code":"19","geolocation":"POINT (-118.4778583 33.99668103)","status_date":"10/18/2001","permit_group":"Building","refresh_time":"06/10/2026","type_lat_lon":"PIN","business_unit":"Regular Plan Check"},"geometry":{"type":"Point","coordinates":[-118.4778583,33.99668103]}},{"type":"Feature","properties":{"date":"1999-03-19T00:00:00.000Z","year":1999,"description":"new wall sign","metadescription":"Sign. Onsite. new wall sign. Permit Expired. 259 S HAMPTON DR","address":"259 Hampton Drive, CA, Venice, 90291, US","ct":"2734.00","ev":"N","apc":"West Los Angeles","zone":"M1-1","solar":"N","pin_nbr":"111B141   633","use_code":"19","geolocation":"POINT (-118.47739 33.99672)","status_date":"06/27/2001","permit_group":"Building","refresh_time":"06/10/2026","type_lat_lon":"ADDRESS","business_unit":"Plan Check at Counter"},"geometry":{"type":"Point","coordinates":[-118.47739,33.99672]}},{"type":"Feature","properties":{"date":"1998-10-15T00:00:00.000Z","year":1998,"description":"REMOVE 12' X 25' (300 SQ. FT.) FACE OF EXISTING OFF-SITE POLE SIGN AND REPLACE WITH 24.5' X 26' (650 SQ. FT.) DOUBLE-FACED SIGN PER L.A. CITY STANDARD PLAN NO. 707. EXISTING DOUBLE POLES (WIDE FLANGE COLUMNS TO REMAIN IN PLACE.)","metadescription":"Sign. Offsite. REMOVE 12' X 25' (300 SQ. FT.) FACE OF EXISTING OFF-SITE POLE SIGN AND REPLACE WITH 24.5' X 26' (650 SQ. FT.) DOUBLE-FACED SIGN PER L.A. CITY STANDARD PLAN NO. 707. EXISTING DOUBLE POLES (WIDE FLANGE COLUMNS TO REMAIN IN PLACE.). Permit Expired. 248 S MAIN ST VENICE","address":"248 Main Street, CA, Venice, 90291, US","ct":"2734.00","ev":"N","apc":"West Los Angeles","zone":"M1-1","solar":"N","pin_nbr":"111B141   634","use_code":"19","geolocation":"POINT (-118.4778583 33.99668103)","status_date":"01/08/2007","permit_group":"Building","refresh_time":"06/10/2026","type_lat_lon":"PIN","business_unit":"Plan Check at Counter"},"geometry":{"type":"Point","coordinates":[-118.4778583,33.99668103]}}]}
