{"type":"FeatureCollection","features":[{"type":"Feature","properties":{"date":"2017-11-07T00:00:00.000Z","year":2017,"description":"REWORK FIRE ALARM FOR ELEVATOR RECALL AND SUITE CHANGES","metadescription":"PERMIT – EXPRESS PERMIT PROGRAM. Fire Alarm System. REWORK FIRE ALARM FOR ELEVATOR RECALL AND SUITE CHANGES. COMPLETE. 6000","address":"6000","location":"POINT (-87.777027664841 42.012091950198)","review_type":"EXPRESS PERMIT PROGRAM","street_name":"TOUHY AVE","xcoordinate":"1135432.5921272156","ycoordinate":"1947487.5618434048","census_tract":"120100","subtotal_paid":"$225.00","community_area":"12","contact_1_city":"HAMPSHIRE","contact_1_name":"ALARM SPECIALTIES & PROTECTION","contact_1_type":"ELECTRICAL CONTRACTOR","contact_2_city":"HAMPSHIRE","contact_2_name":"BRASE DANIEL R.","contact_2_type":"APPLICANT","contact_3_city":"HAMPSHIRE","contact_3_name":"ALARM SPECIALTIES & PROTECTION","contact_3_type":"APPLICANT","other_fee_paid":"$0.00","contact_1_state":"IL","contact_2_state":"IL","contact_3_state":"IL","processing_time":"0","subtotal_unpaid":"$0.00","subtotal_waived":"$0.00","zoning_fee_paid":"$0.00","other_fee_unpaid":"$0.00","other_fee_waived":"$0.00","permit_milestone":"COMPLETE","street_direction":"W","building_fee_paid":"$225.00","contact_1_zipcode":"60140","contact_2_zipcode":"60140","contact_3_zipcode":"60140","zoning_fee_unpaid":"$0.00","zoning_fee_waived":"$0.00","other_fee_subtotal":"$0","building_fee_unpaid":"$0.00","building_fee_waived":"$0.00","zoning_fee_subtotal":"$0","building_fee_subtotal":"$225"},"geometry":{"type":"Point","coordinates":[-87.777027665,42.01209195]}}]}
