{"type":"FeatureCollection","features":[{"type":"Feature","properties":{"date":"2020-03-31T00:00:00.000Z","year":2020,"description":"INTERIOR AND EXTERIOR PARTIAL 1ST LEVEL REMODEL AND 2ND LEVEL ADDITION WITH A REAR OPEN COVERED PORCH AS PER PLANS","metadescription":"PERMIT - RENOVATION/ALTERATION. INTERIOR AND EXTERIOR PARTIAL 1ST LEVEL REMODEL AND 2ND LEVEL ADDITION WITH A REAR OPEN COVERED PORCH AS PER PLANS. COMPLETE. 6671","address":"6671","location":"POINT (-87.795088924651 42.000843720923)","pin_list":"1031406004","review_type":"STANDARD PLAN REVIEW","street_name":"ALBION AVE","xcoordinate":"1130549.9867158756","ycoordinate":"1943357.2607010303","census_tract":"100200","subtotal_paid":"$1,339.61","community_area":"10","contact_1_city":"CHICAGO","contact_1_name":"JAN KENAR","contact_1_type":"OWNER AS GENERAL CONTRACTOR","contact_2_city":"DOWNERS GROVE","contact_2_name":"WIDLER, BRENT L","contact_2_type":"ARCHITECT","contact_3_city":"PALOS HILLS","contact_3_name":"AB TO Z ELECTRIC","contact_3_type":"CONTRACTOR-ELECTRICAL","contact_4_city":"CHICAGO","contact_4_name":"CORNERSTONE PERMIT COMPANY","contact_4_type":"EXPEDITOR","other_fee_paid":"$0.00","contact_1_state":"IL","contact_2_state":"IL","contact_3_state":"IL","contact_4_state":"IL","processing_time":"95","subtotal_unpaid":"$0.00","subtotal_waived":"$0.00","zoning_fee_paid":"$50.00","other_fee_unpaid":"$0.00","other_fee_waived":"$0.00","permit_milestone":"COMPLETE","street_direction":"W","building_fee_paid":"$1,289.61","contact_1_zipcode":"60631","contact_2_zipcode":"60515-","contact_3_zipcode":"60465","contact_4_zipcode":"60654-","zoning_fee_unpaid":"$0.00","zoning_fee_waived":"$0.00","other_fee_subtotal":"$0","building_fee_unpaid":"$0.00","building_fee_waived":"$0.00","zoning_fee_subtotal":"$50","building_fee_subtotal":"$1,289.61"},"geometry":{"type":"Point","coordinates":[-87.795088925,42.000843721]}},{"type":"Feature","properties":{"date":"2018-08-14T00:00:00.000Z","year":2018,"description":"EXISTING 2 STORY FRAME S.F.R- INTERIOR REMODELING-NEW 2 STORY REAR FRAME ADDITION- PARTIAL 2ND STORY ADDITION-NEW FRONT OPEN WOOD PORCH W/ROOF-EXISTING REAR FRAME GARAGE  N.I.C.- ALL WORK AS PER APPROVED PLANS & PERMIT.","metadescription":"PERMIT - RENOVATION/ALTERATION. EXISTING 2 STORY FRAME S.F.R- INTERIOR REMODELING-NEW 2 STORY REAR FRAME ADDITION- PARTIAL 2ND STORY ADDITION-NEW FRONT OPEN WOOD PORCH W/ROOF-EXISTING REAR FRAME GARAGE  N.I.C.- ALL WORK AS PER APPROVED PLANS & PERMIT.. COMPLETE. 6533","address":"6533","location":"POINT (-87.803997307801 42.000899739594)","pin_list":"1031303006","review_type":"SELF CERT","street_name":"NIXON AVE","xcoordinate":"1128128.4692323254","ycoordinate":"1943362.5788504204","census_tract":"100200","subtotal_paid":"$825.00","community_area":"10","contact_1_city":"CHICAGO","contact_1_name":"EXPRESS PERMITS INC. / LAVINIA","contact_1_type":"EXPEDITOR","contact_2_city":"CRESTWOOD","contact_2_name":"CODY MICHAEL D","contact_2_type":"SELF CERT ARCHITECT","contact_3_city":"CARY","contact_3_name":"TEXA ENGINEERING","contact_3_type":"CONTRACTOR-ELECTRICAL","contact_4_city":"PROSPECT HEIGHTS","contact_4_name":"MAXIMIZED RESTORATION LLC","contact_4_type":"CONTRACTOR-GENERAL CONTRACTOR","contact_5_city":"CHICAGO","contact_5_name":"EAMON GRIFFIN","contact_5_type":"OWNER OCCUPIED","contact_6_city":"WOODDALE","contact_6_name":"LRM PLUMBING CORP","contact_6_type":"CONTRACTOR-PLUMBER/PLUMBING","contact_7_city":"LOMBARD","contact_7_name":"ZN HEATING & COLLING","contact_7_type":"CONTRACTOR-REFRIGERATION","contact_8_city":"LOMBARD","contact_8_name":"ZN HEATING & COLLING","contact_8_type":"CONTRACTOR-VENTILATION","other_fee_paid":"$0.00","contact_1_state":"IL","contact_2_state":"IL","contact_3_state":"IL","contact_4_state":"IL","contact_5_state":"IL","contact_6_state":"IL","contact_7_state":"IL","contact_8_state":"IL","processing_time":"0","subtotal_unpaid":"$0.00","subtotal_waived":"$0.00","zoning_fee_paid":"$75.00","other_fee_unpaid":"$0.00","other_fee_waived":"$0.00","permit_milestone":"COMPLETE","street_direction":"N","building_fee_paid":"$750.00","contact_1_zipcode":"60647-","contact_2_zipcode":"60418","contact_3_zipcode":"60013","contact_4_zipcode":"60070","contact_5_zipcode":"60631","contact_6_zipcode":"60191-","contact_7_zipcode":"60148-","contact_8_zipcode":"60148-","zoning_fee_unpaid":"$0.00","zoning_fee_waived":"$0.00","other_fee_subtotal":"$0","building_fee_unpaid":"$0.00","building_fee_waived":"$0.00","zoning_fee_subtotal":"$75","building_fee_subtotal":"$750"},"geometry":{"type":"Point","coordinates":[-87.803997308,42.00089974]}}]}
