{"type":"FeatureCollection","features":[{"type":"Feature","properties":{"date":null,"year":0,"description":"Furnace install","metadescription":"Mechanical. ExistRes. Furnace install. Closed","address":"6104 Bloomington Avenue, MN, MINNEAPOLIS, 55423, US","x":"-93.25323","y":"44.8922400000001","value":"0","display":"6104 BLOOMINGTON AVE","fullname":"SARAH G JOHNSON","issuedate":"2023/06/01 09:37:54+00","milestone":"Closed","completedate":"2023/09/29 14:09:09+00","applicantcity":"Blaine","applicantaddress1":"10068 Flanders court NE"},"geometry":{"type":"Point","coordinates":[-93.25323,44.89224]}}]}
