{"type":"FeatureCollection","features":[{"type":"Feature","properties":{"date":"2026-01-26T00:00:00.000Z","year":2026,"description":null,"metadescription":"Demolition / Deconstruction. 4077 W 29TH AVENUE, Vancouver, BC V6S 1V4","address":"4077 29th AVE W, BC, VANCOUVER, V6S1V4, CA","issuedate":"2026-05-04","issueyear":"2026","propertyuse":"Dwelling Uses","geo_point_2d":"49.2464868, -123.1961023","geolocalarea":"Dunbar-Southlands","applicantaddress":"8678 Greenall Ave\r\nBurnaby, BC  V5J 3M6","permitelapseddays":"98","buildingcontractor":"G Divine Construction Corporation","projectdescription":"Low Density Housing - Demolition / Deconstruction - To demolish to grade this existing Single Detached House (1953) on this site – declared rental.\n\n•  This demolition permit also permits abatement work to be completed to WorkSafe standards.\n\nDemolition Contractor: G. Divine Construction Corp. (Jianghao Du)   (778)-388-0351 \n\nQP: Odin's Eye Inspections (Kurt McInnes) (778)-968-4909\n\n***This permit is issued under the 2025 Vancouver Building By-law #14343 effective September 15, 2025.***","specificusecategory":"Single Detached House"},"geometry":{"type":"Point","coordinates":[-123.1961023,49.2464868]}},{"type":"Feature","properties":{"date":"2025-09-02T00:00:00.000Z","year":2025,"description":null,"metadescription":"Demolition / Deconstruction. 4091 W 34TH AVENUE, Vancouver, BC V6N 2L6","address":"4091 34th AVE W, BC, VANCOUVER, V6N2L6, CA","issuedate":"2026-01-14","issueyear":"2026","propertyuse":"Dwelling Uses","geo_point_2d":"49.2417395, -123.1964303","geolocalarea":"Dunbar-Southlands","applicantaddress":"#310 3211 152 St\r\nSurrey, BC  V3Z 1H8","permitelapseddays":"134","buildingcontractor":"Bhullar Excavating and Demolition","projectdescription":"Low Density Housing - Demolition / Deconstruction - DEMOLITION BY DECONSTRUCTION\nTo demolish the existing single detached house building ($40,000) on this site by means of deconstruction.\n\nDemolition – Pre 1950’s\n\nPre-1950\nGreen Demolition Conditions Apply : 75% Recycling Rate of Building Materials Required\n\n\nThis permit is subject to the Green Demolition Bylaw (11023)\n\nNote:  Demo Declaration by Deconstruction  – \nBhullar Excavating and Demolition (Baghail Bhullar) 778-891-4556","specificusecategory":"Single Detached House"},"geometry":{"type":"Point","coordinates":[-123.1964303,49.2417395]}},{"type":"Feature","properties":{"date":"2025-06-30T00:00:00.000Z","year":2025,"description":null,"metadescription":"Demolition / Deconstruction. 4053 W 32ND AVENUE, Vancouver, BC V6S 1Z5","address":"4053 32nd AVE W, BC, VANCOUVER, V6S1Z5, CA","issuedate":"2026-05-15","issueyear":"2026","propertyuse":"Dwelling Uses","geo_point_2d":"49.2436312, -123.195396","geolocalarea":"Dunbar-Southlands","applicantaddress":"2161 LAWSON AVE \r\nWEST VANCOUVER, BC  V7V 2E1","permitelapseddays":"319","buildingcontractor":"Van-City Excavating Ltd","projectdescription":"Low Density Housing - Demolition / Deconstruction - To demolish to grade this existing Single Detached House (1940) on this site – declared non rental\n\n•  This demolition permit also permits abatement work to be completed to WorkSafe standards. \n\n•  This permit is subject to the Green Demolition Bylaw (11023) with a recycling requirement of 75% of non-hazardous construction \n\nDemolition Contractor: Rev.#1 Van-City Excavating Ltd. Harpinder Jit Dhillon (778-996-3519)\nQP: Company Name: EMTEC Environmental, Health & Safety Consulting Inc.\n\nNEW R1-1 BYLAW\n\n***This permit is issued under the VBBL 2019, with updated energy requirements as per bylaw # 12997 effective Jan 01, 2022.***","specificusecategory":"Single Detached House"},"geometry":{"type":"Point","coordinates":[-123.195396,49.2436312]}},{"type":"Feature","properties":{"date":"2025-04-04T00:00:00.000Z","year":2025,"description":null,"metadescription":"Demolition / Deconstruction. 4049 W 37TH AVENUE, Vancouver, BC V6N 2W6","address":"4049 37th AVE W, BC, VANCOUVER, V6N2W6, CA","issuedate":"2025-08-13","issueyear":"2025","propertyuse":"Dwelling Uses","geo_point_2d":"49.2388818, -123.1952985","geolocalarea":"Dunbar-Southlands","applicantaddress":"2598 W 34th Ave\r\nVancouver, BC  V6N 2J2","permitelapseddays":"131","buildingcontractor":"Apollo Excavating & Civil Works Ltd.","projectdescription":"Low Density Housing - Demolition / Deconstruction - To demolish the existing one family dwelling building ($40,000) on this site by means of deconstruction.\r\n\r\nDemolition – Pre 1950’s\r\n\r\nPre-1950\r\nGreen Demolition Conditions Apply : 75% Recycling Rate of Building Materials Required\r\n\r\nThis permit is subject to the Green Demolition Bylaw (11023)\r\n\r\nNote:  Demo Declaration by Deconstruction – Rev.#1 \r\nAPOLLO EXC. & CIVIL WORKS LTD. - DI WU (778-999-6588) \r\n\r\n***This permit is issued under the VBBL 2019, with updated energy requirements as per bylaw # 12997 effective Jan 01, 2022.***","specificusecategory":"Single Detached House","buildingcontractoraddress":"2639 Viking Way\r\nUnit 280\r\nRichmond, BC  V6V 3B7"},"geometry":{"type":"Point","coordinates":[-123.1952985,49.2388818]}},{"type":"Feature","properties":{"date":"2024-07-24T00:00:00.000Z","year":2024,"description":null,"metadescription":"Demolition / Deconstruction. 4432 CROWN STREET, Vancouver, BC V6S 2K5","address":"4432 Crown ST, BC, VANCOUVER, V6S2K5, CA","issuedate":"2024-10-31","issueyear":"2024","propertyuse":"Dwelling Uses","geo_point_2d":"49.2475738, -123.1932215","geolocalarea":"Dunbar-Southlands","applicantaddress":"2161 LAWSON AVE \r\nWEST VANCOUVER, BC  V7V 2E1","permitelapseddays":"99","buildingcontractor":"Apollo Excavating & Civil Works Ltd.","projectdescription":"Low Density Housing - Demolition / Deconstruction - To demolish the existing one family dwelling building ($40,000) on this site by means of deconstruction.\r\n\r\nDemolition – Pre 1950’s\r\n\r\nPre-1950\r\nGreen Demolition Conditions Apply : 75% Recycling Rate of Building Materials Required\r\n\r\nThis permit is subject to the Green Demolition Bylaw (11023)\r\n\r\nNote:  Demo Declaration by Deconstruction  – \r\nApollo Excavating & Civil Works Ltd (Di Wu)   (xxx)-xxx-xxxx\r\n\r\n***This permit is issued under the VBBL 2019, with updated energy requirements as per bylaw # 12997 effective Jan 01, 2022.***","specificusecategory":"Single Detached House","buildingcontractoraddress":"2639 Viking Way\r\nUnit 280\r\nRichmond, BC  V6V 3B7"},"geometry":{"type":"Point","coordinates":[-123.1932215,49.2475738]}},{"type":"Feature","properties":{"date":"2024-04-09T00:00:00.000Z","year":2024,"description":null,"metadescription":"Demolition / Deconstruction. 4021 W 29TH AVENUE, Vancouver, BC V6S 1V4","address":"4021 29th AVE W, BC, VANCOUVER, V6S1V4, CA","issuedate":"2024-09-18","issueyear":"2024","propertyuse":"Dwelling Uses","geo_point_2d":"49.2464768, -123.1943314","geolocalarea":"Dunbar-Southlands","applicantaddress":"701-3200 Corvette Way\r\nRichmond, BC  V6X 0T8","permitelapseddays":"162","buildingcontractor":"JBS Services Ltd","projectdescription":"Low Density Housing - Demolition / Deconstruction - To demolish the existing one family dwelling building ($15,000) on this site.\r\n\r\nDemo Declaration –JBS Services Ltd. (Bobby Brar)\r\n\r\n***This permit is issued under the VBBL 2019, with updated energy requirements as per bylaw # 12997 effective Jan 01, 2022.***","specificusecategory":"Single Detached House"},"geometry":{"type":"Point","coordinates":[-123.1943314,49.2464768]}},{"type":"Feature","properties":{"date":"2024-03-04T00:00:00.000Z","year":2024,"description":null,"metadescription":"Demolition / Deconstruction. 4022 W 27TH AVENUE, Vancouver, BC V6S 1R7","address":"4022 27th AVE W, BC, VANCOUVER, V6S1R7, CA","issuedate":"2024-05-15","issueyear":"2024","propertyuse":"Dwelling Uses","geo_point_2d":"49.2478362, -123.1943042","geolocalarea":"Dunbar-Southlands","applicantaddress":"2161 LAWSON AVE \r\nWEST VANCOUVER, BC  V7V 2E1","permitelapseddays":"72","buildingcontractor":"TX Contracting Ltd","projectdescription":"Low Density Housing - Demolition / Deconstruction - To demolish the existing one family dwelling building ($15,000) on this site.\r\n\r\nNote:  Demo Declaration – TX Contracting Ltd. - Eddie Tang (604)763-1573\r\n\r\n***This permit is issued under the VBBL 2019, with updated energy requirements as per bylaw # 12997 effective Jan 01, 2022.***","specificusecategory":"Single Detached House","buildingcontractoraddress":"8331 Fairbrook Crescent\r\nRichmond, BC  V7C1Z2"},"geometry":{"type":"Point","coordinates":[-123.1943042,49.2478362]}},{"type":"Feature","properties":{"date":"2024-02-22T00:00:00.000Z","year":2024,"description":null,"metadescription":"Demolition / Deconstruction. 4166 W KING EDWARD AVENUE, Vancouver, BC V6S 1N3","address":"4166 King Edward AVE W, BC, VANCOUVER, V6S1N3, CA","issuedate":"2024-07-25","issueyear":"2024","propertyuse":"Dwelling Uses","geo_point_2d":"49.2497835, -123.1995698","geolocalarea":"Dunbar-Southlands","applicantaddress":"108 East 51 Ave Vancouver BC\r\nvancouver, BC  V5X1C3","permitelapseddays":"154","buildingcontractor":"J B Siteworks Inc.","projectdescription":"Low Density Housing - Demolition / Deconstruction - To demolish the existing one family dwelling building ($15,000) on this site.\r\n\r\nDemo Declaration –JB Siteworks Inc Jaspreet Singh Brar (604)781-7309\r\n\r\n***This permit is issued under the VBBL 2019, with updated energy requirements as per bylaw # 12997 effective Jan 01, 2022.***","specificusecategory":"Single Detached House"},"geometry":{"type":"Point","coordinates":[-123.1995698,49.2497835]}},{"type":"Feature","properties":{"date":"2024-02-13T00:00:00.000Z","year":2024,"description":null,"metadescription":"Demolition / Deconstruction. 4236 W KING EDWARD AVENUE, Vancouver, BC V6S 1N3","address":"4236 King Edward AVE W, BC, VANCOUVER, V6S1N3, CA","issuedate":"2024-05-02","issueyear":"2024","propertyuse":"Dwelling Uses","geo_point_2d":"49.2494913, -123.2021967","geolocalarea":"Dunbar-Southlands","applicantaddress":"#-220-3410 LOUGHEED HIGHWAY\r\nVANCOUVER, BC  V5M 2A4","permitelapseddays":"79","buildingcontractor":"Van-City Excavating Ltd","projectdescription":"Low Density Housing - Demolition / Deconstruction - Demolition – Conventional (Standard)\r\n\r\nTo demolish the existing one family dwelling building ($15,000) on this site.\r\n\r\nBuilding Permit for BP-2024-00460 \r\n \r\n***This permit is issued under the VBBL 2019, with updated energy requirements as per bylaw # 12997 effective Jan 01, 2022.***","specificusecategory":"Single Detached House"},"geometry":{"type":"Point","coordinates":[-123.2021967,49.2494913]}},{"type":"Feature","properties":{"date":"2023-11-22T00:00:00.000Z","year":2023,"description":null,"metadescription":"Demolition / Deconstruction. 4073 W 33RD AVENUE, Vancouver, BC V6N 2H9","address":"4073 33rd AVE W, BC, VANCOUVER, V6N2H9, CA","issuedate":"2025-12-05","issueyear":"2025","propertyuse":"Dwelling Uses","geo_point_2d":"49.2426915, -123.1959746","geolocalarea":"Dunbar-Southlands","applicantaddress":"3854 w 38th Ave\r\nVancouver, BC  V6N 2Y4","permitelapseddays":"744","buildingcontractor":"AKAL DEMOLITION & EXCAVATING LTD","projectdescription":"Low Density Housing - Demolition / Deconstruction - To demolish the existing one family dwelling building ($15,000) on this site by means of deconstruction.\n\nGreen Demolition Conditions Apply : 75% Recycling Rate of Building Materials Required\n\nThis permit is subject to the Green Demolition Bylaw (11023)\n\nNote:  Demo Declaration by Deconstruction  – \nAkal Demolition & Excavating Ltd. (Harpreet Sidhu)\n\n ***This permit is issued under the VBBL 2019, with updated energy requirements as per bylaw # 12997 effective Jan 01, 2022.***","specificusecategory":"Single Detached House"},"geometry":{"type":"Point","coordinates":[-123.1959746,49.2426915]}},{"type":"Feature","properties":{"date":"2023-10-27T00:00:00.000Z","year":2023,"description":null,"metadescription":"Demolition / Deconstruction. 3938 W 30TH AVENUE, Vancouver, BC V6S 1X3","address":"3938 30th AVE W, BC, VANCOUVER, V6S1X3, CA","issuedate":"2024-03-15","issueyear":"2024","propertyuse":"Dwelling Uses","geo_point_2d":"49.2449827, -123.1919501","geolocalarea":"Dunbar-Southlands","applicantaddress":"#1403-7088 Salisbury Ave. \r\nBurnaby, BC  V5E 0A4","permitelapseddays":"140","buildingcontractor":"Apollo Excavating & Civil Works Ltd.","projectdescription":"Low Density Housing - Demolition / Deconstruction - To demolish the existing one family dwelling building ($15,000) on this site by means of deconstruction.\r\n\r\nDemolition – Pre 1950’s\r\n\r\nPre-1950\r\nGreen Demolition Conditions Apply : 75% Recycling Rate of Building Materials Required\r\n\r\nThis permit is subject to the Green Demolition Bylaw (11023)\r\n\r\nNote:  Demo Declaration by Deconstruction  – \r\nApollo Excavating & Civil Works Ltd (Di Wu)   (778)-869-1286\r\n\r\n***This permit is issued under the VBBL 2019, with updated energy requirements as per bylaw # 12997 effective Jan 01, 2022.***","specificusecategory":"Single Detached House","buildingcontractoraddress":"2639 Viking Way\r\nUnit 280\r\nRichmond, BC  V6V 3B7"},"geometry":{"type":"Point","coordinates":[-123.1919501,49.2449827]}},{"type":"Feature","properties":{"date":"2023-09-06T00:00:00.000Z","year":2023,"description":null,"metadescription":"Demolition / Deconstruction. 1716 DRUMMOND DRIVE, Vancouver, BC V6T 1B6","address":"1716 Drummond DR, BC, VANCOUVER, V6T1B6, CA","issuedate":"2024-12-02","issueyear":"2024","propertyuse":"Dwelling Uses","geo_point_2d":"49.272398, -123.2217955","geolocalarea":"West Point Grey","applicantaddress":"1622 West 7th Ave\r\nSte. 300\r\nVancouver, BC  V6J 1S5","permitelapseddays":"453","buildingcontractor":"Octiscapes Site Services Ltd","projectdescription":"Low Density Housing - Demolition / Deconstruction - To demolish the existing one family dwelling building ($15,000) on this site by means of deconstruction.\r\n\r\nDemolition – Pre 1950’s\r\n\r\nPre-1910 with Character Merit\r\nGreen Demolition Conditions Apply : 90% Recycling Rate of Building Materials with 3 Tones of Wood Salvage Required\r\n\r\nThis permit is subject to the Green Demolition Bylaw (11023)\r\n\r\nNote:  Demo Declaration by Deconstruction  – \r\nOctiscapes Site Services (Amie Poole)   (604)-708-5790\r\n\r\n***This permit is issued under the VBBL 2019, with updated energy requirements as per bylaw # 12997 effective Jan 01, 2022.***","specificusecategory":"Single Detached House","buildingcontractoraddress":"1051 Page St  \r\nRichmond, BC  V6V 2Y4"},"geometry":{"type":"Point","coordinates":[-123.2217955,49.272398]}},{"type":"Feature","properties":{"date":"2023-08-30T00:00:00.000Z","year":2023,"description":null,"metadescription":"Demolition / Deconstruction. 4035 W 30TH AVENUE, Vancouver, BC V6S 1X4","address":"4035 30th AVE W, BC, VANCOUVER, V6S1X4, CA","issuedate":"2024-06-18","issueyear":"2024","propertyuse":"Dwelling Uses","geo_point_2d":"49.2455339, -123.1947867","geolocalarea":"Dunbar-Southlands","applicantaddress":"1-1864 West 1st. Ave.\r\nVancouver, BC  V6J1G5","permitelapseddays":"293","buildingcontractor":"Apollo Excavating & Civil Works Ltd.","projectdescription":"Low Density Housing - Demolition / Deconstruction - Demolition – Conventional (Standard)\r\n\r\nTo demolish the existing one family dwelling building ($15,000) on this site.\r\n\r\nCompany Name: Rev.#1 Apollo Exc. & Civil Works Ltd. (Contact Name: Tina Luo) - 778-999-6588","specificusecategory":"Single Detached House","buildingcontractoraddress":"2639 Viking Way\r\nUnit 280\r\nRichmond, BC  V6V 3B7"},"geometry":{"type":"Point","coordinates":[-123.1947867,49.2455339]}},{"type":"Feature","properties":{"date":"2023-07-26T00:00:00.000Z","year":2023,"description":null,"metadescription":"Demolition / Deconstruction. 3988 W 31ST AVENUE, Vancouver, BC V6S 1Y5","address":"3988 31st AVE W, BC, VANCOUVER, V6S1Y5, CA","issuedate":"2023-11-30","issueyear":"2023","propertyuse":"Dwelling Uses","geo_point_2d":"49.2440356, -123.1932844","geolocalarea":"Dunbar-Southlands","applicantaddress":"3988 W 31st Ave\r\nVancouver, BC  V6S 1Y5","permitelapseddays":"127","buildingcontractor":"ON TIME EXCAVATING & DEMOLITION LTD","projectdescription":"Low Density Housing - Demolition / Deconstruction - To demolish the existing one family dwelling building ($15,000) on this site by means of deconstruction.\r\n\r\nGreen Demolition Conditions Apply : 90% Recycling Rate of Building Materials Required\r\n\r\nThis permit is subject to the Green Demolition Bylaw (11023)\r\n\r\nNote:  Demo Declaration by Deconstruction  – \r\nOn Time Excavating & Demolition Ltd\r\n\r\n***This permit is issued under the VBBL 2019, with updated energy requirements as per bylaw # 12997 effective Jan 01, 2022.***","specificusecategory":"Single Detached House","buildingcontractoraddress":"8872 138A ST\r\nSURREY, BC  V3V 5X1"},"geometry":{"type":"Point","coordinates":[-123.1932844,49.2440356]}},{"type":"Feature","properties":{"date":"2022-10-20T00:00:00.000Z","year":2022,"description":null,"metadescription":"Demolition / Deconstruction. 4078 W 32ND AVENUE, Vancouver, BC V6S 1Z6","address":"1, 4078 32nd AVE W, BC, VANCOUVER, V6S1Z6, CA","issuedate":"2023-01-04","issueyear":"2023","propertyuse":"Dwelling Uses","geo_point_2d":"49.2430997, -123.1960872","geolocalarea":"Dunbar-Southlands","applicantaddress":"9940 David Drive\r\nBurnaby, BC  V3J 1H3","permitelapseddays":"76","buildingcontractor":"BESTWAY EXCAVATING & DEMOLITION 2008 LTD","projectdescription":"Low Density Housing - Demolition / Deconstruction - To demolish the existing one family dwelling building ($15,000) on this site by means of deconstruction.\r\n\r\nDemo Declaration – BESTWAY EXCAVATING & DEMOLITION 2008 LTD (778)-881-7580\r\n\r\nThis permit is subject to the Green Demolition Bylaw (11023)\r\n\r\nPre-1950:\r\nGreen Demolition Conditions Apply\r\n75% Recycling Rate of Building Materials Required","specificusecategory":"Single Detached House"},"geometry":{"type":"Point","coordinates":[-123.1960872,49.2430997]}},{"type":"Feature","properties":{"date":"2022-09-26T00:00:00.000Z","year":2022,"description":null,"metadescription":"Demolition / Deconstruction. 4042 W 28TH AVENUE, Vancouver, BC V6S 1S8","address":"4042 28th AVE W, BC, VANCOUVER, V6S1S8, CA","issuedate":"2023-05-30","issueyear":"2023","propertyuse":"Dwelling Uses","geo_point_2d":"49.246899, -123.1949788","geolocalarea":"Dunbar-Southlands","applicantaddress":"1-1864 West 1st. Ave.\r\nVancouver, BC  V6J1G5","permitelapseddays":"246","buildingcontractor":"Apollo Excavating & Civil Works Ltd.","projectdescription":"Low Density Housing - Demolition / Deconstruction - Demolition – Conventional (Standard)\r\n\r\nTo demolish the existing one family dwelling building ($15,000) on this site.\r\n\r\nRevision #1 : September 07,2023 FS\r\n- Demo contractor updated to Apollo Excavating & Civil Works Ltd.\r\n778-999-6588","specificusecategory":"Single Detached House w/Sec Suite","buildingcontractoraddress":"2639 Viking Way\r\nUnit 280\r\nRichmond, BC  V6V 3B7"},"geometry":{"type":"Point","coordinates":[-123.1949788,49.246899]}},{"type":"Feature","properties":{"date":"2022-08-15T00:00:00.000Z","year":2022,"description":null,"metadescription":"Demolition / Deconstruction. 4644 W 15TH AVENUE, Vancouver, BC V6R 3B6","address":"4648 15th AVE W, BC, VANCOUVER, V6R3B6, CA","issuedate":"2023-03-06","issueyear":"2023","propertyuse":"Dwelling Uses","geo_point_2d":"49.2590998, -123.2139521","geolocalarea":"West Point Grey","applicantaddress":"#5200-4000 No.3 Rd\r\nRichmond, BC  V6X0J8","permitelapseddays":"203","buildingcontractor":"Apollo Excavating & Civil Works Ltd.","projectdescription":"Low Density Housing - Demolition / Deconstruction - To demolish the existing one family dwelling building ($15,000) on this site.\r\n\r\nDemo Declaration – Apolla Excavating & Civil Works Ltd\r\n\r\n\r\n***This permit is issued under the VBBL 2019, with updated energy requirements as per bylaw # 12997 effective Jan 01, 2022.***","specificusecategory":"Single Detached House","buildingcontractoraddress":"2639 Viking Way\r\nUnit 280\r\nRichmond, BC  V6V 3B7"},"geometry":{"type":"Point","coordinates":[-123.2139521,49.2590998]}},{"type":"Feature","properties":{"date":"2022-06-06T00:00:00.000Z","year":2022,"description":null,"metadescription":"Demolition / Deconstruction. 4050 W 36TH AVENUE, Vancouver, BC V6N 2S9","address":"4050 36th AVE W, BC, VANCOUVER, V6N2S9, CA","issuedate":"2022-09-28","issueyear":"2022","propertyuse":"Dwelling Uses","geo_point_2d":"49.2392958, -123.1952872","geolocalarea":"Dunbar-Southlands","applicantaddress":"101 - 403 6th St\r\nNew Westminster, BC  V3L3B1","permitelapseddays":"114","buildingcontractor":"BigCity Excavation Ltd","projectdescription":"Low Density Housing - Demolition / Deconstruction - Demolition – Conventional (Standard)\r\n\r\nTo demolish the existing one family dwelling building ($15,000) on this site.\r\n\r\n\r\n***This permit is issued under the VBBL 2019, with updated energy requirements as per bylaw # 12997 effective Jan 01, 2022.***","specificusecategory":"Single Detached House","buildingcontractoraddress":"2295 E 48TH AV  \r\nVancouver, BC  V5P 1R9"},"geometry":{"type":"Point","coordinates":[-123.1952872,49.2392958]}},{"type":"Feature","properties":{"date":"2022-05-24T00:00:00.000Z","year":2022,"description":null,"metadescription":"Demolition / Deconstruction. 4090 W 31ST AVENUE, Vancouver, BC V6S 1Y6","address":"4090 31st AVE W, BC, VANCOUVER, V6S1Y6, CA","issuedate":"2023-03-29","issueyear":"2023","propertyuse":"Dwelling Uses","geo_point_2d":"49.244054, -123.196414","geolocalarea":"Dunbar-Southlands","applicantaddress":"#5200-4000 No.3 Rd\r\nRichmond, BC  V6X0J8","permitelapseddays":"309","buildingcontractor":"GNA Contracting Ltd","projectdescription":"Low Density Housing - Demolition / Deconstruction - To demolish the existing one family dwelling building ($15,000) on this site by means of deconstruction.\r\n\r\nDemo Declaration – GNA Contracting Ltd  (604)-722-1416\r\n\r\nThis permit is subject to the Green Demolition Bylaw (11023)\r\n\r\nPre-1950 with Character Merit:\r\nGreen Demolition Conditions Apply\r\n90% Recycling Rate of Building Materials Required","specificusecategory":"Single Detached House","buildingcontractoraddress":"7589 STIRLING ST  \r\nVancouver, BC  V5P 4H7"},"geometry":{"type":"Point","coordinates":[-123.196414,49.244054]}},{"type":"Feature","properties":{"date":"2022-01-20T00:00:00.000Z","year":2022,"description":null,"metadescription":"Demolition / Deconstruction. 4075 W 38TH AVENUE, Vancouver, BC V6N 2Y8","address":"4075 38th AVE W, BC, VANCOUVER, V6N2Y8, CA","issuedate":"2022-08-23","issueyear":"2022","propertyuse":"Dwelling Uses","geo_point_2d":"49.23791, -123.19603","geolocalarea":"Dunbar-Southlands","applicantaddress":"2161 LAWSON AVE \r\nWEST VANCOUVER, BC  V7V 2E1","permitelapseddays":"215","buildingcontractor":"TX Contracting Ltd","projectdescription":"Low Density Housing - Demolition / Deconstruction - Building Permit for BP-2021-06712 Building Permit for DP-2021-003\r\n\r\nDemolition permit: Eddie Tang- TX Contracting Ltd\r\n                   Tele:604-763-1573","specificusecategory":"Single Detached House","buildingcontractoraddress":"8331 Fairbrook Crescent\r\nRichmond, BC  V7C1Z2"},"geometry":{"type":"Point","coordinates":[-123.19603,49.23791]}},{"type":"Feature","properties":{"date":"2021-12-16T00:00:00.000Z","year":2021,"description":null,"metadescription":"Demolition / Deconstruction. 3175 TOLMIE STREET, Vancouver, BC V6R 4C9","address":"3175 Tolmie ST, BC, VANCOUVER, V6R4C9, CA","issuedate":"2022-09-22","issueyear":"2022","propertyuse":"Dwelling Uses","geo_point_2d":"49.2586939, -123.2125342","geolocalarea":"West Point Grey","applicantaddress":"6625 FRASER ST\r\nVANCOUVER, BC  V5X 3T6","permitelapseddays":"280","buildingcontractor":"Canadian Excavating Ltd","projectdescription":"Low Density Housing - Demolition / Deconstruction - To demolish the existing one family dwelling building ($15,000.00) on this site by means of deconstruction.\r\n\r\nThis permit is subject to the Green Demolition Bylaw (11023)\r\n\r\nDemo declaration - Canadian Excavating Ltd.\r\n\r\nNote: Pre-1950 recycling requirement: 75% of non-hazardous construction waste","specificusecategory":"Single Detached House","buildingcontractoraddress":"6898 130 St\r\nSurrey, BC  V3W 4J5"},"geometry":{"type":"Point","coordinates":[-123.2125342,49.2586939]}},{"type":"Feature","properties":{"date":"2021-05-07T00:00:00.000Z","year":2021,"description":null,"metadescription":"Demolition / Deconstruction. 4573 W 16TH AVENUE, Vancouver, BC V6R 3E8","address":"1, 4573 16th AVE W, BC, VANCOUVER, V6R3E8, CA","issuedate":"2022-01-17","issueyear":"2022","propertyuse":"Dwelling Uses","geo_point_2d":"49.2586742, -123.2114228","geolocalarea":"West Point Grey","applicantaddress":"4038 Toronto Street\r\nPort Coquitlam, BC  V3B6X8","permitelapseddays":"255","buildingcontractor":"Nihal Construction Ltd.","projectdescription":"Low Density Housing - Demolition / Deconstruction - To demolish the existing one family dwelling building ($15,000) on this site by means of deconstruction.\r\n\r\nDemolition – Pre 1950’s\r\n\r\nPre-1950\r\nGreen Demolition Conditions Apply : 75% Recycling Rate of Building Materials Required\r\n\r\nThis permit is subject to the Green Demolition Bylaw (11023)\r\n\r\nNote:  Demo Declaration by Deconstruction  – \r\nVan-City Excavating Ltd. (Harpinder Dhillon)   (604)-782-7406","specificusecategory":"Single Detached House w/Sec Suite"},"geometry":{"type":"Point","coordinates":[-123.2114228,49.2586742]}},{"type":"Feature","properties":{"date":"2021-01-25T00:00:00.000Z","year":2021,"description":null,"metadescription":"Demolition / Deconstruction. 4063 W 28TH AVENUE, Vancouver, BC V6S 1S7","address":"4063 28th AVE W, BC, VANCOUVER, V6S1S7, CA","issuedate":"2021-06-03","issueyear":"2021","propertyuse":"Dwelling Uses","geo_point_2d":"49.247438, -123.1956191","geolocalarea":"Dunbar-Southlands","applicantaddress":"4038 Toronto Street\r\nPort Coquitlam, BC  V3B6X8","permitelapseddays":"129","buildingcontractor":"CANLAND EXCAVATING LTD.","projectdescription":"Low Density Housing - Demolition / Deconstruction - Demolition – Conventional (Standard)\r\n\r\nTo demolish the existing one family dwelling building ($15,000) on this site.\r\n\r\nDemolition Contractor: Canland Excavating Ltd. Jagjit Chahal 604-725-2076","specificusecategory":"Single Detached House w/Sec Suite","buildingcontractoraddress":"7279 131A ST\r\nSurrey, BC  V3W 4K1"},"geometry":{"type":"Point","coordinates":[-123.1956191,49.247438]}},{"type":"Feature","properties":{"date":"2020-12-23T00:00:00.000Z","year":2020,"description":null,"metadescription":"Demolition / Deconstruction. 4517 W 16TH AVENUE, Vancouver, BC V6R 3E8","address":"1, 4517 16th AVE W, BC, VANCOUVER, V6R3E8, CA","issuedate":"2021-10-12","issueyear":"2021","propertyuse":"Dwelling Uses","geo_point_2d":"49.2586532, -123.2099131","geolocalarea":"West Point Grey","applicantaddress":"LUNG DESIGNS GROUP LTD\r\nUNIT 268-2633 VIKING WAY\r\nRICHMOND, BC  V6V3B6","permitelapseddays":"293","buildingcontractor":"Canadian Excavating Ltd","projectdescription":"Low Density Housing - Demolition / Deconstruction - To demolish the existing one family dwelling building ($15,000) on this site by means of deconstruction.\r\n\r\nDemo Declaration – Canadian Excavating Ltd  (604-728-0434)\r\n\r\nThis permit is subject to the Green Demolition Bylaw (11023)\r\n\r\nNote: Green Demolition Conditions Apply\r\n75% Recycling Rate of Building Materials Required","specificusecategory":"Single Detached House","buildingcontractoraddress":"6898 130 St\r\nSurrey, BC  V3W 4J5"},"geometry":{"type":"Point","coordinates":[-123.2099131,49.2586532]}},{"type":"Feature","properties":{"date":"2020-10-29T00:00:00.000Z","year":2020,"description":null,"metadescription":"Demolition / Deconstruction. 3962 W 30TH AVENUE, Vancouver, BC V6S 1X3","address":"3962 30th AVE W, BC, VANCOUVER, V6S1X3, CA","issuedate":"2020-12-09","issueyear":"2020","propertyuse":"Dwelling Uses","geo_point_2d":"49.2449901, -123.1925813","geolocalarea":"Dunbar-Southlands","applicantaddress":"4545 Langara Avenue\r\nVancouver, BC  V6R 1C9","permitelapseddays":"41","buildingcontractor":"Octiscapes Site Services Ltd","projectdescription":"Low Density Housing - Demolition / Deconstruction - Building Permit for BP-2020-03391 1 FD \r\n\r\nTo demolish the existing one family dwelling building ($15,000) on this site by means of deconstruction.\r\n\r\nDemo Declaration – Octiscapes Site Services   (604)-708-5790\r\n\r\nThis permit is subject to the Green Demolition Bylaw (11023)\r\n\r\nNote: Pre-1940 recycling requirement:  75% of non-hazardous construction waste","specificusecategory":"Single Detached House w/Sec Suite","buildingcontractoraddress":"1051 Page St  \r\nRichmond, BC  V6V 2Y4"},"geometry":{"type":"Point","coordinates":[-123.1925813,49.2449901]}},{"type":"Feature","properties":{"date":"2020-09-15T00:00:00.000Z","year":2020,"description":null,"metadescription":"Demolition / Deconstruction. 4006 W 30TH AVENUE, Vancouver, BC V6S 1X5","address":"4018 30th AVE W, BC, VANCOUVER, V6S1X5, CA","issuedate":"2021-02-05","issueyear":"2021","propertyuse":"Dwelling Uses","geo_point_2d":"49.2449884, -123.1938996","geolocalarea":"Dunbar-Southlands","applicantaddress":"101-8889 Laurel Street\r\nVancouver, BC  V6P 3V9","permitelapseddays":"143","buildingcontractor":"Trust Excavation & Demolition Ltd","projectdescription":"Low Density Housing - Demolition / Deconstruction - Demolition – Conventional (Standard)\r\n\r\nTo demolish the existing one family dwelling building ($15,000) on this site.","specificusecategory":"Single Detached House"},"geometry":{"type":"Point","coordinates":[-123.1938996,49.2449884]}},{"type":"Feature","properties":{"date":"2020-02-18T00:00:00.000Z","year":2020,"description":null,"metadescription":"Demolition / Deconstruction. 4330 KEVIN PLACE, Vancouver, BC V6S 2K8","address":"4330 Kevin PL, BC, VANCOUVER, V6S2K8, CA","issuedate":"2020-09-25","issueyear":"2020","propertyuse":"Dwelling Uses","geo_point_2d":"49.2480411, -123.2004577","geolocalarea":"Dunbar-Southlands","applicantaddress":"2268 West 34th Avenue \r\nVancouver, BC  V6M1G6","permitelapseddays":"220","buildingcontractor":"East West Excavating Ltd","projectdescription":"Low Density Housing - Demolition / Deconstruction - Demolition – Conventional (Standard)\r\n\r\nTo demolish the existing one family dwelling building ($15,000) on this site.","specificusecategory":"Single Detached House","buildingcontractoraddress":"968 E 53RD AV  \r\nVancouver, BC  V5X 1J6"},"geometry":{"type":"Point","coordinates":[-123.2004577,49.2480411]}},{"type":"Feature","properties":{"date":"2019-11-27T00:00:00.000Z","year":2019,"description":null,"metadescription":"Demolition / Deconstruction. 4093 W 31ST AVENUE, Vancouver, BC V6S 1Y7","address":"4093 31st AVE W, BC, VANCOUVER, V6S1Y7, CA","issuedate":"2020-07-13","issueyear":"2020","propertyuse":"Dwelling Uses","geo_point_2d":"49.2445892, -123.1965602","geolocalarea":"Dunbar-Southlands","applicantaddress":"203-2680 Shell Road\r\nRichmond, BC  V6X 4C9","permitelapseddays":"229","buildingcontractor":"All Right Trucking 99 Ltd","projectdescription":"Low Density Housing - Demolition / Deconstruction - Demolition – Conventional (Standard)\r\n\r\nTo demolish the existing one family dwelling building ($15,000) on this site.","specificusecategory":"Single Detached House"},"geometry":{"type":"Point","coordinates":[-123.1965602,49.2445892]}},{"type":"Feature","properties":{"date":"2019-09-17T00:00:00.000Z","year":2019,"description":null,"metadescription":"Demolition / Deconstruction. 4094 W 30TH AVENUE, Vancouver, BC V6S 1X5","address":"4094 30th AVE W, BC, VANCOUVER, V6S1X5, CA","issuedate":"2020-01-23","issueyear":"2020","propertyuse":"Dwelling Uses","geo_point_2d":"49.2450036, -123.1965627","geolocalarea":"Dunbar-Southlands","applicantaddress":"1595 W 3rd Avenue\r\nVancouver, BC  V6J 1J8","permitelapseddays":"128","buildingcontractor":"AKAL DEMOLITION & EXCAVATING LTD","projectdescription":"Low Density Housing - Demolition / Deconstruction - DEMOLITION\r\n\r\nDemolition – Conventional (Standard)\r\n\r\nTo demolish the existing one family dwelling building ($15,000) on this site.\r\n\r\nNote:  Demo Declaration –\r\nAKAL DEMOLITION & EXCAVATING LTD (Harpreet Sidu)  - 778.318.1373","specificusecategory":"Single Detached House"},"geometry":{"type":"Point","coordinates":[-123.1965627,49.2450036]}},{"type":"Feature","properties":{"date":"2019-09-17T00:00:00.000Z","year":2019,"description":null,"metadescription":"Demolition / Deconstruction. 4172 DONCASTER WAY, Vancouver, BC V6S 1V9","address":"4172 Doncaster WAY, BC, VANCOUVER, V6S1V9, CA","issuedate":"2020-02-20","issueyear":"2020","propertyuse":"Dwelling Uses","geo_point_2d":"49.2488269, -123.1998473","geolocalarea":"Dunbar-Southlands","applicantaddress":"4382 W 10th Ave\r\nVancouver, BC  V6R 2H7","permitelapseddays":"156","buildingcontractor":"G & K Excavation and Demolition Services Ltd","projectdescription":"Low Density Housing - Demolition / Deconstruction - Demolition – Conventional (Standard)\r\n\r\nTo demolish the existing one family dwelling building ($15,000) on this site.","specificusecategory":"Single Detached House"},"geometry":{"type":"Point","coordinates":[-123.1998473,49.2488269]}},{"type":"Feature","properties":{"date":"2019-09-16T00:00:00.000Z","year":2019,"description":null,"metadescription":"Demolition / Deconstruction. 4041 W 28TH AVENUE, Vancouver, BC V6S 1S7","address":"3, 4041 28th AVE W, BC, VANCOUVER, V6S1S7, CA","issuedate":"2020-02-19","issueyear":"2020","propertyuse":"Dwelling Uses","geo_point_2d":"49.2474303, -123.1949742","geolocalarea":"Dunbar-Southlands","applicantaddress":"#208-1525 W 8th Ave\r\nVancouver, BC  V6J1T5","permitelapseddays":"156","buildingcontractor":"Canadian Excavating Ltd","projectdescription":"Low Density Housing - Demolition / Deconstruction - Demolition – Conventional (Standard)\r\n\r\nTo demolish the existing one family dwelling building ($15,000) on this site.","specificusecategory":"Single Detached House","buildingcontractoraddress":"6898 130 St\r\nSurrey, BC  V3W 4J5"},"geometry":{"type":"Point","coordinates":[-123.1949742,49.2474303]}},{"type":"Feature","properties":{"date":"2019-08-26T00:00:00.000Z","year":2019,"description":null,"metadescription":"Demolition / Deconstruction. 4002 W 31ST AVENUE, Vancouver, BC V6S 1Y6","address":"4002 31st AVE W, BC, VANCOUVER, V6S1Y6, CA","issuedate":"2020-01-21","issueyear":"2020","propertyuse":"Dwelling Uses","geo_point_2d":"49.2440416, -123.1938607","geolocalarea":"Dunbar-Southlands","applicantaddress":"#-220-3410 LOUGHEED HIGHWAY\r\nVANCOUVER, BC  V5M 2A4","permitelapseddays":"148","buildingcontractor":"WEST DEMOLITION SERVICE LTD","projectdescription":"Low Density Housing - Demolition / Deconstruction - To demolish the existing one family dwelling building ($15,000) on this site by means of deconstruction.\r\n\r\nGreen Demolition Conditions Apply\r\n75% Recycling Rate of Building Materials Required","specificusecategory":"Single Detached House"},"geometry":{"type":"Point","coordinates":[-123.1938607,49.2440416]}},{"type":"Feature","properties":{"date":"2019-05-01T00:00:00.000Z","year":2019,"description":null,"metadescription":"Demolition / Deconstruction. 4042 W 29TH AVENUE, Vancouver, BC V6S 1V5","address":"4042 29th AVE W, BC, VANCOUVER, V6S1V5, CA","issuedate":"2019-12-05","issueyear":"2019","propertyuse":"Dwelling Uses","geo_point_2d":"49.2459446, -123.1949953","geolocalarea":"Dunbar-Southlands","applicantaddress":"LUNG DESIGNS GROUP LTD\r\nUNIT 268-2633 VIKING WAY\r\nRICHMOND, BC  V6V3B6","permitelapseddays":"218","buildingcontractor":"Khela Excavating Ltd.","projectdescription":"Low Density Housing - Demolition / Deconstruction - Demolition – Conventional (Standard)\r\n\r\nTo demolish the existing one family dwelling building ($15,000) on this site.\r\n\r\nDemo Contractor: Khela Excavation LTD. 778-384-5050","specificusecategory":"Single Detached House"},"geometry":{"type":"Point","coordinates":[-123.1949953,49.2459446]}},{"type":"Feature","properties":{"date":"2019-03-15T00:00:00.000Z","year":2019,"description":null,"metadescription":"Demolition / Deconstruction. 4279 DONCASTER WAY, Vancouver, BC V6S 1W1","address":"4247 Doncaster WAY, BC, VANCOUVER, V6S1W1, CA","issuedate":"2019-10-09","issueyear":"2019","propertyuse":"Dwelling Uses","geo_point_2d":"49.2488223, -123.2031434","geolocalarea":"Dunbar-Southlands","applicantaddress":"800-838 West Hastings St\r\nVancouver, BC  V6C 0A6","permitelapseddays":"208","buildingcontractor":"G N A CONTRACTING LTD","projectdescription":"Low Density Housing - Demolition / Deconstruction - Demolition – Conventional (Standard)\r\n\r\nTo demolish the existing one family dwelling building ($15,000) on this site.\r\n\r\nNote:  Demo Declaration – G N A CONTRACTING LTD, 778.709.4113","specificusecategory":"Single Detached House"},"geometry":{"type":"Point","coordinates":[-123.2031434,49.2488223]}},{"type":"Feature","properties":{"date":"2019-01-11T00:00:00.000Z","year":2019,"description":null,"metadescription":"Demolition / Deconstruction. 4035 W 31ST AVENUE, Vancouver, BC V6S 1Y7","address":"4035 31st AVE W, BC, VANCOUVER, V6S1Y7, CA","issuedate":"2019-05-07","issueyear":"2019","propertyuse":"Dwelling Uses","geo_point_2d":"49.2445792, -123.1947895","geolocalarea":"Dunbar-Southlands","applicantaddress":"1-1864 West 1st. Ave.\r\nVancouver, BC  V6J1G5","permitelapseddays":"116","buildingcontractor":"Canadian Excavating Ltd","projectdescription":"Low Density Housing - Demolition / Deconstruction - Demolition – Conventional (Standard)\r\n\r\nTo demolish the existing one family dwelling building ($15,000) on this site.","specificusecategory":"Single Detached House","buildingcontractoraddress":"6898 130 St\r\nSurrey, BC  V3W 4J5"},"geometry":{"type":"Point","coordinates":[-123.1947895,49.2445792]}},{"type":"Feature","properties":{"date":"2018-08-08T00:00:00.000Z","year":2018,"description":null,"metadescription":"Demolition / Deconstruction. 3946 W 30TH AVENUE, Vancouver, BC V6S 1X3","address":"3938 30th AVE W, BC, VANCOUVER, V6S1X3, CA","issuedate":"2019-02-01","issueyear":"2019","propertyuse":"Dwelling Uses","geo_point_2d":"49.2449884, -123.1921694","geolocalarea":"Dunbar-Southlands","applicantaddress":"LUNG DESIGNS GROUP LTD\r\nUNIT 268-2633 VIKING WAY\r\nRICHMOND, BC  V6V3B6","permitelapseddays":"177","buildingcontractor":"Mammoth Excavation Limited","projectdescription":"Low Density Housing - Demolition / Deconstruction - \r\nDemolition – Conventional (Standard)\r\n\r\nTo demolish the existing one family dwelling building ($15,000) on this site.\r\n\r\nDemolition Contractor: Mammoth Excavating Limited.","specificusecategory":"Single Detached House","buildingcontractoraddress":"237 W 11TH AV  \r\nVancouver, BC  V5Y 1T1"},"geometry":{"type":"Point","coordinates":[-123.1921694,49.2449884]}},{"type":"Feature","properties":{"date":"2018-08-03T00:00:00.000Z","year":2018,"description":null,"metadescription":"Demolition / Deconstruction. 4021 W 28TH AVENUE, Vancouver, BC V6S 1S7","address":"4021 28th AVE W, BC, VANCOUVER, V6S1S7, CA","issuedate":"2019-05-21","issueyear":"2019","propertyuse":"Dwelling Uses","geo_point_2d":"49.2474311, -123.194315","geolocalarea":"Dunbar-Southlands","applicantaddress":"4382 W 10th Ave\r\nVancouver, BC  V6R 2H7","permitelapseddays":"291","buildingcontractor":"BigCity Excavation Ltd","projectdescription":"Low Density Housing - Demolition / Deconstruction - Demolition – Conventional (Standard)\r\n\r\nTo demolish the existing one family dwelling building ($15,000) on this site.\r\n\r\nBuilding Permit: BP-2018-04189\r\nDevelopment Permit: DP-2017-00372\r\n\r\nDemolition Contractor: BIG CITY EXCAVATION LTD","specificusecategory":"Single Detached House","buildingcontractoraddress":"2295 E 48TH AV  \r\nVancouver, BC  V5P 1R9"},"geometry":{"type":"Point","coordinates":[-123.194315,49.2474311]}},{"type":"Feature","properties":{"date":"2017-12-07T00:00:00.000Z","year":2017,"description":null,"metadescription":"Demolition / Deconstruction. 4079 W 33RD AVENUE, Vancouver, BC V6N 2H9","address":"4073 33rd AVE W, BC, VANCOUVER, V6N2H9, CA","issuedate":"2019-03-08","issueyear":"2019","propertyuse":"Dwelling Uses","geo_point_2d":"49.2426871, -123.1961533","geolocalarea":"Dunbar-Southlands","applicantaddress":"Unit 309-175 East Broadway\r\nVANCOUVER, BC  V5T1W2","permitelapseddays":"456","buildingcontractor":"Matcon Demolition Ltd","projectdescription":"Low Density Housing - Demolition / Deconstruction - To demolish the existing one family dwelling building ($15,000) on this site by means of deconstruction.\r\n\r\nThis permit is subject to the Green Demolition Bylaw (11023)\r\n\r\nNote: Pre-1940 recycling requirement:  75% of non-hazardous construction waste","specificusecategory":"Single Detached House","buildingcontractoraddress":"2208 Hartley Avenue  \r\nCoquitlam, BC  V3K 6X3"},"geometry":{"type":"Point","coordinates":[-123.1961533,49.2426871]}},{"type":"Feature","properties":{"date":"2017-08-02T00:00:00.000Z","year":2017,"description":null,"metadescription":"Demolition / Deconstruction. 4235 W 29TH AVENUE, Vancouver, BC V6S 1V7","address":"4235 29th AVE W, BC, VANCOUVER, V6S1V7, CA","issuedate":"2017-10-10","issueyear":"2017","propertyuse":"Dwelling Uses","geo_point_2d":"49.2481338, -123.201949","geolocalarea":"Dunbar-Southlands","applicantaddress":"4382 W 10th Ave\r\nVancouver, BC  V6R 2H7","permitelapseddays":"69","buildingcontractor":"Octiscapes Landscaping Ltd","projectdescription":"Low Density Housing - Demolition / Deconstruction - To demolish the existing one family dwelling building ($15,000) on this site.","specificusecategory":"Single Detached House","buildingcontractoraddress":"2756 WOODLAND DRIVE  \r\nVancouver, BC  V5N 3P8"},"geometry":{"type":"Point","coordinates":[-123.201949,49.2481338]}},{"type":"Feature","properties":{"date":"2017-07-14T00:00:00.000Z","year":2017,"description":null,"metadescription":"Demolition / Deconstruction. 4018 W 32ND AVENUE, Vancouver, BC V6S 1Z6","address":"4018 32nd AVE W, BC, VANCOUVER, V6S1Z6, CA","issuedate":"2017-12-15","issueyear":"2017","propertyuse":"Dwelling Uses","geo_point_2d":"49.2430925, -123.1944262","geolocalarea":"Dunbar-Southlands","applicantaddress":"1018126 BC LTD\r\n1025 W 58TH AV\r\nVANCOUVER, BC  V6P1V9","permitelapseddays":"154","buildingcontractor":"Kingsmen Excavating Ltd","projectdescription":"Low Density Housing - Demolition / Deconstruction - Demolition – Conventional (Standard)\r\n\r\nTo demolish the existing one family dwelling building ($15,000) on this site.","specificusecategory":"Single Detached House w/Sec Suite"},"geometry":{"type":"Point","coordinates":[-123.1944262,49.2430925]}},{"type":"Feature","properties":{"date":"2017-07-12T00:00:00.000Z","year":2017,"description":null,"metadescription":"Demolition / Deconstruction. 4025 W 38TH AVENUE, Vancouver, BC V6N 2Y8","address":"4025 38th AVE W, BC, VANCOUVER, V6N2Y8, CA","issuedate":"2018-08-08","issueyear":"2018","propertyuse":"Dwelling Uses","geo_point_2d":"49.2378989, -123.1945616","geolocalarea":"Dunbar-Southlands","applicantaddress":"8111 Cathay Road\r\nRichmond, BC  V7C 3C5","permitelapseddays":"392","buildingcontractor":"G & K Excavation and Demolition Services Ltd","projectdescription":"Low Density Housing - Demolition / Deconstruction - To demolish the existing one family dwelling building ($15,000) on this site.","specificusecategory":"Single Detached House"},"geometry":{"type":"Point","coordinates":[-123.1945616,49.2378989]}},{"type":"Feature","properties":{"date":"2017-06-07T00:00:00.000Z","year":2017,"description":null,"metadescription":"Demolition / Deconstruction. 4014 W 31ST AVENUE, Vancouver, BC V6S 1Y6","address":"4014 31st AVE W, BC, VANCOUVER, V6S1Y6, CA","issuedate":"2018-03-28","issueyear":"2018","propertyuse":"Dwelling Uses","geo_point_2d":"49.2440437, -123.1942863","geolocalarea":"Dunbar-Southlands","applicantaddress":"3788 W34th Av\r\nVancouver, BC  V6G1J5","permitelapseddays":"294","buildingcontractor":"CANTON EXCAVATING LTD.","projectdescription":"Low Density Housing - Demolition / Deconstruction - To demolish the existing one family dwelling building on this site. \r\n                                                                                 \r\nThis permit is subject to the Green Demolition Bylaw (11023)                     \r\n                                                                                 \r\nNote: Pre-1940, recycling requirement: 90%    \r\n\r\nDemo Declaration Signed By: Canton Excavation Ltd.","specificusecategory":"Single Detached House"},"geometry":{"type":"Point","coordinates":[-123.1942863,49.2440437]}},{"type":"Feature","properties":{"date":"2017-05-01T00:00:00.000Z","year":2017,"description":null,"metadescription":"Demolition / Deconstruction. 4056 W 29TH AVENUE, Vancouver, BC V6S 1V5","address":"4056 29th AVE W, BC, VANCOUVER, V6S1V5, CA","issuedate":"2017-08-25","issueyear":"2017","propertyuse":"Dwelling Uses","geo_point_2d":"49.2459474, -123.1954483","geolocalarea":"Dunbar-Southlands","applicantaddress":"225-8877 Odlin Cr.\r\nRichmond, BC  V6X 3Z7","permitelapseddays":"116","buildingcontractor":"G & K Excavation and Demolition Services Ltd","projectdescription":"Low Density Housing - Demolition / Deconstruction - To demolish the existing one family dwelling building ($15,000) on this site.\r\n\r\nNote:  Demo Declaration – TX Contracting   (604-763-1573)\r\n\r\nDemolition – Pre 1940’s","specificusecategory":"Single Detached House"},"geometry":{"type":"Point","coordinates":[-123.1954483,49.2459474]}},{"type":"Feature","properties":{"date":"2017-03-02T00:00:00.000Z","year":2017,"description":null,"metadescription":"Demolition / Deconstruction. 4086 W 36TH AVENUE, Vancouver, BC V6N 2S9","address":"4086 36th AVE W, BC, VANCOUVER, V6N2S9, CA","issuedate":"2017-08-25","issueyear":"2017","propertyuse":"Dwelling Uses","geo_point_2d":"49.2392977, -123.1963993","geolocalarea":"Dunbar-Southlands","applicantaddress":"3788 W34th Av\r\nVancouver, BC  V6G1J5","permitelapseddays":"176","buildingcontractor":"Calvin & Collin Construction Ltd","projectdescription":"Low Density Housing - Demolition / Deconstruction - To demolish the existing one family dwelling building ($15,000) on this site.\r\n\r\nNote:  Demo Declaration – Canadian Excavating Ltd. (604)-728-0434","specificusecategory":"Single Detached House","buildingcontractoraddress":"1523 W 68TH AV  \r\nVancouver, BC  V6P 2V4"},"geometry":{"type":"Point","coordinates":[-123.1963993,49.2392977]}},{"type":"Feature","properties":{"date":"2016-11-23T00:00:00.000Z","year":2016,"description":null,"metadescription":"Demolition / Deconstruction. 4231 DONCASTER WAY, Vancouver, BC V6S 1W1","address":"4233 Doncaster WAY, BC, VANCOUVER, V6S1W1, CA","issuedate":"2017-07-13","issueyear":"2017","propertyuse":"Dwelling Uses","geo_point_2d":"49.2492019, -123.2018022","geolocalarea":"Dunbar-Southlands","applicantaddress":"2887 West 33rd Avenue\r\nVancouver , BC  V6N 1A4","permitelapseddays":"232","buildingcontractor":"Octiscapes Landscaping Ltd","projectdescription":"Low Density Housing - Demolition / Deconstruction - To demolish the existing one family dwelling building on this site.","specificusecategory":"Single Detached House w/Sec Suite","buildingcontractoraddress":"2756 WOODLAND DRIVE  \r\nVancouver, BC  V5N 3P8"},"geometry":{"type":"Point","coordinates":[-123.2018022,49.2492019]}},{"type":"Feature","properties":{"date":"2016-10-21T00:00:00.000Z","year":2016,"description":null,"metadescription":"Demolition / Deconstruction. 4888 BELMONT AVENUE, Vancouver, BC V6T 1A9","address":"4860 Fannin AVE, BC, VANCOUVER, V6T1B2, CA","issuedate":"2017-02-03","issueyear":"2017","propertyuse":"Dwelling Uses","geo_point_2d":"49.2748703, -123.2230214","geolocalarea":"West Point Grey","applicantaddress":"1041 West 8th Avenue\r\nVancouver, BC  V6H 1C3","permitelapseddays":"105","buildingcontractor":"Rockridge Developments Inc","projectdescription":"Enquiry Centre - Demolition / Deconstruction - To demolish the existing one family dwelling building ($15,000) on this site.\r\n\r\nNote:  \r\n- Demo Declaration – Rockridge Development Inc.   (604)-625-2122\r\n- Permit to be issued after BP-2016-00394 \r\n- OK to demolish without drawings per E Kai Oct 21, 2016","specificusecategory":"Single Detached House","buildingcontractoraddress":"5017 Ross Road  \r\nAbbotsford, BC  V4X 1Z3"},"geometry":{"type":"Point","coordinates":[-123.2230214,49.2748703]}},{"type":"Feature","properties":{"date":"2016-09-28T00:00:00.000Z","year":2016,"description":null,"metadescription":"Demolition / Deconstruction. 4050 W 29TH AVENUE, Vancouver, BC V6S 1V5","address":"4050 29th AVE W, BC, VANCOUVER, V6S1V5, CA","issuedate":"2017-05-05","issueyear":"2017","propertyuse":"Dwelling Uses","geo_point_2d":"49.2459417, -123.1952289","geolocalarea":"Dunbar-Southlands","applicantaddress":"2268 West 34th Avenue \r\nVancouver, BC  V6M1G6","permitelapseddays":"219","buildingcontractor":"G & K Excavation and Demolition Services Ltd","projectdescription":"Low Density Housing - Demolition / Deconstruction - Demo Permit\r\nBuilding Permit for BP-2016-02706 New 1FD","specificusecategory":"Single Detached House"},"geometry":{"type":"Point","coordinates":[-123.1952289,49.2459417]}},{"type":"Feature","properties":{"date":"2016-06-24T00:00:00.000Z","year":2016,"description":null,"metadescription":"Demolition / Deconstruction. 4063 W 36TH AVENUE, Vancouver, BC V6N 2T1","address":"4063 36th AVE W, BC, VANCOUVER, V6N2T1, CA","issuedate":"2017-06-08","issueyear":"2017","propertyuse":"Dwelling Uses","geo_point_2d":"49.2398389, -123.195735","geolocalarea":"Dunbar-Southlands","applicantaddress":"3788 W34th Av\r\nVancouver, BC  V6G1J5","permitelapseddays":"349","buildingcontractor":"All Right Trucking 99 Ltd","projectdescription":"Low Density Housing - Demolition / Deconstruction - To demolish the existing one family dwelling building ($15,000) on this site.","specificusecategory":"Single Detached House"},"geometry":{"type":"Point","coordinates":[-123.195735,49.2398389]}},{"type":"Feature","properties":{"date":"2016-06-23T00:00:00.000Z","year":2016,"description":null,"metadescription":"Demolition / Deconstruction. 3993 W 31ST AVENUE, Vancouver, BC V6S 1Y4","address":"3993 31st AVE W, BC, VANCOUVER, V6S1Y4, CA","issuedate":"2017-04-07","issueyear":"2017","propertyuse":"Dwelling Uses","geo_point_2d":"49.2445795, -123.1934163","geolocalarea":"Dunbar-Southlands","applicantaddress":"5811 Cooney Rd\r\nUnit 415\r\nVancouver, BC  V6X 3M1","permitelapseddays":"288","buildingcontractor":"East West Excavating Ltd","projectdescription":"Low Density Housing - Demolition / Deconstruction - To demolish the existing one family dwelling building ($15,000) on this site \r\nby means of deconstruction.\r\n\r\n\r\nNote: Pre-1940 recycling requirement:  90% of non-hazardous construction waste","specificusecategory":"Single Detached House","buildingcontractoraddress":"4918 VICTORIA DRIVE  \r\nVancouver, BC  V5P 3T6"},"geometry":{"type":"Point","coordinates":[-123.1934163,49.2445795]}},{"type":"Feature","properties":{"date":"2016-06-22T00:00:00.000Z","year":2016,"description":null,"metadescription":"Demolition / Deconstruction. 4042 W 37TH AVENUE, Vancouver, BC V6N 2W7","address":"4042 37th AVE W, BC, VANCOUVER, V6N2W7, CA","issuedate":"2017-02-07","issueyear":"2017","propertyuse":"Dwelling Uses","geo_point_2d":"49.2383293, -123.1951809","geolocalarea":"Dunbar-Southlands","applicantaddress":"Unit 205 - 8168 Granville Street\r\nVancouver, BC  V6P 4Z4","permitelapseddays":"230","buildingcontractor":"TX Contracting Ltd","projectdescription":"Low Density Housing - Demolition / Deconstruction - To demolish the existing one family dwelling ($15,000) building on this site.\r\n\r\nNote:  Demo Declaration – Eddie Tang of TX Contracting Ltd.  (604)-763-1573","specificusecategory":"Single Detached House","buildingcontractoraddress":"8331 Fairbrook Crescent\r\nRichmond, BC  V7C1Z2"},"geometry":{"type":"Point","coordinates":[-123.1951809,49.2383293]}}]}
