{"type":"FeatureCollection","features":[{"type":"Feature","properties":{"date":"2025-08-05T04:00:00.000Z","year":2025,"description":"Installation of 16.56KW Solar PV and 13.5KWH Energy Storage System to Residence.","metadescription":"EP. Auxiliary Power. Installation of 16.56KW Solar PV and 13.5KWH Energy Storage System to Residence.. Final. 207 LAKE COMO DR","address":"207 LAKE COMO DR","link":"https://abc.austintexas.gov/web/permit/public-search-other?t_detail=1&t_selected_folderrsn=13560978","tcad_id":"0143680236","location":"    (30.37146161, -97.95868706)","day_issued":"TUESDAY","project_id":"13560978","condominium":"No","status_date":"12/05/2025","jurisdiction":"LAKEWAY FULL PURPOSE","housing_units":"1","contractor_zip":"78610","contractor_city":"Buda","issuance_method":"Permit Center","contractor_phone":"5129216762","contractor_trade":"Electrical Contractor","number_of_floors":"1","permit_type_desc":"Electrical Permit","fiscal_year_issued":"2025","permit_class_mapped":"Residential","contractor_address_1":"100 PRECISIO","contractor_address_2":"BUDA TX  786","contractor_full_name":"Eric Hoffman","issued_in_last_30_days":"No","certificate_of_occupancy":"No","property_legal_description":"LOT 113 BLK D NORTH LAKEWAY VILLAGE SEC 6","electrical_valuation_remodel":"$0.00"},"geometry":{"type":"Point","coordinates":[-97.95868706,30.37146161]}},{"type":"Feature","properties":{"date":"2025-07-17T04:00:00.000Z","year":2025,"description":"Install new roof mounted PV solar system and energy storage system to existing single family residence. Underground AE","metadescription":"EP. Auxiliary Power. Install new roof mounted PV solar system and energy storage system to existing single family residence. Underground AE. Final. 703 SHOW LOW CT","address":"703 SHOW LOW CT","link":"https://abc.austintexas.gov/web/permit/public-search-other?t_detail=1&t_selected_folderrsn=13550099","tcad_id":"0137730807","location":"    (30.35419229, -97.97474943)","day_issued":"THURSDAY","project_id":"13550099","condominium":"No","status_date":"09/09/2025","jurisdiction":"LAKEWAY FULL PURPOSE","housing_units":"1","contractor_zip":"78728-____","contractor_city":"AUSTIN","issuance_method":"Permit Center","contractor_phone":"2147246768","contractor_trade":"Electrical Contractor","number_of_floors":"1","permit_type_desc":"Electrical Permit","fiscal_year_issued":"2025","permit_class_mapped":"Residential","contractor_address_2":"2301  SCARBR","contractor_full_name":"Wesley Davis","issued_in_last_30_days":"No","certificate_of_occupancy":"No","property_legal_description":"LOT 2672 LAKEWAY SEC 26","electrical_valuation_remodel":"$58,246.00"},"geometry":{"type":"Point","coordinates":[-97.97474943,30.35419229]}},{"type":"Feature","properties":{"date":"2025-04-18T04:00:00.000Z","year":2025,"description":"Install new energy storage system to existing single family residence. Underground. AE","metadescription":"EP. Auxiliary Power. Install new energy storage system to existing single family residence. Underground. AE. Final. 725 GOLF CREST LN","address":"725 GOLF CREST LN","link":"https://abc.austintexas.gov/web/permit/public-search-other?t_detail=1&t_selected_folderrsn=13501179","tcad_id":"0141700203","location":"    (30.36567838, -97.96377078)","day_issued":"FRIDAY","project_id":"13501179","condominium":"No","status_date":"07/02/2025","jurisdiction":"LAKEWAY FULL PURPOSE","housing_units":"1","contractor_zip":"78728-____","contractor_city":"AUSTIN","issuance_method":"Permit Center","contractor_phone":"2147246768","contractor_trade":"Electrical Contractor","number_of_floors":"1","permit_type_desc":"Electrical Permit","fiscal_year_issued":"2025","permit_class_mapped":"Residential","contractor_address_2":"2301  SCARBR","contractor_full_name":"Wesley Davis","issued_in_last_30_days":"No","certificate_of_occupancy":"No","property_legal_description":"LOT 3176 LAKEWAY SEC 28","electrical_valuation_remodel":"$10,000.00"},"geometry":{"type":"Point","coordinates":[-97.96377078,30.36567838]}},{"type":"Feature","properties":{"date":"2025-04-17T04:00:00.000Z","year":2025,"description":"Installing 20.5KW Solar System with 22.8KW AC FOX-ESS hybrid Inverter with 39.7KWh of Battery Storage.","metadescription":"EP. Auxiliary Power. Installing 20.5KW Solar System with 22.8KW AC FOX-ESS hybrid Inverter with 39.7KWh of Battery Storage.. Final. 211 VARCO DR","address":"211 VARCO DR","link":"https://abc.austintexas.gov/web/permit/public-search-other?t_detail=1&t_selected_folderrsn=13500131","tcad_id":"0131680426","location":"    (30.33690431, -97.95746404)","day_issued":"THURSDAY","project_id":"13500131","condominium":"No","status_date":"08/12/2025","jurisdiction":"LAKEWAY FULL PURPOSE","housing_units":"1","contractor_zip":"78732-____","contractor_city":"Austin","issuance_method":"Permit Center","contractor_phone":"6108232832","contractor_trade":"Electrical Contractor","number_of_floors":"1","permit_type_desc":"Electrical Permit","fiscal_year_issued":"2025","permit_class_mapped":"Residential","contractor_address_2":"2810  Grimes","contractor_full_name":"Scott Wilson","issued_in_last_30_days":"No","certificate_of_occupancy":"No","property_legal_description":"LOT 13A BLK D RIDGE AT ALTA VISTA SUBD THE RESUB OF LTS 55-6383-95131-152 BLK ALTS 34-3643-56 BLK B & LT 6 BLK C","electrical_valuation_remodel":"$80,000.00"},"geometry":{"type":"Point","coordinates":[-97.95746404,30.33690431]}},{"type":"Feature","properties":{"date":"2025-02-20T05:00:00.000Z","year":2025,"description":"Install new 10.12 kW DC rooftop solar system and 20.0 kWh energy storage system to existing residential","metadescription":"EP. Auxiliary Power. Install new 10.12 kW DC rooftop solar system and 20.0 kWh energy storage system to existing residential. Final. 34 GREEN TERRACE CV","address":"34 GREEN TERRACE CV","link":"https://abc.austintexas.gov/web/permit/public-search-other?t_detail=1&t_selected_folderrsn=13466612","tcad_id":"0135681501","location":"    (30.35134449, -97.95546574)","day_issued":"THURSDAY","project_id":"13466612","condominium":"No","status_date":"06/12/2025","jurisdiction":"LAKEWAY FULL PURPOSE","housing_units":"1","contractor_zip":"78704","contractor_city":"Austin","issuance_method":"Permit Center","contractor_phone":"5124765555","contractor_trade":"Electrical Contractor","number_of_floors":"1","permit_type_desc":"Electrical Permit","fiscal_year_issued":"2025","permit_class_mapped":"Residential","contractor_address_2":"2000 S 7th S","contractor_full_name":"Mark Pride","issued_in_last_30_days":"No","certificate_of_occupancy":"No","electrical_valuation_remodel":"$52,436.00"},"geometry":{"type":"Point","coordinates":[-97.95546574,30.35134449]}},{"type":"Feature","properties":{"date":"2024-10-28T04:00:00.000Z","year":2024,"description":"Install new 10.12kW rooftop solar system and 13.5kW battery storage system for residential only.","metadescription":"EP. Auxiliary Power. Install new 10.12kW rooftop solar system and 13.5kW battery storage system for residential only.. Final. 301 GOLDEN BEAR DR","address":"301 GOLDEN BEAR DR","link":"https://abc.austintexas.gov/web/permit/public-search-other?t_detail=1&t_selected_folderrsn=13418540","tcad_id":"0129760139","location":"    (30.33339567, -97.98286707)","day_issued":"MONDAY","project_id":"13418540","condominium":"No","status_date":"03/07/2025","jurisdiction":"LAKEWAY FULL PURPOSE","housing_units":"1","issuance_method":"Permit Center","contractor_phone":"8005042337","contractor_trade":"Electrical Contractor","number_of_floors":"1","permit_type_desc":"Electrical Permit","fiscal_year_issued":"2025","permit_class_mapped":"Residential","contractor_full_name":"Adrian Buck","issued_in_last_30_days":"No","certificate_of_occupancy":"No","property_legal_description":"LOT 142 FLINTROCK AT HURST CREEK PHS 2 AMENDED PLAT OF","electrical_valuation_remodel":"$40,875.00"},"geometry":{"type":"Point","coordinates":[-97.98286707,30.33339567]}},{"type":"Feature","properties":{"date":"2024-03-04T05:00:00.000Z","year":2024,"description":"Install new energy storage system to existing residence. AE","metadescription":"EP. Auxiliary Power. Install new energy storage system to existing residence. AE. Final. 204 VAILCO LN","address":"204 VAILCO LN","link":"https://abc.austintexas.gov/web/permit/public-search-other?t_detail=1&t_selected_folderrsn=13287732","tcad_id":"0129681213","location":"    (30.333732, -97.95605835)","day_issued":"MONDAY","project_id":"13287732","condominium":"No","status_date":"05/20/2024","jurisdiction":"LAKEWAY FULL PURPOSE","housing_units":"1","contractor_zip":"78728-____","contractor_city":"AUSTIN","issuance_method":"Permit Center","contractor_phone":"2147246768","contractor_trade":"Electrical Contractor","number_of_floors":"1","permit_type_desc":"Electrical Permit","fiscal_year_issued":"2024","permit_class_mapped":"Residential","contractor_address_2":"2301  SCARBR","contractor_full_name":"Wesley Davis","issued_in_last_30_days":"No","certificate_of_occupancy":"No","property_legal_description":"LOT 153 BLK A RIDGE AT ALTA VISTA SUBD THE","electrical_valuation_remodel":"$14,000.00"},"geometry":{"type":"Point","coordinates":[-97.95605835,30.333732]}},{"type":"Feature","properties":{"date":"2024-01-09T05:00:00.000Z","year":2024,"description":"Install energy storage system to existing residence. AE","metadescription":"EP. Auxiliary Power. Install energy storage system to existing residence. AE. Final. 1602 LAKEWAY BLVD","address":"1602 LAKEWAY BLVD","link":"https://abc.austintexas.gov/web/permit/public-search-other?t_detail=1&t_selected_folderrsn=13254690","tcad_id":"0137700223","location":"    (30.35532934, -97.96377449)","day_issued":"TUESDAY","project_id":"13254690","condominium":"No","status_date":"09/17/2024","jurisdiction":"LAKEWAY FULL PURPOSE","housing_units":"1","contractor_zip":"78728-____","contractor_city":"AUSTIN","issuance_method":"Permit Center","contractor_phone":"2147246768","contractor_trade":"Electrical Contractor","number_of_floors":"1","permit_type_desc":"Electrical Permit","fiscal_year_issued":"2024","permit_class_mapped":"Residential","contractor_address_2":"2301  SCARBR","contractor_full_name":"Wesley Davis","issued_in_last_30_days":"No","certificate_of_occupancy":"No","property_legal_description":"LOT 2449 LAKEWAY SEC 22","electrical_valuation_remodel":"$0.00"},"geometry":{"type":"Point","coordinates":[-97.96377449,30.35532934]}},{"type":"Feature","properties":{"date":"2023-10-31T04:00:00.000Z","year":2023,"description":"Installation of a 21.47 kw roof top solar system with a triple unit energy storage system to an existing residential dwelling. (115NELS)","metadescription":"EP. Auxiliary Power. Installation of a 21.47 kw roof top solar system with a triple unit energy storage system to an existing residential dwelling. (115NELS). Final. 115 SEBASTIANS RUN","address":"115 SEBASTIANS RUN","link":"https://abc.austintexas.gov/web/permit/public-search-other?t_detail=1&t_selected_folderrsn=13223240","tcad_id":"0129680903","location":"    (30.33431802, -97.96082194)","day_issued":"TUESDAY","project_id":"13223240","condominium":"No","status_date":"04/03/2024","jurisdiction":"LAKEWAY FULL PURPOSE","housing_units":"1","contractor_zip":"78219-____","contractor_city":"San Antonio","issuance_method":"Permit Center","contractor_phone":"2107027666","contractor_trade":"Electrical Contractor","number_of_floors":"1","permit_type_desc":"Electrical Permit","fiscal_year_issued":"2024","permit_class_mapped":"Residential","contractor_address_2":"3331  N PanA","contractor_full_name":"Manuel Vallejo","issued_in_last_30_days":"No","certificate_of_occupancy":"No","property_legal_description":"LOT 10 BLK A RIDGE AT ALTA VISTA SUBD THE","electrical_valuation_remodel":"$37,000.00"},"geometry":{"type":"Point","coordinates":[-97.96082194,30.33431802]}},{"type":"Feature","properties":{"date":"2021-10-28T04:00:00.000Z","year":2021,"description":"Utility shutdown needed for connection of new energy storage system. Underground service. Meter Can DOES NOT require replacement - NO ESPA attached","metadescription":"EP. Repair. Utility shutdown needed for connection of new energy storage system. Underground service. Meter Can DOES NOT require replacement - NO ESPA attached. Withdrawn. 105 FAR VELA LN","address":"105 FAR VELA LN","link":"https://abc.austintexas.gov/web/permit/public-search-other?t_detail=1&t_selected_folderrsn=12805905","tcad_id":"0129700104","location":"    (30.33580369, -97.96397504)","day_issued":"THURSDAY","project_id":"12805905","condominium":"No","status_date":"05/10/2022","jurisdiction":"LAKEWAY FULL PURPOSE","housing_units":"1","issuance_method":"Permit Center","contractor_phone":"8005042337","contractor_trade":"Electrical Contractor","number_of_floors":"1","permit_type_desc":"Electrical Permit","fiscal_year_issued":"2022","permit_class_mapped":"Residential","remodel_repair_sqft":"0","contractor_full_name":"Adrian Buck","issued_in_last_30_days":"No","certificate_of_occupancy":"No","property_legal_description":"LOT 116 SCHRAMM RANCH SEC 1 PHS 2 THE","electrical_valuation_remodel":"$1,000.00"},"geometry":{"type":"Point","coordinates":[-97.96397504,30.33580369]}},{"type":"Feature","properties":{"date":"2021-10-28T04:00:00.000Z","year":2021,"description":"Install roof-mounted solar and energy storage system to existing residence","metadescription":"EP. Auxiliary Power. Install roof-mounted solar and energy storage system to existing residence. Final. 105 FAR VELA LN","address":"105 FAR VELA LN","link":"https://abc.austintexas.gov/web/permit/public-search-other?t_detail=1&t_selected_folderrsn=12805904","tcad_id":"0129700104","location":"    (30.33580369, -97.96397504)","day_issued":"THURSDAY","project_id":"12805904","condominium":"No","status_date":"06/09/2022","jurisdiction":"LAKEWAY FULL PURPOSE","housing_units":"1","issuance_method":"Permit Center","contractor_phone":"8005042337","contractor_trade":"Electrical Contractor","number_of_floors":"1","permit_type_desc":"Electrical Permit","fiscal_year_issued":"2022","permit_class_mapped":"Residential","contractor_full_name":"Adrian Buck","issued_in_last_30_days":"No","certificate_of_occupancy":"No","property_legal_description":"LOT 116 SCHRAMM RANCH SEC 1 PHS 2 THE","electrical_valuation_remodel":"$49,063.00"},"geometry":{"type":"Point","coordinates":[-97.96397504,30.33580369]}},{"type":"Feature","properties":{"date":"2019-01-09T05:00:00.000Z","year":2019,"description":"Removing and rebuilding Main Sub Panel in preparation for PV Solar and Energy Storage System install. Meter can will NOT be replaced/upgraded - no ESPA required.","metadescription":"EP. Repair. Removing and rebuilding Main Sub Panel in preparation for PV Solar and Energy Storage System install. Meter can will NOT be replaced/upgraded - no ESPA required.. Final. 110 EL RENO CV","address":"110 EL RENO CV","link":"https://abc.austintexas.gov/web/permit/public-search-other?t_detail=1&t_selected_folderrsn=12084017","tcad_id":"0139760207","location":"    (30.36298036, -97.97660551)","day_issued":"WEDNESDAY","project_id":"12084017","condominium":"No","status_date":"01/24/2019","jurisdiction":"LAKEWAY FULL PURPOSE","housing_units":"1","contractor_zip":"78728-____","contractor_city":"AUSTIN","issuance_method":"Permit Center","contractor_phone":"2147246768","contractor_trade":"Electrical Contractor","number_of_floors":"1","permit_type_desc":"Electrical Permit","fiscal_year_issued":"2019","permit_class_mapped":"Residential","remodel_repair_sqft":"0","contractor_address_2":"2301  SCARBR","contractor_full_name":"Wesley Davis","issued_in_last_30_days":"No","certificate_of_occupancy":"No","property_legal_description":"LOT 2734 LAKEWAY SEC 26","electrical_valuation_remodel":"$1,500.00"},"geometry":{"type":"Point","coordinates":[-97.97660551,30.36298036]}},{"type":"Feature","properties":{"date":"2018-09-19T04:00:00.000Z","year":2018,"description":"Install roof-mounted solar panels to existing residence with an energy storage system. 864 SQFT","metadescription":"EP. Auxiliary Power. Install roof-mounted solar panels to existing residence with an energy storage system. 864 SQFT. Final. 110 EL RENO CV","address":"110 EL RENO CV","link":"https://abc.austintexas.gov/web/permit/public-search-other?t_detail=1&t_selected_folderrsn=12035561","tcad_id":"0139760207","location":"    (30.36298036, -97.97660551)","day_issued":"WEDNESDAY","project_id":"12035561","condominium":"No","status_date":"02/28/2019","jurisdiction":"LAKEWAY FULL PURPOSE","housing_units":"1","contractor_zip":"78728-____","contractor_city":"AUSTIN","issuance_method":"Permit Center","contractor_phone":"2147246768","contractor_trade":"Electrical Contractor","number_of_floors":"1","permit_type_desc":"Electrical Permit","fiscal_year_issued":"2018","permit_class_mapped":"Residential","contractor_address_2":"2301  SCARBR","contractor_full_name":"Wesley Davis","issued_in_last_30_days":"No","certificate_of_occupancy":"No","property_legal_description":"LOT 2734 LAKEWAY SEC 26","electrical_valuation_remodel":"$32,808.00"},"geometry":{"type":"Point","coordinates":[-97.97660551,30.36298036]}}]}
