{"type":"FeatureCollection","features":[{"type":"Feature","properties":{"date":"2007-10-18T04:00:00.000Z","year":2007,"description":"New 3stry residence w/att 2-car garage & carport Elec Srv For Only -Eud","metadescription":"EP. New. New 3stry residence w/att 2-car garage & carport Elec Srv For Only -Eud. Final. 109 SENDERA BONITA","address":"109 SENDERA BONITA","link":"https://abc.austintexas.gov/web/permit/public-search-other?t_detail=1&t_selected_folderrsn=10082607","tcad_id":"0143680104","location":"    (30.37325285, -97.95576292)","day_issued":"THURSDAY","project_id":"10082607","condominium":"No","status_date":"10/09/2008","jurisdiction":"LAKEWAY FULL PURPOSE","housing_units":"7","contractor_zip":"78639","contractor_city":"Kingsland","issuance_method":"Permit Center","contractor_phone":"5124156711","contractor_trade":"Electrical Contractor","number_of_floors":"3","permit_type_desc":"Electrical Permit","fiscal_year_issued":"2008","total_new_add_sqft":"10,068","permit_class_mapped":"Residential","contractor_address_1":"PO Box  113","contractor_full_name":"Erwin Johnson","issued_in_last_30_days":"No","certificate_of_occupancy":"No","property_legal_description":"LOT 24 BLK A ARBOLAGO SUBD"},"geometry":{"type":"Point","coordinates":[-97.95576292,30.37325285]}},{"type":"Feature","properties":{"date":"2004-07-30T04:00:00.000Z","year":2004,"description":"New 2stry Resid W/Att Garage Porch & Car Port Elec Srv  Outside City Of Austin","metadescription":"EP. Remodel. New 2stry Resid W/Att Garage Porch & Car Port Elec Srv  Outside City Of Austin. Final. 106 FAR VELA LN","address":"106 FAR VELA LN","link":"https://abc.austintexas.gov/web/permit/public-search-other?t_detail=1&t_selected_folderrsn=4344259","tcad_id":"0129700102","location":"    (30.33620383, -97.96509078)","day_issued":"FRIDAY","project_id":"4344259","status_date":"03/05/2007","jurisdiction":"LAKEWAY FULL PURPOSE","contractor_zip":"78613","contractor_city":"Cedar Park","issuance_method":"Permit Center","contractor_phone":"5124024632","contractor_trade":"Electrical Contractor","permit_type_desc":"Electrical Permit","fiscal_year_issued":"2004","permit_class_mapped":"Residential","contractor_address_2":"1405  Pecan","contractor_full_name":"Ignacio Bernal","issued_in_last_30_days":"No","property_legal_description":"LOT 118 SCHRAMM RANCH SEC 1 PHS 2 THE"},"geometry":{"type":"Point","coordinates":[-97.96509078,30.33620383]}}]}
