{"type":"FeatureCollection","features":[{"type":"Feature","properties":{"date":"1987-05-28T04:00:00.000Z","year":1987,"description":"Install Elevator In Lake Travis High School","metadescription":"EP. Remodel. Install Elevator In Lake Travis High School. Final. 3322 S FM 620 RD","address":"3322 South Farm to Market 620, Austin, TX, 78738, US","link":"https://abc.austintexas.gov/web/permit/public-search-other?t_detail=1&t_selected_folderrsn=4157583","tcad_id":"0126770505","location":"    (30.32796966, -97.96672906)","day_issued":"THURSDAY","project_id":"4157583","condominium":"No","status_date":"05/22/2007","jurisdiction":"LAKEWAY ETJ","housing_units":"1","issuance_method":"Permit Center","permit_type_desc":"Electrical Permit","fiscal_year_issued":"1987","permit_class_mapped":"Commercial","issued_in_last_30_days":"No","certificate_of_occupancy":"No","property_legal_description":"ABS 2241 SUR 54 BECK A ACR 76.8195"},"geometry":{"type":"Point","coordinates":[-97.96672906,30.32796966]}},{"type":"Feature","properties":{"date":"1987-05-28T04:00:00.000Z","year":1987,"description":"Install Elevator In Lake Travis High School","metadescription":"MP. Remodel. Install Elevator In Lake Travis High School. Final. 3322 S FM 620 RD","address":"3322 South Farm to Market 620, Austin, TX, 78738, US","link":"https://abc.austintexas.gov/web/permit/public-search-other?t_detail=1&t_selected_folderrsn=3254272","tcad_id":"0126770505","location":"    (30.32796966, -97.96672906)","day_issued":"THURSDAY","project_id":"3254272","condominium":"No","status_date":"05/22/2007","jurisdiction":"LAKEWAY ETJ","housing_units":"1","issuance_method":"Permit Center","permit_type_desc":"Mechanical Permit","master_permit_num":"4157583","fiscal_year_issued":"1987","permit_class_mapped":"Commercial","issued_in_last_30_days":"No","certificate_of_occupancy":"No","property_legal_description":"ABS 2241 SUR 54 BECK A ACR 76.8195"},"geometry":{"type":"Point","coordinates":[-97.96672906,30.32796966]}},{"type":"Feature","properties":{"date":"1985-09-10T04:00:00.000Z","year":1985,"description":"Elevator","metadescription":"EP. Remodel. Elevator. Final. 913 S FM 620 RD","address":"913 South Farm to Market 620, Austin, TX, 78734, US","link":"https://abc.austintexas.gov/web/permit/public-search-other?t_detail=1&t_selected_folderrsn=4132752","tcad_id":"0137680702","location":"    (30.35420923, -97.96075764)","day_issued":"TUESDAY","project_id":"4132752","condominium":"No","status_date":"05/22/2007","jurisdiction":"LAKEWAY FULL PURPOSE","housing_units":"1","issuance_method":"Permit Center","permit_type_desc":"Electrical Permit","fiscal_year_issued":"1985","permit_class_mapped":"Commercial","issued_in_last_30_days":"No","certificate_of_occupancy":"No","property_legal_description":"1.2523 AC OF LOT 13A CARDINAL HILLS UNIT 4 AMENDED PLAT OF LOTS 1314&15"},"geometry":{"type":"Point","coordinates":[-97.96075764,30.35420923]}},{"type":"Feature","properties":{"date":"1985-09-10T04:00:00.000Z","year":1985,"description":"Elevator","metadescription":"MP. Remodel. Elevator. Final. 913 S FM 620 RD","address":"913 South Farm to Market 620, Austin, TX, 78734, US","link":"https://abc.austintexas.gov/web/permit/public-search-other?t_detail=1&t_selected_folderrsn=3231924","tcad_id":"0137680702","location":"    (30.35420923, -97.96075764)","day_issued":"TUESDAY","project_id":"3231924","condominium":"No","status_date":"05/22/2007","jurisdiction":"LAKEWAY FULL PURPOSE","housing_units":"1","issuance_method":"Permit Center","permit_type_desc":"Mechanical Permit","master_permit_num":"4132752","fiscal_year_issued":"1985","permit_class_mapped":"Commercial","issued_in_last_30_days":"No","certificate_of_occupancy":"No","property_legal_description":"1.2523 AC OF LOT 13A CARDINAL HILLS UNIT 4 AMENDED PLAT OF LOTS 1314&15"},"geometry":{"type":"Point","coordinates":[-97.96075764,30.35420923]}},{"type":"Feature","properties":{"date":"1985-05-02T04:00:00.000Z","year":1985,"description":"Install Elevator Comm","metadescription":"EP. Remodel. Install Elevator Comm. Final. 1310 S FM 620 RD","address":"1310 South Farm to Market 620, Austin, TX, 78734, US","link":"https://abc.austintexas.gov/web/permit/public-search-other?t_detail=1&t_selected_folderrsn=4125824","tcad_id":"0135700317","location":"    (30.34976508, -97.96493542)","day_issued":"THURSDAY","project_id":"4125824","condominium":"No","status_date":"05/22/2007","jurisdiction":"LAKEWAY FULL PURPOSE","housing_units":"1","issuance_method":"Permit Center","permit_type_desc":"Electrical Permit","fiscal_year_issued":"1985","permit_class_mapped":"Commercial","issued_in_last_30_days":"No","certificate_of_occupancy":"No","property_legal_description":"5.5550 AC OF W 672.06FT OF N PT (4.43AC)OF TRT 4 *& W 725.79 OF N PT OF TRT 5 *(1.33AC) ECK A A SUBD"},"geometry":{"type":"Point","coordinates":[-97.96493542,30.34976508]}},{"type":"Feature","properties":{"date":"1985-05-02T04:00:00.000Z","year":1985,"description":"Install Elevator Comm","metadescription":"MP. Remodel. Install Elevator Comm. VOID. 1310 S FM 620 RD","address":"1310 South Farm to Market 620, Austin, TX, 78734, US","link":"https://abc.austintexas.gov/web/permit/public-search-other?t_detail=1&t_selected_folderrsn=3225802","tcad_id":"0135700317","location":"    (30.34976508, -97.96493542)","day_issued":"THURSDAY","project_id":"3225802","condominium":"No","status_date":"11/26/2012","jurisdiction":"LAKEWAY FULL PURPOSE","housing_units":"1","issuance_method":"Permit Center","permit_type_desc":"Mechanical Permit","master_permit_num":"4125824","fiscal_year_issued":"1985","permit_class_mapped":"Commercial","issued_in_last_30_days":"No","certificate_of_occupancy":"No","property_legal_description":"5.5550 AC OF W 672.06FT OF N PT (4.43AC)OF TRT 4 *& W 725.79 OF N PT OF TRT 5 *(1.33AC) ECK A A SUBD"},"geometry":{"type":"Point","coordinates":[-97.96493542,30.34976508]}},{"type":"Feature","properties":{"date":"1985-01-29T05:00:00.000Z","year":1985,"description":"Elevator","metadescription":"EP. Remodel. Elevator. Expired. 317 S FM 620 RD","address":"317 South Farm to Market 620, Austin, TX, 78734, US","link":"https://abc.austintexas.gov/web/permit/public-search-other?t_detail=1&t_selected_folderrsn=4120877","tcad_id":"0139660801","location":"    (30.36227892, -97.95232597)","day_issued":"TUESDAY","project_id":"4120877","condominium":"No","status_date":"06/06/2007","jurisdiction":"LAKEWAY FULL PURPOSE","housing_units":"1","issuance_method":"Permit Center","permit_type_desc":"Electrical Permit","fiscal_year_issued":"1985","permit_class_mapped":"Commercial","issued_in_last_30_days":"No","certificate_of_occupancy":"No","property_legal_description":"0.929AC OF LOT 28-29 CARDINAL HILLS UNIT 2"},"geometry":{"type":"Point","coordinates":[-97.95232597,30.36227892]}},{"type":"Feature","properties":{"date":"1985-01-29T05:00:00.000Z","year":1985,"description":"Elevator","metadescription":"MP. Remodel. Elevator. Expired. 317 S FM 620 RD","address":"317 South Farm to Market 620, Austin, TX, 78734, US","link":"https://abc.austintexas.gov/web/permit/public-search-other?t_detail=1&t_selected_folderrsn=3221266","tcad_id":"0139660801","location":"    (30.36227892, -97.95232597)","day_issued":"TUESDAY","project_id":"3221266","condominium":"No","status_date":"06/06/2007","jurisdiction":"LAKEWAY FULL PURPOSE","housing_units":"1","issuance_method":"Permit Center","permit_type_desc":"Mechanical Permit","master_permit_num":"4120877","fiscal_year_issued":"1985","permit_class_mapped":"Commercial","issued_in_last_30_days":"No","certificate_of_occupancy":"No","property_legal_description":"0.929AC OF LOT 28-29 CARDINAL HILLS UNIT 2"},"geometry":{"type":"Point","coordinates":[-97.95232597,30.36227892]}}]}
