{"type":"FeatureCollection","features":[{"type":"Feature","properties":{"date":"2019-07-09T04:00:00.000Z","year":2019,"description":"Foundation Repair","metadescription":"BP. Repair. Foundation Repair. Final. 16215 SPRING BRANCH TRL","address":"16215 Spring Branch Trail, Austin, TX, 78734, US","link":"https://abc.austintexas.gov/web/permit/public-search-other?t_detail=1&t_selected_folderrsn=12271419","tcad_id":"0145680602","location":"    (30.37982754, -97.95644459)","day_issued":"TUESDAY","project_id":"12271419","condominium":"No","status_date":"08/29/2019","jurisdiction":"LAKEWAY ETJ","applicant_zip":"78739","housing_units":"1","applicant_city":"AUSTIN","contractor_zip":"78739","applicant_phone":"5122910709","contractor_city":"AUSTIN","issuance_method":"Permit Center","contractor_phone":"5122910709","contractor_trade":"General Contractor","number_of_floors":"1","permit_type_desc":"Building Permit","master_permit_num":"12271403","fiscal_year_issued":"2019","applicant_address_2":"12510  EDWAR","applicant_full_name":"Douglas Plauche","permit_class_mapped":"Residential","remodel_repair_sqft":"1","contractor_address_2":"12510  EDWAR","contractor_full_name":"Douglas Plauche","applicant_organization":"Douglas Foundation Repair","issued_in_last_30_days":"No","total_valuation_remodel":"$3,630.00","certificate_of_occupancy":"No","building_valuation_remodel":"$3,630.00","plumbing_valuation_remodel":"$0.00","property_legal_description":"ABS 2453 SUR 84 STEWART B K ACR 0.4729","electrical_valuation_remodel":"$0.00","mechanical_valuation_remodel":"$0.00"},"geometry":{"type":"Point","coordinates":[-97.95644459,30.37982754]}},{"type":"Feature","properties":{"date":"2017-02-06T05:00:00.000Z","year":2017,"description":"Tunnel under the foundation to repair belly in drain line.","metadescription":"PP. Repair. Tunnel under the foundation to repair belly in drain line.. Expired. 126 MEDALIST","address":"126 Medalist, Austin, TX, 78734, US","link":"https://abc.austintexas.gov/web/permit/public-search-other?t_detail=1&t_selected_folderrsn=11668769","tcad_id":"0143760608","location":"    (30.37186975, -97.97873857)","day_issued":"MONDAY","project_id":"11668769","condominium":"No","status_date":"08/06/2017","jurisdiction":"LAKEWAY FULL PURPOSE","housing_units":"1","contractor_zip":"76574","contractor_city":"Taylor","issuance_method":"Permit Center","contractor_phone":"5123658866","contractor_trade":"Plumbing Contractor","number_of_floors":"1","permit_type_desc":"Plumbing Permit","fiscal_year_issued":"2017","permit_class_mapped":"Residential","remodel_repair_sqft":"2,484","contractor_address_1":"P O  BOX 137","contractor_full_name":"Samuel D Dowdy","issued_in_last_30_days":"No","certificate_of_occupancy":"No","plumbing_valuation_remodel":"$27,406.00","property_legal_description":"LOT 1435 LAKEWAY SEC 17"},"geometry":{"type":"Point","coordinates":[-97.97873857,30.37186975]}},{"type":"Feature","properties":{"date":"2015-09-01T04:00:00.000Z","year":2015,"description":"Tunnel under foundation to repair damaged pipe","metadescription":"PP. Repair. Tunnel under foundation to repair damaged pipe. Final. 519 DRAGON","address":"519 Dragon, Austin, TX, 78734, US","link":"https://abc.austintexas.gov/web/permit/public-search-other?t_detail=1&t_selected_folderrsn=11407773","tcad_id":"0141801224","location":"    (30.36700919, -97.99673564)","day_issued":"TUESDAY","project_id":"11407773","condominium":"No","status_date":"09/10/2015","jurisdiction":"LAKEWAY FULL PURPOSE","contractor_zip":"76513","contractor_city":"Belton","issuance_method":"Online","contractor_phone":"2542472100","contractor_trade":"Plumbing Contractor","permit_type_desc":"Plumbing Permit","fiscal_year_issued":"2015","permit_class_mapped":"Residential","contractor_address_2":"3360  Standa","contractor_full_name":"Joseph Allen Marchuk","issued_in_last_30_days":"No","certificate_of_occupancy":"No","plumbing_valuation_remodel":"$19,000.00","property_legal_description":"LOT 312 LAKEWAY SEC 3"},"geometry":{"type":"Point","coordinates":[-97.99673564,30.36700919]}}]}
