{"type":"FeatureCollection","features":[{"type":"Feature","properties":{"date":"2024-11-06T05:00:00.000Z","year":2024,"description":"We will be rerouting a main feeder line/underground conduit for 6 Tiburon drive to make way for an in ground pool. Currently is running through projected area and will need to move to achieve the 5 from waters edge. It will remain a 200A service but will be upgrading the meter can to bypass can and replacing the main house panel.","metadescription":"EP. Repair. We will be rerouting a main feeder line/underground conduit for 6 Tiburon drive to make way for an in ground pool. Currently is running through projected area and will need to move to achieve the 5 from waters edge. It will remain a 200A service but will be upgrading the meter can to bypass can and replacing the main house panel.. Final. 6 TIBURON DR","address":"6 Tiburon Drive, Austin, TX, 78738, US","link":"https://abc.austintexas.gov/web/permit/public-search-other?t_detail=1&t_selected_folderrsn=13409212","tcad_id":"0131760506","location":"    (30.34043292, -97.98253708)","day_issued":"WEDNESDAY","project_id":"13409212","condominium":"No","status_date":"03/13/2025","jurisdiction":"THE HILLS FULL PURPOSE","housing_units":"1","contractor_zip":"78665","contractor_city":"Round Rock","issuance_method":"Permit Center","contractor_phone":"5126058542","contractor_trade":"Electrical Contractor","number_of_floors":"1","permit_type_desc":"Electrical Permit","fiscal_year_issued":"2025","permit_class_mapped":"Residential","remodel_repair_sqft":"0","contractor_address_1":"1910 FOREST","contractor_address_2":"ROUND ROCK T","contractor_full_name":"Bret H. Spoonts","issued_in_last_30_days":"No","certificate_of_occupancy":"No","property_legal_description":"LOT 288 HILLS OF LAKEWAY PHS 4 THE","electrical_valuation_remodel":"$3,500.00"},"geometry":{"type":"Point","coordinates":[-97.98253708,30.34043292]}},{"type":"Feature","properties":{"date":"2024-11-05T05:00:00.000Z","year":2024,"description":"Disconnect/reconnect power to tie in PV/ESS components. We are not upgrading the size of the service not upgrading the meter size.","metadescription":"EP. Repair. Disconnect/reconnect power to tie in PV/ESS components. We are not upgrading the size of the service not upgrading the meter size.. Final. 2 BELLWOOD CV","address":"2 Bellwood Cove, Austin, TX, 78738, US","link":"https://abc.austintexas.gov/web/permit/public-search-other?t_detail=1&t_selected_folderrsn=13420503","tcad_id":"0133760607","location":"    (30.34759471, -97.97880154)","day_issued":"TUESDAY","project_id":"13420503","condominium":"No","status_date":"04/28/2025","jurisdiction":"THE HILLS FULL PURPOSE","housing_units":"1","issuance_method":"Permit Center","contractor_phone":"8005042337","contractor_trade":"Electrical Contractor","number_of_floors":"1","permit_type_desc":"Electrical Permit","fiscal_year_issued":"2025","permit_class_mapped":"Residential","remodel_repair_sqft":"0","contractor_full_name":"Adrian Buck","issued_in_last_30_days":"No","certificate_of_occupancy":"No","property_legal_description":"LOT 718A HILLS OF LAKEWAY PHS 8 THE AMENDED PLAT OF LOTS 718&719","electrical_valuation_remodel":"$47,005.00"},"geometry":{"type":"Point","coordinates":[-97.97880154,30.34759471]}},{"type":"Feature","properties":{"date":"2023-05-05T04:00:00.000Z","year":2023,"description":"Lester - upgrade - Disconnect/reconnect power to tie in PV component and upgrading MSP to 200 Amps. Upgrading revenue meter to 200 Amps. Need spot inspection","metadescription":"EP. Upgrade. Lester - upgrade - Disconnect/reconnect power to tie in PV component and upgrading MSP to 200 Amps. Upgrading revenue meter to 200 Amps. Need spot inspection. Final. 28 STONE TERRACE DR","address":"28 Stone Terrace Drive, Austin, TX, 78734, US","link":"https://abc.austintexas.gov/web/permit/public-search-other?t_detail=1&t_selected_folderrsn=13136180","tcad_id":"0135681501","location":"    (30.35206942, -97.9579277)","day_issued":"FRIDAY","project_id":"13136180","condominium":"No","status_date":"09/11/2023","jurisdiction":"LAKEWAY FULL PURPOSE","housing_units":"1","contractor_zip":"78753-____","contractor_city":"AUSTIN","issuance_method":"Permit Center","contractor_phone":"5126968125","contractor_trade":"Electrical Contractor","number_of_floors":"1","permit_type_desc":"Electrical Permit","fiscal_year_issued":"2023","permit_class_mapped":"Residential","remodel_repair_sqft":"0","contractor_address_2":"11511  Polly","contractor_full_name":"Richard Green","issued_in_last_30_days":"No","certificate_of_occupancy":"No","electrical_valuation_remodel":"$15,956.00"},"geometry":{"type":"Point","coordinates":[-97.9579277,30.35206942]}},{"type":"Feature","properties":{"date":"2019-05-07T04:00:00.000Z","year":2019,"description":"Upgrading Service\nLAKEWAY ETJ","metadescription":"EP. Repair. Upgrading Service\nLAKEWAY ETJ. Final. 16404 STEWART RD","address":"16404 Stewart Road, Austin, TX, 78734, US","link":"https://abc.austintexas.gov/web/permit/public-search-other?t_detail=1&t_selected_folderrsn=12193378","tcad_id":"0145680101","location":"    (30.3805978, -97.95912822)","day_issued":"TUESDAY","project_id":"12193378","condominium":"No","status_date":"12/16/2019","jurisdiction":"LAKEWAY ETJ","housing_units":"1","issuance_method":"Permit Center","contractor_phone":"5122151865","contractor_trade":"Electrical Contractor","number_of_floors":"1","permit_type_desc":"Electrical Permit","fiscal_year_issued":"2019","permit_class_mapped":"Residential","remodel_repair_sqft":"0","contractor_full_name":"Jose Alejandro","issued_in_last_30_days":"No","certificate_of_occupancy":"No","property_legal_description":"ABS 616 SUR 628 PEARSON I H ACR .080","electrical_valuation_remodel":"$1,700.00"},"geometry":{"type":"Point","coordinates":[-97.95912822,30.3805978]}},{"type":"Feature","properties":{"date":"2009-09-25T04:00:00.000Z","year":2009,"description":"Upgrading service for existing unit","metadescription":"EP. Upgrade. Upgrading service for existing unit. Final. 2129 LOHMANS CROSSING RD BLDG 3B","address":"2129 Lohmans Crossing Road, Austin, TX, 78734, US","link":"https://abc.austintexas.gov/web/permit/public-search-other?t_detail=1&t_selected_folderrsn=10346147","tcad_id":"0131730603","location":"    (30.34256426, -97.96936745)","day_issued":"FRIDAY","project_id":"10346147","condominium":"No","status_date":"10/12/2009","jurisdiction":"LAKEWAY FULL PURPOSE","housing_units":"0","contractor_zip":"78634-849","contractor_city":"Hutto","issuance_method":"Permit Center","contractor_phone":"5127593700","contractor_trade":"Electrical Contractor","number_of_floors":"0","permit_type_desc":"Electrical Permit","fiscal_year_issued":"2009","permit_class_mapped":"Commercial","remodel_repair_sqft":"0","contractor_address_1":"P.O. BOX 849","contractor_address_2":"HUTTO TX  78","contractor_full_name":"Malcom Wortham","issued_in_last_30_days":"No","certificate_of_occupancy":"No","property_legal_description":"LOT 2-D LAKEWAY TOWNE CENTRE RSB LOT 2-A BLK B OF RSB LOTS 1&2 BLK B","electrical_valuation_remodel":"$2,500.00"},"geometry":{"type":"Point","coordinates":[-97.96936745,30.34256426]}},{"type":"Feature","properties":{"date":"2008-10-03T04:00:00.000Z","year":2008,"description":"upgrading electrical service to existing residence only EUD","metadescription":"EP. Upgrade. upgrading electrical service to existing residence only EUD. Final. 15100 METTLE DR","address":"15100 Mettle Drive, Austin, TX, 78734, US","link":"https://abc.austintexas.gov/web/permit/public-search-other?t_detail=1&t_selected_folderrsn=10199245","tcad_id":"0133680517","location":"    (30.34539218, -97.95839019)","day_issued":"FRIDAY","project_id":"10199245","condominium":"No","status_date":"10/09/2008","jurisdiction":"LAKEWAY FULL PURPOSE","housing_units":"0","contractor_zip":"78691-____","contractor_city":"PFLUGERVILLE","issuance_method":"Permit Center","contractor_phone":"5128328900","contractor_trade":"Electrical Contractor","number_of_floors":"0","permit_type_desc":"Electrical Permit","fiscal_year_issued":"2009","permit_class_mapped":"Residential","remodel_repair_sqft":"0","contractor_address_1":"PO BOX 3289","contractor_full_name":"Bryan Neal","issued_in_last_30_days":"No","certificate_of_occupancy":"No","property_legal_description":"LOT 6 BLK D TRAVIS OAK TRAILS","electrical_valuation_remodel":"$300.00"},"geometry":{"type":"Point","coordinates":[-97.95839019,30.34539218]}},{"type":"Feature","properties":{"date":"2008-06-18T04:00:00.000Z","year":2008,"description":"upgrading electrical service to existing residence only","metadescription":"EP. Upgrade. upgrading electrical service to existing residence only. Final. 15912 STEWART RD","address":"15912 Stewart Road, Austin, TX, 78734, US","link":"https://abc.austintexas.gov/web/permit/public-search-other?t_detail=1&t_selected_folderrsn=10161790","tcad_id":"0145680923","location":"    (30.37752732, -97.95312629)","day_issued":"WEDNESDAY","project_id":"10161790","condominium":"No","status_date":"10/09/2008","jurisdiction":"LAKEWAY ETJ","housing_units":"0","contractor_city":"LEANDER","issuance_method":"Permit Center","contractor_phone":"5126336308","contractor_trade":"Electrical Contractor","number_of_floors":"0","permit_type_desc":"Electrical Permit","fiscal_year_issued":"2008","permit_class_mapped":"Residential","remodel_repair_sqft":"0","contractor_address_1":"8027 BRONCO","contractor_address_2":"LEANDER TX","contractor_full_name":"William England","issued_in_last_30_days":"No","certificate_of_occupancy":"No","property_legal_description":"ABS 2453 SUR 84 STEWART B K ACR .180","electrical_valuation_remodel":"$2,400.00"},"geometry":{"type":"Point","coordinates":[-97.95312629,30.37752732]}},{"type":"Feature","properties":{"date":"2008-04-22T04:00:00.000Z","year":2008,"description":"upgrading electrical service to existing bldg only","metadescription":"EP. Upgrade. upgrading electrical service to existing bldg only. Final. 2105 S FM 620 RD BLDG 1","address":"2105 South Farm to Market 620, Austin, TX, 78734, US","link":"https://abc.austintexas.gov/web/permit/public-search-other?t_detail=1&t_selected_folderrsn=10139307","tcad_id":"0126770402","location":"    (30.34124744, -97.96447867)","day_issued":"TUESDAY","project_id":"10139307","condominium":"No","status_date":"10/09/2008","jurisdiction":"LAKEWAY FULL PURPOSE","housing_units":"0","contractor_zip":"78753","contractor_city":"Austin","issuance_method":"Permit Center","contractor_phone":"5123399340","contractor_trade":"Electrical Contractor","number_of_floors":"0","permit_type_desc":"Electrical Permit","fiscal_year_issued":"2008","permit_class_mapped":"Commercial","remodel_repair_sqft":"0","contractor_address_2":"11302  Polly","contractor_full_name":"John Lambert","issued_in_last_30_days":"No","certificate_of_occupancy":"No","property_legal_description":"ABS 2526 SUR 196 WOOLDRIDGE J ACR 10.6500","electrical_valuation_remodel":"$1,200.00"},"geometry":{"type":"Point","coordinates":[-97.96447867,30.34124744]}},{"type":"Feature","properties":{"date":"2008-04-22T04:00:00.000Z","year":2008,"description":"upgrading electrical service to existing bldg only","metadescription":"EP. Upgrade. upgrading electrical service to existing bldg only. Final. 2105 S FM 620 RD BLDG 2 UNIT 206","address":"2105 South Farm to Market 620, Austin, TX, 78734, US","link":"https://abc.austintexas.gov/web/permit/public-search-other?t_detail=1&t_selected_folderrsn=10139310","tcad_id":"0126770402","location":"    (30.34124744, -97.96447867)","day_issued":"TUESDAY","project_id":"10139310","condominium":"No","status_date":"10/09/2008","jurisdiction":"LAKEWAY FULL PURPOSE","housing_units":"0","contractor_zip":"78753","contractor_city":"Austin","issuance_method":"Permit Center","contractor_phone":"5123399340","contractor_trade":"Electrical Contractor","number_of_floors":"0","permit_type_desc":"Electrical Permit","fiscal_year_issued":"2008","permit_class_mapped":"Commercial","remodel_repair_sqft":"0","contractor_address_2":"11302  Polly","contractor_full_name":"John Lambert","issued_in_last_30_days":"No","certificate_of_occupancy":"No","property_legal_description":"ABS 2526 SUR 196 WOOLDRIDGE J ACR 10.6500","electrical_valuation_remodel":"$1,200.00"},"geometry":{"type":"Point","coordinates":[-97.96447867,30.34124744]}},{"type":"Feature","properties":{"date":"2007-02-16T05:00:00.000Z","year":2007,"description":"Upgrading Exst. Elec. Srv Only","metadescription":"EP. Remodel. Upgrading Exst. Elec. Srv Only. Expired. 16201 SPRING BRANCH TRL","address":"16201 Spring Branch Trail, Austin, TX, 78734, US","link":"https://abc.austintexas.gov/web/permit/public-search-other?t_detail=1&t_selected_folderrsn=4392926","tcad_id":"0145680606","location":"    (30.37960081, -97.95548904)","day_issued":"FRIDAY","project_id":"4392926","condominium":"No","status_date":"08/23/2007","jurisdiction":"LAKEWAY ETJ","contractor_zip":"78739","contractor_city":"Austin","issuance_method":"Permit Center","contractor_phone":"5127995333","contractor_trade":"Electrical Contractor","permit_type_desc":"Electrical Permit","fiscal_year_issued":"2007","permit_class_mapped":"Residential","contractor_address_1":"15002 GEBRON","contractor_address_2":"AUSTIN TX  7","contractor_full_name":"Paul K Riley","issued_in_last_30_days":"No","certificate_of_occupancy":"No","property_legal_description":"ABS 2453 SUR 84 STEWART B K ACR .2246"},"geometry":{"type":"Point","coordinates":[-97.95548904,30.37960081]}},{"type":"Feature","properties":{"date":"2005-09-13T04:00:00.000Z","year":2005,"description":"Upgrading Exst. Elec Srv Only-Eud","metadescription":"EP. Remodel. Upgrading Exst. Elec Srv Only-Eud. Final. 15303 S FLAMINGO DR","address":"15303 South Flamingo Drive, Austin, TX, 78734, US","link":"https://abc.austintexas.gov/web/permit/public-search-other?t_detail=1&t_selected_folderrsn=4368044","tcad_id":"0139661203","location":"    (30.36072639, -97.95239918)","day_issued":"TUESDAY","project_id":"4368044","condominium":"No","status_date":"03/05/2007","jurisdiction":"LAKEWAY FULL PURPOSE","contractor_zip":"78737","contractor_city":"Austin","issuance_method":"Permit Center","contractor_phone":"8306135944","contractor_trade":"Electrical Contractor","permit_type_desc":"Electrical Permit","fiscal_year_issued":"2005","permit_class_mapped":"Residential","contractor_address_1":"201 COLE ST","contractor_address_2":"AUSTIN TX  7","contractor_full_name":"Norberto Martinez","issued_in_last_30_days":"No","certificate_of_occupancy":"No","property_legal_description":"LOT 19 CARDINAL HILLS UNIT 3"},"geometry":{"type":"Point","coordinates":[-97.95239918,30.36072639]}},{"type":"Feature","properties":{"date":"2004-03-04T05:00:00.000Z","year":2004,"description":"Upgrading Exst. Elec Srv Only","metadescription":"BP. Remodel. Upgrading Exst. Elec Srv Only. Final. 108 HAZELTINE CT","address":"108 Hazeltine Court, Austin, TX, 78734, US","link":"https://abc.austintexas.gov/web/permit/public-search-other?t_detail=1&t_selected_folderrsn=707519","tcad_id":"0139700717","location":"    (30.36062741, -97.9645799)","day_issued":"THURSDAY","project_id":"707519","condominium":"No","status_date":"06/06/2007","jurisdiction":"LAKEWAY FULL PURPOSE","issuance_method":"Permit Center","permit_type_desc":"Building Permit","fiscal_year_issued":"2004","permit_class_mapped":"Residential","issued_in_last_30_days":"No","certificate_of_occupancy":"No","property_legal_description":"LOT 3857 LAKEWAY SEC CLUSTERS 28 IV"},"geometry":{"type":"Point","coordinates":[-97.9645799,30.36062741]}},{"type":"Feature","properties":{"date":"2004-03-04T05:00:00.000Z","year":2004,"description":"Upgrading Exst. Elec Srv Only","metadescription":"EP. Remodel. Upgrading Exst. Elec Srv Only. Final. 108 HAZELTINE CT","address":"108 Hazeltine Court, Austin, TX, 78734, US","link":"https://abc.austintexas.gov/web/permit/public-search-other?t_detail=1&t_selected_folderrsn=4344728","tcad_id":"0139700717","location":"    (30.36062741, -97.9645799)","day_issued":"THURSDAY","project_id":"4344728","condominium":"No","status_date":"06/06/2007","jurisdiction":"LAKEWAY FULL PURPOSE","contractor_zip":"78654-____","contractor_city":"SPICEWOOD","issuance_method":"Permit Center","contractor_phone":"5122631214","contractor_trade":"Electrical Contractor","permit_type_desc":"Electrical Permit","master_permit_num":"707519","fiscal_year_issued":"2004","permit_class_mapped":"Residential","contractor_address_1":"PO BOX 449","contractor_full_name":"Jackie D Oliver","issued_in_last_30_days":"No","certificate_of_occupancy":"No","property_legal_description":"LOT 3857 LAKEWAY SEC CLUSTERS 28 IV"},"geometry":{"type":"Point","coordinates":[-97.9645799,30.36062741]}},{"type":"Feature","properties":{"date":"2003-09-30T04:00:00.000Z","year":2003,"description":"Upgrading Exst.  Res. Elec Srv -Eud","metadescription":"EP. Remodel. Upgrading Exst.  Res. Elec Srv -Eud. Final. 81 THE HILLS DR","address":"81 The Hills Drive, Austin, TX, 78738, US","link":"https://abc.austintexas.gov/web/permit/public-search-other?t_detail=1&t_selected_folderrsn=4339671","tcad_id":"0131780614","location":"    (30.33953339, -97.98537776)","day_issued":"TUESDAY","project_id":"4339671","condominium":"No","status_date":"03/05/2007","jurisdiction":"THE HILLS FULL PURPOSE","contractor_zip":"78620","contractor_city":"DRIPPING SPR","issuance_method":"Permit Center","contractor_phone":"5127516439","contractor_trade":"Electrical Contractor","permit_type_desc":"Electrical Permit","fiscal_year_issued":"2003","permit_class_mapped":"Residential","contractor_address_2":"100  Commons","contractor_full_name":"Louie V Bruno","issued_in_last_30_days":"No","certificate_of_occupancy":"No","property_legal_description":"LOT 263A HILLS OF LAKEWAY PHS 4 THE AMENDED PLAT OF LOTS 263&264"},"geometry":{"type":"Point","coordinates":[-97.98537776,30.33953339]}},{"type":"Feature","properties":{"date":"2003-05-05T04:00:00.000Z","year":2003,"description":"Upgrading Exst. Elec. Srv Only","metadescription":"EP. Remodel. Upgrading Exst. Elec. Srv Only. Final. 309 CEDAR HURST LN","address":"309 Cedar Hurst Lane, Austin, TX, 78734, US","link":"https://abc.austintexas.gov/web/permit/public-search-other?t_detail=1&t_selected_folderrsn=4334208","tcad_id":"0143700202","location":"    (30.37489734, -97.96303676)","day_issued":"MONDAY","project_id":"4334208","condominium":"No","status_date":"03/05/2007","jurisdiction":"LAKEWAY ETJ","contractor_zip":"78660","contractor_city":"Pflugerville","issuance_method":"Permit Center","contractor_phone":"5129994288","contractor_trade":"Electrical Contractor","permit_type_desc":"Electrical Permit","fiscal_year_issued":"2003","permit_class_mapped":"Residential","contractor_address_1":"2017 MAPIR V","contractor_address_2":"PFLUGERVILLE","contractor_full_name":"Todd Ebenhoeh","issued_in_last_30_days":"No","certificate_of_occupancy":"No","property_legal_description":"LOT 6 * LESS .0080ACR ROUND MOUNTAIN SUBD"},"geometry":{"type":"Point","coordinates":[-97.96303676,30.37489734]}},{"type":"Feature","properties":{"date":"2003-02-19T05:00:00.000Z","year":2003,"description":"Upgrading Exst. Elec Srv Onl-Eud","metadescription":"EP. Remodel. Upgrading Exst. Elec Srv Onl-Eud. Expired. 1407 PARKER BND","address":"1407 Parker Bend, Austin, TX, 78734, US","link":"https://abc.austintexas.gov/web/permit/public-search-other?t_detail=1&t_selected_folderrsn=4331453","tcad_id":"0133680626","location":"    (30.3447137, -97.95665338)","day_issued":"WEDNESDAY","project_id":"4331453","condominium":"No","status_date":"05/07/2007","jurisdiction":"LAKEWAY FULL PURPOSE","contractor_zip":"78681","contractor_city":"Round Rock","issuance_method":"Permit Center","contractor_phone":"5122180020","contractor_trade":"Electrical Contractor","permit_type_desc":"Electrical Permit","fiscal_year_issued":"2003","permit_class_mapped":"Residential","contractor_address_1":"1501 SAGEBRU","contractor_address_2":"ROUND ROCK T","contractor_full_name":"Edward Shanklin","issued_in_last_30_days":"No","certificate_of_occupancy":"No","property_legal_description":"LOT 26-28 BLK C TRAVIS OAK TRAILS"},"geometry":{"type":"Point","coordinates":[-97.95665338,30.3447137]}},{"type":"Feature","properties":{"date":"2001-11-14T05:00:00.000Z","year":2001,"description":"Replacing Exst. Elec Srv From Overhead To Underground & Upgrading Elec Srv Only","metadescription":"EP. Remodel. Replacing Exst. Elec Srv From Overhead To Underground & Upgrading Elec Srv Only. Final. 1514 S FM 620 RD","address":"1514 South Farm to Market 620, Austin, TX, 78734, US","link":"https://abc.austintexas.gov/web/permit/public-search-other?t_detail=1&t_selected_folderrsn=4315420","tcad_id":"0133700213","location":"    (30.34726309, -97.96467658)","day_issued":"WEDNESDAY","project_id":"4315420","condominium":"No","status_date":"03/05/2007","jurisdiction":"LAKEWAY FULL PURPOSE","contractor_zip":"75134","contractor_city":"Lancaster","issuance_method":"Permit Center","contractor_phone":"9722271437","contractor_trade":"Electrical Contractor","permit_type_desc":"Electrical Permit","fiscal_year_issued":"2002","permit_class_mapped":"Commercial","contractor_address_1":"503 LAUREL S","contractor_full_name":"Joe Rawlinson","issued_in_last_30_days":"No","certificate_of_occupancy":"No","property_legal_description":"LOT 1 CARPENTER DANIEL SUBD"},"geometry":{"type":"Point","coordinates":[-97.96467658,30.34726309]}},{"type":"Feature","properties":{"date":"2001-10-04T04:00:00.000Z","year":2001,"description":"Upgrading Exst. Elec Srv Only Eud","metadescription":"EP. Remodel. Upgrading Exst. Elec Srv Only Eud. Final. 1010 STEWART CV","address":"1010 Stewart Cove, Austin, TX, 78734, US","link":"https://abc.austintexas.gov/web/permit/public-search-other?t_detail=1&t_selected_folderrsn=4315354","tcad_id":"0147681203","location":"    (30.38076802, -97.95851816)","day_issued":"THURSDAY","project_id":"4315354","condominium":"No","status_date":"03/19/2007","jurisdiction":"LAKEWAY ETJ","contractor_zip":"78660","contractor_city":"PFLUGERVILLE","issuance_method":"Permit Center","contractor_phone":"5129901600","contractor_trade":"Electrical Contractor","permit_type_desc":"Electrical Permit","fiscal_year_issued":"2002","permit_class_mapped":"Residential","contractor_address_2":"2720  AMEN C","contractor_full_name":"Lance G. Swedlund","issued_in_last_30_days":"No","certificate_of_occupancy":"No","property_legal_description":"ABS 616 SUR 628 PEARSON I H ACR .300"},"geometry":{"type":"Point","coordinates":[-97.95851816,30.38076802]}},{"type":"Feature","properties":{"date":"2001-04-23T04:00:00.000Z","year":2001,"description":"Upgrading Exst Comm.  Elec Srv Only Eud","metadescription":"EP. Remodel. Upgrading Exst Comm.  Elec Srv Only Eud. Final. 2002 S FM 620 RD","address":"2002 South Farm to Market 620, Austin, TX, 78734, US","link":"https://abc.austintexas.gov/web/permit/public-search-other?t_detail=1&t_selected_folderrsn=4309744","tcad_id":"0133700325","location":"    (30.34387759, -97.96721079)","day_issued":"MONDAY","project_id":"4309744","condominium":"No","status_date":"03/05/2007","jurisdiction":"LAKEWAY FULL PURPOSE","contractor_zip":"78709-0548","contractor_city":"Austin","issuance_method":"Permit Center","contractor_phone":"5122882603","contractor_trade":"Electrical Contractor","permit_type_desc":"Electrical Permit","fiscal_year_issued":"2001","permit_class_mapped":"Commercial","contractor_address_1":"P.O.Box 9054","contractor_full_name":"Charles Farrell","issued_in_last_30_days":"No","certificate_of_occupancy":"No","property_legal_description":"LOT 1 BLK A OAKS AT LAKEWAY SUBD"},"geometry":{"type":"Point","coordinates":[-97.96721079,30.34387759]}},{"type":"Feature","properties":{"date":"2001-02-26T05:00:00.000Z","year":2001,"description":"Upgrading Exst Elec Srv Only Eud","metadescription":"EP. Remodel. Upgrading Exst Elec Srv Only Eud. Final. 16405 CLARA VAN","address":"16405 Clara Van, Austin, TX, 78734, US","link":"https://abc.austintexas.gov/web/permit/public-search-other?t_detail=1&t_selected_folderrsn=4307856","tcad_id":"0145700130","location":"    (30.37700073, -97.96345452)","day_issued":"MONDAY","project_id":"4307856","condominium":"No","status_date":"03/05/2007","jurisdiction":"LAKEWAY FULL PURPOSE","contractor_zip":"78758","contractor_city":"Austin","issuance_method":"Permit Center","contractor_phone":"5128348174","contractor_trade":"Electrical Contractor","permit_type_desc":"Electrical Permit","fiscal_year_issued":"2001","permit_class_mapped":"Commercial","contractor_address_2":"9802  Gray B","contractor_full_name":"Tim Moll","issued_in_last_30_days":"No","certificate_of_occupancy":"No","property_legal_description":"LOT 10A BAR S RANCH SUBD NO 2 & ABS 616 SUR 628 PEARSON I H ACR 20.7754"},"geometry":{"type":"Point","coordinates":[-97.96345452,30.37700073]}},{"type":"Feature","properties":{"date":"1999-09-20T04:00:00.000Z","year":1999,"description":"Upgrading Res Elec Srv Only Eud","metadescription":"MP. Remodel. Upgrading Res Elec Srv Only Eud. Final. 16142 SPRING BRANCH TRL","address":"16142 Spring Branch Trail, Austin, TX, 78734, US","link":"https://abc.austintexas.gov/web/permit/public-search-other?t_detail=1&t_selected_folderrsn=3380019","tcad_id":"0145680222","location":"    (30.38028434, -97.95512326)","day_issued":"MONDAY","project_id":"3380019","condominium":"No","status_date":"05/22/2007","jurisdiction":"LAKEWAY ETJ","housing_units":"1","issuance_method":"Permit Center","permit_type_desc":"Mechanical Permit","master_permit_num":"4290735","fiscal_year_issued":"1999","permit_class_mapped":"Residential","issued_in_last_30_days":"No","certificate_of_occupancy":"No","property_legal_description":"ABS 2453 SUR 84 STEWART B K ACR .821"},"geometry":{"type":"Point","coordinates":[-97.95512326,30.38028434]}},{"type":"Feature","properties":{"date":"1999-09-20T04:00:00.000Z","year":1999,"description":"Upgrading Res Elec Srv Only Eud","metadescription":"EP. Remodel. Upgrading Res Elec Srv Only Eud. Final. 16142 SPRING BRANCH TRL","address":"16142 Spring Branch Trail, Austin, TX, 78734, US","link":"https://abc.austintexas.gov/web/permit/public-search-other?t_detail=1&t_selected_folderrsn=4290735","tcad_id":"0145680222","location":"    (30.38028434, -97.95512326)","day_issued":"MONDAY","project_id":"4290735","condominium":"No","status_date":"05/22/2007","jurisdiction":"LAKEWAY ETJ","housing_units":"1","issuance_method":"Permit Center","permit_type_desc":"Electrical Permit","fiscal_year_issued":"1999","permit_class_mapped":"Residential","issued_in_last_30_days":"No","certificate_of_occupancy":"No","property_legal_description":"ABS 2453 SUR 84 STEWART B K ACR .821"},"geometry":{"type":"Point","coordinates":[-97.95512326,30.38028434]}}]}
