{"type":"FeatureCollection","features":[{"type":"Feature","properties":{"date":"2023-11-30T05:00:00.000Z","year":2023,"description":"install a full lawn sprinkler system","metadescription":"PP. Irrigation. install a full lawn sprinkler system. Final. 106 BELLA MONTAGNA CIR","address":"106 BELLA MONTAGNA CIR","link":"https://abc.austintexas.gov/web/permit/public-search-other?t_detail=1&t_selected_folderrsn=13239328","tcad_id":"0139680809","location":"    (30.35978613, -97.95745857)","day_issued":"THURSDAY","project_id":"13239328","status_date":"05/17/2024","jurisdiction":"LAKEWAY FULL PURPOSE","issuance_method":"Permit Center","permit_type_desc":"Plumbing Permit","fiscal_year_issued":"2024","permit_class_mapped":"Residential","issued_in_last_30_days":"No","property_legal_description":"LOT 69 BELLA MONTAGNA ESTATES (FORMERLY ROUND MOUNTAIN ESTATES 2)"},"geometry":{"type":"Point","coordinates":[-97.95745857,30.35978613]}},{"type":"Feature","properties":{"date":"2022-07-08T04:00:00.000Z","year":2022,"description":"WIRING TRIM AND SERVICE BUILD OF A MULTI FAMILY RESIDENCE LOCATED IN A ETJ AREA. BUILDING 22 UNITS 1-3 AND IRRIGATION METER","metadescription":"EP. Repair. WIRING TRIM AND SERVICE BUILD OF A MULTI FAMILY RESIDENCE LOCATED IN A ETJ AREA. BUILDING 22 UNITS 1-3 AND IRRIGATION METER. Final. 2050 LOHMANS SPUR RD BLDG 22","address":"2050 LOHMANS SPUR RD BLDG 22","link":"https://abc.austintexas.gov/web/permit/public-search-other?t_detail=1&t_selected_folderrsn=12784651","tcad_id":"0131730701","location":"    (30.34047771, -97.97180299)","day_issued":"FRIDAY","project_id":"12784651","condominium":"No","status_date":"12/27/2022","jurisdiction":"LAKEWAY FULL PURPOSE","housing_units":"1","contractor_zip":"76537-____","contractor_city":"Jarrell","issuance_method":"Permit Center","contractor_phone":"5124269388","contractor_trade":"Electrical Contractor","number_of_floors":"1","permit_type_desc":"Electrical Permit","fiscal_year_issued":"2022","permit_class_mapped":"Commercial","remodel_repair_sqft":"2,040","contractor_address_2":"208  Midas T","contractor_full_name":"AUGUSTIN LOPEZ","issued_in_last_30_days":"No","certificate_of_occupancy":"No","electrical_valuation_remodel":"$30,000.00"},"geometry":{"type":"Point","coordinates":[-97.97180299,30.34047771]}},{"type":"Feature","properties":{"date":"2022-05-27T04:00:00.000Z","year":2022,"description":"Replace 2 irrigation backflow devices","metadescription":"PP. Irrigation. Replace 2 irrigation backflow devices. Expired. 1604 LOHMANS CROSSING RD","address":"1604 LOHMANS CROSSING RD","link":"https://abc.austintexas.gov/web/permit/public-search-other?t_detail=1&t_selected_folderrsn=12941680","tcad_id":"0137760822","location":"    (30.35451154, -97.97895299)","day_issued":"FRIDAY","project_id":"12941680","status_date":"11/24/2022","jurisdiction":"LAKEWAY FULL PURPOSE","contractor_zip":"75247","contractor_city":"Dallas","issuance_method":"Permit Center","contractor_phone":"8175849744","contractor_trade":"Plumbing Contractor","permit_type_desc":"Plumbing Permit","fiscal_year_issued":"2022","permit_class_mapped":"Commercial","contractor_address_2":"8900  John W","contractor_full_name":"Ronald Duckett","issued_in_last_30_days":"No","property_legal_description":"LOT 1 VISTA OAKS OF LAKEWAY"},"geometry":{"type":"Point","coordinates":[-97.97895299,30.35451154]}},{"type":"Feature","properties":{"date":"2022-05-12T04:00:00.000Z","year":2022,"description":"WIRING  TRIM OUT AND SERVICE BUILD OF A MULTI FAMILY RESIDENCE LOCATED IN ETJ AREA. BUILDING 12 UNITS 1-5 AND IRRIGATION METER","metadescription":"EP. Repair. WIRING  TRIM OUT AND SERVICE BUILD OF A MULTI FAMILY RESIDENCE LOCATED IN ETJ AREA. BUILDING 12 UNITS 1-5 AND IRRIGATION METER. Final. 2050 LOHMANS SPUR RD BLDG 12","address":"2050 LOHMANS SPUR RD BLDG 12","link":"https://abc.austintexas.gov/web/permit/public-search-other?t_detail=1&t_selected_folderrsn=12784598","tcad_id":"0131730701","location":"    (30.34047771, -97.97180299)","day_issued":"THURSDAY","project_id":"12784598","condominium":"No","status_date":"02/22/2023","jurisdiction":"LAKEWAY FULL PURPOSE","housing_units":"1","contractor_zip":"76537-____","contractor_city":"Jarrell","issuance_method":"Permit Center","contractor_phone":"5124269388","contractor_trade":"Electrical Contractor","number_of_floors":"1","permit_type_desc":"Electrical Permit","fiscal_year_issued":"2022","permit_class_mapped":"Commercial","remodel_repair_sqft":"0","contractor_address_2":"208  Midas T","contractor_full_name":"AUGUSTIN LOPEZ","issued_in_last_30_days":"No","certificate_of_occupancy":"No","electrical_valuation_remodel":"$30,000.00"},"geometry":{"type":"Point","coordinates":[-97.97180299,30.34047771]}},{"type":"Feature","properties":{"date":"2022-03-09T05:00:00.000Z","year":2022,"description":"wiring and service build of a unit in multifamily building located in a ETJ area. Units 1901-1902 with irrigation meter","metadescription":"EP. Repair. wiring and service build of a unit in multifamily building located in a ETJ area. Units 1901-1902 with irrigation meter. Final. 2050 LOHMANS SPUR RD BLDG 19","address":"2050 LOHMANS SPUR RD BLDG 19","link":"https://abc.austintexas.gov/web/permit/public-search-other?t_detail=1&t_selected_folderrsn=12880721","tcad_id":"0131730701","location":"    (30.34047771, -97.97180299)","day_issued":"WEDNESDAY","project_id":"12880721","condominium":"No","status_date":"07/15/2022","jurisdiction":"LAKEWAY FULL PURPOSE","housing_units":"1","contractor_zip":"76537-____","contractor_city":"Jarrell","issuance_method":"Permit Center","contractor_phone":"5124269388","contractor_trade":"Electrical Contractor","number_of_floors":"1","permit_type_desc":"Electrical Permit","fiscal_year_issued":"2022","permit_class_mapped":"Commercial","remodel_repair_sqft":"2,945","contractor_address_2":"208  Midas T","contractor_full_name":"AUGUSTIN LOPEZ","issued_in_last_30_days":"No","certificate_of_occupancy":"No","electrical_valuation_remodel":"$10,000.00"},"geometry":{"type":"Point","coordinates":[-97.97180299,30.34047771]}},{"type":"Feature","properties":{"date":"2021-12-27T05:00:00.000Z","year":2021,"description":"WIRING TRIM OUT AND SERVICE BUILD OF A MULTI FAMILY RESIDENCE LOCATED INSIDE A ETJ AREA. BLDNG 21 UNITS 1-2 AND IRRIGATION METER","metadescription":"EP. Repair. WIRING TRIM OUT AND SERVICE BUILD OF A MULTI FAMILY RESIDENCE LOCATED INSIDE A ETJ AREA. BLDNG 21 UNITS 1-2 AND IRRIGATION METER. Expired. 2050 LOHMANS SPUR RD BLDG 21","address":"2050 LOHMANS SPUR RD BLDG 21","link":"https://abc.austintexas.gov/web/permit/public-search-other?t_detail=1&t_selected_folderrsn=12784634","tcad_id":"0131730701","location":"    (30.34047771, -97.97180299)","day_issued":"MONDAY","project_id":"12784634","condominium":"No","status_date":"06/27/2022","jurisdiction":"LAKEWAY FULL PURPOSE","housing_units":"1","contractor_zip":"78660-____","contractor_city":"PFLUGERVILLE","issuance_method":"Permit Center","contractor_phone":"5129687640","contractor_trade":"Electrical Contractor","number_of_floors":"1","permit_type_desc":"Electrical Permit","fiscal_year_issued":"2022","permit_class_mapped":"Commercial","remodel_repair_sqft":"0","contractor_address_2":"4708  Tully","contractor_full_name":"Christopher Roman","issued_in_last_30_days":"No","certificate_of_occupancy":"No","electrical_valuation_remodel":"$30,000.00"},"geometry":{"type":"Point","coordinates":[-97.97180299,30.34047771]}},{"type":"Feature","properties":{"date":"2021-10-29T04:00:00.000Z","year":2021,"description":"WIRING TRIM AND SERVICE BUILD OF A MULTI FAMILY RESIDENCE LOCATED IN A ETJ AREA. BUILDING 20 UNITS 1-5 AND IRRIGATION METER","metadescription":"EP. Repair. WIRING TRIM AND SERVICE BUILD OF A MULTI FAMILY RESIDENCE LOCATED IN A ETJ AREA. BUILDING 20 UNITS 1-5 AND IRRIGATION METER. Final. 2050 LOHMANS SPUR RD BLDG 20","address":"2050 LOHMANS SPUR RD BLDG 20","link":"https://abc.austintexas.gov/web/permit/public-search-other?t_detail=1&t_selected_folderrsn=12784623","tcad_id":"0131730701","location":"    (30.34047771, -97.97180299)","day_issued":"FRIDAY","project_id":"12784623","condominium":"No","status_date":"09/16/2022","jurisdiction":"LAKEWAY FULL PURPOSE","housing_units":"1","contractor_zip":"76537-____","contractor_city":"Jarrell","issuance_method":"Permit Center","contractor_phone":"5124269388","contractor_trade":"Electrical Contractor","number_of_floors":"1","permit_type_desc":"Electrical Permit","fiscal_year_issued":"2022","permit_class_mapped":"Commercial","remodel_repair_sqft":"0","contractor_address_2":"208  Midas T","contractor_full_name":"AUGUSTIN LOPEZ","issued_in_last_30_days":"No","certificate_of_occupancy":"No","electrical_valuation_remodel":"$30.00"},"geometry":{"type":"Point","coordinates":[-97.97180299,30.34047771]}},{"type":"Feature","properties":{"date":"2021-07-22T04:00:00.000Z","year":2021,"description":"WIRING TRIM  AND SERVICE BUILD OF A NEW MULTI FAMILY RESIDENCE. UNITS 1-4 AND IRRIGATION METER","metadescription":"EP. Repair. WIRING TRIM  AND SERVICE BUILD OF A NEW MULTI FAMILY RESIDENCE. UNITS 1-4 AND IRRIGATION METER. Final. 2050 LOHMANS SPUR RD BLDG 6","address":"2050 LOHMANS SPUR RD BLDG 6","link":"https://abc.austintexas.gov/web/permit/public-search-other?t_detail=1&t_selected_folderrsn=12742348","tcad_id":"0131730701","location":"    (30.34047771, -97.97180299)","day_issued":"THURSDAY","project_id":"12742348","condominium":"No","status_date":"06/09/2022","jurisdiction":"LAKEWAY FULL PURPOSE","housing_units":"1","contractor_zip":"76537-____","contractor_city":"Jarrell","issuance_method":"Permit Center","contractor_phone":"5124269388","contractor_trade":"Electrical Contractor","number_of_floors":"1","permit_type_desc":"Electrical Permit","fiscal_year_issued":"2021","permit_class_mapped":"Commercial","remodel_repair_sqft":"0","contractor_address_2":"208  Midas T","contractor_full_name":"AUGUSTIN LOPEZ","issued_in_last_30_days":"No","certificate_of_occupancy":"No","electrical_valuation_remodel":"$60,000.00"},"geometry":{"type":"Point","coordinates":[-97.97180299,30.34047771]}},{"type":"Feature","properties":{"date":"2021-06-21T04:00:00.000Z","year":2021,"description":"WIRING AND SERVICE BUILD OF A MULTI FAMILY RESIDENCE. BLDNG 10 UNITS 1001-1003 AND IRRIGATION METER","metadescription":"EP. Repair. WIRING AND SERVICE BUILD OF A MULTI FAMILY RESIDENCE. BLDNG 10 UNITS 1001-1003 AND IRRIGATION METER. Expired. 2050 LOHMANS SPUR RD BLDG 10","address":"2050 LOHMANS SPUR RD BLDG 10","link":"https://abc.austintexas.gov/web/permit/public-search-other?t_detail=1&t_selected_folderrsn=12721407","tcad_id":"0131730701","location":"    (30.34047771, -97.97180299)","day_issued":"MONDAY","project_id":"12721407","condominium":"No","status_date":"11/15/2022","jurisdiction":"LAKEWAY FULL PURPOSE","housing_units":"1","contractor_zip":"78660-____","contractor_city":"PFLUGERVILLE","issuance_method":"Permit Center","contractor_phone":"5129687640","contractor_trade":"Electrical Contractor","number_of_floors":"1","permit_type_desc":"Electrical Permit","fiscal_year_issued":"2021","permit_class_mapped":"Commercial","remodel_repair_sqft":"0","contractor_address_2":"4708  Tully","contractor_full_name":"Christopher Roman","issued_in_last_30_days":"No","certificate_of_occupancy":"No","electrical_valuation_remodel":"$15,000.00"},"geometry":{"type":"Point","coordinates":[-97.97180299,30.34047771]}},{"type":"Feature","properties":{"date":"2021-06-17T04:00:00.000Z","year":2021,"description":"WIRING AND SERVICE BUILD OF A MULI FAMILY RESIDENCE WITH IRRIGATION METER. BLDNG 15 UNITS 1501-1504","metadescription":"EP. Repair. WIRING AND SERVICE BUILD OF A MULI FAMILY RESIDENCE WITH IRRIGATION METER. BLDNG 15 UNITS 1501-1504. Final. 2050 LOHMANS SPUR RD BLDG 15","address":"2050 LOHMANS SPUR RD BLDG 15","link":"https://abc.austintexas.gov/web/permit/public-search-other?t_detail=1&t_selected_folderrsn=12715899","tcad_id":"0131730701","location":"    (30.34047771, -97.97180299)","day_issued":"THURSDAY","project_id":"12715899","condominium":"No","status_date":"05/09/2022","jurisdiction":"LAKEWAY FULL PURPOSE","housing_units":"1","contractor_zip":"76537-____","contractor_city":"Jarrell","issuance_method":"Permit Center","contractor_phone":"5124269388","contractor_trade":"Electrical Contractor","number_of_floors":"1","permit_type_desc":"Electrical Permit","fiscal_year_issued":"2021","permit_class_mapped":"Residential","remodel_repair_sqft":"0","contractor_address_2":"208  Midas T","contractor_full_name":"AUGUSTIN LOPEZ","issued_in_last_30_days":"No","certificate_of_occupancy":"No","electrical_valuation_remodel":"$15,000.00"},"geometry":{"type":"Point","coordinates":[-97.97180299,30.34047771]}},{"type":"Feature","properties":{"date":"2021-06-17T04:00:00.000Z","year":2021,"description":"WIRING AND SERVICE BUILD OF A MULTI FAMILY RESIDENCE AND IRRIGATION METER. BLDNG 16 UNITS 1 AND 2","metadescription":"EP. Repair. WIRING AND SERVICE BUILD OF A MULTI FAMILY RESIDENCE AND IRRIGATION METER. BLDNG 16 UNITS 1 AND 2. Expired. 2050 LOHMANS SPUR RD BLDG 16","address":"2050 LOHMANS SPUR RD BLDG 16","link":"https://abc.austintexas.gov/web/permit/public-search-other?t_detail=1&t_selected_folderrsn=12715882","tcad_id":"0131730701","location":"    (30.34047771, -97.97180299)","day_issued":"THURSDAY","project_id":"12715882","condominium":"No","status_date":"03/03/2022","jurisdiction":"LAKEWAY FULL PURPOSE","housing_units":"1","contractor_zip":"78660-____","contractor_city":"PFLUGERVILLE","issuance_method":"Permit Center","contractor_phone":"5129687640","contractor_trade":"Electrical Contractor","number_of_floors":"1","permit_type_desc":"Electrical Permit","fiscal_year_issued":"2021","permit_class_mapped":"Residential","remodel_repair_sqft":"0","contractor_address_2":"4708  Tully","contractor_full_name":"Christopher Roman","issued_in_last_30_days":"No","certificate_of_occupancy":"No","electrical_valuation_remodel":"$15,000.00"},"geometry":{"type":"Point","coordinates":[-97.97180299,30.34047771]}},{"type":"Feature","properties":{"date":"2019-11-20T05:00:00.000Z","year":2019,"description":"Installing new irrigation system to existing residence. Lakeway ETJ","metadescription":"PP. Irrigation. Installing new irrigation system to existing residence. Lakeway ETJ. Expired. 15102 DOROTHY DR","address":"15102 DOROTHY DR","link":"https://abc.austintexas.gov/web/permit/public-search-other?t_detail=1&t_selected_folderrsn=12366765","tcad_id":"0135680214","location":"    (30.35183518, -97.95508262)","day_issued":"WEDNESDAY","project_id":"12366765","status_date":"03/03/2022","jurisdiction":"LAKEWAY FULL PURPOSE","issuance_method":"Permit Center","permit_type_desc":"Plumbing Permit","fiscal_year_issued":"2020","permit_class_mapped":"Residential","issued_in_last_30_days":"No","property_legal_description":"LOT 97 CARDINAL HILLS UNIT 4A"},"geometry":{"type":"Point","coordinates":[-97.95508262,30.35183518]}},{"type":"Feature","properties":{"date":"2018-08-16T04:00:00.000Z","year":2018,"description":"Run AE electrical service to an Irrigation meter for subdivision. EUD","metadescription":"EP. Repair. Run AE electrical service to an Irrigation meter for subdivision. EUD. Final. 101 1/2 HONEY CREEK CT","address":"101 1/2 HONEY CREEK CT","link":"https://abc.austintexas.gov/web/permit/public-search-other?t_detail=1&t_selected_folderrsn=12006842","tcad_id":"0127700701","location":"    (30.33077139, -97.96683788)","day_issued":"THURSDAY","project_id":"12006842","condominium":"No","status_date":"08/31/2018","jurisdiction":"LAKEWAY FULL PURPOSE","housing_units":"1","contractor_zip":"78691-____","contractor_city":"PFLUGERVILLE","issuance_method":"Permit Center","contractor_phone":"5128328900","contractor_trade":"Electrical Contractor","number_of_floors":"1","permit_type_desc":"Electrical Permit","fiscal_year_issued":"2018","permit_class_mapped":"Residential","remodel_repair_sqft":"0","contractor_address_1":"PO BOX 3289","contractor_full_name":"Bryan Neal","issued_in_last_30_days":"No","certificate_of_occupancy":"No","electrical_valuation_remodel":"$200.00"},"geometry":{"type":"Point","coordinates":[-97.96683788,30.33077139]}},{"type":"Feature","properties":{"date":"2018-02-03T05:00:00.000Z","year":2018,"description":"New electric service for lights and irrigation at SF residential subdivision entrance ONLY.  EUD.","metadescription":"EP. Repair. New electric service for lights and irrigation at SF residential subdivision entrance ONLY.  EUD.. Final. 1404 1/2 LAKEWAY BLVD","address":"1404 1/2 LAKEWAY BLVD","link":"https://abc.austintexas.gov/web/permit/public-search-other?t_detail=1&t_selected_folderrsn=11861719","tcad_id":"0137700811","location":"    (30.35447387, -97.96153442)","day_issued":"SATURDAY","project_id":"11861719","condominium":"No","status_date":"04/18/2018","jurisdiction":"LAKEWAY FULL PURPOSE","housing_units":"1","contractor_zip":"78734","contractor_city":"Austin","issuance_method":"Permit Center","contractor_phone":"5122637990","contractor_trade":"Electrical Contractor","number_of_floors":"1","permit_type_desc":"Electrical Permit","fiscal_year_issued":"2018","permit_class_mapped":"Commercial","remodel_repair_sqft":"0","contractor_address_1":"P.O. BOX 340","contractor_address_2":"AUSTIN TX  7","contractor_full_name":"Steven R. Pomikahl","issued_in_last_30_days":"No","certificate_of_occupancy":"No","property_legal_description":"LOT 1 BLK A LAKEWAY SEC 36","electrical_valuation_remodel":"$2,500.00"},"geometry":{"type":"Point","coordinates":[-97.96153442,30.35447387]}},{"type":"Feature","properties":{"date":"2017-09-26T04:00:00.000Z","year":2017,"description":"Install new Irrigation system for residence EUD LakeWay.","metadescription":"PP. Irrigation. Install new Irrigation system for residence EUD LakeWay.. Withdrawn. 900 BARRIE DR","address":"900 BARRIE DR","link":"https://abc.austintexas.gov/web/permit/public-search-other?t_detail=1&t_selected_folderrsn=11796337","tcad_id":"0135660406","location":"    (30.35117279, -97.95228934)","day_issued":"TUESDAY","project_id":"11796337","condominium":"No","status_date":"10/09/2017","jurisdiction":"LAKEWAY FULL PURPOSE","issuance_method":"Permit Center","permit_type_desc":"Plumbing Permit","fiscal_year_issued":"2017","permit_class_mapped":"Residential","issued_in_last_30_days":"No","certificate_of_occupancy":"No","plumbing_valuation_remodel":"$2,000.00","property_legal_description":"LOT 22 CARDINAL HILLS UNIT 5"},"geometry":{"type":"Point","coordinates":[-97.95228934,30.35117279]}},{"type":"Feature","properties":{"date":"2017-08-11T04:00:00.000Z","year":2017,"description":"Irrigation prior to landscaping","metadescription":"PP. Irrigation. Irrigation prior to landscaping. Expired. 15204 DOROTHY DR","address":"15204 DOROTHY DR","link":"https://abc.austintexas.gov/web/permit/public-search-other?t_detail=1&t_selected_folderrsn=11765186","tcad_id":"0135680219","location":"    (30.35239466, -97.95618507)","day_issued":"FRIDAY","project_id":"11765186","condominium":"No","status_date":"02/08/2018","jurisdiction":"LAKEWAY FULL PURPOSE","issuance_method":"Permit Center","permit_type_desc":"Plumbing Permit","fiscal_year_issued":"2017","permit_class_mapped":"Residential","issued_in_last_30_days":"No","certificate_of_occupancy":"No","plumbing_valuation_remodel":"$2,000.00","property_legal_description":"LOT 102 CARDINAL HILLS UNIT 4A"},"geometry":{"type":"Point","coordinates":[-97.95618507,30.35239466]}},{"type":"Feature","properties":{"date":"2017-08-01T04:00:00.000Z","year":2017,"description":"Irrigation prior to landscape. Austin ETJ","metadescription":"PP. Irrigation. Irrigation prior to landscape. Austin ETJ. Expired. 15202 DOROTHY DR","address":"15202 DOROTHY DR","link":"https://abc.austintexas.gov/web/permit/public-search-other?t_detail=1&t_selected_folderrsn=11765179","tcad_id":"0135680218","location":"    (30.35226362, -97.95594095)","day_issued":"TUESDAY","project_id":"11765179","condominium":"No","status_date":"01/29/2018","jurisdiction":"LAKEWAY FULL PURPOSE","issuance_method":"Permit Center","permit_type_desc":"Plumbing Permit","fiscal_year_issued":"2017","permit_class_mapped":"Residential","issued_in_last_30_days":"No","certificate_of_occupancy":"No","plumbing_valuation_remodel":"$2,000.00","property_legal_description":"LOT 101 CARDINAL HILLS UNIT 4A"},"geometry":{"type":"Point","coordinates":[-97.95594095,30.35226362]}},{"type":"Feature","properties":{"date":"2017-05-30T04:00:00.000Z","year":2017,"description":"Service for irrigation meter for residential subdivision. EUD","metadescription":"EP. Repair. Service for irrigation meter for residential subdivision. EUD. Final. 118 1/2 EVOLUTIONS PATH","address":"118 1/2 EVOLUTIONS PATH","link":"https://abc.austintexas.gov/web/permit/public-search-other?t_detail=1&t_selected_folderrsn=11731028","tcad_id":"0133701001","location":"    (30.3431224, -97.96369699)","day_issued":"TUESDAY","project_id":"11731028","condominium":"No","status_date":"06/02/2017","jurisdiction":"LAKEWAY FULL PURPOSE","housing_units":"1","contractor_zip":"78664","contractor_city":"Round Rock","issuance_method":"Permit Center","contractor_phone":"5127786240","contractor_trade":"Electrical Contractor","number_of_floors":"1","permit_type_desc":"Electrical Permit","fiscal_year_issued":"2017","permit_class_mapped":"Commercial","remodel_repair_sqft":"0","contractor_address_2":"16808  Radho","contractor_full_name":"Seth Robinson","issued_in_last_30_days":"No","certificate_of_occupancy":"No","electrical_valuation_remodel":"$2,000.00"},"geometry":{"type":"Point","coordinates":[-97.96369699,30.3431224]}},{"type":"Feature","properties":{"date":"2017-01-04T05:00:00.000Z","year":2017,"description":"New electrical service to irrigation meter ONLY.  EUD.","metadescription":"EP. Repair. New electrical service to irrigation meter ONLY.  EUD.. Final. 110 1/2 EVOLUTIONS PATH","address":"110 1/2 EVOLUTIONS PATH","link":"https://abc.austintexas.gov/web/permit/public-search-other?t_detail=1&t_selected_folderrsn=11653361","tcad_id":"0133701001","location":"    (30.34286406, -97.96385554)","day_issued":"WEDNESDAY","project_id":"11653361","condominium":"No","status_date":"01/05/2017","jurisdiction":"LAKEWAY FULL PURPOSE","housing_units":"1","contractor_zip":"78664","contractor_city":"Round Rock","issuance_method":"Permit Center","contractor_phone":"5127786240","contractor_trade":"Electrical Contractor","number_of_floors":"1","permit_type_desc":"Electrical Permit","fiscal_year_issued":"2017","permit_class_mapped":"Residential","remodel_repair_sqft":"0","contractor_address_2":"16808  Radho","contractor_full_name":"Seth Robinson","issued_in_last_30_days":"No","certificate_of_occupancy":"No","electrical_valuation_remodel":"$125.00"},"geometry":{"type":"Point","coordinates":[-97.96385554,30.34286406]}},{"type":"Feature","properties":{"date":"2017-01-04T05:00:00.000Z","year":2017,"description":"New electrical service to irrigation meter ONLY.  EUD.","metadescription":"EP. Repair. New electrical service to irrigation meter ONLY.  EUD.. Final. 106 1/2 EVOLUTIONS PATH","address":"106 1/2 EVOLUTIONS PATH","link":"https://abc.austintexas.gov/web/permit/public-search-other?t_detail=1&t_selected_folderrsn=11653371","tcad_id":"0133701001","location":"    (30.34271351, -97.96389411)","day_issued":"WEDNESDAY","project_id":"11653371","condominium":"No","status_date":"01/05/2017","jurisdiction":"LAKEWAY FULL PURPOSE","housing_units":"1","contractor_zip":"78664","contractor_city":"Round Rock","issuance_method":"Permit Center","contractor_phone":"5127786240","contractor_trade":"Electrical Contractor","number_of_floors":"1","permit_type_desc":"Electrical Permit","fiscal_year_issued":"2017","permit_class_mapped":"Residential","remodel_repair_sqft":"0","contractor_address_2":"16808  Radho","contractor_full_name":"Seth Robinson","issued_in_last_30_days":"No","certificate_of_occupancy":"No","electrical_valuation_remodel":"$125.00"},"geometry":{"type":"Point","coordinates":[-97.96389411,30.34271351]}},{"type":"Feature","properties":{"date":"2016-10-10T04:00:00.000Z","year":2016,"description":"New electrical service to irrigation meter. EUD","metadescription":"EP. Repair. New electrical service to irrigation meter. EUD. Final. 208 1/2 DARWINS WAY","address":"208 1/2 DARWINS WAY","link":"https://abc.austintexas.gov/web/permit/public-search-other?t_detail=1&t_selected_folderrsn=11613728","tcad_id":"0133701001","location":"    (30.34226104, -97.96381644)","day_issued":"MONDAY","project_id":"11613728","condominium":"No","status_date":"10/11/2016","jurisdiction":"LAKEWAY FULL PURPOSE","housing_units":"1","contractor_zip":"78664","contractor_city":"Round Rock","issuance_method":"Permit Center","contractor_phone":"5127786240","contractor_trade":"Electrical Contractor","number_of_floors":"1","permit_type_desc":"Electrical Permit","fiscal_year_issued":"2017","permit_class_mapped":"Residential","remodel_repair_sqft":"0","contractor_address_2":"16808  Radho","contractor_full_name":"Seth Robinson","issued_in_last_30_days":"No","certificate_of_occupancy":"No","electrical_valuation_remodel":"$800.00"},"geometry":{"type":"Point","coordinates":[-97.96381644,30.34226104]}},{"type":"Feature","properties":{"date":"2016-08-04T04:00:00.000Z","year":2016,"description":"new electrical service for irrigation meter.","metadescription":"EP. Repair. new electrical service for irrigation meter.. Final. 202 1/2 DARWINS WAY","address":"202 1/2 DARWINS WAY","link":"https://abc.austintexas.gov/web/permit/public-search-other?t_detail=1&t_selected_folderrsn=11577283","tcad_id":"0133701001","location":"    (30.34236691, -97.96403897)","day_issued":"THURSDAY","project_id":"11577283","condominium":"No","status_date":"09/01/2016","jurisdiction":"LAKEWAY FULL PURPOSE","housing_units":"1","contractor_zip":"78664","contractor_city":"Round Rock","issuance_method":"Permit Center","contractor_phone":"5127786240","contractor_trade":"Electrical Contractor","number_of_floors":"1","permit_type_desc":"Electrical Permit","fiscal_year_issued":"2016","permit_class_mapped":"Residential","remodel_repair_sqft":"0","contractor_address_2":"16808  Radho","contractor_full_name":"Seth Robinson","issued_in_last_30_days":"No","certificate_of_occupancy":"No","electrical_valuation_remodel":"$750.00"},"geometry":{"type":"Point","coordinates":[-97.96403897,30.34236691]}},{"type":"Feature","properties":{"date":"2016-07-26T04:00:00.000Z","year":2016,"description":"Install electrical service to irrigation meter for residence.","metadescription":"EP. Repair. Install electrical service to irrigation meter for residence.. Final. 216 1/2 DARWINS WAY","address":"216 1/2 DARWINS WAY","link":"https://abc.austintexas.gov/web/permit/public-search-other?t_detail=1&t_selected_folderrsn=11571498","tcad_id":"0133701001","location":"    (30.34218605, -97.96347901)","day_issued":"TUESDAY","project_id":"11571498","condominium":"No","status_date":"08/01/2016","jurisdiction":"LAKEWAY FULL PURPOSE","housing_units":"1","contractor_zip":"78664","contractor_city":"Round Rock","issuance_method":"Permit Center","contractor_phone":"5127786240","contractor_trade":"Electrical Contractor","number_of_floors":"1","permit_type_desc":"Electrical Permit","fiscal_year_issued":"2016","permit_class_mapped":"Residential","remodel_repair_sqft":"0","contractor_address_2":"16808  Radho","contractor_full_name":"Seth Robinson","issued_in_last_30_days":"No","certificate_of_occupancy":"No","electrical_valuation_remodel":"$2,000.00"},"geometry":{"type":"Point","coordinates":[-97.96347901,30.34218605]}},{"type":"Feature","properties":{"date":"2016-05-13T04:00:00.000Z","year":2016,"description":"New electric service for irrigation. EUD","metadescription":"EP. Repair. New electric service for irrigation. EUD. Active. 211 1/2 DARWINS WAY","address":"211 1/2 DARWINS WAY","link":"https://abc.austintexas.gov/web/permit/public-search-other?t_detail=1&t_selected_folderrsn=11531038","tcad_id":"0133701001","location":"    (30.34238825, -97.96355648)","day_issued":"FRIDAY","project_id":"11531038","condominium":"No","status_date":"05/13/2016","jurisdiction":"LAKEWAY FULL PURPOSE","housing_units":"1","contractor_zip":"78664","contractor_city":"Round Rock","issuance_method":"Permit Center","contractor_phone":"5127786240","contractor_trade":"Electrical Contractor","number_of_floors":"1","permit_type_desc":"Electrical Permit","fiscal_year_issued":"2016","permit_class_mapped":"Residential","remodel_repair_sqft":"0","contractor_address_2":"16808  Radho","contractor_full_name":"Seth Robinson","issued_in_last_30_days":"No","certificate_of_occupancy":"No","electrical_valuation_remodel":"$750.00"},"geometry":{"type":"Point","coordinates":[-97.96355648,30.34238825]}},{"type":"Feature","properties":{"date":"2016-05-13T04:00:00.000Z","year":2016,"description":"New electric service for irrigation meter. EUD","metadescription":"EP. Repair. New electric service for irrigation meter. EUD. Active. 210 1/2 DARWINS WAY","address":"210 1/2 DARWINS WAY","link":"https://abc.austintexas.gov/web/permit/public-search-other?t_detail=1&t_selected_folderrsn=11531023","tcad_id":"0133701001","location":"    (30.34228122, -97.96371765)","day_issued":"FRIDAY","project_id":"11531023","condominium":"No","status_date":"05/13/2016","jurisdiction":"LAKEWAY FULL PURPOSE","housing_units":"1","contractor_zip":"78664","contractor_city":"Round Rock","issuance_method":"Permit Center","contractor_phone":"5127786240","contractor_trade":"Electrical Contractor","number_of_floors":"1","permit_type_desc":"Electrical Permit","fiscal_year_issued":"2016","permit_class_mapped":"Residential","remodel_repair_sqft":"0","contractor_address_2":"16808  Radho","contractor_full_name":"Seth Robinson","issued_in_last_30_days":"No","certificate_of_occupancy":"No","electrical_valuation_remodel":"$750.00"},"geometry":{"type":"Point","coordinates":[-97.96371765,30.34228122]}},{"type":"Feature","properties":{"date":"2016-05-11T04:00:00.000Z","year":2016,"description":"New electric service for irrigation meter. EUD","metadescription":"EP. Repair. New electric service for irrigation meter. EUD. Final. 209 1/2 DARWINS WAY","address":"209 1/2 DARWINS WAY","link":"https://abc.austintexas.gov/web/permit/public-search-other?t_detail=1&t_selected_folderrsn=11531032","tcad_id":"0133701001","location":"    (30.34245019, -97.96363423)","day_issued":"WEDNESDAY","project_id":"11531032","condominium":"No","status_date":"05/13/2016","jurisdiction":"LAKEWAY FULL PURPOSE","housing_units":"1","contractor_zip":"78664","contractor_city":"Round Rock","issuance_method":"Permit Center","contractor_phone":"5127786240","contractor_trade":"Electrical Contractor","number_of_floors":"1","permit_type_desc":"Electrical Permit","fiscal_year_issued":"2016","permit_class_mapped":"Residential","remodel_repair_sqft":"0","contractor_address_2":"16808  Radho","contractor_full_name":"Seth Robinson","issued_in_last_30_days":"No","certificate_of_occupancy":"No","electrical_valuation_remodel":"$750.00"},"geometry":{"type":"Point","coordinates":[-97.96363423,30.34245019]}},{"type":"Feature","properties":{"date":"2016-03-21T04:00:00.000Z","year":2016,"description":"Irrigation meter. EUD.","metadescription":"EP. Repair. Irrigation meter. EUD.. Final. 226 1/2 DARWINS WAY","address":"226 1/2 DARWINS WAY","link":"https://abc.austintexas.gov/web/permit/public-search-other?t_detail=1&t_selected_folderrsn=11503190","tcad_id":"0133701001","location":"    (30.34208614, -97.96313267)","day_issued":"MONDAY","project_id":"11503190","condominium":"No","status_date":"03/25/2016","jurisdiction":"LAKEWAY FULL PURPOSE","housing_units":"1","contractor_zip":"78664","contractor_city":"Round Rock","issuance_method":"Permit Center","contractor_phone":"5127786240","contractor_trade":"Electrical Contractor","number_of_floors":"1","permit_type_desc":"Electrical Permit","fiscal_year_issued":"2016","permit_class_mapped":"Commercial","remodel_repair_sqft":"0","contractor_address_2":"16808  Radho","contractor_full_name":"Seth Robinson","issued_in_last_30_days":"No","certificate_of_occupancy":"No","electrical_valuation_remodel":"$800.00"},"geometry":{"type":"Point","coordinates":[-97.96313267,30.34208614]}},{"type":"Feature","properties":{"date":"2016-03-03T05:00:00.000Z","year":2016,"description":"Run electrical service from main panel to irrigation meter pump only. LAKEWAY ETJ","metadescription":"EP. Repair. Run electrical service from main panel to irrigation meter pump only. LAKEWAY ETJ. Final. 215 1/2 DARWINS WAY","address":"215 1/2 DARWINS WAY","link":"https://abc.austintexas.gov/web/permit/public-search-other?t_detail=1&t_selected_folderrsn=11494104","tcad_id":"0133701001","location":"    (30.34231367, -97.96339026)","day_issued":"THURSDAY","project_id":"11494104","condominium":"No","status_date":"03/22/2016","jurisdiction":"LAKEWAY FULL PURPOSE","housing_units":"1","contractor_zip":"78664","contractor_city":"Round Rock","issuance_method":"Permit Center","contractor_phone":"5127786240","contractor_trade":"Electrical Contractor","number_of_floors":"1","permit_type_desc":"Electrical Permit","fiscal_year_issued":"2016","permit_class_mapped":"Residential","remodel_repair_sqft":"0","contractor_address_2":"16808  Radho","contractor_full_name":"Seth Robinson","issued_in_last_30_days":"No","certificate_of_occupancy":"No","electrical_valuation_remodel":"$275.00"},"geometry":{"type":"Point","coordinates":[-97.96339026,30.34231367]}},{"type":"Feature","properties":{"date":"2015-11-16T05:00:00.000Z","year":2015,"description":"New Irrigation Meter only EUD","metadescription":"EP. Repair. New Irrigation Meter only EUD. Final. 308 1/2 DARWINS WAY","address":"308 1/2 DARWINS WAY","link":"https://abc.austintexas.gov/web/permit/public-search-other?t_detail=1&t_selected_folderrsn=11445865","tcad_id":"0133701001","location":"    (30.34212479, -97.96284318)","day_issued":"MONDAY","project_id":"11445865","condominium":"No","status_date":"12/30/2015","jurisdiction":"LAKEWAY FULL PURPOSE","housing_units":"1","contractor_zip":"78664","contractor_city":"Round Rock","issuance_method":"Permit Center","contractor_phone":"5127786240","contractor_trade":"Electrical Contractor","number_of_floors":"1","permit_type_desc":"Electrical Permit","fiscal_year_issued":"2016","permit_class_mapped":"Residential","remodel_repair_sqft":"0","contractor_address_2":"16808  Radho","contractor_full_name":"Seth Robinson","issued_in_last_30_days":"No","certificate_of_occupancy":"No","electrical_valuation_remodel":"$1,200.00"},"geometry":{"type":"Point","coordinates":[-97.96284318,30.34212479]}},{"type":"Feature","properties":{"date":"2015-11-16T05:00:00.000Z","year":2015,"description":"New Irrigation Meter only EUD","metadescription":"EP. Repair. New Irrigation Meter only EUD. Expired. 311 1/2 DARWINS WAY","address":"311 1/2 DARWINS WAY","link":"https://abc.austintexas.gov/web/permit/public-search-other?t_detail=1&t_selected_folderrsn=11445866","tcad_id":"0133701001","location":"    (30.34231886, -97.96292719)","day_issued":"MONDAY","project_id":"11445866","condominium":"No","status_date":"05/24/2016","jurisdiction":"LAKEWAY FULL PURPOSE","housing_units":"1","contractor_zip":"78664","contractor_city":"Round Rock","issuance_method":"Permit Center","contractor_phone":"5127786240","contractor_trade":"Electrical Contractor","number_of_floors":"1","permit_type_desc":"Electrical Permit","fiscal_year_issued":"2016","permit_class_mapped":"Residential","remodel_repair_sqft":"0","contractor_address_2":"16808  Radho","contractor_full_name":"Seth Robinson","issued_in_last_30_days":"No","certificate_of_occupancy":"No","electrical_valuation_remodel":"$1,200.00"},"geometry":{"type":"Point","coordinates":[-97.96292719,30.34231886]}},{"type":"Feature","properties":{"date":"2015-11-16T05:00:00.000Z","year":2015,"description":"New Irrigation Meter only EUD","metadescription":"EP. Repair. New Irrigation Meter only EUD. Final. 218 1/2 DARWINS WAY","address":"218 1/2 DARWINS WAY","link":"https://abc.austintexas.gov/web/permit/public-search-other?t_detail=1&t_selected_folderrsn=11445863","tcad_id":"0133701001","location":"    (30.3421706, -97.96338743)","day_issued":"MONDAY","project_id":"11445863","condominium":"No","status_date":"01/20/2016","jurisdiction":"LAKEWAY FULL PURPOSE","housing_units":"1","contractor_zip":"78664","contractor_city":"Round Rock","issuance_method":"Permit Center","contractor_phone":"5127786240","contractor_trade":"Electrical Contractor","number_of_floors":"1","permit_type_desc":"Electrical Permit","fiscal_year_issued":"2016","permit_class_mapped":"Residential","remodel_repair_sqft":"0","contractor_address_2":"16808  Radho","contractor_full_name":"Seth Robinson","issued_in_last_30_days":"No","certificate_of_occupancy":"No","electrical_valuation_remodel":"$1,200.00"},"geometry":{"type":"Point","coordinates":[-97.96338743,30.3421706]}},{"type":"Feature","properties":{"date":"2015-11-16T05:00:00.000Z","year":2015,"description":"New Irrigation Meter only EUD","metadescription":"EP. Repair. New Irrigation Meter only EUD. Final. 304 1/2 DARWINS WAY","address":"304 1/2 DARWINS WAY","link":"https://abc.austintexas.gov/web/permit/public-search-other?t_detail=1&t_selected_folderrsn=11445859","tcad_id":"0133701001","location":"    (30.34207701, -97.96293631)","day_issued":"MONDAY","project_id":"11445859","condominium":"No","status_date":"12/30/2015","jurisdiction":"LAKEWAY FULL PURPOSE","housing_units":"1","contractor_zip":"78664","contractor_city":"Round Rock","issuance_method":"Permit Center","contractor_phone":"5127786240","contractor_trade":"Electrical Contractor","number_of_floors":"1","permit_type_desc":"Electrical Permit","fiscal_year_issued":"2016","permit_class_mapped":"Residential","remodel_repair_sqft":"0","contractor_address_2":"16808  Radho","contractor_full_name":"Seth Robinson","issued_in_last_30_days":"No","certificate_of_occupancy":"No","electrical_valuation_remodel":"$1,200.00"},"geometry":{"type":"Point","coordinates":[-97.96293631,30.34207701]}},{"type":"Feature","properties":{"date":"2015-11-12T05:00:00.000Z","year":2015,"description":"New Irrigation Meter only EUD","metadescription":"EP. Repair. New Irrigation Meter only EUD. Final. 224 1/2 DARWINS WAY","address":"224 1/2 DARWINS WAY","link":"https://abc.austintexas.gov/web/permit/public-search-other?t_detail=1&t_selected_folderrsn=11444900","tcad_id":"0133701001","location":"    (30.34209526, -97.96318001)","day_issued":"THURSDAY","project_id":"11444900","condominium":"No","status_date":"01/20/2016","jurisdiction":"LAKEWAY FULL PURPOSE","housing_units":"1","contractor_zip":"78664","contractor_city":"Round Rock","issuance_method":"Permit Center","contractor_phone":"5127786240","contractor_trade":"Electrical Contractor","number_of_floors":"1","permit_type_desc":"Electrical Permit","fiscal_year_issued":"2016","permit_class_mapped":"Residential","remodel_repair_sqft":"0","contractor_address_2":"16808  Radho","contractor_full_name":"Seth Robinson","issued_in_last_30_days":"No","certificate_of_occupancy":"No","electrical_valuation_remodel":"$1,200.00"},"geometry":{"type":"Point","coordinates":[-97.96318001,30.34209526]}},{"type":"Feature","properties":{"date":"2015-10-27T04:00:00.000Z","year":2015,"description":"Install electrical for irrigation grinder pump only.","metadescription":"EP. Repair. Install electrical for irrigation grinder pump only.. Final. 401 1/2 DARWINS WAY","address":"401 1/2 DARWINS WAY","link":"https://abc.austintexas.gov/web/permit/public-search-other?t_detail=1&t_selected_folderrsn=11437701","tcad_id":"0133701001","location":"    (30.34266967, -97.96271247)","day_issued":"TUESDAY","project_id":"11437701","condominium":"No","status_date":"10/28/2015","jurisdiction":"LAKEWAY FULL PURPOSE","housing_units":"1","contractor_zip":"78664","contractor_city":"Round Rock","issuance_method":"Permit Center","contractor_phone":"5127786240","contractor_trade":"Electrical Contractor","number_of_floors":"1","permit_type_desc":"Electrical Permit","fiscal_year_issued":"2016","permit_class_mapped":"Residential","remodel_repair_sqft":"0","contractor_address_2":"16808  Radho","contractor_full_name":"Seth Robinson","issued_in_last_30_days":"No","certificate_of_occupancy":"No","electrical_valuation_remodel":"$1,200.00"},"geometry":{"type":"Point","coordinates":[-97.96271247,30.34266967]}},{"type":"Feature","properties":{"date":"2015-10-27T04:00:00.000Z","year":2015,"description":"Install electrical for irrigation grinder panel only.","metadescription":"EP. Repair. Install electrical for irrigation grinder panel only.. Final. 403 1/2 DARWINS WAY","address":"403 1/2 DARWINS WAY","link":"https://abc.austintexas.gov/web/permit/public-search-other?t_detail=1&t_selected_folderrsn=11437714","tcad_id":"0133701001","location":"    (30.34278975, -97.96281098)","day_issued":"TUESDAY","project_id":"11437714","condominium":"No","status_date":"10/28/2015","jurisdiction":"LAKEWAY FULL PURPOSE","housing_units":"1","contractor_zip":"78664","contractor_city":"Round Rock","issuance_method":"Permit Center","contractor_phone":"5127786240","contractor_trade":"Electrical Contractor","number_of_floors":"1","permit_type_desc":"Electrical Permit","fiscal_year_issued":"2016","permit_class_mapped":"Residential","remodel_repair_sqft":"0","contractor_address_2":"16808  Radho","contractor_full_name":"Seth Robinson","issued_in_last_30_days":"No","certificate_of_occupancy":"No","electrical_valuation_remodel":"$1,200.00"},"geometry":{"type":"Point","coordinates":[-97.96281098,30.34278975]}},{"type":"Feature","properties":{"date":"2015-10-27T04:00:00.000Z","year":2015,"description":"Install electrical for irrigation grinder panel only.","metadescription":"EP. Repair. Install electrical for irrigation grinder panel only.. Final. 407 1/2 DARWINS WAY","address":"407 1/2 DARWINS WAY","link":"https://abc.austintexas.gov/web/permit/public-search-other?t_detail=1&t_selected_folderrsn=11437733","tcad_id":"0133701001","location":"    (30.34287854, -97.96300222)","day_issued":"TUESDAY","project_id":"11437733","condominium":"No","status_date":"10/28/2015","jurisdiction":"LAKEWAY FULL PURPOSE","housing_units":"1","contractor_zip":"78664","contractor_city":"Round Rock","issuance_method":"Permit Center","contractor_phone":"5127786240","contractor_trade":"Electrical Contractor","number_of_floors":"1","permit_type_desc":"Electrical Permit","fiscal_year_issued":"2016","permit_class_mapped":"Residential","remodel_repair_sqft":"0","contractor_address_2":"16808  Radho","contractor_full_name":"Seth Robinson","issued_in_last_30_days":"No","certificate_of_occupancy":"No","electrical_valuation_remodel":"$1,200.00"},"geometry":{"type":"Point","coordinates":[-97.96300222,30.34287854]}},{"type":"Feature","properties":{"date":"2015-06-09T04:00:00.000Z","year":2015,"description":"Electrical Meter for Street Lighting and Irrigation Only EUD","metadescription":"EP. Remodel. Electrical Meter for Street Lighting and Irrigation Only EUD. Final. 108 1/2 LODESTONE CV","address":"108 1/2 LODESTONE CV","link":"https://abc.austintexas.gov/web/permit/public-search-other?t_detail=1&t_selected_folderrsn=11367262","tcad_id":"0127780503","location":"    (30.33147454, -97.98879506)","day_issued":"TUESDAY","project_id":"11367262","condominium":"No","status_date":"06/19/2015","jurisdiction":"LAKEWAY FULL PURPOSE","housing_units":"1","contractor_zip":"78734","contractor_city":"Lakeway","issuance_method":"Permit Center","contractor_phone":"5127480248","contractor_trade":"Electrical Contractor","number_of_floors":"1","permit_type_desc":"Electrical Permit","fiscal_year_issued":"2015","permit_class_mapped":"Residential","contractor_address_2":"2121  Lohman","contractor_full_name":"Daniel Hernandez","issued_in_last_30_days":"No","certificate_of_occupancy":"No","property_legal_description":"LOT 42 BLK A ESTATES OF FLINTROCK THE","electrical_valuation_remodel":"$800.00"},"geometry":{"type":"Point","coordinates":[-97.98879506,30.33147454]}},{"type":"Feature","properties":{"date":"2014-09-15T04:00:00.000Z","year":2014,"description":"add electric meter for irrigation system to residential subdivision only. EUD lakeway","metadescription":"EP. Remodel. add electric meter for irrigation system to residential subdivision only. EUD lakeway. Final. 207 1/2 EVOLUTIONS PATH","address":"207 1/2 EVOLUTIONS PATH","link":"https://abc.austintexas.gov/web/permit/public-search-other?t_detail=1&t_selected_folderrsn=11214864","tcad_id":"0133701001","location":"    (30.34355591, -97.96319486)","day_issued":"MONDAY","project_id":"11214864","condominium":"No","status_date":"09/17/2014","jurisdiction":"LAKEWAY FULL PURPOSE","housing_units":"1","contractor_zip":"78664","contractor_city":"Round Rock","issuance_method":"Permit Center","contractor_phone":"5127786240","contractor_trade":"Electrical Contractor","number_of_floors":"1","permit_type_desc":"Electrical Permit","fiscal_year_issued":"2014","permit_class_mapped":"Residential","contractor_address_2":"16808  Radho","contractor_full_name":"Seth Robinson","issued_in_last_30_days":"No","certificate_of_occupancy":"No","electrical_valuation_remodel":"$350.00"},"geometry":{"type":"Point","coordinates":[-97.96319486,30.34355591]}},{"type":"Feature","properties":{"date":"2014-08-08T04:00:00.000Z","year":2014,"description":"Install electric service for irrigation meter only. EUD","metadescription":"EP. Remodel. Install electric service for irrigation meter only. EUD. Final. 15101 1/2 GLEN HEATHER DR UNIT B","address":"15101 1/2 GLEN HEATHER DR UNIT B","link":"https://abc.austintexas.gov/web/permit/public-search-other?t_detail=1&t_selected_folderrsn=11187422","tcad_id":"0133701001","location":"    (30.34346571, -97.96129139)","day_issued":"FRIDAY","project_id":"11187422","condominium":"No","status_date":"08/15/2014","jurisdiction":"LAKEWAY FULL PURPOSE","housing_units":"1","contractor_zip":"78664","contractor_city":"Round Rock","issuance_method":"Permit Center","contractor_phone":"5127786240","contractor_trade":"Electrical Contractor","number_of_floors":"1","permit_type_desc":"Electrical Permit","fiscal_year_issued":"2014","permit_class_mapped":"Residential","contractor_address_2":"16808  Radho","contractor_full_name":"Seth Robinson","issued_in_last_30_days":"No","certificate_of_occupancy":"No","electrical_valuation_remodel":"$125.00"},"geometry":{"type":"Point","coordinates":[-97.96129139,30.34346571]}},{"type":"Feature","properties":{"date":"2014-02-28T05:00:00.000Z","year":2014,"description":"Install electric service for irrigation meter Only. EUD","metadescription":"EP. Remodel. Install electric service for irrigation meter Only. EUD. Final. 15003 1/2 GLEN HEATHER DR","address":"15003 1/2 GLEN HEATHER DR","link":"https://abc.austintexas.gov/web/permit/public-search-other?t_detail=1&t_selected_folderrsn=11097844","tcad_id":"0133701001","location":"    (30.34365733, -97.96154035)","day_issued":"FRIDAY","project_id":"11097844","condominium":"No","status_date":"03/07/2014","jurisdiction":"LAKEWAY FULL PURPOSE","housing_units":"1","contractor_zip":"78664","contractor_city":"Round Rock","issuance_method":"Permit Center","contractor_phone":"5127786240","contractor_trade":"Electrical Contractor","number_of_floors":"1","permit_type_desc":"Electrical Permit","fiscal_year_issued":"2014","permit_class_mapped":"Commercial","remodel_repair_sqft":"0","contractor_address_2":"16808  Radho","contractor_full_name":"Seth Robinson","issued_in_last_30_days":"No","certificate_of_occupancy":"No","electrical_valuation_remodel":"$125.00"},"geometry":{"type":"Point","coordinates":[-97.96154035,30.34365733]}},{"type":"Feature","properties":{"date":"2014-02-28T05:00:00.000Z","year":2014,"description":"Install electric service for irrigation meter Only. EUD","metadescription":"EP. Remodel. Install electric service for irrigation meter Only. EUD. Final. 15002 1/2 GLEN HEATHER DR","address":"15002 1/2 GLEN HEATHER DR","link":"https://abc.austintexas.gov/web/permit/public-search-other?t_detail=1&t_selected_folderrsn=11097841","tcad_id":"0133701001","location":"    (30.34365149, -97.96181952)","day_issued":"FRIDAY","project_id":"11097841","condominium":"No","status_date":"03/07/2014","jurisdiction":"LAKEWAY FULL PURPOSE","housing_units":"1","contractor_zip":"78664","contractor_city":"Round Rock","issuance_method":"Permit Center","contractor_phone":"5127786240","contractor_trade":"Electrical Contractor","number_of_floors":"1","permit_type_desc":"Electrical Permit","fiscal_year_issued":"2014","permit_class_mapped":"Commercial","remodel_repair_sqft":"0","contractor_address_2":"16808  Radho","contractor_full_name":"Seth Robinson","issued_in_last_30_days":"No","certificate_of_occupancy":"No","electrical_valuation_remodel":"$125.00"},"geometry":{"type":"Point","coordinates":[-97.96181952,30.34365149]}},{"type":"Feature","properties":{"date":"2013-12-12T05:00:00.000Z","year":2013,"description":"Elec service for irrigation system. EUD","metadescription":"EP. Remodel. Elec service for irrigation system. EUD. Final. 411 1/2 BELLAGIO DR","address":"411 1/2 BELLAGIO DR","link":"https://abc.austintexas.gov/web/permit/public-search-other?t_detail=1&t_selected_folderrsn=11062766","tcad_id":"0141680501","location":"    (30.37013282, -97.95287743)","day_issued":"THURSDAY","project_id":"11062766","condominium":"No","status_date":"12/13/2013","jurisdiction":"LAKEWAY FULL PURPOSE","housing_units":"1","contractor_zip":"78691-____","contractor_city":"PFLUGERVILLE","issuance_method":"Permit Center","contractor_phone":"5128328900","contractor_trade":"Electrical Contractor","number_of_floors":"1","permit_type_desc":"Electrical Permit","fiscal_year_issued":"2014","permit_class_mapped":"Residential","contractor_address_1":"PO BOX 3289","contractor_full_name":"Bryan Neal","issued_in_last_30_days":"No","certificate_of_occupancy":"No","electrical_valuation_remodel":"$1,900.00"},"geometry":{"type":"Point","coordinates":[-97.95287743,30.37013282]}},{"type":"Feature","properties":{"date":"2013-08-02T04:00:00.000Z","year":2013,"description":"Elec service only for irrigation system.","metadescription":"EP. Remodel. Elec service only for irrigation system.. Final. 812 1/2 SAN REMO BLVD","address":"812 1/2 SAN REMO BLVD","link":"https://abc.austintexas.gov/web/permit/public-search-other?t_detail=1&t_selected_folderrsn=10994842","tcad_id":"0141680501","location":"    (30.37070142, -97.95254305)","day_issued":"FRIDAY","project_id":"10994842","condominium":"No","status_date":"08/06/2013","jurisdiction":"LAKEWAY FULL PURPOSE","housing_units":"0","contractor_zip":"78691-____","contractor_city":"PFLUGERVILLE","issuance_method":"Permit Center","contractor_phone":"5128328900","contractor_trade":"Electrical Contractor","number_of_floors":"0","permit_type_desc":"Electrical Permit","fiscal_year_issued":"2013","permit_class_mapped":"Residential","contractor_address_1":"PO BOX 3289","contractor_full_name":"Bryan Neal","issued_in_last_30_days":"No","certificate_of_occupancy":"No","electrical_valuation_remodel":"$1,900.00"},"geometry":{"type":"Point","coordinates":[-97.95254305,30.37070142]}},{"type":"Feature","properties":{"date":"2013-04-09T04:00:00.000Z","year":2013,"description":"Install meter for Irrigation.EUD","metadescription":"EP. Remodel. Install meter for Irrigation.EUD. Final. 15222 1/2 GLEN HEATHER DR","address":"15222 1/2 GLEN HEATHER DR","link":"https://abc.austintexas.gov/web/permit/public-search-other?t_detail=1&t_selected_folderrsn=10926500","tcad_id":"0133701001","location":"    (30.34331075, -97.96228133)","day_issued":"TUESDAY","project_id":"10926500","condominium":"No","status_date":"04/11/2013","jurisdiction":"LAKEWAY FULL PURPOSE","housing_units":"0","contractor_zip":"78664","contractor_city":"Round Rock","issuance_method":"Permit Center","contractor_phone":"5127786240","contractor_trade":"Electrical Contractor","number_of_floors":"0","permit_type_desc":"Electrical Permit","fiscal_year_issued":"2013","permit_class_mapped":"Commercial","remodel_repair_sqft":"0","contractor_address_2":"16808  Radho","contractor_full_name":"Seth Robinson","issued_in_last_30_days":"No","certificate_of_occupancy":"No","electrical_valuation_remodel":"$125.00"},"geometry":{"type":"Point","coordinates":[-97.96228133,30.34331075]}},{"type":"Feature","properties":{"date":"2013-04-09T04:00:00.000Z","year":2013,"description":"Install meter for Irrigation.EUD","metadescription":"EP. Remodel. Install meter for Irrigation.EUD. Final. 15202 1/2 ORIGINS LN","address":"15202 1/2 ORIGINS LN","link":"https://abc.austintexas.gov/web/permit/public-search-other?t_detail=1&t_selected_folderrsn=10926514","tcad_id":"0133701001","location":"    (30.3437349, -97.96201724)","day_issued":"TUESDAY","project_id":"10926514","condominium":"No","status_date":"04/11/2013","jurisdiction":"LAKEWAY FULL PURPOSE","housing_units":"0","contractor_zip":"78664","contractor_city":"Round Rock","issuance_method":"Permit Center","contractor_phone":"5127786240","contractor_trade":"Electrical Contractor","number_of_floors":"0","permit_type_desc":"Electrical Permit","fiscal_year_issued":"2013","permit_class_mapped":"Commercial","remodel_repair_sqft":"0","contractor_address_2":"16808  Radho","contractor_full_name":"Seth Robinson","issued_in_last_30_days":"No","certificate_of_occupancy":"No","electrical_valuation_remodel":"$125.00"},"geometry":{"type":"Point","coordinates":[-97.96201724,30.3437349]}},{"type":"Feature","properties":{"date":"2013-04-01T04:00:00.000Z","year":2013,"description":"Install irrigation meter to exsting resid EUD","metadescription":"EP. Remodel. Install irrigation meter to exsting resid EUD. Final. 133 1/2 ANTONIO WAY","address":"133 1/2 ANTONIO WAY","link":"https://abc.austintexas.gov/web/permit/public-search-other?t_detail=1&t_selected_folderrsn=10922087","tcad_id":"0141680501","location":"    (30.36865076, -97.95333902)","day_issued":"MONDAY","project_id":"10922087","condominium":"No","status_date":"04/02/2013","jurisdiction":"LAKEWAY FULL PURPOSE","housing_units":"0","contractor_zip":"78691-____","contractor_city":"PFLUGERVILLE","issuance_method":"Permit Center","contractor_phone":"5128328900","contractor_trade":"Electrical Contractor","number_of_floors":"0","permit_type_desc":"Electrical Permit","fiscal_year_issued":"2013","permit_class_mapped":"Residential","contractor_address_1":"PO BOX 3289","contractor_full_name":"Bryan Neal","issued_in_last_30_days":"No","certificate_of_occupancy":"No","electrical_valuation_remodel":"$1,900.00"},"geometry":{"type":"Point","coordinates":[-97.95333902,30.36865076]}},{"type":"Feature","properties":{"date":"2013-03-19T04:00:00.000Z","year":2013,"description":"Install electrical service for irrigation system only. EUD","metadescription":"EP. Remodel. Install electrical service for irrigation system only. EUD. Final. 335 1/2 LOMBARDIA DR","address":"335 1/2 LOMBARDIA DR","link":"https://abc.austintexas.gov/web/permit/public-search-other?t_detail=1&t_selected_folderrsn=10916138","tcad_id":"0141680501","location":"    (30.36972259, -97.95300174)","day_issued":"TUESDAY","project_id":"10916138","condominium":"No","status_date":"06/03/2013","jurisdiction":"LAKEWAY FULL PURPOSE","housing_units":"0","contractor_zip":"78691-____","contractor_city":"PFLUGERVILLE","issuance_method":"Permit Center","contractor_phone":"5128328900","contractor_trade":"Electrical Contractor","number_of_floors":"0","permit_type_desc":"Electrical Permit","fiscal_year_issued":"2013","permit_class_mapped":"Residential","contractor_address_1":"PO BOX 3289","contractor_full_name":"Bryan Neal","issued_in_last_30_days":"No","certificate_of_occupancy":"No","electrical_valuation_remodel":"$1,900.00"},"geometry":{"type":"Point","coordinates":[-97.95300174,30.36972259]}},{"type":"Feature","properties":{"date":"2013-03-18T04:00:00.000Z","year":2013,"description":"Install electric for Irrigation system.EUD","metadescription":"EP. Remodel. Install electric for Irrigation system.EUD. Final. 103 1/2 ANTONIO WAY","address":"103 1/2 ANTONIO WAY","link":"https://abc.austintexas.gov/web/permit/public-search-other?t_detail=1&t_selected_folderrsn=10914984","tcad_id":"0141680501","location":"    (30.36796081, -97.95380325)","day_issued":"MONDAY","project_id":"10914984","condominium":"No","status_date":"03/19/2013","jurisdiction":"LAKEWAY FULL PURPOSE","housing_units":"0","contractor_zip":"78691-____","contractor_city":"PFLUGERVILLE","issuance_method":"Permit Center","contractor_phone":"5128328900","contractor_trade":"Electrical Contractor","number_of_floors":"0","permit_type_desc":"Electrical Permit","fiscal_year_issued":"2013","permit_class_mapped":"Residential","contractor_address_1":"PO BOX 3289","contractor_full_name":"Bryan Neal","issued_in_last_30_days":"No","certificate_of_occupancy":"No","electrical_valuation_remodel":"$1,900.00"},"geometry":{"type":"Point","coordinates":[-97.95380325,30.36796081]}},{"type":"Feature","properties":{"date":"2013-02-28T05:00:00.000Z","year":2013,"description":"Install electrical for irrigation house meter","metadescription":"EP. Remodel. Install electrical for irrigation house meter. Expired. 15207 GLEN HEATHER DR","address":"15207 GLEN HEATHER DR","link":"https://abc.austintexas.gov/web/permit/public-search-other?t_detail=1&t_selected_folderrsn=10905010","tcad_id":"0133701001","location":"    (30.34283189, -97.96196651)","day_issued":"THURSDAY","project_id":"10905010","condominium":"No","status_date":"08/28/2013","jurisdiction":"LAKEWAY FULL PURPOSE","housing_units":"0","contractor_zip":"78664","contractor_city":"Round Rock","issuance_method":"Permit Center","contractor_phone":"5127786240","contractor_trade":"Electrical Contractor","number_of_floors":"0","permit_type_desc":"Electrical Permit","fiscal_year_issued":"2013","permit_class_mapped":"Residential","contractor_address_2":"16808  Radho","contractor_full_name":"Seth Robinson","issued_in_last_30_days":"No","certificate_of_occupancy":"No","electrical_valuation_remodel":"$250.00"},"geometry":{"type":"Point","coordinates":[-97.96196651,30.34283189]}},{"type":"Feature","properties":{"date":"2013-02-28T05:00:00.000Z","year":2013,"description":"Install electrical for irrigation house meter only.","metadescription":"EP. Remodel. Install electrical for irrigation house meter only.. Final. 15206 1/2 GLEN HEATHER DR","address":"15206 1/2 GLEN HEATHER DR","link":"https://abc.austintexas.gov/web/permit/public-search-other?t_detail=1&t_selected_folderrsn=10905017","tcad_id":"0133701001","location":"    (30.34296758, -97.96171902)","day_issued":"THURSDAY","project_id":"10905017","condominium":"No","status_date":"08/29/2013","jurisdiction":"LAKEWAY FULL PURPOSE","housing_units":"0","contractor_zip":"78664","contractor_city":"Round Rock","issuance_method":"Permit Center","contractor_phone":"5127786240","contractor_trade":"Electrical Contractor","number_of_floors":"0","permit_type_desc":"Electrical Permit","fiscal_year_issued":"2013","permit_class_mapped":"Residential","contractor_address_2":"16808  Radho","contractor_full_name":"Seth Robinson","issued_in_last_30_days":"No","certificate_of_occupancy":"No","electrical_valuation_remodel":"$250.00"},"geometry":{"type":"Point","coordinates":[-97.96171902,30.34296758]}},{"type":"Feature","properties":{"date":"2013-02-28T05:00:00.000Z","year":2013,"description":"Install electrical for irrigation house meter only.","metadescription":"EP. Remodel. Install electrical for irrigation house meter only.. Final. 15201 1/2 GLEN HEATHER DR UNIT B","address":"15201 1/2 GLEN HEATHER DR UNIT B","link":"https://abc.austintexas.gov/web/permit/public-search-other?t_detail=1&t_selected_folderrsn=10905001","tcad_id":"0133701001","location":"    (30.34290224, -97.96160647)","day_issued":"THURSDAY","project_id":"10905001","condominium":"No","status_date":"08/15/2013","jurisdiction":"LAKEWAY FULL PURPOSE","housing_units":"0","contractor_zip":"78664","contractor_city":"Round Rock","issuance_method":"Permit Center","contractor_phone":"5127786240","contractor_trade":"Electrical Contractor","number_of_floors":"0","permit_type_desc":"Electrical Permit","fiscal_year_issued":"2013","permit_class_mapped":"Residential","contractor_address_2":"16808  Radho","contractor_full_name":"Seth Robinson","issued_in_last_30_days":"No","certificate_of_occupancy":"No","electrical_valuation_remodel":"$250.00"},"geometry":{"type":"Point","coordinates":[-97.96160647,30.34290224]}},{"type":"Feature","properties":{"date":"2013-02-08T05:00:00.000Z","year":2013,"description":"Install elec srv for pumps and irrigation EUD","metadescription":"EP. Remodel. Install elec srv for pumps and irrigation EUD. Final. 3322 S FM 620 RD","address":"3322 S FM 620 RD","link":"https://abc.austintexas.gov/web/permit/public-search-other?t_detail=1&t_selected_folderrsn=10894603","tcad_id":"0126770505","location":"    (30.32796966, -97.96672906)","day_issued":"FRIDAY","project_id":"10894603","condominium":"No","status_date":"02/21/2013","jurisdiction":"LAKEWAY ETJ","housing_units":"0","contractor_zip":"78610","contractor_city":"Buda","issuance_method":"Permit Center","contractor_phone":"5122432700","contractor_trade":"Electrical Contractor","number_of_floors":"0","permit_type_desc":"Electrical Permit","fiscal_year_issued":"2013","permit_class_mapped":"Commercial","remodel_repair_sqft":"0","contractor_address_2":"4702  FM 132","contractor_full_name":"Weldon Schmidt","issued_in_last_30_days":"No","certificate_of_occupancy":"No","property_legal_description":"ABS 2241 SUR 54 BECK A ACR 76.8195","electrical_valuation_remodel":"$25,000.00"},"geometry":{"type":"Point","coordinates":[-97.96672906,30.32796966]}},{"type":"Feature","properties":{"date":"2012-12-27T05:00:00.000Z","year":2012,"description":"Install elec srv for irrigation meter to exsting resid only.EUD","metadescription":"EP. Remodel. Install elec srv for irrigation meter to exsting resid only.EUD. Final. 818 1/2 SAN REMO BLVD","address":"818 1/2 SAN REMO BLVD","link":"https://abc.austintexas.gov/web/permit/public-search-other?t_detail=1&t_selected_folderrsn=10875692","tcad_id":"0141680501","location":"    (30.37094486, -97.9526195)","day_issued":"THURSDAY","project_id":"10875692","condominium":"No","status_date":"12/28/2012","jurisdiction":"LAKEWAY FULL PURPOSE","housing_units":"0","contractor_zip":"78691-____","contractor_city":"PFLUGERVILLE","issuance_method":"Permit Center","contractor_phone":"5128328900","contractor_trade":"Electrical Contractor","number_of_floors":"0","permit_type_desc":"Electrical Permit","fiscal_year_issued":"2013","permit_class_mapped":"Residential","contractor_address_1":"PO BOX 3289","contractor_full_name":"Bryan Neal","issued_in_last_30_days":"No","certificate_of_occupancy":"No","electrical_valuation_remodel":"$1,900.00"},"geometry":{"type":"Point","coordinates":[-97.9526195,30.37094486]}},{"type":"Feature","properties":{"date":"2012-12-20T05:00:00.000Z","year":2012,"description":"Install elec srv for irrigation meter to exsting resid only EUD","metadescription":"EP. Remodel. Install elec srv for irrigation meter to exsting resid only EUD. Final. 15309 1/2 ORIGINS LN","address":"15309 1/2 ORIGINS LN","link":"https://abc.austintexas.gov/web/permit/public-search-other?t_detail=1&t_selected_folderrsn=10874180","tcad_id":"0133701001","location":"    (30.34446471, -97.96326131)","day_issued":"THURSDAY","project_id":"10874180","condominium":"No","status_date":"01/10/2013","jurisdiction":"LAKEWAY FULL PURPOSE","housing_units":"0","contractor_zip":"78664","contractor_city":"Round Rock","issuance_method":"Permit Center","contractor_phone":"5127786240","contractor_trade":"Electrical Contractor","number_of_floors":"0","permit_type_desc":"Electrical Permit","fiscal_year_issued":"2013","permit_class_mapped":"Residential","contractor_address_2":"16808  Radho","contractor_full_name":"Seth Robinson","issued_in_last_30_days":"No","certificate_of_occupancy":"No","electrical_valuation_remodel":"$200.00"},"geometry":{"type":"Point","coordinates":[-97.96326131,30.34446471]}},{"type":"Feature","properties":{"date":"2012-11-30T05:00:00.000Z","year":2012,"description":"Install electric service for irrigation meter only.","metadescription":"EP. Remodel. Install electric service for irrigation meter only.. Final. 15219 1/2 ORIGINS LN","address":"15219 1/2 ORIGINS LN","link":"https://abc.austintexas.gov/web/permit/public-search-other?t_detail=1&t_selected_folderrsn=10864547","tcad_id":"0133701001","location":"    (30.34418518, -97.96271962)","day_issued":"FRIDAY","project_id":"10864547","condominium":"No","status_date":"12/18/2012","jurisdiction":"LAKEWAY FULL PURPOSE","housing_units":"1","contractor_zip":"78664","contractor_city":"Round Rock","issuance_method":"Permit Center","contractor_phone":"5127786240","contractor_trade":"Electrical Contractor","number_of_floors":"1","permit_type_desc":"Electrical Permit","fiscal_year_issued":"2013","permit_class_mapped":"Residential","contractor_address_2":"16808  Radho","contractor_full_name":"Seth Robinson","issued_in_last_30_days":"No","certificate_of_occupancy":"No","electrical_valuation_remodel":"$100.00"},"geometry":{"type":"Point","coordinates":[-97.96271962,30.34418518]}},{"type":"Feature","properties":{"date":"2012-09-24T04:00:00.000Z","year":2012,"description":"Install elec srv for irrigation and lighting (group meters) EUD","metadescription":"EP. Remodel. Install elec srv for irrigation and lighting (group meters) EUD. Expired. 15303 1/2 ORIGINS LN","address":"15303 1/2 ORIGINS LN","link":"https://abc.austintexas.gov/web/permit/public-search-other?t_detail=1&t_selected_folderrsn=10827211","tcad_id":"0133701001","location":"    (30.34434153, -97.96299482)","day_issued":"MONDAY","project_id":"10827211","condominium":"No","status_date":"03/24/2013","jurisdiction":"LAKEWAY FULL PURPOSE","housing_units":"0","contractor_zip":"78664","contractor_city":"Round Rock","issuance_method":"Permit Center","contractor_phone":"5127786240","contractor_trade":"Electrical Contractor","number_of_floors":"0","permit_type_desc":"Electrical Permit","fiscal_year_issued":"2012","permit_class_mapped":"Residential","contractor_address_2":"16808  Radho","contractor_full_name":"Seth Robinson","issued_in_last_30_days":"No","certificate_of_occupancy":"No","electrical_valuation_remodel":"$500.00"},"geometry":{"type":"Point","coordinates":[-97.96299482,30.34434153]}},{"type":"Feature","properties":{"date":"2012-05-30T04:00:00.000Z","year":2012,"description":"Irrigation system meter (EUD)","metadescription":"EP. Remodel. Irrigation system meter (EUD). Final. 803 1/2 SAN REMO BLVD","address":"803 1/2 SAN REMO BLVD","link":"https://abc.austintexas.gov/web/permit/public-search-other?t_detail=1&t_selected_folderrsn=10773714","tcad_id":"0141680501","location":"    (30.37060225, -97.95179379)","day_issued":"WEDNESDAY","project_id":"10773714","condominium":"No","status_date":"11/19/2012","jurisdiction":"LAKEWAY FULL PURPOSE","housing_units":"0","contractor_zip":"78691-____","contractor_city":"PFLUGERVILLE","issuance_method":"Permit Center","contractor_phone":"5128328900","contractor_trade":"Electrical Contractor","number_of_floors":"0","permit_type_desc":"Electrical Permit","fiscal_year_issued":"2012","permit_class_mapped":"Residential","contractor_address_1":"PO BOX 3289","contractor_full_name":"Bryan Neal","issued_in_last_30_days":"No","certificate_of_occupancy":"No","electrical_valuation_remodel":"$1,900.00"},"geometry":{"type":"Point","coordinates":[-97.95179379,30.37060225]}},{"type":"Feature","properties":{"date":"2012-05-15T04:00:00.000Z","year":2012,"description":"Install house meter for irrigation EUD","metadescription":"EP. Remodel. Install house meter for irrigation EUD. Final. 118 1/2 PERPETUATION DR","address":"118 1/2 PERPETUATION DR","link":"https://abc.austintexas.gov/web/permit/public-search-other?t_detail=1&t_selected_folderrsn=10766537","tcad_id":"0133701001","location":"    (30.34467459, -97.96390302)","day_issued":"TUESDAY","project_id":"10766537","condominium":"No","status_date":"05/18/2012","jurisdiction":"LAKEWAY FULL PURPOSE","housing_units":"0","contractor_zip":"78664","contractor_city":"Round Rock","issuance_method":"Permit Center","contractor_phone":"5127786240","contractor_trade":"Electrical Contractor","number_of_floors":"0","permit_type_desc":"Electrical Permit","fiscal_year_issued":"2012","permit_class_mapped":"Residential","contractor_address_2":"16808  Radho","contractor_full_name":"Seth Robinson","issued_in_last_30_days":"No","certificate_of_occupancy":"No","electrical_valuation_remodel":"$500.00"},"geometry":{"type":"Point","coordinates":[-97.96390302,30.34467459]}},{"type":"Feature","properties":{"date":"2012-05-03T04:00:00.000Z","year":2012,"description":"Irrigation meter (EUD)","metadescription":"EP. Remodel. Irrigation meter (EUD). Final. 325 1/2 LOMBARDIA DR","address":"325 1/2 LOMBARDIA DR","link":"https://abc.austintexas.gov/web/permit/public-search-other?t_detail=1&t_selected_folderrsn=10760938","tcad_id":"0141680501","location":"    (30.36983075, -97.95364293)","day_issued":"THURSDAY","project_id":"10760938","condominium":"No","status_date":"05/04/2012","jurisdiction":"LAKEWAY FULL PURPOSE","housing_units":"0","contractor_zip":"78691-____","contractor_city":"PFLUGERVILLE","issuance_method":"Permit Center","contractor_phone":"5128328900","contractor_trade":"Electrical Contractor","number_of_floors":"0","permit_type_desc":"Electrical Permit","fiscal_year_issued":"2012","permit_class_mapped":"Residential","contractor_address_1":"PO BOX 3289","contractor_full_name":"Bryan Neal","issued_in_last_30_days":"No","certificate_of_occupancy":"No","electrical_valuation_remodel":"$1,900.00"},"geometry":{"type":"Point","coordinates":[-97.95364293,30.36983075]}},{"type":"Feature","properties":{"date":"2012-04-04T04:00:00.000Z","year":2012,"description":"Install elec for sprinkler/irrigation EUD","metadescription":"EP. Remodel. Install elec for sprinkler/irrigation EUD. Final. 125 1/2 ANTONIO WAY","address":"125 1/2 ANTONIO WAY","link":"https://abc.austintexas.gov/web/permit/public-search-other?t_detail=1&t_selected_folderrsn=10744577","tcad_id":"0141680501","location":"    (30.36867828, -97.95363648)","day_issued":"WEDNESDAY","project_id":"10744577","condominium":"No","status_date":"04/11/2012","jurisdiction":"LAKEWAY FULL PURPOSE","housing_units":"0","contractor_zip":"78691-____","contractor_city":"PFLUGERVILLE","issuance_method":"Permit Center","contractor_phone":"5128328900","contractor_trade":"Electrical Contractor","number_of_floors":"0","permit_type_desc":"Electrical Permit","fiscal_year_issued":"2012","permit_class_mapped":"Residential","contractor_address_1":"PO BOX 3289","contractor_full_name":"Bryan Neal","issued_in_last_30_days":"No","certificate_of_occupancy":"No","electrical_valuation_remodel":"$1,900.00"},"geometry":{"type":"Point","coordinates":[-97.95363648,30.36867828]}},{"type":"Feature","properties":{"date":"2011-08-08T04:00:00.000Z","year":2011,"description":"Install elec for sprinkler/irrigation EUD","metadescription":"EP. Remodel. Install elec for sprinkler/irrigation EUD. VOID. 125 1/2 ANTONIO WAY","address":"125 1/2 ANTONIO WAY","link":"https://abc.austintexas.gov/web/permit/public-search-other?t_detail=1&t_selected_folderrsn=10633209","tcad_id":"0141680501","location":"    (30.36867828, -97.95363648)","day_issued":"MONDAY","project_id":"10633209","condominium":"No","status_date":"04/04/2012","jurisdiction":"LAKEWAY FULL PURPOSE","housing_units":"0","contractor_zip":"78691-____","contractor_city":"PFLUGERVILLE","issuance_method":"Permit Center","contractor_phone":"5128328900","contractor_trade":"Electrical Contractor","number_of_floors":"0","permit_type_desc":"Electrical Permit","fiscal_year_issued":"2011","permit_class_mapped":"Residential","contractor_address_1":"PO BOX 3289","contractor_full_name":"Bryan Neal","issued_in_last_30_days":"No","certificate_of_occupancy":"No","electrical_valuation_remodel":"$1,900.00"},"geometry":{"type":"Point","coordinates":[-97.95363648,30.36867828]}},{"type":"Feature","properties":{"date":"2011-06-29T04:00:00.000Z","year":2011,"description":"Electrical for irrigation system to condominium complex.","metadescription":"EP. Remodel. Electrical for irrigation system to condominium complex.. Final. 15223 1/2 GLEN HEATHER DR","address":"15223 1/2 GLEN HEATHER DR","link":"https://abc.austintexas.gov/web/permit/public-search-other?t_detail=1&t_selected_folderrsn=10613721","tcad_id":"0133701001","location":"    (30.34315517, -97.9623454)","day_issued":"WEDNESDAY","project_id":"10613721","condominium":"No","status_date":"07/11/2011","jurisdiction":"LAKEWAY FULL PURPOSE","housing_units":"0","contractor_zip":"78660-____","contractor_city":"PFLUGERVILLE","issuance_method":"Permit Center","contractor_phone":"5122520040","contractor_trade":"Electrical Contractor","number_of_floors":"0","permit_type_desc":"Electrical Permit","fiscal_year_issued":"2011","permit_class_mapped":"Commercial","remodel_repair_sqft":"0","contractor_address_2":"821  GRAND A","contractor_full_name":"William B. Crist Jr.","issued_in_last_30_days":"No","certificate_of_occupancy":"No","electrical_valuation_remodel":"$500.00"},"geometry":{"type":"Point","coordinates":[-97.9623454,30.34315517]}},{"type":"Feature","properties":{"date":"2011-06-15T04:00:00.000Z","year":2011,"description":"Electrical for Irrigation & Sprinkler system.Outside City of Austin (Lakeway)","metadescription":"EP. Remodel. Electrical for Irrigation & Sprinkler system.Outside City of Austin (Lakeway). Final. 834 1/2 SAN REMO BLVD","address":"834 1/2 SAN REMO BLVD","link":"https://abc.austintexas.gov/web/permit/public-search-other?t_detail=1&t_selected_folderrsn=10605802","tcad_id":"0141680501","location":"    (30.3715145, -97.95337936)","day_issued":"WEDNESDAY","project_id":"10605802","condominium":"No","status_date":"10/17/2011","jurisdiction":"LAKEWAY FULL PURPOSE","housing_units":"0","contractor_zip":"78691-____","contractor_city":"PFLUGERVILLE","issuance_method":"Permit Center","contractor_phone":"5128328900","contractor_trade":"Electrical Contractor","number_of_floors":"0","permit_type_desc":"Electrical Permit","fiscal_year_issued":"2011","permit_class_mapped":"Commercial","remodel_repair_sqft":"0","contractor_address_1":"PO BOX 3289","contractor_full_name":"Bryan Neal","issued_in_last_30_days":"No","certificate_of_occupancy":"No","electrical_valuation_remodel":"$1,900.00"},"geometry":{"type":"Point","coordinates":[-97.95337936,30.3715145]}},{"type":"Feature","properties":{"date":"2011-02-23T05:00:00.000Z","year":2011,"description":"Install elec srv For Sprinkler and Irrigation system EUD","metadescription":"EP. Remodel. Install elec srv For Sprinkler and Irrigation system EUD. Final. 301 1/2 LOMBARDIA DR","address":"301 1/2 LOMBARDIA DR","link":"https://abc.austintexas.gov/web/permit/public-search-other?t_detail=1&t_selected_folderrsn=10550112","tcad_id":"0141680501","location":"    (30.36956281, -97.95476599)","day_issued":"WEDNESDAY","project_id":"10550112","condominium":"No","status_date":"05/12/2011","jurisdiction":"LAKEWAY FULL PURPOSE","housing_units":"0","contractor_zip":"78691-____","contractor_city":"PFLUGERVILLE","issuance_method":"Permit Center","contractor_phone":"5128328900","contractor_trade":"Electrical Contractor","number_of_floors":"0","permit_type_desc":"Electrical Permit","fiscal_year_issued":"2011","permit_class_mapped":"Residential","contractor_address_1":"PO BOX 3289","contractor_full_name":"Bryan Neal","issued_in_last_30_days":"No","certificate_of_occupancy":"No","electrical_valuation_remodel":"$500.00"},"geometry":{"type":"Point","coordinates":[-97.95476599,30.36956281]}},{"type":"Feature","properties":{"date":"2010-10-11T04:00:00.000Z","year":2010,"description":"Installing meter for irrigation and future lighting only EUD","metadescription":"EP. Remodel. Installing meter for irrigation and future lighting only EUD. Final. 175 1/2 ROBERTO DR","address":"175 1/2 ROBERTO DR","link":"https://abc.austintexas.gov/web/permit/public-search-other?t_detail=1&t_selected_folderrsn=10501191","tcad_id":"0141680501","location":"    (30.36911895, -97.95322597)","day_issued":"MONDAY","project_id":"10501191","condominium":"No","status_date":"10/18/2010","jurisdiction":"LAKEWAY FULL PURPOSE","housing_units":"0","contractor_zip":"78691-____","contractor_city":"PFLUGERVILLE","issuance_method":"Permit Center","contractor_phone":"5128328900","contractor_trade":"Electrical Contractor","number_of_floors":"0","permit_type_desc":"Electrical Permit","fiscal_year_issued":"2011","permit_class_mapped":"Commercial","remodel_repair_sqft":"0","contractor_address_1":"PO BOX 3289","contractor_full_name":"Bryan Neal","issued_in_last_30_days":"No","certificate_of_occupancy":"No","electrical_valuation_remodel":"$1,900.00"},"geometry":{"type":"Point","coordinates":[-97.95322597,30.36911895]}},{"type":"Feature","properties":{"date":"2009-03-12T04:00:00.000Z","year":2009,"description":"Installin power for lighting and irrigation and future lighting only EUD","metadescription":"EP. Remodel. Installin power for lighting and irrigation and future lighting only EUD. Final. 125 ROBERTO DR UNIT HM","address":"125 ROBERTO DR UNIT HM","link":"https://abc.austintexas.gov/web/permit/public-search-other?t_detail=1&t_selected_folderrsn=10245973","tcad_id":"0141680501","location":"    (30.36852434, -97.95482649)","day_issued":"THURSDAY","project_id":"10245973","condominium":"No","status_date":"03/26/2009","jurisdiction":"LAKEWAY FULL PURPOSE","housing_units":"0","contractor_zip":"78691-____","contractor_city":"PFLUGERVILLE","issuance_method":"Permit Center","contractor_phone":"5128328900","contractor_trade":"Electrical Contractor","number_of_floors":"0","permit_type_desc":"Electrical Permit","fiscal_year_issued":"2009","permit_class_mapped":"Residential","contractor_address_1":"PO BOX 3289","contractor_full_name":"Bryan Neal","issued_in_last_30_days":"No","certificate_of_occupancy":"No","electrical_valuation_remodel":"$1,900.00"},"geometry":{"type":"Point","coordinates":[-97.95482649,30.36852434]}},{"type":"Feature","properties":{"date":"2008-11-26T05:00:00.000Z","year":2008,"description":"Lighting for irrigation and future lighting only EUD","metadescription":"EP. Remodel. Lighting for irrigation and future lighting only EUD. Final. 157 ROBERTO DR UNIT HM","address":"157 ROBERTO DR UNIT HM","link":"https://abc.austintexas.gov/web/permit/public-search-other?t_detail=1&t_selected_folderrsn=10215792","tcad_id":"0141680501","location":"    (30.36945101, -97.95392824)","day_issued":"WEDNESDAY","project_id":"10215792","condominium":"No","status_date":"12/09/2008","jurisdiction":"LAKEWAY FULL PURPOSE","housing_units":"0","contractor_zip":"78691-____","contractor_city":"PFLUGERVILLE","issuance_method":"Permit Center","contractor_phone":"5128328900","contractor_trade":"Electrical Contractor","number_of_floors":"0","permit_type_desc":"Electrical Permit","fiscal_year_issued":"2009","permit_class_mapped":"Residential","contractor_address_1":"PO BOX 3289","contractor_full_name":"Bryan Neal","issued_in_last_30_days":"No","certificate_of_occupancy":"No","electrical_valuation_remodel":"$2,030.00"},"geometry":{"type":"Point","coordinates":[-97.95392824,30.36945101]}},{"type":"Feature","properties":{"date":"2008-07-16T04:00:00.000Z","year":2008,"description":"installing electrical for irrigation system and mail box lighting only","metadescription":"EP. Remodel. installing electrical for irrigation system and mail box lighting only. Final. 136 1/2 SAN REMO BLVD","address":"136 1/2 SAN REMO BLVD","link":"https://abc.austintexas.gov/web/permit/public-search-other?t_detail=1&t_selected_folderrsn=10171795","tcad_id":"0141680433","location":"    (30.36699955, -97.95446764)","day_issued":"WEDNESDAY","project_id":"10171795","condominium":"No","status_date":"10/09/2008","jurisdiction":"LAKEWAY FULL PURPOSE","housing_units":"0","contractor_zip":"78691-____","contractor_city":"PFLUGERVILLE","issuance_method":"Permit Center","contractor_phone":"5128328900","contractor_trade":"Electrical Contractor","number_of_floors":"0","permit_type_desc":"Electrical Permit","fiscal_year_issued":"2008","permit_class_mapped":"Residential","contractor_address_1":"PO BOX 3289","contractor_full_name":"Bryan Neal","issued_in_last_30_days":"No","certificate_of_occupancy":"No","property_legal_description":"LOT 5 BLK A NORTH LAKEWAY VILLAGE SEC 3","electrical_valuation_remodel":"$1,675.00"},"geometry":{"type":"Point","coordinates":[-97.95446764,30.36699955]}},{"type":"Feature","properties":{"date":"2008-07-16T04:00:00.000Z","year":2008,"description":"installing electrical for irrigation system and lighting only","metadescription":"EP. Remodel. installing electrical for irrigation system and lighting only. Final. 202 1/2 LAKE COMO DR","address":"202 1/2 LAKE COMO DR","link":"https://abc.austintexas.gov/web/permit/public-search-other?t_detail=1&t_selected_folderrsn=10171796","tcad_id":"0141680119","location":"    (30.37066186, -97.95827222)","day_issued":"WEDNESDAY","project_id":"10171796","condominium":"No","status_date":"10/09/2008","jurisdiction":"LAKEWAY FULL PURPOSE","housing_units":"0","contractor_zip":"78691-____","contractor_city":"PFLUGERVILLE","issuance_method":"Permit Center","contractor_phone":"5128328900","contractor_trade":"Electrical Contractor","number_of_floors":"0","permit_type_desc":"Electrical Permit","fiscal_year_issued":"2008","permit_class_mapped":"Residential","contractor_address_1":"PO BOX 3289","contractor_full_name":"Bryan Neal","issued_in_last_30_days":"No","certificate_of_occupancy":"No","property_legal_description":"LOT 149 NORTH LAKEWAY VILLAGE SEC 6 (PRIVATE STREET)","electrical_valuation_remodel":"$1,675.00"},"geometry":{"type":"Point","coordinates":[-97.95827222,30.37066186]}},{"type":"Feature","properties":{"date":"2008-07-16T04:00:00.000Z","year":2008,"description":"installing electrical for irrigation system only","metadescription":"EP. Remodel. installing electrical for irrigation system only. Final. 200 1/2 SAN REMO BLVD","address":"200 1/2 SAN REMO BLVD","link":"https://abc.austintexas.gov/web/permit/public-search-other?t_detail=1&t_selected_folderrsn=10171794","tcad_id":"0141680501","location":"    (30.36721425, -97.95432913)","day_issued":"WEDNESDAY","project_id":"10171794","condominium":"No","status_date":"10/09/2008","jurisdiction":"LAKEWAY FULL PURPOSE","housing_units":"0","contractor_zip":"78691-____","contractor_city":"PFLUGERVILLE","issuance_method":"Permit Center","contractor_phone":"5128328900","contractor_trade":"Electrical Contractor","number_of_floors":"0","permit_type_desc":"Electrical Permit","fiscal_year_issued":"2008","permit_class_mapped":"Residential","contractor_address_1":"PO BOX 3289","contractor_full_name":"Bryan Neal","issued_in_last_30_days":"No","certificate_of_occupancy":"No","electrical_valuation_remodel":"$1,675.00"},"geometry":{"type":"Point","coordinates":[-97.95432913,30.36721425]}},{"type":"Feature","properties":{"date":"2007-03-15T04:00:00.000Z","year":2007,"description":"Install elec srv for landscape lighting & irrigation controls for resid subdivision only (Lakeway)eud","metadescription":"EP. Remodel. Install elec srv for landscape lighting & irrigation controls for resid subdivision only (Lakeway)eud. Final. 550 1/2 GOLDEN BEAR DR","address":"550 1/2 GOLDEN BEAR DR","link":"https://abc.austintexas.gov/web/permit/public-search-other?t_detail=1&t_selected_folderrsn=10013047","tcad_id":"0129760110","location":"    (30.33686283, -97.99078526)","day_issued":"THURSDAY","project_id":"10013047","condominium":"No","status_date":"10/09/2008","jurisdiction":"LAKEWAY FULL PURPOSE","housing_units":"0","contractor_zip":"78748","contractor_city":"Austin","issuance_method":"Permit Center","contractor_phone":"5126791505","contractor_trade":"Electrical Contractor","number_of_floors":"0","permit_type_desc":"Electrical Permit","fiscal_year_issued":"2007","permit_class_mapped":"Residential","contractor_address_2":"1506  Strick","contractor_full_name":"Lee Fowler","issued_in_last_30_days":"No","certificate_of_occupancy":"No","property_legal_description":"LT 48 50 & PT LTS 52 & 191 FLINTROCK AT HURST CREEK PHS 8 AMD PLAT OF (GOLF COURSE & DRAINAGE ESMT) LT 158 FLINTROCK AT HURST CREEK PHS 8 RESUB OF LT 158 AMD PLAT OF LOT 3A FLINTROCK AT HURST CREEK PHS 1 REPLAT 26 & 27 AMD & LT 3 AMD PHS 8","electrical_valuation_remodel":"$1,000.00"},"geometry":{"type":"Point","coordinates":[-97.99078526,30.33686283]}},{"type":"Feature","properties":{"date":"2006-07-18T04:00:00.000Z","year":2006,"description":"Installing Elec. For Irrigation Lights For Entrance To A Subdivision Only","metadescription":"EP. Remodel. Installing Elec. For Irrigation Lights For Entrance To A Subdivision Only. Final. 101 1/2 BELLA STRADA CV","address":"101 1/2 BELLA STRADA CV","link":"https://abc.austintexas.gov/web/permit/public-search-other?t_detail=1&t_selected_folderrsn=4382436","tcad_id":"0147660142","location":"    (30.38182725, -97.94757044)","day_issued":"TUESDAY","project_id":"4382436","condominium":"No","status_date":"12/11/2007","jurisdiction":"LAKEWAY FULL PURPOSE","housing_units":"0","contractor_zip":"78758","contractor_city":"Austin","issuance_method":"Permit Center","contractor_phone":"5127489446","contractor_trade":"Electrical Contractor","number_of_floors":"0","permit_type_desc":"Electrical Permit","master_permit_num":"3778862","fiscal_year_issued":"2006","permit_class_mapped":"Residential","contractor_address_2":"817  McPhaul","contractor_full_name":"Eric Wilkins","issued_in_last_30_days":"No","certificate_of_occupancy":"No","property_legal_description":"LOT 19 BLK A BELLA STRADA SUBD","electrical_valuation_remodel":"$0.00"},"geometry":{"type":"Point","coordinates":[-97.94757044,30.38182725]}},{"type":"Feature","properties":{"date":"2006-03-14T05:00:00.000Z","year":2006,"description":"Install Irrigation System To Exst Resid (Backflow Perventer)Only","metadescription":"PP. Remodel. Install Irrigation System To Exst Resid (Backflow Perventer)Only. Expired. 119 WHITE SANDS DR","address":"119 WHITE SANDS DR","link":"https://abc.austintexas.gov/web/permit/public-search-other?t_detail=1&t_selected_folderrsn=3793995","tcad_id":"0139730809","location":"    (30.36180651, -97.97453786)","day_issued":"TUESDAY","project_id":"3793995","condominium":"No","status_date":"05/07/2007","jurisdiction":"LAKEWAY FULL PURPOSE","contractor_zip":"78683","contractor_city":"Round Rock","issuance_method":"Permit Center","contractor_phone":"5129893555","contractor_trade":"Plumbing Contractor","permit_type_desc":"Plumbing Permit","fiscal_year_issued":"2006","permit_class_mapped":"Residential","contractor_address_1":"PO BOX 6047","contractor_address_2":"ROUND ROCK T","contractor_full_name":"Terry Sullivan","issued_in_last_30_days":"No","certificate_of_occupancy":"No","property_legal_description":"LOT 2757 LAKEWAY SEC 26"},"geometry":{"type":"Point","coordinates":[-97.97453786,30.36180651]}},{"type":"Feature","properties":{"date":"2004-05-10T04:00:00.000Z","year":2004,"description":"Irrigation BklS #1 18226-18230 Bkl#218231-18235 Bkl#3 18236-18240","metadescription":"PP. Remodel. Irrigation BklS #1 18226-18230 Bkl#218231-18235 Bkl#3 18236-18240. Expired. 107 S FM 620 RD","address":"107 S FM 620 RD","link":"https://abc.austintexas.gov/web/permit/public-search-other?t_detail=1&t_selected_folderrsn=3756661","tcad_id":"0141660933","location":"    (30.36561817, -97.95087023)","day_issued":"MONDAY","project_id":"3756661","status_date":"05/07/2007","jurisdiction":"LAKEWAY FULL PURPOSE","contractor_zip":"78734","contractor_city":"Austin","issuance_method":"Permit Center","contractor_phone":"5122803812","contractor_trade":"Plumbing Contractor","permit_type_desc":"Plumbing Permit","fiscal_year_issued":"2004","permit_class_mapped":"Commercial","contractor_address_1":"PO BOX 34159","contractor_address_2":"AUSTIN TX  7","contractor_full_name":"John Martin","issued_in_last_30_days":"No","property_legal_description":"LOT 14A BLK A CARDINAL HILLS UNIT 1 AMENDED PLAT OF LOTS 1415 161718 & 252627 BLK A & LOTS 39&40 BLK B"},"geometry":{"type":"Point","coordinates":[-97.95087023,30.36561817]}},{"type":"Feature","properties":{"date":"2004-04-26T04:00:00.000Z","year":2004,"description":"Elec Srv For Irrigation For Subdividison Resid","metadescription":"EP. Remodel. Elec Srv For Irrigation For Subdividison Resid. Final. 14 1/2 SAN SAVIO DR","address":"14 1/2 SAN SAVIO DR","link":"https://abc.austintexas.gov/web/permit/public-search-other?t_detail=1&t_selected_folderrsn=4346686","tcad_id":"0131761101","location":"    (30.33775047, -97.9832334)","day_issued":"MONDAY","project_id":"4346686","status_date":"03/05/2007","jurisdiction":"LAKEWAY FULL PURPOSE","contractor_zip":"78753","contractor_city":"Austin","issuance_method":"Permit Center","contractor_phone":"5123393299","contractor_trade":"Electrical Contractor","permit_type_desc":"Electrical Permit","fiscal_year_issued":"2004","permit_class_mapped":"Residential","contractor_address_1":"11812 N LAMA","contractor_address_2":"HILL COUNTRY","contractor_full_name":"Charles Morris","issued_in_last_30_days":"No"},"geometry":{"type":"Point","coordinates":[-97.9832334,30.33775047]}},{"type":"Feature","properties":{"date":"2004-01-22T05:00:00.000Z","year":2004,"description":"Entrance Light & Irrigation","metadescription":"EP. Remodel. Entrance Light & Irrigation. Final. 101 1/2 ARIA DR","address":"101 1/2 ARIA DR","link":"https://abc.austintexas.gov/web/permit/public-search-other?t_detail=1&t_selected_folderrsn=4343227","location":"    (30.32796828, -97.96382505)","day_issued":"THURSDAY","project_id":"4343227","condominium":"No","status_date":"03/05/2007","jurisdiction":"LAKEWAY FULL PURPOSE","contractor_zip":"78742","contractor_city":"Austin","issuance_method":"Permit Center","contractor_phone":"5123858831","contractor_trade":"Electrical Contractor","permit_type_desc":"Electrical Permit","fiscal_year_issued":"2004","permit_class_mapped":"Commercial","contractor_address_1":"414 THOMPSON","contractor_address_2":"AUSTIN TX  7","contractor_full_name":"Fred Hoskins","issued_in_last_30_days":"No","certificate_of_occupancy":"No"},"geometry":{"type":"Point","coordinates":[-97.96382505,30.32796828]}},{"type":"Feature","properties":{"date":"2002-03-14T05:00:00.000Z","year":2002,"description":"Install Elec Srv For Irrigation System Only Eud","metadescription":"EP. Remodel. Install Elec Srv For Irrigation System Only Eud. Final. 205 1/2 FAR VELA LN","address":"205 1/2 FAR VELA LN","link":"https://abc.austintexas.gov/web/permit/public-search-other?t_detail=1&t_selected_folderrsn=4320321","tcad_id":"0131700111","location":"    (30.33813658, -97.96401286)","day_issued":"THURSDAY","project_id":"4320321","status_date":"03/05/2007","jurisdiction":"LAKEWAY FULL PURPOSE","contractor_zip":"78660-____","contractor_city":"PFLUGERVILLE","issuance_method":"Permit Center","contractor_phone":"5122520040","contractor_trade":"Electrical Contractor","permit_type_desc":"Electrical Permit","fiscal_year_issued":"2002","permit_class_mapped":"Residential","contractor_address_2":"821  GRAND A","contractor_full_name":"William B. Crist Jr.","issued_in_last_30_days":"No","property_legal_description":"LOT 105 SCHRAMM RANCH SEC 1 PHS 2 THE"},"geometry":{"type":"Point","coordinates":[-97.96401286,30.33813658]}},{"type":"Feature","properties":{"date":"2002-03-13T05:00:00.000Z","year":2002,"description":"Install Elec For Irrigation","metadescription":"EP. Remodel. Install Elec For Irrigation. Final. 110 1/2 AMENO DR","address":"110 1/2 AMENO DR","link":"https://abc.austintexas.gov/web/permit/public-search-other?t_detail=1&t_selected_folderrsn=4320090","tcad_id":"0131700203","location":"    (30.337111, -97.96536655)","day_issued":"WEDNESDAY","project_id":"4320090","condominium":"No","status_date":"03/02/2007","jurisdiction":"LAKEWAY FULL PURPOSE","contractor_zip":"78660-____","contractor_city":"PFLUGERVILLE","issuance_method":"Permit Center","contractor_phone":"5122520040","contractor_trade":"Electrical Contractor","permit_type_desc":"Electrical Permit","fiscal_year_issued":"2002","permit_class_mapped":"Residential","contractor_address_2":"821  GRAND A","contractor_full_name":"William B. Crist Jr.","issued_in_last_30_days":"No","certificate_of_occupancy":"No","property_legal_description":"LOT 121 SCHRAMM RANCH SEC 1 PHS 2 THE"},"geometry":{"type":"Point","coordinates":[-97.96536655,30.337111]}},{"type":"Feature","properties":{"date":"2002-03-13T05:00:00.000Z","year":2002,"description":"Install Elec For Irrigation","metadescription":"EP. Remodel. Install Elec For Irrigation. Final. 103 1/2 AMENO DR","address":"103 1/2 AMENO DR","link":"https://abc.austintexas.gov/web/permit/public-search-other?t_detail=1&t_selected_folderrsn=4320087","tcad_id":"0131700115","location":"    (30.33887105, -97.96595749)","day_issued":"WEDNESDAY","project_id":"4320087","condominium":"No","status_date":"03/02/2007","jurisdiction":"LAKEWAY FULL PURPOSE","contractor_zip":"78660-____","contractor_city":"PFLUGERVILLE","issuance_method":"Permit Center","contractor_phone":"5122520040","contractor_trade":"Electrical Contractor","permit_type_desc":"Electrical Permit","fiscal_year_issued":"2002","permit_class_mapped":"Residential","contractor_address_2":"821  GRAND A","contractor_full_name":"William B. Crist Jr.","issued_in_last_30_days":"No","certificate_of_occupancy":"No","property_legal_description":"LOT 101 SCHRAMM RANCH SEC 1 PHS 2 THE"},"geometry":{"type":"Point","coordinates":[-97.96595749,30.33887105]}},{"type":"Feature","properties":{"date":"2000-01-04T05:00:00.000Z","year":2000,"description":"Elec Srv Only To Irrigation Pump","metadescription":"EP. Remodel. Elec Srv Only To Irrigation Pump. Final. 3322 S FM 620 RD","address":"3322 S FM 620 RD","link":"https://abc.austintexas.gov/web/permit/public-search-other?t_detail=1&t_selected_folderrsn=4293987","tcad_id":"0126770505","location":"    (30.32796966, -97.96672906)","day_issued":"TUESDAY","project_id":"4293987","condominium":"No","status_date":"03/19/2007","jurisdiction":"LAKEWAY ETJ","contractor_zip":"78734","contractor_city":"Austin","issuance_method":"Permit Center","contractor_phone":"5122637990","contractor_trade":"Electrical Contractor","permit_type_desc":"Electrical Permit","fiscal_year_issued":"2000","permit_class_mapped":"Commercial","contractor_address_1":"P.O. BOX 340","contractor_address_2":"AUSTIN TX  7","contractor_full_name":"Steven R. Pomikahl","issued_in_last_30_days":"No","certificate_of_occupancy":"No","property_legal_description":"ABS 2241 SUR 54 BECK A ACR 76.8195"},"geometry":{"type":"Point","coordinates":[-97.96672906,30.32796966]}},{"type":"Feature","properties":{"date":"1998-06-23T04:00:00.000Z","year":1998,"description":"Service Only For Irrigation System (Eud)","metadescription":"EP. Remodel. Service Only For Irrigation System (Eud). Final. 24 SUNSET PARK CV","address":"24 SUNSET PARK CV","link":"https://abc.austintexas.gov/web/permit/public-search-other?t_detail=1&t_selected_folderrsn=4273949","tcad_id":"0145681033","location":"    (30.37801632, -97.95903317)","day_issued":"TUESDAY","project_id":"4273949","condominium":"No","status_date":"05/22/2007","jurisdiction":"LAKEWAY FULL PURPOSE","housing_units":"1","issuance_method":"Permit Center","permit_type_desc":"Electrical Permit","fiscal_year_issued":"1998","permit_class_mapped":"Residential","issued_in_last_30_days":"No","certificate_of_occupancy":"No","property_legal_description":"LOT 11B SUNSET PARK SUBD"},"geometry":{"type":"Point","coordinates":[-97.95903317,30.37801632]}},{"type":"Feature","properties":{"date":"1998-06-23T04:00:00.000Z","year":1998,"description":"Service Only For Irrigation System (Eud)","metadescription":"MP. Remodel. Service Only For Irrigation System (Eud). Final. 24 SUNSET PARK CV","address":"24 SUNSET PARK CV","link":"https://abc.austintexas.gov/web/permit/public-search-other?t_detail=1&t_selected_folderrsn=3364209","tcad_id":"0145681033","location":"    (30.37801632, -97.95903317)","day_issued":"TUESDAY","project_id":"3364209","condominium":"No","status_date":"05/22/2007","jurisdiction":"LAKEWAY FULL PURPOSE","housing_units":"1","issuance_method":"Permit Center","permit_type_desc":"Mechanical Permit","master_permit_num":"4273949","fiscal_year_issued":"1998","permit_class_mapped":"Residential","issued_in_last_30_days":"No","certificate_of_occupancy":"No","property_legal_description":"LOT 11B SUNSET PARK SUBD"},"geometry":{"type":"Point","coordinates":[-97.95903317,30.37801632]}},{"type":"Feature","properties":{"date":"1987-01-26T05:00:00.000Z","year":1987,"description":"Irrigation System Commercial","metadescription":"PP. Remodel. Irrigation System Commercial. Final. 2300 1/2 LOHMANS CROSSING RD","address":"2300 1/2 LOHMANS CROSSING RD","link":"https://abc.austintexas.gov/web/permit/public-search-other?t_detail=1&t_selected_folderrsn=3628262","tcad_id":"0131730303","location":"    (30.34105635, -97.96932513)","day_issued":"MONDAY","project_id":"3628262","condominium":"No","status_date":"05/22/2007","jurisdiction":"LAKEWAY FULL PURPOSE","housing_units":"1","issuance_method":"Permit Center","permit_type_desc":"Plumbing Permit","fiscal_year_issued":"1987","permit_class_mapped":"Commercial","issued_in_last_30_days":"No","certificate_of_occupancy":"No","property_legal_description":"LOT 5A LAKEWAY TOWNE CENTRE REPLAT OF LOT 1 BLK A"},"geometry":{"type":"Point","coordinates":[-97.96932513,30.34105635]}},{"type":"Feature","properties":{"date":"1985-09-30T04:00:00.000Z","year":1985,"description":"Irrigation System Comm","metadescription":"PP. Remodel. Irrigation System Comm. Final. 1310 S FM 620 RD","address":"1310 S FM 620 RD","link":"https://abc.austintexas.gov/web/permit/public-search-other?t_detail=1&t_selected_folderrsn=3615422","tcad_id":"0135700317","location":"    (30.34976508, -97.96493542)","day_issued":"MONDAY","project_id":"3615422","condominium":"No","status_date":"05/22/2007","jurisdiction":"LAKEWAY FULL PURPOSE","housing_units":"1","issuance_method":"Permit Center","permit_type_desc":"Plumbing Permit","fiscal_year_issued":"1985","permit_class_mapped":"Commercial","issued_in_last_30_days":"No","certificate_of_occupancy":"No","property_legal_description":"5.5550 AC OF W 672.06FT OF N PT (4.43AC)OF TRT 4 *& W 725.79 OF N PT OF TRT 5 *(1.33AC) ECK A A SUBD"},"geometry":{"type":"Point","coordinates":[-97.96493542,30.34976508]}}]}
