{"type":"FeatureCollection","features":[{"type":"Feature","properties":{"date":"2025-03-24T04:00:00.000Z","year":2025,"description":"Needing a Disconnect/reconnect of power from service pole and will reconnect billboard\nchanging the connecting point for service from a pole that \nis now in the ROW back to the sign structure.","metadescription":"EP. Repair. Needing a Disconnect/reconnect of power from service pole and will reconnect billboard\nchanging the connecting point for service from a pole that \nis now in the ROW back to the sign structure.. Final. 2609 1/2 S FM 620 RD","address":"2609 1/2 South Farm to Market 620, Austin, TX, 78738, US","link":"https://abc.austintexas.gov/web/permit/public-search-other?t_detail=1&t_selected_folderrsn=13486930","tcad_id":"0131730201","location":"    (30.33827953, -97.96952318)","day_issued":"MONDAY","project_id":"13486930","condominium":"No","status_date":"04/08/2025","jurisdiction":"LAKEWAY FULL PURPOSE","housing_units":"1","contractor_zip":"78660-____","contractor_city":"PFLUGERVILLE","issuance_method":"Permit Center","contractor_phone":"5127757188","contractor_trade":"Electrical Contractor","number_of_floors":"1","permit_type_desc":"Electrical Permit","fiscal_year_issued":"2025","permit_class_mapped":"Commercial","remodel_repair_sqft":"0","contractor_address_2":"17610  LOCH","contractor_full_name":"Darrin Petru","issued_in_last_30_days":"No","certificate_of_occupancy":"No","property_legal_description":"LOT 122 SCHRAMM RANCH SEC 1 PHS 2 THE","electrical_valuation_remodel":"$2,500.00"},"geometry":{"type":"Point","coordinates":[-97.96952318,30.33827953]}},{"type":"Feature","properties":{"date":"2023-07-21T04:00:00.000Z","year":2023,"description":"Rough Trim and Service build for a new construction of a single family residence.  WO# 528424 - Design","metadescription":"EP. New. Rough Trim and Service build for a new construction of a single family residence.  WO# 528424 - Design. Final. 3616 S PAWNEE PASS","address":"3616 South Pawnee Pass, Austin, TX, 78738, US","link":"https://abc.austintexas.gov/web/permit/public-search-other?t_detail=1&t_selected_folderrsn=13177279","tcad_id":"0127760103","location":"    (30.32996735, -97.97783673)","day_issued":"FRIDAY","project_id":"13177279","condominium":"No","status_date":"03/04/2024","jurisdiction":"LAKEWAY ETJ","housing_units":"1","contractor_zip":"78664","contractor_city":"Round Rock","issuance_method":"Permit Center","contractor_phone":"5127786240","contractor_trade":"Electrical Contractor","number_of_floors":"1","permit_type_desc":"Electrical Permit","fiscal_year_issued":"2023","total_new_add_sqft":"0","permit_class_mapped":"Residential","remodel_repair_sqft":"0","contractor_address_2":"16808  Radho","contractor_full_name":"Seth Robinson","issued_in_last_30_days":"No","certificate_of_occupancy":"No","property_legal_description":"ABS 2204 SUR 56 WARNOCK J P ACR 3.3511","electrical_valuation_remodel":"$15,000.00"},"geometry":{"type":"Point","coordinates":[-97.97783673,30.32996735]}},{"type":"Feature","properties":{"date":"2016-11-23T05:00:00.000Z","year":2016,"description":"new electric for 120/240v 100 amp electrical service only for traffic signals. EUD (Lakeway)","metadescription":"EP. Repair. new electric for 120/240v 100 amp electrical service only for traffic signals. EUD (Lakeway). Final. 1940 1/2 LOHMANS CROSSING RD","address":"1940 1/2 Lohmans Crossing Road, Austin, TX, 78734, US","link":"https://abc.austintexas.gov/web/permit/public-search-other?t_detail=1&t_selected_folderrsn=11636420","tcad_id":"0133731001","location":"    (30.34352811, -97.97376718)","day_issued":"WEDNESDAY","project_id":"11636420","condominium":"No","status_date":"11/28/2016","jurisdiction":"LAKEWAY FULL PURPOSE","housing_units":"1","contractor_zip":"78634","contractor_city":"Hutto","issuance_method":"Permit Center","contractor_phone":"5123101200","contractor_trade":"Electrical Contractor","number_of_floors":"1","permit_type_desc":"Electrical Permit","fiscal_year_issued":"2017","permit_class_mapped":"Commercial","remodel_repair_sqft":"0","contractor_address_1":"200 TRADEMEN","contractor_address_2":"HUTTO TX  78","contractor_full_name":"Elliot House","issued_in_last_30_days":"No","certificate_of_occupancy":"No","electrical_valuation_remodel":"$2,500.00"},"geometry":{"type":"Point","coordinates":[-97.97376718,30.34352811]}},{"type":"Feature","properties":{"date":"2012-11-02T04:00:00.000Z","year":2012,"description":"Install electrical service to sign. EUD","metadescription":"EP. Remodel. Install electrical service to sign. EUD. Final. 15707 1/2 OAK GROVE BLVD","address":"15707 1/2 Oak Grove Boulevard, Austin, TX, 78734, US","link":"https://abc.austintexas.gov/web/permit/public-search-other?t_detail=1&t_selected_folderrsn=10850703","tcad_id":"0147660145","location":"    (30.38091773, -97.94598786)","day_issued":"FRIDAY","project_id":"10850703","condominium":"No","status_date":"12/07/2012","jurisdiction":"LAKEWAY FULL PURPOSE","housing_units":"0","contractor_zip":"78613","contractor_city":"CEDAR PARK","issuance_method":"Permit Center","contractor_phone":"5128335709","contractor_trade":"Electrical Contractor","number_of_floors":"0","permit_type_desc":"Electrical Permit","fiscal_year_issued":"2013","permit_class_mapped":"Commercial","remodel_repair_sqft":"0","contractor_address_1":"202 WALTON W","contractor_address_2":"CEDAR PARK T","contractor_full_name":"Gilbert Aguirre","issued_in_last_30_days":"No","certificate_of_occupancy":"No","property_legal_description":"LOT 1A BELLA TERRA SUBD RESUB OF AMENDING PLAT OF LOTS 1 & 2","electrical_valuation_remodel":"$0.00"},"geometry":{"type":"Point","coordinates":[-97.94598786,30.38091773]}},{"type":"Feature","properties":{"date":"2010-02-01T05:00:00.000Z","year":2010,"description":"Wall Sign jiffy lube   **Permit not required outside the city not touching the service**","metadescription":"EP. Wall. Wall Sign jiffy lube   **Permit not required outside the city not touching the service**. VOID. 1601 S FM 620 RD","address":"1601 South Farm to Market 620, Austin, TX, 78734, US","link":"https://abc.austintexas.gov/web/permit/public-search-other?t_detail=1&t_selected_folderrsn=10394926","tcad_id":"0133700540","location":"    (30.34723248, -97.96361505)","day_issued":"MONDAY","project_id":"10394926","condominium":"No","status_date":"09/22/2010","jurisdiction":"LAKEWAY FULL PURPOSE","issuance_method":"Permit Center","permit_type_desc":"Electrical Permit","master_permit_num":"10381082","fiscal_year_issued":"2010","permit_class_mapped":"Commercial","remodel_repair_sqft":"0","issued_in_last_30_days":"No","certificate_of_occupancy":"No","property_legal_description":"LOT 1A LAKEWAY CENTRE AMENDED PLAT OF LOTS 1-3","electrical_valuation_remodel":"$500.00"},"geometry":{"type":"Point","coordinates":[-97.96361505,30.34723248]}},{"type":"Feature","properties":{"date":"2008-01-07T05:00:00.000Z","year":2008,"description":"Add 100Amp elec srv for City of Lakeway sign & flagpole lights (in road island) eud","metadescription":"EP. Remodel. Add 100Amp elec srv for City of Lakeway sign & flagpole lights (in road island) eud. Final. 2321 1/2 LOHMANS CROSSING RD","address":"2321 1/2 Lohmans Crossing Road, Austin, TX, 78734, US","link":"https://abc.austintexas.gov/web/permit/public-search-other?t_detail=1&t_selected_folderrsn=10103334","location":"    (30.34113702, -97.96907584)","day_issued":"MONDAY","project_id":"10103334","condominium":"No","status_date":"10/09/2008","jurisdiction":"LAKEWAY FULL PURPOSE","housing_units":"0","contractor_zip":"78753","contractor_city":"Austin","issuance_method":"Permit Center","contractor_phone":"5128363950","contractor_trade":"Electrical Contractor","number_of_floors":"0","permit_type_desc":"Electrical Permit","fiscal_year_issued":"2008","permit_class_mapped":"Commercial","remodel_repair_sqft":"0","contractor_address_1":"10100 N LAMA","contractor_address_2":"AUSTIN TX  7","contractor_full_name":"Ronald Padula","issued_in_last_30_days":"No","certificate_of_occupancy":"No","electrical_valuation_remodel":"$2,000.00"},"geometry":{"type":"Point","coordinates":[-97.96907584,30.34113702]}},{"type":"Feature","properties":{"date":"2007-05-22T04:00:00.000Z","year":2007,"description":"Add Elect Panel & Meter & Sign Circuit for City of Lakeway Sign  (EUD)","metadescription":"EP. Remodel. Add Elect Panel & Meter & Sign Circuit for City of Lakeway Sign  (EUD). Final. 3313 S FM 620 RD","address":"3313 South Farm to Market 620, Austin, TX, 78738, US","link":"https://abc.austintexas.gov/web/permit/public-search-other?t_detail=1&t_selected_folderrsn=10035952","tcad_id":"0127700110","location":"    (30.32867338, -97.96462569)","day_issued":"TUESDAY","project_id":"10035952","condominium":"No","status_date":"10/09/2008","jurisdiction":"LAKEWAY FULL PURPOSE","housing_units":"0","contractor_zip":"78734","contractor_city":"Austin","issuance_method":"Permit Center","contractor_phone":"5122171807","contractor_trade":"Electrical Contractor","number_of_floors":"0","permit_type_desc":"Electrical Permit","fiscal_year_issued":"2007","permit_class_mapped":"Commercial","remodel_repair_sqft":"0","contractor_address_1":"P.O. Box 340","contractor_full_name":"Dale Wleczyk","issued_in_last_30_days":"No","certificate_of_occupancy":"No","property_legal_description":"1.5383AC OF LOT 1C ENCLAVE AT ALTA VISTA THE RESUB OF LOT 1A","electrical_valuation_remodel":"$1,200.00"},"geometry":{"type":"Point","coordinates":[-97.96462569,30.32867338]}},{"type":"Feature","properties":{"date":"1999-05-10T04:00:00.000Z","year":1999,"description":"Service Only For Sign - Eud","metadescription":"EP. Remodel. Service Only For Sign - Eud. Final. 1701 LOHMANS CROSSING RD","address":"1701 Lohmans Crossing Road, Austin, TX, 78734, US","link":"https://abc.austintexas.gov/web/permit/public-search-other?t_detail=1&t_selected_folderrsn=4285786","tcad_id":"0134770218","location":"    (30.35297785, -97.97600953)","day_issued":"MONDAY","project_id":"4285786","condominium":"No","status_date":"05/22/2007","jurisdiction":"LAKEWAY FULL PURPOSE","housing_units":"1","issuance_method":"Permit Center","permit_type_desc":"Electrical Permit","fiscal_year_issued":"1999","permit_class_mapped":"Commercial","issued_in_last_30_days":"No","certificate_of_occupancy":"No","property_legal_description":"ABS 2260 SUR 195 T C R R CO ACR 32.063"},"geometry":{"type":"Point","coordinates":[-97.97600953,30.35297785]}},{"type":"Feature","properties":{"date":"1999-05-10T04:00:00.000Z","year":1999,"description":"Service Only For Sign - Eud","metadescription":"MP. Remodel. Service Only For Sign - Eud. Final. 1701 LOHMANS CROSSING RD","address":"1701 Lohmans Crossing Road, Austin, TX, 78734, US","link":"https://abc.austintexas.gov/web/permit/public-search-other?t_detail=1&t_selected_folderrsn=3375353","tcad_id":"0134770218","location":"    (30.35297785, -97.97600953)","day_issued":"MONDAY","project_id":"3375353","condominium":"No","status_date":"05/22/2007","jurisdiction":"LAKEWAY FULL PURPOSE","housing_units":"1","issuance_method":"Permit Center","permit_type_desc":"Mechanical Permit","master_permit_num":"4285786","fiscal_year_issued":"1999","permit_class_mapped":"Commercial","issued_in_last_30_days":"No","certificate_of_occupancy":"No","property_legal_description":"ABS 2260 SUR 195 T C R R CO ACR 32.063"},"geometry":{"type":"Point","coordinates":[-97.97600953,30.35297785]}},{"type":"Feature","properties":{"date":"1995-11-30T05:00:00.000Z","year":1995,"description":"Wall Sign For Allstate","metadescription":"EP. Wall Sign For Allstate. Final. 2300 1/2 LOHMANS CROSSING RD","address":"2300 1/2 Lohmans Crossing Road, Austin, TX, 78734, US","link":"https://abc.austintexas.gov/web/permit/public-search-other?t_detail=1&t_selected_folderrsn=4242022","tcad_id":"0131730303","location":"    (30.34105635, -97.96932513)","day_issued":"THURSDAY","project_id":"4242022","condominium":"No","status_date":"05/22/2007","jurisdiction":"LAKEWAY FULL PURPOSE","housing_units":"1","issuance_method":"Permit Center","permit_type_desc":"Electrical Permit","master_permit_num":"4704496","fiscal_year_issued":"1996","permit_class_mapped":"Commercial","issued_in_last_30_days":"No","certificate_of_occupancy":"No","property_legal_description":"LOT 5A LAKEWAY TOWNE CENTRE REPLAT OF LOT 1 BLK A"},"geometry":{"type":"Point","coordinates":[-97.96932513,30.34105635]}},{"type":"Feature","properties":{"date":"1994-02-08T05:00:00.000Z","year":1994,"description":"Wall Sign For Randalls","metadescription":"EP. Wall Sign For Randalls. Final. 2300 1/2 LOHMANS CROSSING RD","address":"2300 1/2 Lohmans Crossing Road, Austin, TX, 78734, US","link":"https://abc.austintexas.gov/web/permit/public-search-other?t_detail=1&t_selected_folderrsn=4223040","tcad_id":"0131730303","location":"    (30.34105635, -97.96932513)","day_issued":"TUESDAY","project_id":"4223040","condominium":"No","status_date":"05/22/2007","jurisdiction":"LAKEWAY FULL PURPOSE","housing_units":"1","issuance_method":"Permit Center","permit_type_desc":"Electrical Permit","master_permit_num":"4703073","fiscal_year_issued":"1994","permit_class_mapped":"Commercial","issued_in_last_30_days":"No","certificate_of_occupancy":"No","property_legal_description":"LOT 5A LAKEWAY TOWNE CENTRE REPLAT OF LOT 1 BLK A"},"geometry":{"type":"Point","coordinates":[-97.96932513,30.34105635]}},{"type":"Feature","properties":{"date":"1990-04-04T04:00:00.000Z","year":1990,"description":"Connect Sign","metadescription":"MP. Remodel. Connect Sign. Final. 1405 S FM 620 RD","address":"1405 South Farm to Market 620, Austin, TX, 78734, US","link":"https://abc.austintexas.gov/web/permit/public-search-other?t_detail=1&t_selected_folderrsn=3281339","tcad_id":"0135700714","location":"    (30.34923553, -97.96306799)","day_issued":"WEDNESDAY","project_id":"3281339","condominium":"No","status_date":"05/22/2007","jurisdiction":"LAKEWAY FULL PURPOSE","housing_units":"1","issuance_method":"Permit Center","permit_type_desc":"Mechanical Permit","master_permit_num":"4187297","fiscal_year_issued":"1990","permit_class_mapped":"Commercial","issued_in_last_30_days":"No","certificate_of_occupancy":"No","property_legal_description":"LOT 2 *LESS W4094 SQ FT OF LOT 1 CARDINAL HILLS UNIT 6"},"geometry":{"type":"Point","coordinates":[-97.96306799,30.34923553]}},{"type":"Feature","properties":{"date":"1990-04-04T04:00:00.000Z","year":1990,"description":"Connect Sign","metadescription":"EP. Remodel. Connect Sign. Final. 1405 S FM 620 RD","address":"1405 South Farm to Market 620, Austin, TX, 78734, US","link":"https://abc.austintexas.gov/web/permit/public-search-other?t_detail=1&t_selected_folderrsn=4187297","tcad_id":"0135700714","location":"    (30.34923553, -97.96306799)","day_issued":"WEDNESDAY","project_id":"4187297","condominium":"No","status_date":"05/22/2007","jurisdiction":"LAKEWAY FULL PURPOSE","housing_units":"1","issuance_method":"Permit Center","permit_type_desc":"Electrical Permit","fiscal_year_issued":"1990","permit_class_mapped":"Commercial","issued_in_last_30_days":"No","certificate_of_occupancy":"No","property_legal_description":"LOT 2 *LESS W4094 SQ FT OF LOT 1 CARDINAL HILLS UNIT 6"},"geometry":{"type":"Point","coordinates":[-97.96306799,30.34923553]}},{"type":"Feature","properties":{"date":"1990-03-12T05:00:00.000Z","year":1990,"description":"Building Sign For Star Mart","metadescription":"EP. Building Sign For Star Mart. Final. 1405 S FM 620 RD","address":"1405 South Farm to Market 620, Austin, TX, 78734, US","link":"https://abc.austintexas.gov/web/permit/public-search-other?t_detail=1&t_selected_folderrsn=4414283","tcad_id":"0135700714","location":"    (30.34923553, -97.96306799)","day_issued":"MONDAY","project_id":"4414283","condominium":"No","status_date":"05/22/2007","jurisdiction":"LAKEWAY FULL PURPOSE","housing_units":"1","issuance_method":"Permit Center","permit_type_desc":"Electrical Permit","master_permit_num":"4717931","fiscal_year_issued":"1990","permit_class_mapped":"Commercial","issued_in_last_30_days":"No","certificate_of_occupancy":"No","property_legal_description":"LOT 2 *LESS W4094 SQ FT OF LOT 1 CARDINAL HILLS UNIT 6"},"geometry":{"type":"Point","coordinates":[-97.96306799,30.34923553]}},{"type":"Feature","properties":{"date":"1990-03-12T05:00:00.000Z","year":1990,"description":"Reface Exist Pole Sign For Star Mart","metadescription":"EP. Reface Exist Pole Sign For Star Mart. Final. 1405 S FM 620 RD","address":"1405 South Farm to Market 620, Austin, TX, 78734, US","link":"https://abc.austintexas.gov/web/permit/public-search-other?t_detail=1&t_selected_folderrsn=4186600","tcad_id":"0135700714","location":"    (30.34923553, -97.96306799)","day_issued":"MONDAY","project_id":"4186600","condominium":"No","status_date":"05/22/2007","jurisdiction":"LAKEWAY FULL PURPOSE","housing_units":"1","issuance_method":"Permit Center","permit_type_desc":"Electrical Permit","master_permit_num":"4700682","fiscal_year_issued":"1990","permit_class_mapped":"Commercial","issued_in_last_30_days":"No","certificate_of_occupancy":"No","property_legal_description":"LOT 2 *LESS W4094 SQ FT OF LOT 1 CARDINAL HILLS UNIT 6"},"geometry":{"type":"Point","coordinates":[-97.96306799,30.34923553]}},{"type":"Feature","properties":{"date":"1990-01-24T05:00:00.000Z","year":1990,"description":"Connect Signal Light","metadescription":"MP. Remodel. Connect Signal Light. Final. 2525 1/2 S FM 620 RD","address":"2525 1/2 South Farm to Market 620, Austin, TX, 78738, US","link":"https://abc.austintexas.gov/web/permit/public-search-other?t_detail=1&t_selected_folderrsn=3279880","location":"    (30.33888764, -97.96953998)","day_issued":"WEDNESDAY","project_id":"3279880","condominium":"No","status_date":"05/22/2007","jurisdiction":"LAKEWAY FULL PURPOSE","housing_units":"1","issuance_method":"Permit Center","permit_type_desc":"Mechanical Permit","master_permit_num":"4185689","fiscal_year_issued":"1990","permit_class_mapped":"Commercial","issued_in_last_30_days":"No","certificate_of_occupancy":"No"},"geometry":{"type":"Point","coordinates":[-97.96953998,30.33888764]}},{"type":"Feature","properties":{"date":"1990-01-24T05:00:00.000Z","year":1990,"description":"Connect Signal Light","metadescription":"EP. Remodel. Connect Signal Light. Final. 2525 1/2 S FM 620 RD","address":"2525 1/2 South Farm to Market 620, Austin, TX, 78738, US","link":"https://abc.austintexas.gov/web/permit/public-search-other?t_detail=1&t_selected_folderrsn=4185689","location":"    (30.33888764, -97.96953998)","day_issued":"WEDNESDAY","project_id":"4185689","condominium":"No","status_date":"05/22/2007","jurisdiction":"LAKEWAY FULL PURPOSE","housing_units":"1","issuance_method":"Permit Center","permit_type_desc":"Electrical Permit","fiscal_year_issued":"1990","permit_class_mapped":"Commercial","issued_in_last_30_days":"No","certificate_of_occupancy":"No"},"geometry":{"type":"Point","coordinates":[-97.96953998,30.33888764]}},{"type":"Feature","properties":{"date":"1990-01-24T05:00:00.000Z","year":1990,"description":"Connect Signal Light","metadescription":"EP. Remodel. Connect Signal Light. Final. 2913 1/2 S FM 620 RD","address":"2913 1/2 South Farm to Market 620, Austin, TX, 78738, US","link":"https://abc.austintexas.gov/web/permit/public-search-other?t_detail=1&t_selected_folderrsn=4414193","location":"    (30.33545686, -97.9690248)","day_issued":"WEDNESDAY","project_id":"4414193","condominium":"No","status_date":"05/22/2007","jurisdiction":"LAKEWAY FULL PURPOSE","housing_units":"1","issuance_method":"Permit Center","permit_type_desc":"Electrical Permit","fiscal_year_issued":"1990","permit_class_mapped":"Commercial","issued_in_last_30_days":"No","certificate_of_occupancy":"No"},"geometry":{"type":"Point","coordinates":[-97.9690248,30.33545686]}},{"type":"Feature","properties":{"date":"1990-01-24T05:00:00.000Z","year":1990,"description":"Connect Signal Light","metadescription":"MP. Remodel. Connect Signal Light. Final. 2913 1/2 S FM 620 RD","address":"2913 1/2 South Farm to Market 620, Austin, TX, 78738, US","link":"https://abc.austintexas.gov/web/permit/public-search-other?t_detail=1&t_selected_folderrsn=3447718","location":"    (30.33545686, -97.9690248)","day_issued":"WEDNESDAY","project_id":"3447718","condominium":"No","status_date":"05/22/2007","jurisdiction":"LAKEWAY FULL PURPOSE","housing_units":"1","issuance_method":"Permit Center","permit_type_desc":"Mechanical Permit","master_permit_num":"4414193","fiscal_year_issued":"1990","permit_class_mapped":"Commercial","issued_in_last_30_days":"No","certificate_of_occupancy":"No"},"geometry":{"type":"Point","coordinates":[-97.9690248,30.33545686]}},{"type":"Feature","properties":{"date":"1989-08-08T04:00:00.000Z","year":1989,"description":"Reface Exist Pole Sign For Appletree & Logo","metadescription":"EP. Reface Exist Pole Sign For Appletree & Logo. Final. 2300 1/2 LOHMANS CROSSING RD","address":"2300 1/2 Lohmans Crossing Road, Austin, TX, 78734, US","link":"https://abc.austintexas.gov/web/permit/public-search-other?t_detail=1&t_selected_folderrsn=4181338","tcad_id":"0131730303","location":"    (30.34105635, -97.96932513)","day_issued":"TUESDAY","project_id":"4181338","condominium":"No","status_date":"05/22/2007","jurisdiction":"LAKEWAY FULL PURPOSE","housing_units":"1","issuance_method":"Permit Center","permit_type_desc":"Electrical Permit","master_permit_num":"4700078","fiscal_year_issued":"1989","permit_class_mapped":"Commercial","issued_in_last_30_days":"No","certificate_of_occupancy":"No","property_legal_description":"LOT 5A LAKEWAY TOWNE CENTRE REPLAT OF LOT 1 BLK A"},"geometry":{"type":"Point","coordinates":[-97.96932513,30.34105635]}},{"type":"Feature","properties":{"date":"1989-08-08T04:00:00.000Z","year":1989,"description":"Building Sign For Appletree & Logo","metadescription":"EP. Building Sign For Appletree & Logo. Final. 2300 1/2 LOHMANS CROSSING RD","address":"2300 1/2 Lohmans Crossing Road, Austin, TX, 78734, US","link":"https://abc.austintexas.gov/web/permit/public-search-other?t_detail=1&t_selected_folderrsn=4181337","tcad_id":"0131730303","location":"    (30.34105635, -97.96932513)","day_issued":"TUESDAY","project_id":"4181337","condominium":"No","status_date":"05/22/2007","jurisdiction":"LAKEWAY FULL PURPOSE","housing_units":"1","issuance_method":"Permit Center","permit_type_desc":"Electrical Permit","master_permit_num":"4700077","fiscal_year_issued":"1989","permit_class_mapped":"Commercial","issued_in_last_30_days":"No","certificate_of_occupancy":"No","property_legal_description":"LOT 5A LAKEWAY TOWNE CENTRE REPLAT OF LOT 1 BLK A"},"geometry":{"type":"Point","coordinates":[-97.96932513,30.34105635]}},{"type":"Feature","properties":{"date":"1989-05-30T04:00:00.000Z","year":1989,"description":"Pole Sign For First Commercial Bank","metadescription":"EP. Pole Sign For First Commercial Bank. Final. 1110 S FM 620 RD","address":"1110 South Farm to Market 620, Austin, TX, 78734, US","link":"https://abc.austintexas.gov/web/permit/public-search-other?t_detail=1&t_selected_folderrsn=4178680","tcad_id":"0135700314","location":"    (30.35206032, -97.96323325)","day_issued":"TUESDAY","project_id":"4178680","condominium":"No","status_date":"05/22/2007","jurisdiction":"LAKEWAY FULL PURPOSE","housing_units":"1","issuance_method":"Permit Center","permit_type_desc":"Electrical Permit","master_permit_num":"4699809","fiscal_year_issued":"1989","permit_class_mapped":"Commercial","issued_in_last_30_days":"No","certificate_of_occupancy":"No","property_legal_description":"2.9129 AC OF LOT 1 BLK A HARRENS WAY SUBD"},"geometry":{"type":"Point","coordinates":[-97.96323325,30.35206032]}},{"type":"Feature","properties":{"date":"1988-03-31T05:00:00.000Z","year":1988,"description":"Electric For Existing Sign (Herst Harbor)","metadescription":"EP. Remodel. Electric For Existing Sign (Herst Harbor). Final. 15505 1/2 CLARA VAN","address":"15505 1/2 Clara Van, Austin, TX, 78734, US","link":"https://abc.austintexas.gov/web/permit/public-search-other?t_detail=1&t_selected_folderrsn=4167014","tcad_id":"0141680136","location":"    (30.36478068, -97.95242279)","day_issued":"THURSDAY","project_id":"4167014","condominium":"No","status_date":"05/22/2007","jurisdiction":"LAKEWAY FULL PURPOSE","housing_units":"1","issuance_method":"Permit Center","permit_type_desc":"Electrical Permit","fiscal_year_issued":"1988","permit_class_mapped":"Commercial","issued_in_last_30_days":"No","certificate_of_occupancy":"No","property_legal_description":"ABS 2476 SUR 84 STEWART B K ABS 2576 SUR 21 ACR 9.4480"},"geometry":{"type":"Point","coordinates":[-97.95242279,30.36478068]}},{"type":"Feature","properties":{"date":"1988-03-31T05:00:00.000Z","year":1988,"description":"Electric For Existing Sign (Herst Harbor)","metadescription":"MP. Remodel. Electric For Existing Sign (Herst Harbor). Final. 15505 1/2 CLARA VAN","address":"15505 1/2 Clara Van, Austin, TX, 78734, US","link":"https://abc.austintexas.gov/web/permit/public-search-other?t_detail=1&t_selected_folderrsn=3262752","tcad_id":"0141680136","location":"    (30.36478068, -97.95242279)","day_issued":"THURSDAY","project_id":"3262752","condominium":"No","status_date":"05/22/2007","jurisdiction":"LAKEWAY FULL PURPOSE","housing_units":"1","issuance_method":"Permit Center","permit_type_desc":"Mechanical Permit","master_permit_num":"4167014","fiscal_year_issued":"1988","permit_class_mapped":"Commercial","issued_in_last_30_days":"No","certificate_of_occupancy":"No","property_legal_description":"ABS 2476 SUR 84 STEWART B K ABS 2576 SUR 21 ACR 9.4480"},"geometry":{"type":"Point","coordinates":[-97.95242279,30.36478068]}},{"type":"Feature","properties":{"date":"1988-02-09T05:00:00.000Z","year":1988,"description":"Pole Sign For Lakeway","metadescription":"EP. Pole Sign For Lakeway. Final. 2609 1/2 S FM 620 RD","address":"2609 1/2 South Farm to Market 620, Austin, TX, 78738, US","link":"https://abc.austintexas.gov/web/permit/public-search-other?t_detail=1&t_selected_folderrsn=4165516","tcad_id":"0131730201","location":"    (30.33827953, -97.96952318)","day_issued":"TUESDAY","project_id":"4165516","condominium":"No","status_date":"05/22/2007","jurisdiction":"LAKEWAY FULL PURPOSE","housing_units":"1","issuance_method":"Permit Center","permit_type_desc":"Electrical Permit","master_permit_num":"4698214","fiscal_year_issued":"1988","permit_class_mapped":"Commercial","issued_in_last_30_days":"No","certificate_of_occupancy":"No","property_legal_description":"LOT 122 SCHRAMM RANCH SEC 1 PHS 2 THE"},"geometry":{"type":"Point","coordinates":[-97.96952318,30.33827953]}},{"type":"Feature","properties":{"date":"1987-10-26T05:00:00.000Z","year":1987,"description":"Building Sign For My Kitchen Bakery & Deli","metadescription":"EP. Building Sign For My Kitchen Bakery & Deli. Final. 1310 S FM 620 RD","address":"1310 South Farm to Market 620, Austin, TX, 78734, US","link":"https://abc.austintexas.gov/web/permit/public-search-other?t_detail=1&t_selected_folderrsn=4156553","tcad_id":"0135700317","location":"    (30.34976508, -97.96493542)","day_issued":"MONDAY","project_id":"4156553","condominium":"No","status_date":"05/22/2007","jurisdiction":"LAKEWAY FULL PURPOSE","housing_units":"1","issuance_method":"Permit Center","permit_type_desc":"Electrical Permit","master_permit_num":"4696990","fiscal_year_issued":"1988","permit_class_mapped":"Commercial","issued_in_last_30_days":"No","certificate_of_occupancy":"No","property_legal_description":"5.5550 AC OF W 672.06FT OF N PT (4.43AC)OF TRT 4 *& W 725.79 OF N PT OF TRT 5 *(1.33AC) ECK A A SUBD"},"geometry":{"type":"Point","coordinates":[-97.96493542,30.34976508]}},{"type":"Feature","properties":{"date":"1987-09-04T04:00:00.000Z","year":1987,"description":"Building Sign For SusieS Travel Time","metadescription":"EP. Building Sign For SusieS Travel Time. Final. 2300 1/2 LOHMANS CROSSING RD","address":"2300 1/2 Lohmans Crossing Road, Austin, TX, 78734, US","link":"https://abc.austintexas.gov/web/permit/public-search-other?t_detail=1&t_selected_folderrsn=4160959","tcad_id":"0131730303","location":"    (30.34105635, -97.96932513)","day_issued":"FRIDAY","project_id":"4160959","condominium":"No","status_date":"05/22/2007","jurisdiction":"LAKEWAY FULL PURPOSE","housing_units":"1","issuance_method":"Permit Center","permit_type_desc":"Electrical Permit","master_permit_num":"4697515","fiscal_year_issued":"1987","permit_class_mapped":"Commercial","issued_in_last_30_days":"No","certificate_of_occupancy":"No","property_legal_description":"LOT 5A LAKEWAY TOWNE CENTRE REPLAT OF LOT 1 BLK A"},"geometry":{"type":"Point","coordinates":[-97.96932513,30.34105635]}},{"type":"Feature","properties":{"date":"1987-07-15T04:00:00.000Z","year":1987,"description":"Building Sign Still #1 Liquor","metadescription":"EP. Building Sign Still #1 Liquor. VOID. 2300 1/2 LOHMANS CROSSING RD","address":"2300 1/2 Lohmans Crossing Road, Austin, TX, 78734, US","link":"https://abc.austintexas.gov/web/permit/public-search-other?t_detail=1&t_selected_folderrsn=4159223","tcad_id":"0131730303","location":"    (30.34105635, -97.96932513)","day_issued":"WEDNESDAY","project_id":"4159223","condominium":"No","status_date":"06/15/2011","jurisdiction":"LAKEWAY FULL PURPOSE","housing_units":"1","issuance_method":"Permit Center","permit_type_desc":"Electrical Permit","master_permit_num":"4697298","fiscal_year_issued":"1987","permit_class_mapped":"Commercial","issued_in_last_30_days":"No","certificate_of_occupancy":"No","property_legal_description":"LOT 5A LAKEWAY TOWNE CENTRE REPLAT OF LOT 1 BLK A"},"geometry":{"type":"Point","coordinates":[-97.96932513,30.34105635]}},{"type":"Feature","properties":{"date":"1987-05-18T04:00:00.000Z","year":1987,"description":"Building Sign (Blank Face)","metadescription":"EP. Building Sign (Blank Face). Final. 907 S FM 620 RD","address":"907 South Farm to Market 620, Austin, TX, 78734, US","link":"https://abc.austintexas.gov/web/permit/public-search-other?t_detail=1&t_selected_folderrsn=4157077","tcad_id":"0137680702","location":"    (30.35456371, -97.96044448)","day_issued":"MONDAY","project_id":"4157077","condominium":"No","status_date":"05/22/2007","jurisdiction":"LAKEWAY FULL PURPOSE","housing_units":"1","issuance_method":"Permit Center","permit_type_desc":"Electrical Permit","master_permit_num":"4697045","fiscal_year_issued":"1987","permit_class_mapped":"Commercial","issued_in_last_30_days":"No","certificate_of_occupancy":"No","property_legal_description":"1.2523 AC OF LOT 13A CARDINAL HILLS UNIT 4 AMENDED PLAT OF LOTS 1314&15"},"geometry":{"type":"Point","coordinates":[-97.96044448,30.35456371]}},{"type":"Feature","properties":{"date":"1987-05-18T04:00:00.000Z","year":1987,"description":"Building Sign (Blank Face)","metadescription":"EP. Building Sign (Blank Face). Final. 907 S FM 620 RD","address":"907 South Farm to Market 620, Austin, TX, 78734, US","link":"https://abc.austintexas.gov/web/permit/public-search-other?t_detail=1&t_selected_folderrsn=4157079","tcad_id":"0137680702","location":"    (30.35456371, -97.96044448)","day_issued":"MONDAY","project_id":"4157079","condominium":"No","status_date":"05/22/2007","jurisdiction":"LAKEWAY FULL PURPOSE","housing_units":"1","issuance_method":"Permit Center","permit_type_desc":"Electrical Permit","master_permit_num":"4697046","fiscal_year_issued":"1987","permit_class_mapped":"Commercial","issued_in_last_30_days":"No","certificate_of_occupancy":"No","property_legal_description":"1.2523 AC OF LOT 13A CARDINAL HILLS UNIT 4 AMENDED PLAT OF LOTS 1314&15"},"geometry":{"type":"Point","coordinates":[-97.96044448,30.35456371]}},{"type":"Feature","properties":{"date":"1987-04-24T04:00:00.000Z","year":1987,"description":"Building Sign For Prospective Tenants","metadescription":"EP. Building Sign For Prospective Tenants. Final. 907 S FM 620 RD","address":"907 South Farm to Market 620, Austin, TX, 78734, US","link":"https://abc.austintexas.gov/web/permit/public-search-other?t_detail=1&t_selected_folderrsn=4156412","tcad_id":"0137680702","location":"    (30.35456371, -97.96044448)","day_issued":"FRIDAY","project_id":"4156412","condominium":"No","status_date":"05/22/2007","jurisdiction":"LAKEWAY FULL PURPOSE","housing_units":"1","issuance_method":"Permit Center","permit_type_desc":"Electrical Permit","master_permit_num":"4696968","fiscal_year_issued":"1987","permit_class_mapped":"Commercial","issued_in_last_30_days":"No","certificate_of_occupancy":"No","property_legal_description":"1.2523 AC OF LOT 13A CARDINAL HILLS UNIT 4 AMENDED PLAT OF LOTS 1314&15"},"geometry":{"type":"Point","coordinates":[-97.96044448,30.35456371]}},{"type":"Feature","properties":{"date":"1987-04-24T04:00:00.000Z","year":1987,"description":"Building Sign For Savings Banc","metadescription":"EP. Building Sign For Savings Banc. Final. 1310 S FM 620 RD","address":"1310 South Farm to Market 620, Austin, TX, 78734, US","link":"https://abc.austintexas.gov/web/permit/public-search-other?t_detail=1&t_selected_folderrsn=4155976","tcad_id":"0135700317","location":"    (30.34976508, -97.96493542)","day_issued":"FRIDAY","project_id":"4155976","condominium":"No","status_date":"05/22/2007","jurisdiction":"LAKEWAY FULL PURPOSE","housing_units":"1","issuance_method":"Permit Center","permit_type_desc":"Electrical Permit","master_permit_num":"4696913","fiscal_year_issued":"1987","permit_class_mapped":"Commercial","issued_in_last_30_days":"No","certificate_of_occupancy":"No","property_legal_description":"5.5550 AC OF W 672.06FT OF N PT (4.43AC)OF TRT 4 *& W 725.79 OF N PT OF TRT 5 *(1.33AC) ECK A A SUBD"},"geometry":{"type":"Point","coordinates":[-97.96493542,30.34976508]}},{"type":"Feature","properties":{"date":"1987-04-24T04:00:00.000Z","year":1987,"description":"Building Sign For Prospective Tenants","metadescription":"EP. Building Sign For Prospective Tenants. Final. 907 S FM 620 RD","address":"907 South Farm to Market 620, Austin, TX, 78734, US","link":"https://abc.austintexas.gov/web/permit/public-search-other?t_detail=1&t_selected_folderrsn=4156414","tcad_id":"0137680702","location":"    (30.35456371, -97.96044448)","day_issued":"FRIDAY","project_id":"4156414","condominium":"No","status_date":"05/22/2007","jurisdiction":"LAKEWAY FULL PURPOSE","housing_units":"1","issuance_method":"Permit Center","permit_type_desc":"Electrical Permit","master_permit_num":"4696969","fiscal_year_issued":"1987","permit_class_mapped":"Commercial","issued_in_last_30_days":"No","certificate_of_occupancy":"No","property_legal_description":"1.2523 AC OF LOT 13A CARDINAL HILLS UNIT 4 AMENDED PLAT OF LOTS 1314&15"},"geometry":{"type":"Point","coordinates":[-97.96044448,30.35456371]}},{"type":"Feature","properties":{"date":"1987-04-22T04:00:00.000Z","year":1987,"description":"Building Sign Tip Top Cleaners","metadescription":"EP. Building Sign Tip Top Cleaners. Final. 2300 1/2 LOHMANS CROSSING RD","address":"2300 1/2 Lohmans Crossing Road, Austin, TX, 78734, US","link":"https://abc.austintexas.gov/web/permit/public-search-other?t_detail=1&t_selected_folderrsn=4156276","tcad_id":"0131730303","location":"    (30.34105635, -97.96932513)","day_issued":"WEDNESDAY","project_id":"4156276","condominium":"No","status_date":"05/22/2007","jurisdiction":"LAKEWAY FULL PURPOSE","housing_units":"1","issuance_method":"Permit Center","permit_type_desc":"Electrical Permit","master_permit_num":"4696941","fiscal_year_issued":"1987","permit_class_mapped":"Commercial","issued_in_last_30_days":"No","certificate_of_occupancy":"No","property_legal_description":"LOT 5A LAKEWAY TOWNE CENTRE REPLAT OF LOT 1 BLK A"},"geometry":{"type":"Point","coordinates":[-97.96932513,30.34105635]}},{"type":"Feature","properties":{"date":"1987-04-22T04:00:00.000Z","year":1987,"description":"Building Sign Tip Top Cleaners","metadescription":"EP. Building Sign Tip Top Cleaners. Final. 2300 1/2 LOHMANS CROSSING RD","address":"2300 1/2 Lohmans Crossing Road, Austin, TX, 78734, US","link":"https://abc.austintexas.gov/web/permit/public-search-other?t_detail=1&t_selected_folderrsn=4156274","tcad_id":"0131730303","location":"    (30.34105635, -97.96932513)","day_issued":"WEDNESDAY","project_id":"4156274","condominium":"No","status_date":"05/22/2007","jurisdiction":"LAKEWAY FULL PURPOSE","housing_units":"1","issuance_method":"Permit Center","permit_type_desc":"Electrical Permit","master_permit_num":"4696940","fiscal_year_issued":"1987","permit_class_mapped":"Commercial","issued_in_last_30_days":"No","certificate_of_occupancy":"No","property_legal_description":"LOT 5A LAKEWAY TOWNE CENTRE REPLAT OF LOT 1 BLK A"},"geometry":{"type":"Point","coordinates":[-97.96932513,30.34105635]}},{"type":"Feature","properties":{"date":"1987-04-08T04:00:00.000Z","year":1987,"description":"Building Sign Circle K Logo","metadescription":"EP. Building Sign Circle K Logo. Final. 903 S FM 620 RD","address":"903 South Farm to Market 620, Austin, TX, 78734, US","link":"https://abc.austintexas.gov/web/permit/public-search-other?t_detail=1&t_selected_folderrsn=4399508","tcad_id":"0137680701","location":"    (30.35474701, -97.96024336)","day_issued":"WEDNESDAY","project_id":"4399508","condominium":"No","status_date":"05/22/2007","jurisdiction":"LAKEWAY FULL PURPOSE","housing_units":"1","issuance_method":"Permit Center","permit_type_desc":"Electrical Permit","master_permit_num":"4717178","fiscal_year_issued":"1987","permit_class_mapped":"Commercial","issued_in_last_30_days":"No","certificate_of_occupancy":"No","property_legal_description":"LOT 16 CARDINAL HILLS UNIT 4"},"geometry":{"type":"Point","coordinates":[-97.96024336,30.35474701]}},{"type":"Feature","properties":{"date":"1986-12-02T05:00:00.000Z","year":1986,"description":"Building Sign For Drugs","metadescription":"EP. Building Sign For Drugs. Final. 2300 1/2 LOHMANS CROSSING RD","address":"2300 1/2 Lohmans Crossing Road, Austin, TX, 78734, US","link":"https://abc.austintexas.gov/web/permit/public-search-other?t_detail=1&t_selected_folderrsn=4413108","tcad_id":"0131730303","location":"    (30.34105635, -97.96932513)","day_issued":"TUESDAY","project_id":"4413108","condominium":"No","status_date":"05/22/2007","jurisdiction":"LAKEWAY FULL PURPOSE","housing_units":"1","issuance_method":"Permit Center","permit_type_desc":"Electrical Permit","master_permit_num":"4717802","fiscal_year_issued":"1987","permit_class_mapped":"Commercial","issued_in_last_30_days":"No","certificate_of_occupancy":"No","property_legal_description":"LOT 5A LAKEWAY TOWNE CENTRE REPLAT OF LOT 1 BLK A"},"geometry":{"type":"Point","coordinates":[-97.96932513,30.34105635]}},{"type":"Feature","properties":{"date":"1986-12-02T05:00:00.000Z","year":1986,"description":"Building Sign For Safeway","metadescription":"EP. Building Sign For Safeway. Final. 2300 1/2 LOHMANS CROSSING RD","address":"2300 1/2 Lohmans Crossing Road, Austin, TX, 78734, US","link":"https://abc.austintexas.gov/web/permit/public-search-other?t_detail=1&t_selected_folderrsn=4151611","tcad_id":"0131730303","location":"    (30.34105635, -97.96932513)","day_issued":"TUESDAY","project_id":"4151611","condominium":"No","status_date":"05/22/2007","jurisdiction":"LAKEWAY FULL PURPOSE","housing_units":"1","issuance_method":"Permit Center","permit_type_desc":"Electrical Permit","master_permit_num":"4696271","fiscal_year_issued":"1987","permit_class_mapped":"Commercial","issued_in_last_30_days":"No","certificate_of_occupancy":"No","property_legal_description":"LOT 5A LAKEWAY TOWNE CENTRE REPLAT OF LOT 1 BLK A"},"geometry":{"type":"Point","coordinates":[-97.96932513,30.34105635]}},{"type":"Feature","properties":{"date":"1986-12-02T05:00:00.000Z","year":1986,"description":"Building Sign For Food","metadescription":"EP. Building Sign For Food. Final. 2300 1/2 LOHMANS CROSSING RD","address":"2300 1/2 Lohmans Crossing Road, Austin, TX, 78734, US","link":"https://abc.austintexas.gov/web/permit/public-search-other?t_detail=1&t_selected_folderrsn=4151601","tcad_id":"0131730303","location":"    (30.34105635, -97.96932513)","day_issued":"TUESDAY","project_id":"4151601","condominium":"No","status_date":"05/22/2007","jurisdiction":"LAKEWAY FULL PURPOSE","housing_units":"1","issuance_method":"Permit Center","permit_type_desc":"Electrical Permit","master_permit_num":"4696266","fiscal_year_issued":"1987","permit_class_mapped":"Commercial","issued_in_last_30_days":"No","certificate_of_occupancy":"No","property_legal_description":"LOT 5A LAKEWAY TOWNE CENTRE REPLAT OF LOT 1 BLK A"},"geometry":{"type":"Point","coordinates":[-97.96932513,30.34105635]}},{"type":"Feature","properties":{"date":"1986-12-02T05:00:00.000Z","year":1986,"description":"Pole Sign Lohmans Crossing Various","metadescription":"EP. Pole Sign Lohmans Crossing Various. Final. 2300 1/2 LOHMANS CROSSING RD","address":"2300 1/2 Lohmans Crossing Road, Austin, TX, 78734, US","link":"https://abc.austintexas.gov/web/permit/public-search-other?t_detail=1&t_selected_folderrsn=4151605","tcad_id":"0131730303","location":"    (30.34105635, -97.96932513)","day_issued":"TUESDAY","project_id":"4151605","condominium":"No","status_date":"05/22/2007","jurisdiction":"LAKEWAY FULL PURPOSE","housing_units":"1","issuance_method":"Permit Center","permit_type_desc":"Electrical Permit","master_permit_num":"4696270","fiscal_year_issued":"1987","permit_class_mapped":"Commercial","issued_in_last_30_days":"No","certificate_of_occupancy":"No","property_legal_description":"LOT 5A LAKEWAY TOWNE CENTRE REPLAT OF LOT 1 BLK A"},"geometry":{"type":"Point","coordinates":[-97.96932513,30.34105635]}},{"type":"Feature","properties":{"date":"1986-06-27T04:00:00.000Z","year":1986,"description":"Building Sign For Amalfi Pizza Company","metadescription":"EP. Building Sign For Amalfi Pizza Company. Final. 1310 S FM 620 RD","address":"1310 South Farm to Market 620, Austin, TX, 78734, US","link":"https://abc.austintexas.gov/web/permit/public-search-other?t_detail=1&t_selected_folderrsn=4145592","tcad_id":"0135700317","location":"    (30.34976508, -97.96493542)","day_issued":"FRIDAY","project_id":"4145592","condominium":"No","status_date":"05/22/2007","jurisdiction":"LAKEWAY FULL PURPOSE","housing_units":"1","issuance_method":"Permit Center","permit_type_desc":"Electrical Permit","master_permit_num":"4695356","fiscal_year_issued":"1986","permit_class_mapped":"Commercial","issued_in_last_30_days":"No","certificate_of_occupancy":"No","property_legal_description":"5.5550 AC OF W 672.06FT OF N PT (4.43AC)OF TRT 4 *& W 725.79 OF N PT OF TRT 5 *(1.33AC) ECK A A SUBD"},"geometry":{"type":"Point","coordinates":[-97.96493542,30.34976508]}},{"type":"Feature","properties":{"date":"1986-06-27T04:00:00.000Z","year":1986,"description":"Building Sign For Amalfi Pizza Company","metadescription":"EP. Building Sign For Amalfi Pizza Company. VOID. 1310 S FM 620 RD","address":"1310 South Farm to Market 620, Austin, TX, 78734, US","link":"https://abc.austintexas.gov/web/permit/public-search-other?t_detail=1&t_selected_folderrsn=4145594","tcad_id":"0135700317","location":"    (30.34976508, -97.96493542)","day_issued":"FRIDAY","project_id":"4145594","condominium":"No","status_date":"06/15/2011","jurisdiction":"LAKEWAY FULL PURPOSE","housing_units":"1","issuance_method":"Permit Center","permit_type_desc":"Electrical Permit","master_permit_num":"4695357","fiscal_year_issued":"1986","permit_class_mapped":"Commercial","issued_in_last_30_days":"No","certificate_of_occupancy":"No","property_legal_description":"5.5550 AC OF W 672.06FT OF N PT (4.43AC)OF TRT 4 *& W 725.79 OF N PT OF TRT 5 *(1.33AC) ECK A A SUBD"},"geometry":{"type":"Point","coordinates":[-97.96493542,30.34976508]}},{"type":"Feature","properties":{"date":"1986-03-24T05:00:00.000Z","year":1986,"description":"Building Sign For Lakeway Office Park","metadescription":"EP. Building Sign For Lakeway Office Park. Final. 1017 S FM 620 RD","address":"1017 South Farm to Market 620, Austin, TX, 78734, US","link":"https://abc.austintexas.gov/web/permit/public-search-other?t_detail=1&t_selected_folderrsn=4141272","tcad_id":"0135700407","location":"    (30.35231353, -97.96190465)","day_issued":"MONDAY","project_id":"4141272","condominium":"No","status_date":"05/22/2007","jurisdiction":"LAKEWAY FULL PURPOSE","housing_units":"1","issuance_method":"Permit Center","permit_type_desc":"Electrical Permit","master_permit_num":"4694962","fiscal_year_issued":"1986","permit_class_mapped":"Commercial","issued_in_last_30_days":"No","certificate_of_occupancy":"No","property_legal_description":"0.3686AC OF LOT 2 CARDINAL HILLS UNIT 4"},"geometry":{"type":"Point","coordinates":[-97.96190465,30.35231353]}},{"type":"Feature","properties":{"date":"1986-02-04T05:00:00.000Z","year":1986,"description":"Building Sign For Chequers","metadescription":"EP. Building Sign For Chequers. VOID. 1310 S FM 620 RD BLDG A UNIT 3","address":"1310 South Farm to Market 620, Austin, TX, 78734, US","link":"https://abc.austintexas.gov/web/permit/public-search-other?t_detail=1&t_selected_folderrsn=4139132","tcad_id":"0135700317","location":"    (30.34976508, -97.96493542)","day_issued":"TUESDAY","project_id":"4139132","condominium":"No","status_date":"06/15/2011","jurisdiction":"LAKEWAY FULL PURPOSE","housing_units":"1","issuance_method":"Permit Center","permit_type_desc":"Electrical Permit","master_permit_num":"4694689","fiscal_year_issued":"1986","permit_class_mapped":"Commercial","issued_in_last_30_days":"No","certificate_of_occupancy":"No","property_legal_description":"5.5550 AC OF W 672.06FT OF N PT (4.43AC)OF TRT 4 *& W 725.79 OF N PT OF TRT 5 *(1.33AC) ECK A A SUBD"},"geometry":{"type":"Point","coordinates":[-97.96493542,30.34976508]}},{"type":"Feature","properties":{"date":"1985-11-27T05:00:00.000Z","year":1985,"description":"Building Sign For Iga Village Foods","metadescription":"EP. Building Sign For Iga Village Foods. Final. 1310 S FM 620 RD","address":"1310 South Farm to Market 620, Austin, TX, 78734, US","link":"https://abc.austintexas.gov/web/permit/public-search-other?t_detail=1&t_selected_folderrsn=4136440","tcad_id":"0135700317","location":"    (30.34976508, -97.96493542)","day_issued":"WEDNESDAY","project_id":"4136440","condominium":"No","status_date":"05/22/2007","jurisdiction":"LAKEWAY FULL PURPOSE","housing_units":"1","issuance_method":"Permit Center","permit_type_desc":"Electrical Permit","master_permit_num":"4694406","fiscal_year_issued":"1986","permit_class_mapped":"Commercial","issued_in_last_30_days":"No","certificate_of_occupancy":"No","property_legal_description":"5.5550 AC OF W 672.06FT OF N PT (4.43AC)OF TRT 4 *& W 725.79 OF N PT OF TRT 5 *(1.33AC) ECK A A SUBD"},"geometry":{"type":"Point","coordinates":[-97.96493542,30.34976508]}},{"type":"Feature","properties":{"date":"1985-11-05T05:00:00.000Z","year":1985,"description":"Building Sign Sun Tile &  Flooring","metadescription":"EP. Building Sign Sun Tile &  Flooring. Final. 1310 S FM 620 RD","address":"1310 South Farm to Market 620, Austin, TX, 78734, US","link":"https://abc.austintexas.gov/web/permit/public-search-other?t_detail=1&t_selected_folderrsn=4135400","tcad_id":"0135700317","location":"    (30.34976508, -97.96493542)","day_issued":"TUESDAY","project_id":"4135400","condominium":"No","status_date":"05/22/2007","jurisdiction":"LAKEWAY FULL PURPOSE","housing_units":"1","issuance_method":"Permit Center","permit_type_desc":"Electrical Permit","master_permit_num":"4694294","fiscal_year_issued":"1986","permit_class_mapped":"Commercial","issued_in_last_30_days":"No","certificate_of_occupancy":"No","property_legal_description":"5.5550 AC OF W 672.06FT OF N PT (4.43AC)OF TRT 4 *& W 725.79 OF N PT OF TRT 5 *(1.33AC) ECK A A SUBD"},"geometry":{"type":"Point","coordinates":[-97.96493542,30.34976508]}},{"type":"Feature","properties":{"date":"1985-10-28T05:00:00.000Z","year":1985,"description":"Building Sign For Lakeway Veterinary Clinlic","metadescription":"EP. Building Sign For Lakeway Veterinary Clinlic. Final. 1310 S FM 620 RD","address":"1310 South Farm to Market 620, Austin, TX, 78734, US","link":"https://abc.austintexas.gov/web/permit/public-search-other?t_detail=1&t_selected_folderrsn=4135142","tcad_id":"0135700317","location":"    (30.34976508, -97.96493542)","day_issued":"MONDAY","project_id":"4135142","condominium":"No","status_date":"05/22/2007","jurisdiction":"LAKEWAY FULL PURPOSE","housing_units":"1","issuance_method":"Permit Center","permit_type_desc":"Electrical Permit","master_permit_num":"4694279","fiscal_year_issued":"1986","permit_class_mapped":"Commercial","issued_in_last_30_days":"No","certificate_of_occupancy":"No","property_legal_description":"5.5550 AC OF W 672.06FT OF N PT (4.43AC)OF TRT 4 *& W 725.79 OF N PT OF TRT 5 *(1.33AC) ECK A A SUBD"},"geometry":{"type":"Point","coordinates":[-97.96493542,30.34976508]}},{"type":"Feature","properties":{"date":"1985-10-14T04:00:00.000Z","year":1985,"description":"Connect Elec Sign","metadescription":"MP. Remodel. Connect Elec Sign. VOID. 1310 S FM 620 RD","address":"1310 South Farm to Market 620, Austin, TX, 78734, US","link":"https://abc.austintexas.gov/web/permit/public-search-other?t_detail=1&t_selected_folderrsn=3233699","tcad_id":"0135700317","location":"    (30.34976508, -97.96493542)","day_issued":"MONDAY","project_id":"3233699","condominium":"No","status_date":"11/26/2012","jurisdiction":"LAKEWAY FULL PURPOSE","housing_units":"1","issuance_method":"Permit Center","permit_type_desc":"Mechanical Permit","fiscal_year_issued":"1986","permit_class_mapped":"Commercial","issued_in_last_30_days":"No","certificate_of_occupancy":"No","property_legal_description":"5.5550 AC OF W 672.06FT OF N PT (4.43AC)OF TRT 4 *& W 725.79 OF N PT OF TRT 5 *(1.33AC) ECK A A SUBD"},"geometry":{"type":"Point","coordinates":[-97.96493542,30.34976508]}},{"type":"Feature","properties":{"date":"1985-08-13T04:00:00.000Z","year":1985,"description":"Berm Sign For Lakeway Plaza In The Etj","metadescription":"EP. Berm Sign For Lakeway Plaza In The Etj. Final. 1310 S FM 620 RD","address":"1310 South Farm to Market 620, Austin, TX, 78734, US","link":"https://abc.austintexas.gov/web/permit/public-search-other?t_detail=1&t_selected_folderrsn=4131224","tcad_id":"0135700317","location":"    (30.34976508, -97.96493542)","day_issued":"TUESDAY","project_id":"4131224","condominium":"No","status_date":"05/22/2007","jurisdiction":"LAKEWAY FULL PURPOSE","housing_units":"1","issuance_method":"Permit Center","permit_type_desc":"Electrical Permit","master_permit_num":"4693704","fiscal_year_issued":"1985","permit_class_mapped":"Commercial","issued_in_last_30_days":"No","certificate_of_occupancy":"No","property_legal_description":"5.5550 AC OF W 672.06FT OF N PT (4.43AC)OF TRT 4 *& W 725.79 OF N PT OF TRT 5 *(1.33AC) ECK A A SUBD"},"geometry":{"type":"Point","coordinates":[-97.96493542,30.34976508]}},{"type":"Feature","properties":{"date":"1985-03-28T05:00:00.000Z","year":1985,"description":"Reface To Building Sign For Circle K Logo","metadescription":"EP. Reface To Building Sign For Circle K Logo. VOID. 903 S FM 620 RD","address":"903 South Farm to Market 620, Austin, TX, 78734, US","link":"https://abc.austintexas.gov/web/permit/public-search-other?t_detail=1&t_selected_folderrsn=4123862","tcad_id":"0137680701","location":"    (30.35474701, -97.96024336)","day_issued":"THURSDAY","project_id":"4123862","condominium":"No","status_date":"06/15/2011","jurisdiction":"LAKEWAY FULL PURPOSE","housing_units":"1","issuance_method":"Permit Center","permit_type_desc":"Electrical Permit","master_permit_num":"4693060","fiscal_year_issued":"1985","permit_class_mapped":"Commercial","issued_in_last_30_days":"No","certificate_of_occupancy":"No","property_legal_description":"LOT 16 CARDINAL HILLS UNIT 4"},"geometry":{"type":"Point","coordinates":[-97.96024336,30.35474701]}},{"type":"Feature","properties":{"date":"1982-11-03T05:00:00.000Z","year":1982,"description":"Repair On Loop For Sign","metadescription":"MP. Repair. Repair On Loop For Sign. Final. 15505 1/2 CLARA VAN","address":"15505 1/2 Clara Van, Austin, TX, 78734, US","link":"https://abc.austintexas.gov/web/permit/public-search-other?t_detail=1&t_selected_folderrsn=3185700","tcad_id":"0141680136","location":"    (30.36478068, -97.95242279)","day_issued":"WEDNESDAY","project_id":"3185700","condominium":"No","status_date":"05/22/2007","jurisdiction":"LAKEWAY FULL PURPOSE","housing_units":"1","issuance_method":"Permit Center","permit_type_desc":"Mechanical Permit","master_permit_num":"4084240","fiscal_year_issued":"1983","issued_in_last_30_days":"No","certificate_of_occupancy":"No","property_legal_description":"ABS 2476 SUR 84 STEWART B K ABS 2576 SUR 21 ACR 9.4480"},"geometry":{"type":"Point","coordinates":[-97.95242279,30.36478068]}},{"type":"Feature","properties":{"date":"1982-11-03T05:00:00.000Z","year":1982,"description":"Repair On Loop For Sign","metadescription":"EP. Repair. Repair On Loop For Sign. Final. 15505 1/2 CLARA VAN","address":"15505 1/2 Clara Van, Austin, TX, 78734, US","link":"https://abc.austintexas.gov/web/permit/public-search-other?t_detail=1&t_selected_folderrsn=4084240","tcad_id":"0141680136","location":"    (30.36478068, -97.95242279)","day_issued":"WEDNESDAY","project_id":"4084240","condominium":"No","status_date":"05/22/2007","jurisdiction":"LAKEWAY FULL PURPOSE","housing_units":"1","issuance_method":"Permit Center","permit_type_desc":"Electrical Permit","fiscal_year_issued":"1983","issued_in_last_30_days":"No","certificate_of_occupancy":"No","property_legal_description":"ABS 2476 SUR 84 STEWART B K ABS 2576 SUR 21 ACR 9.4480"},"geometry":{"type":"Point","coordinates":[-97.95242279,30.36478068]}},{"type":"Feature","properties":{"date":"1981-01-09T05:00:00.000Z","year":1981,"description":"Electric For Sign Etj","metadescription":"MP. Remodel. Electric For Sign Etj. Expired. 15505 1/2 CLARA VAN","address":"15505 1/2 Clara Van, Austin, TX, 78734, US","link":"https://abc.austintexas.gov/web/permit/public-search-other?t_detail=1&t_selected_folderrsn=3165412","tcad_id":"0141680136","location":"    (30.36478068, -97.95242279)","day_issued":"FRIDAY","project_id":"3165412","condominium":"No","status_date":"06/06/2007","jurisdiction":"LAKEWAY FULL PURPOSE","housing_units":"1","issuance_method":"Permit Center","permit_type_desc":"Mechanical Permit","fiscal_year_issued":"1981","permit_class_mapped":"Commercial","issued_in_last_30_days":"No","certificate_of_occupancy":"No","property_legal_description":"ABS 2476 SUR 84 STEWART B K ABS 2576 SUR 21 ACR 9.4480"},"geometry":{"type":"Point","coordinates":[-97.95242279,30.36478068]}},{"type":"Feature","properties":{"date":"1980-12-16T05:00:00.000Z","year":1980,"description":"Sign","metadescription":"MP. Sign. Expired. 15505 1/2 CLARA VAN","address":"15505 1/2 Clara Van, Austin, TX, 78734, US","link":"https://abc.austintexas.gov/web/permit/public-search-other?t_detail=1&t_selected_folderrsn=3164900","tcad_id":"0141680136","location":"    (30.36478068, -97.95242279)","day_issued":"TUESDAY","project_id":"3164900","condominium":"No","status_date":"06/06/2007","jurisdiction":"LAKEWAY FULL PURPOSE","housing_units":"1","issuance_method":"Permit Center","permit_type_desc":"Mechanical Permit","fiscal_year_issued":"1981","permit_class_mapped":"Commercial","issued_in_last_30_days":"No","certificate_of_occupancy":"No","property_legal_description":"ABS 2476 SUR 84 STEWART B K ABS 2576 SUR 21 ACR 9.4480"},"geometry":{"type":"Point","coordinates":[-97.95242279,30.36478068]}}]}
