{"type":"FeatureCollection","features":[{"type":"Feature","properties":{"date":"2011-09-07T00:00:00.000Z","year":2011,"description":"INTERIOR ALTERATIONS, SECOND FLOOR TO EXISTING ONE STORY SINGLE FAMILY RESIDENCE AND NEW FRONT AND REAR OPEN WOOD PORCHES AS PER PLANS - INCLUDING ELECTRICAL, PLUMBING AND HVAC WORK","metadescription":"PERMIT - RENOVATION/ALTERATION. INTERIOR ALTERATIONS, SECOND FLOOR TO EXISTING ONE STORY SINGLE FAMILY RESIDENCE AND NEW FRONT AND REAR OPEN WOOD PORCHES AS PER PLANS - INCLUDING ELECTRICAL, PLUMBING AND HVAC WORK. COMPLETE. 7444","address":"7444 North OZARK Avenue, Chicago, IL, CHICAGO, 60631, US","location":"POINT (-87.820788340762 42.016306289817)","pin_list":"0925311047","review_type":"STANDARD PLAN REVIEW","street_name":"OZARK AVE","xcoordinate":"1123530.884608425","ycoordinate":"1948949.0492898254","census_tract":"901","subtotal_paid":"$514.11","community_area":"9","contact_1_city":"CHICAGO","contact_1_name":"MARGARET POZNER","contact_1_type":"OWNER AS GENERAL CONTRACTOR","contact_2_city":"BARTLETT","contact_2_name":"BRANDEIS, KENNETH F","contact_2_type":"ARCHITECT","contact_3_city":"DES PLAINES","contact_3_name":"CURRAGH ELECTRIC CO.","contact_3_type":"CONTRACTOR-ELECTRICAL","contact_4_city":"CHICAGO RIDGE","contact_4_name":"BANNER MASONRY, INC.","contact_4_type":"MASONRY CONTRACTOR","contact_5_city":"NILES","contact_5_name":"STONE CIRCLE CONCRETE, INC","contact_5_type":"MASONRY CONTRACTOR","contact_6_city":"CHICAGO","contact_6_name":"EMERALD ISLE CONSTRUCTION, INC","contact_6_type":"CONTRACTOR-PLUMBER/PLUMBING","contact_7_city":"NEW LENOX","contact_7_name":"SOUTH CHICAGO HEATING","contact_7_type":"CONTRACTOR-VENTILATION","other_fee_paid":"$0.00","contact_1_state":"IL","contact_2_state":"IL","contact_3_state":"IL","contact_4_state":"IL","contact_5_state":"IL","contact_6_state":"IL","contact_7_state":"IL","processing_time":"7","subtotal_unpaid":"$0.00","subtotal_waived":"$0.00","zoning_fee_paid":"$75.00","other_fee_unpaid":"$0.00","other_fee_waived":"$0.00","permit_milestone":"COMPLETE","street_direction":"N","building_fee_paid":"$439.11","contact_1_zipcode":"60631","contact_2_zipcode":"60103","contact_3_zipcode":"60018-","contact_4_zipcode":"60415","contact_5_zipcode":"60714","contact_6_zipcode":"60631","contact_7_zipcode":"60451","zoning_fee_unpaid":"$0.00","zoning_fee_waived":"$0.00","other_fee_subtotal":"$0","building_fee_unpaid":"$0.00","building_fee_waived":"$0.00","zoning_fee_subtotal":"$75","building_fee_subtotal":"$439.11"},"geometry":{"type":"Point","coordinates":[-87.820788341,42.01630629]}}]}
