{"type":"FeatureCollection","features":[{"type":"Feature","properties":{"date":"2011-02-04T00:00:00.000Z","year":2011,"description":"BATHROOM MODIFICATION. NO CHANGE TO PARKING.","metadescription":"PERMIT - RENOVATION/ALTERATION. BATHROOM MODIFICATION. NO CHANGE TO PARKING.. COMPLETE. 3142","address":"3142 West 114TH Street, Chicago, IL, CHICAGO, 60655, US","location":"POINT (-87.699885344998 41.686252766479)","pin_list":"2424109066","review_type":"STANDARD PLAN REVIEW","street_name":"114TH ST","xcoordinate":"1157272.840378208","ycoordinate":"1828898.5217540737","census_tract":"7401","subtotal_paid":"$0.00","community_area":"74","contact_1_city":"ARLINGTON HEIGHTS","contact_1_name":"EXTENDED HOME LIVING SERVICES, INC.","contact_1_type":"CONTRACTOR-GENERAL CONTRACTOR","contact_2_city":"CHICAGO","contact_2_name":"E. J. PLUMBING, INC.","contact_2_type":"PLUMBING CONTRACTOR","contact_3_city":"CHICAGO","contact_3_name":"GERALDINE FRAZIER","contact_3_type":"OWNER","other_fee_paid":"$0.00","contact_1_state":"IL","contact_2_state":"IL","contact_3_state":"IL","processing_time":"7","subtotal_unpaid":"$0.00","subtotal_waived":"$175.00","zoning_fee_paid":"$0.00","other_fee_unpaid":"$0.00","other_fee_waived":"$0.00","permit_milestone":"COMPLETE","street_direction":"W","building_fee_paid":"$0.00","contact_1_zipcode":"60004","contact_2_zipcode":"60634","contact_3_zipcode":"60655","zoning_fee_unpaid":"$0.00","zoning_fee_waived":"$50.00","other_fee_subtotal":"$0","building_fee_unpaid":"$0.00","building_fee_waived":"$125.00","zoning_fee_subtotal":"$50","building_fee_subtotal":"$125"},"geometry":{"type":"Point","coordinates":[-87.699885345,41.686252766]}}]}
