{"type":"FeatureCollection","features":[{"type":"Feature","properties":{"date":"2026-04-09T00:00:00.000Z","year":2026,"description":"convert recreation room to garage and addition","metadescription":"Bldg-Addition. 1 or 2 Family Dwelling. convert recreation room to garage and addition. Issued. 1065 N SAN RAFAEL AVE","address":"1101 South San Rafael Avenue, CA, Pasadena, 91105, US","ct":"1831.04","ev":"N","hl":"YES","apc":"East Los Angeles","cpa":"Northeast Los Angeles","zone":"R1-1-HCR","solar":"N","height":"12","pin_nbr":"157-5A237  16","use_code":"7","status_date":"04/09/2026","construction":"Type V-B Construction","permit_group":"Building","refresh_time":"06/10/2026","type_lat_lon":"ADDRESS","business_unit":"Regular Plan Check","square_footage":"569"},"geometry":{"type":"Point","coordinates":[-118.1659,34.12576]}},{"type":"Feature","properties":{"date":"2026-04-09T00:00:00.000Z","year":2026,"description":"addition to existing SFD and attached ADU","metadescription":"Bldg-Addition. 1 or 2 Family Dwelling. addition to existing SFD and attached ADU. Issued. 1065-1065 1/2 N SAN RAFAEL AVE","address":"1101 South San Rafael Avenue, CA, Pasadena, 91105, US","ct":"1831.04","ev":"N","hl":"YES","apc":"East Los Angeles","cpa":"Northeast Los Angeles","zone":"R1-1-HCR","solar":"N","height":"22.75","pin_nbr":"157-5A237  16","use_code":"1","adu_changed":"1","status_date":"04/09/2026","construction":"Type V-B Construction","permit_group":"Building","refresh_time":"06/10/2026","type_lat_lon":"ADDRESS","business_unit":"Regular Plan Check","square_footage":"7619"},"geometry":{"type":"Point","coordinates":[-118.1659,34.12576]}},{"type":"Feature","properties":{"date":"2025-05-27T00:00:00.000Z","year":2025,"description":"CONVERT EXISTING CABANA AND NEW ADDITION TO NEW ACCESSORY DWELLING UNIT PER LAMC 12.22 A.33 (c) and (e). WORK DONE PER ENGINEER DESIGN.","metadescription":"Bldg-Addition. 1 or 2 Family Dwelling. CONVERT EXISTING CABANA AND NEW ADDITION TO NEW ACCESSORY DWELLING UNIT PER LAMC 12.22 A.33 (c) and (e). WORK DONE PER ENGINEER DESIGN.. PC Info Complete. 1043-1043 1/2 N LARKER AVE","address":"1043 Larker Avenue, CA, Los Angeles, 90042, US","ct":"1831.04","ev":"N","hl":"YES","apc":"East Los Angeles","cpa":"Northeast Los Angeles","zone":"R1-1-HCR","solar":"N","pin_nbr":"157-5A235  89","use_code":"1","adu_changed":"1","status_date":"06/22/2025","construction":"Type V-B Construction","permit_group":"Building","refresh_time":"06/10/2026","type_lat_lon":"ADDRESS","business_unit":"Expanded Counter Plan Check","square_footage":"164"},"geometry":{"type":"Point","coordinates":[-118.17074,34.1256]}},{"type":"Feature","properties":{"date":"2023-12-04T00:00:00.000Z","year":2023,"description":"EPLAN. (N) 15'-0\" x 33'-3\" ADDITION TO (E) SFD FOR (N) DEN, BEDROOM/BATH. WORK PER ENGINEERING.","metadescription":"Bldg-Addition. 1 or 2 Family Dwelling. EPLAN. (N) 15'-0\" x 33'-3\" ADDITION TO (E) SFD FOR (N) DEN, BEDROOM/BATH. WORK PER ENGINEERING.. Issued. 949 N RUTLAND AVE","address":"949 Rutland Avenue, CA, Los Angeles, 90042, US","ct":"1831.04","ev":"N","hl":"YES","apc":"East Los Angeles","cpa":"Northeast Los Angeles","zone":"R1-1-HCR","solar":"N","pin_nbr":"156A235    92","use_code":"1","status_date":"12/04/2023","construction":"Type V-B Construction","permit_group":"Building","refresh_time":"06/10/2026","type_lat_lon":"ADDRESS","business_unit":"Expanded Counter Plan Check","square_footage":"468"},"geometry":{"type":"Point","coordinates":[-118.17231,34.12291]}},{"type":"Feature","properties":{"date":"2022-10-18T00:00:00.000Z","year":2022,"description":"ROOM ADDITION-CONVERT (E) UNCOVERED COURTYARD INTO FAMILY ROOM AND INTERIOR/EXTERIOR REMODEL, REFRAME PORTION OF ROOF","metadescription":"Bldg-Addition. 1 or 2 Family Dwelling. ROOM ADDITION-CONVERT (E) UNCOVERED COURTYARD INTO FAMILY ROOM AND INTERIOR/EXTERIOR REMODEL, REFRAME PORTION OF ROOF. CofO Issued. 6665 E CHURCH ST","address":"6665 Church Street, CA, Los Angeles, 90042, US","ct":"1831.04","ev":"N","hl":"YES","apc":"East Los Angeles","cpa":"Northeast Los Angeles","zone":"R1-1","solar":"N","pin_nbr":"157-5A237  17","use_code":"1","status_date":"01/30/2024","construction":"Type V-B Construction","permit_group":"Building","refresh_time":"06/10/2026","type_lat_lon":"BUILDING","business_unit":"Expanded Counter Plan Check","square_footage":"158.8"},"geometry":{"type":"Point","coordinates":[-118.16836948,34.12579005]}},{"type":"Feature","properties":{"date":"2021-03-24T00:00:00.000Z","year":2021,"description":"BEDROOM AND PATIO ADDITION TO (E) SINGLE FAMILY DWELLING WITH BATHROOM AND LAUNDRY REMODEL","metadescription":"Bldg-Addition. 1 or 2 Family Dwelling. BEDROOM AND PATIO ADDITION TO (E) SINGLE FAMILY DWELLING WITH BATHROOM AND LAUNDRY REMODEL. CofO Issued. 6257 E TIPTON WAY","address":"6253 Tipton Way, CA, Los Angeles, 90042, US","ct":"1815.00","ev":"N","hl":"YES","apc":"East Los Angeles","cpa":"Northeast Los Angeles","zone":"R1-1","solar":"N","pin_nbr":"159A231    69","use_code":"1","status_date":"02/14/2022","construction":"Type V-B Construction","permit_group":"Building","refresh_time":"06/10/2026","type_lat_lon":"ADDRESS","business_unit":"Expanded Counter Plan Check","square_footage":"130"},"geometry":{"type":"Point","coordinates":[-118.18437,34.13111]}},{"type":"Feature","properties":{"date":"2019-09-19T00:00:00.000Z","year":2019,"description":"MAJOR REMODEL AND 15'4\"X18'3\" 1ST FLOOR ADDITION & 30'X6\"X24' (N) 2ND STORY ADDITION. NFPA 13D FIRE SPRINKLERS REQ'D","metadescription":"Bldg-Addition. 1 or 2 Family Dwelling. MAJOR REMODEL AND 15'4\"X18'3\" 1ST FLOOR ADDITION & 30'X6\"X24' (N) 2ND STORY ADDITION. NFPA 13D FIRE SPRINKLERS REQ'D. Permit Expired. 6246 E TIPTON WAY","address":"6246 Tipton Way, CA, Los Angeles, 90042, US","ct":"1815.00","ev":"N","hl":"YES","apc":"East Los Angeles","cpa":"Northeast Los Angeles","zone":"R1-1","solar":"N","height":"23.75","pin_nbr":"159A231   128","use_code":"1","geolocation":"POINT (-118.1846 34.13086)","status_date":"01/09/2025","construction":"Type V-B Construction","permit_group":"Building","refresh_time":"06/10/2026","type_lat_lon":"ADDRESS","business_unit":"Regular Plan Check","square_footage":"1614"},"geometry":{"type":"Point","coordinates":[-118.1846,34.13086]}},{"type":"Feature","properties":{"date":"2018-09-27T00:00:00.000Z","year":2018,"description":"GRADING FOR 2-STORY ADDITION WITH ATTACHED 2-CAR GARAGE UNDER PERMIT 17014-10000-03088","metadescription":"Grading. 1 or 2 Family Dwelling. GRADING FOR 2-STORY ADDITION WITH ATTACHED 2-CAR GARAGE UNDER PERMIT 17014-10000-03088. Permit Finaled. 937 N ELDER CT","address":"937 Elder Court, CA, Los Angeles, 90042, US","ct":"1831.04","ev":"N","hl":"YES","apc":"East Los Angeles","cpa":"Northeast Los Angeles","zone":"R1-1-HPOZ","solar":"N","pin_nbr":"156A233    29","use_code":"70","geolocation":"POINT (-118.17526 34.12364)","status_date":"05/24/2019","permit_group":"Building","refresh_time":"06/10/2026","type_lat_lon":"ADDRESS","business_unit":"Plan Check at Counter"},"geometry":{"type":"Point","coordinates":[-118.17526,34.12364]}},{"type":"Feature","properties":{"date":"2018-06-12T00:00:00.000Z","year":2018,"description":"2-STORY ADDITION WITH ATTACHED 2-CAR GARAGE WITH ROOF DECK ABOVE PROPOSED GARGE TO EXISTING SINGLE FAMILY DWELLING. ADDITION DOES NOT EXCEED (E) ROOF RIDGE LINE.","metadescription":"Bldg-Addition. 1 or 2 Family Dwelling. 2-STORY ADDITION WITH ATTACHED 2-CAR GARAGE WITH ROOF DECK ABOVE PROPOSED GARGE TO EXISTING SINGLE FAMILY DWELLING. ADDITION DOES NOT EXCEED (E) ROOF RIDGE LINE.. CofO Issued. 937 N ELDER CT","address":"937 Elder Court, CA, Los Angeles, 90042, US","ct":"1831.04","ev":"N","hl":"YES","apc":"East Los Angeles","cpa":"Northeast Los Angeles","zone":"R1-1-HPOZ","solar":"N","height":"22.75","pin_nbr":"156A233   425","use_code":"1","geolocation":"POINT (-118.17532584 34.12357437)","status_date":"05/13/2020","construction":"Type V-B Construction","permit_group":"Building","refresh_time":"06/10/2026","type_lat_lon":"BUILDING","business_unit":"Regular Plan Check","square_footage":"1337"},"geometry":{"type":"Point","coordinates":[-118.17532584,34.12357437]}},{"type":"Feature","properties":{"date":"2016-03-18T00:00:00.000Z","year":2016,"description":"ADDITION TO SFD AND INTERIOR REMODEL AND A TWO CAR-CARPORT ADDITION.","metadescription":"Bldg-Addition. 1 or 2 Family Dwelling. ADDITION TO SFD AND INTERIOR REMODEL AND A TWO CAR-CARPORT ADDITION.. CofO Issued. 6267 E TIPTON WAY","address":"6261 Tipton Way, CA, Los Angeles, 90042, US","ct":"1815.00","ev":"N","hl":"YES","apc":"East Los Angeles","cpa":"Northeast Los Angeles","zone":"R1-1","solar":"N","height":"31.25","pin_nbr":"159A231    56","use_code":"1","geolocation":"POINT (-118.18407495 34.13142039)","status_date":"12/18/2016","construction":"Type V-B Construction","permit_group":"Building","refresh_time":"06/10/2026","type_lat_lon":"BUILDING","business_unit":"Regular Plan Check","square_footage":"2300"},"geometry":{"type":"Point","coordinates":[-118.18407495,34.13142039]}},{"type":"Feature","properties":{"date":"2015-09-01T00:00:00.000Z","year":2015,"description":"Addition and remove portion of building to existing single family dwelling including remodel on both 1st and 2nd floor.","metadescription":"Bldg-Addition. 1 or 2 Family Dwelling. Addition and remove portion of building to existing single family dwelling including remodel on both 1st and 2nd floor.. Permit Finaled. 1051 N AVENUE 64","address":"6360 East Church Street, CA, Los Angeles, 90042, US","ct":"1831.01","ev":"N","hl":"YES","apc":"East Los Angeles","cpa":"Northeast Los Angeles","zone":"R1-1-HPOZ","solar":"N","pin_nbr":"157-5A233 213","use_code":"1","geolocation":"POINT (-118.17709269 34.12468721)","status_date":"08/23/2018","construction":"Type V-B Construction","permit_group":"Building","refresh_time":"06/10/2026","type_lat_lon":"BUILDING","business_unit":"Regular Plan Check","square_footage":"-22"},"geometry":{"type":"Point","coordinates":[-118.17709269,34.12468721]}},{"type":"Feature","properties":{"date":"2015-08-11T00:00:00.000Z","year":2015,"description":"MAJOR REMODEL OF (E) 1-STORY SFD AND ADD 2ND STORY ADDITION.  REMOVE (E) CARPORT AND REPLACE WITH (N) ATTACHED 23.5'X18.5' GARAGE. BUILDING TO BE FULLY SPRINKLERED NEW AND EXISTING","metadescription":"Bldg-Addition. 1 or 2 Family Dwelling. MAJOR REMODEL OF (E) 1-STORY SFD AND ADD 2ND STORY ADDITION.  REMOVE (E) CARPORT AND REPLACE WITH (N) ATTACHED 23.5'X18.5' GARAGE. BUILDING TO BE FULLY SPRINKLERED NEW AND EXISTING. CofO Issued. 6280 E CRESTWOOD WAY","address":"6277 Crestwood Way, CA, Los Angeles, 90042, US","ct":"1815.00","ev":"N","hl":"YES","apc":"East Los Angeles","cpa":"Northeast Los Angeles","zone":"R1-1","solar":"N","height":"22.75","pin_nbr":"159A231     3","use_code":"1","geolocation":"POINT (-118.18449 34.13214)","status_date":"02/25/2019","construction":"Type V-B Construction","permit_group":"Building","refresh_time":"06/10/2026","type_lat_lon":"ADDRESS","business_unit":"Regular Plan Check","square_footage":"884"},"geometry":{"type":"Point","coordinates":[-118.18449,34.13214]}},{"type":"Feature","properties":{"date":"2015-04-14T00:00:00.000Z","year":2015,"description":"ONE STORY ADDITION (498 SQ FT) AND ATTACHED COVERED PATIO (227 SQ FT) TO EXISTING ONE STORY SINGLE FAMILY DWELLING.","metadescription":"Bldg-Addition. 1 or 2 Family Dwelling. ONE STORY ADDITION (498 SQ FT) AND ATTACHED COVERED PATIO (227 SQ FT) TO EXISTING ONE STORY SINGLE FAMILY DWELLING.. CofO Issued. 1216 N GLEN ARBOR AVE","address":"1216 Glen Arbor Avenue, CA, Los Angeles, 90041, US","ct":"1815.00","ev":"N","hl":"YES","apc":"East Los Angeles","cpa":"Northeast Los Angeles","zone":"R1-1","solar":"N","height":"21","pin_nbr":"160-5A231  25","use_code":"1","geolocation":"POINT (-118.18553953 34.13558142)","status_date":"04/19/2016","construction":"Type V-B Construction","permit_group":"Building","refresh_time":"06/10/2026","type_lat_lon":"BUILDING","business_unit":"Regular Plan Check","square_footage":"2382"},"geometry":{"type":"Point","coordinates":[-118.18553953,34.13558142]}},{"type":"Feature","properties":{"date":"2014-07-15T00:00:00.000Z","year":2014,"description":"ADDITION AND ALTERATION OF EXISTING 1-STORY SINGLE FAMILY DWELLING INCLUDING NEW WINDOWS, DOORS AND ROOF.","metadescription":"Bldg-Addition. 1 or 2 Family Dwelling. ADDITION AND ALTERATION OF EXISTING 1-STORY SINGLE FAMILY DWELLING INCLUDING NEW WINDOWS, DOORS AND ROOF.. CofO Issued. 1008 N LARKER AVE","address":"1008 Larker Avenue, CA, Los Angeles, 90042, US","ct":"1831.04","ev":"N","hl":"YES","apc":"East Los Angeles","cpa":"Northeast Los Angeles","zone":"R1-1","solar":"N","pin_nbr":"157-5A235 152","use_code":"1","geolocation":"POINT (-118.1705 34.12451)","status_date":"04/02/2020","construction":"Type V-B Construction","permit_group":"Building","refresh_time":"06/10/2026","type_lat_lon":"ADDRESS","business_unit":"Regular Plan Check","square_footage":"2006.5"},"geometry":{"type":"Point","coordinates":[-118.1705,34.12451]}},{"type":"Feature","properties":{"date":"2014-03-20T00:00:00.000Z","year":2014,"description":"Convert underfloor space to new bedroom, bath and family room.  INSPECTION TO CHECK FOR FLEXIBLE UNIT CONSTRUCTION.","metadescription":"Bldg-Addition. 1 or 2 Family Dwelling. Convert underfloor space to new bedroom, bath and family room.  INSPECTION TO CHECK FOR FLEXIBLE UNIT CONSTRUCTION.. CofO Issued. 6260 E TIPTON WAY","address":"6252 Tipton Way, CA, Los Angeles, 90042, US","ct":"1815.00","ev":"N","hl":"YES","apc":"East Los Angeles","cpa":"Northeast Los Angeles","zone":"R1-1","solar":"N","pin_nbr":"159A231   120","use_code":"1","geolocation":"POINT (-118.18413 34.13098)","status_date":"07/30/2014","construction":"Type V-B Construction","permit_group":"Building","refresh_time":"06/10/2026","type_lat_lon":"ADDRESS","business_unit":"Regular Plan Check","square_footage":"695"},"geometry":{"type":"Point","coordinates":[-118.18413,34.13098]}},{"type":"Feature","properties":{"date":"2012-10-09T00:00:00.000Z","year":2012,"description":"175 SQ FT  ONE STORY ADDITION  11.25'   x   15.5'   RFA   =  2034 SQ  FEET","metadescription":"Bldg-Addition. 1 or 2 Family Dwelling. 175 SQ FT  ONE STORY ADDITION  11.25'   x   15.5'   RFA   =  2034 SQ  FEET. CofO Issued. 1035 N ARATINA ST","address":"1035 Aratina Street, CA, Los Angeles, 90042, US","ct":"1831.02","ev":"N","hl":"YES","apc":"East Los Angeles","cpa":"Northeast Los Angeles","zone":"R1-1","solar":"N","pin_nbr":"157-5A235 115","use_code":"1","geolocation":"POINT (-118.16914 34.12512)","status_date":"01/30/2013","construction":"Type V-B Construction","permit_group":"Building","refresh_time":"06/10/2026","type_lat_lon":"ADDRESS","business_unit":"Plan Check at Counter","square_footage":"2034"},"geometry":{"type":"Point","coordinates":[-118.16914,34.12512]}},{"type":"Feature","properties":{"date":"2011-03-21T00:00:00.000Z","year":2011,"description":"CONSTRUCT (N) GROUND FLOOR ADDITION TO THE FRONT AND REAR OF (E) 1-STORY SFD; TOTAL FLOOR AREA IN ADDITION IS 639 SQFT.","metadescription":"Bldg-Addition. 1 or 2 Family Dwelling. CONSTRUCT (N) GROUND FLOOR ADDITION TO THE FRONT AND REAR OF (E) 1-STORY SFD; TOTAL FLOOR AREA IN ADDITION IS 639 SQFT.. Issued. 1020 N ADELANTE AVE","address":"1020 Adelante Avenue, CA, Los Angeles, 90042, US","ct":"1831.04","ev":"N","hl":"YES","apc":"East Los Angeles","cpa":"Northeast Los Angeles","zone":"R1-1","solar":"N","pin_nbr":"157-5A235 134","use_code":"1","geolocation":"POINT (-118.1713 34.12484)","status_date":"03/21/2011","construction":"Type V-B Construction","permit_group":"Building","refresh_time":"06/10/2026","type_lat_lon":"ADDRESS","business_unit":"Regular Plan Check","square_footage":"639"},"geometry":{"type":"Point","coordinates":[-118.1713,34.12484]}},{"type":"Feature","properties":{"date":"2010-08-03T00:00:00.000Z","year":2010,"description":"NEW FRONT PORCH (4'-6\" x 27'-2\" )AND LAUNDRY ROOM (4'5\"X5'2\") ADDITION TO EXISTING ACCESSORY LIVING QUARTERS; AND NEW BLOCK WALL (MAX. 6FT HEIGHT) PER CITY STANDARD.","metadescription":"Bldg-Addition. 1 or 2 Family Dwelling. NEW FRONT PORCH (4'-6\" x 27'-2\" )AND LAUNDRY ROOM (4'5\"X5'2\") ADDITION TO EXISTING ACCESSORY LIVING QUARTERS; AND NEW BLOCK WALL (MAX. 6FT HEIGHT) PER CITY STANDARD.. CofO Issued. 1125 N AVENUE 64","address":"1125 North Avenue 64, CA, Los Angeles, 90042, US","ct":"1831.01","ev":"N","hl":"YES","apc":"East Los Angeles","cpa":"Northeast Los Angeles","zone":"R1-1","solar":"N","pin_nbr":"157-5A233 126","use_code":"23","geolocation":"POINT (-118.17674 34.12612)","status_date":"01/17/2013","construction":"Type V-B Construction","permit_group":"Building","refresh_time":"06/10/2026","type_lat_lon":"ADDRESS","business_unit":"Regular Plan Check","square_footage":"122"},"geometry":{"type":"Point","coordinates":[-118.17674,34.12612]}},{"type":"Feature","properties":{"date":"2008-11-06T00:00:00.000Z","year":2008,"description":"INSTALL ENCLOSED PATIO IN REAR YARD ATTACHED TO (E) SFD  (369 SQ FT) PER LA STD PLAN # 149.","metadescription":"Bldg-Addition. 1 or 2 Family Dwelling. INSTALL ENCLOSED PATIO IN REAR YARD ATTACHED TO (E) SFD  (369 SQ FT) PER LA STD PLAN # 149.. CofO Issued. 1038 N RUTLAND AVE","address":"1042 Rutland Avenue, CA, Los Angeles, 90042, US","ct":"1831.02","ev":"N","hl":"YES","apc":"East Los Angeles","cpa":"Northeast Los Angeles","zone":"R1-1","solar":"N","pin_nbr":"157-5A235 137","use_code":"1","geolocation":"POINT (-118.1721 34.12473)","status_date":"07/28/2011","construction":"Type V-B Construction","permit_group":"Building","refresh_time":"06/10/2026","type_lat_lon":"ADDRESS","business_unit":"Plan Check at Counter","square_footage":"369"},"geometry":{"type":"Point","coordinates":[-118.1721,34.12473]}},{"type":"Feature","properties":{"date":"2008-04-25T00:00:00.000Z","year":2008,"description":"Supplemetal to 07010-10000-03827 .  Minor changes in floor plan on 1st and 2nd floor. Minor structural changes. No additional floor area. No change in building footprint.","metadescription":"Bldg-Alter/Repair. 1 or 2 Family Dwelling. Supplemetal to 07010-10000-03827 .  Minor changes in floor plan on 1st and 2nd floor. Minor structural changes. No additional floor area. No change in building footprint.. Permit Expired. 965 N STALEY LANE","address":"965 North Staley Lane, CA, Los Angeles, 90042, US","ct":"1831.02","ev":"N","hl":"YES","apc":"East Los Angeles","cpa":"Northeast Los Angeles","zone":"R1-1","solar":"N","pin_nbr":"156A235   343","use_code":"1","geolocation":"POINT (-118.17362 34.12323)","status_date":"07/09/2010","permit_group":"Building","refresh_time":"06/10/2026","type_lat_lon":"ADDRESS","business_unit":"Plan Check at Counter"},"geometry":{"type":"Point","coordinates":[-118.17362,34.12323]}},{"type":"Feature","properties":{"date":"2008-04-04T00:00:00.000Z","year":2008,"description":"Supplemental  permit to  pcis 04014-70000-06734.  Revised  scope of  work,  to removed portion of  proposed addition  between the (e) SFD and the relocated building.   New scope of work:  Proposed  15'x18'-5\" irregular-shaped 2-story  addition to the rear of the 2-story SFD relocated building (pcis 04012-10000-00014) consisting of a bedroom, kitchen relocation, and (3/4) bath.  Resulting in a 2-bed & 2-bath  2-story SFD.  Related elec/hvac/plumbing.","metadescription":"Bldg-Addition. 1 or 2 Family Dwelling. Supplemental  permit to  pcis 04014-70000-06734.  Revised  scope of  work,  to removed portion of  proposed addition  between the (e) SFD and the relocated building.   New scope of work:  Proposed  15'x18'-5\" irregular-shaped 2-story  addition to the rear of the 2-story SFD relocated building (pcis 04012-10000-00014) consisting of a bedroom, kitchen relocation, and (3/4) bath.  Resulting in a 2-bed & 2-bath  2-story SFD.  Related elec/hvac/plumbing.. Permit Finaled. 1153 N AVENUE 64","address":"1153 North Avenue 64, CA, Los Angeles, 90042, US","ct":"1831.01","ev":"N","hl":"YES","apc":"East Los Angeles","cpa":"Northeast Los Angeles","zone":"R1-1","solar":"N","height":"31.83","pin_nbr":"157-5A233  74","use_code":"1","geolocation":"POINT (-118.17673 34.12662)","status_date":"07/27/2010","construction":"Type V-N Construction","permit_group":"Building","refresh_time":"06/10/2026","type_lat_lon":"ADDRESS","business_unit":"Regular Plan Check","square_footage":"1403"},"geometry":{"type":"Point","coordinates":[-118.17673,34.12662]}},{"type":"Feature","properties":{"date":"2006-02-21T00:00:00.000Z","year":2006,"description":"Add 3rd flr bedroom 24'9\" x 24'6\" plan revision","metadescription":"Bldg-Addition. 1 or 2 Family Dwelling. Add 3rd flr bedroom 24'9\" x 24'6\" plan revision. Permit Finaled. 1042 N FORTUNE WAY","address":"1042 Fortune Way, CA, Los Angeles, 90042, US","ct":"1831.02","ev":"N","hl":"YES","apc":"East Los Angeles","cpa":"Northeast Los Angeles","zone":"R1-1","solar":"N","pin_nbr":"157-5A235  97","use_code":"1","geolocation":"POINT (-118.1697 34.12543)","status_date":"12/11/2009","construction":"Type V-N Construction","permit_group":"Building","refresh_time":"06/10/2026","type_lat_lon":"ADDRESS","business_unit":"Regular Plan Check","square_footage":"606"},"geometry":{"type":"Point","coordinates":[-118.1697,34.12543]}},{"type":"Feature","properties":{"date":"2006-02-15T00:00:00.000Z","year":2006,"description":"ONE STORY ADDITION ( 19'-7\" X 11'-3\") TO EXTEND DINING ROOM AND KITCHEN PER TYPE V SHEET.","metadescription":"Bldg-Addition. 1 or 2 Family Dwelling. ONE STORY ADDITION ( 19'-7\" X 11'-3\") TO EXTEND DINING ROOM AND KITCHEN PER TYPE V SHEET.. CofO Issued. 1109 N AVENUE 64","address":"1109 North Avenue 64, CA, Los Angeles, 90042, US","ct":"1831.01","ev":"N","hl":"YES","apc":"East Los Angeles","cpa":"Northeast Los Angeles","zone":"R1-1","solar":"N","pin_nbr":"157-5A233 169","use_code":"1","geolocation":"POINT (-118.17686 34.12548)","status_date":"05/14/2007","construction":"Type V-N Construction","permit_group":"Building","refresh_time":"06/10/2026","type_lat_lon":"ADDRESS","business_unit":"Plan Check at Counter","square_footage":"200"},"geometry":{"type":"Point","coordinates":[-118.17686,34.12548]}},{"type":"Feature","properties":{"date":"2005-10-11T00:00:00.000Z","year":2005,"description":"ADD ADDITIONAL SQUARE FOOTAGE TO PROPOSE 3RD FLOOR (+629sf).  SUPPLEMENTAL TO PCIS #05014-10000-01154.","metadescription":"Bldg-Addition. 1 or 2 Family Dwelling. ADD ADDITIONAL SQUARE FOOTAGE TO PROPOSE 3RD FLOOR (+629sf).  SUPPLEMENTAL TO PCIS #05014-10000-01154.. Permit Finaled. 1042 N FORTUNE WAY","address":"1042 Fortune Way, CA, Los Angeles, 90042, US","ct":"1831.02","ev":"N","hl":"YES","apc":"East Los Angeles","cpa":"Northeast Los Angeles","zone":"R1-1","solar":"N","height":"33","pin_nbr":"157-5A235  97","use_code":"1","geolocation":"POINT (-118.1697 34.12543)","status_date":"12/11/2009","construction":"Type V-N Construction","permit_group":"Building","refresh_time":"06/10/2026","type_lat_lon":"ADDRESS","business_unit":"Regular Plan Check","square_footage":"629"},"geometry":{"type":"Point","coordinates":[-118.1697,34.12543]}},{"type":"Feature","properties":{"date":"2005-06-20T00:00:00.000Z","year":2005,"description":"Enlarge (E) garage (5'-6\" x 20'-10\"), & kitchen (5'-0\" x 13'-6\") at first floor,.  Enlarge bedrm  (5'-0\" x 13'-6\") at second floor.  Reframe roof.  \"Comply with Department Order dated 4/02/04.  Permit will expire 30 days from issuance.\"","metadescription":"Bldg-Addition. 1 or 2 Family Dwelling. Enlarge (E) garage (5'-6\" x 20'-10\"), & kitchen (5'-0\" x 13'-6\") at first floor,.  Enlarge bedrm  (5'-0\" x 13'-6\") at second floor.  Reframe roof.  \"Comply with Department Order dated 4/02/04.  Permit will expire 30 days from issuance.\". Permit Finaled. 1042 N FORTUNE WAY","address":"1042 Fortune Way, CA, Los Angeles, 90042, US","ct":"1831.02","ev":"N","hl":"YES","apc":"East Los Angeles","cpa":"Northeast Los Angeles","zone":"R1-1","solar":"N","height":"33","pin_nbr":"157-5A235  97","use_code":"1","geolocation":"POINT (-118.1697 34.12543)","status_date":"12/11/2009","construction":"Type V-N Construction","permit_group":"Building","refresh_time":"06/10/2026","type_lat_lon":"ADDRESS","business_unit":"Plan Check at Counter","square_footage":"4286"},"geometry":{"type":"Point","coordinates":[-118.1697,34.12543]}},{"type":"Feature","properties":{"date":"2005-05-17T00:00:00.000Z","year":2005,"description":"Propose 3rd floor addition over existing 2nd story.  2nd floor rear addition enlarging dining/den @ first floor and adding master bdrm w/ bath @ 2nd floor.  \"Comply with Department Order dated 4/02/04.  Permit will expire 30 days from issuance.\"","metadescription":"Bldg-Addition. 1 or 2 Family Dwelling. Propose 3rd floor addition over existing 2nd story.  2nd floor rear addition enlarging dining/den @ first floor and adding master bdrm w/ bath @ 2nd floor.  \"Comply with Department Order dated 4/02/04.  Permit will expire 30 days from issuance.\". CofO Issued. 1042 N FORTUNE WAY","address":"1042 Fortune Way, CA, Los Angeles, 90042, US","ct":"1831.02","ev":"N","hl":"YES","apc":"East Los Angeles","cpa":"Northeast Los Angeles","zone":"R1-1","solar":"N","height":"33","pin_nbr":"157-5A235  97","use_code":"1","geolocation":"POINT (-118.1697 34.12543)","status_date":"12/17/2009","construction":"Type V-N Construction","permit_group":"Building","refresh_time":"06/10/2026","type_lat_lon":"ADDRESS","business_unit":"Regular Plan Check","square_footage":"4151"},"geometry":{"type":"Point","coordinates":[-118.1697,34.12543]}},{"type":"Feature","properties":{"date":"2005-05-06T00:00:00.000Z","year":2005,"description":"PROPOSE 21'-4\"X14' FAMILY RM EXTENSION & REMODEL _ PER ENGINEERED PLANS","metadescription":"Bldg-Addition. 1 or 2 Family Dwelling. PROPOSE 21'-4\"X14' FAMILY RM EXTENSION & REMODEL _ PER ENGINEERED PLANS. Permit Expired. 968 N LARKER AVE","address":"968 Larker Avenue, CA, Los Angeles, 90042, US","ct":"1831.02","ev":"N","hl":"YES","apc":"East Los Angeles","cpa":"Northeast Los Angeles","zone":"R1-1","solar":"N","pin_nbr":"157-5A235 182","use_code":"1","geolocation":"POINT (-118.1705 34.12389)","status_date":"06/25/2007","construction":"Type V-N Construction","permit_group":"Building","refresh_time":"06/10/2026","type_lat_lon":"ADDRESS","business_unit":"Plan Check at Counter","square_footage":"298"},"geometry":{"type":"Point","coordinates":[-118.1705,34.12389]}},{"type":"Feature","properties":{"date":"2005-04-14T00:00:00.000Z","year":2005,"description":"RELOCATE S.F.D. (24' X 18'5\") FROM 700 NO. HILL PLACE TO 1151 NO. AVE. 64.  PROPOSE ADDITION AND ALTERATION UNDER PCIS # 04014-70000-06734 TO CONNECT  AND REMOVE KITCHEN TO  (E) SFD.","metadescription":"Bldg-Relocation. 1 or 2 Family Dwelling. RELOCATE S.F.D. (24' X 18'5\") FROM 700 NO. HILL PLACE TO 1151 NO. AVE. 64.  PROPOSE ADDITION AND ALTERATION UNDER PCIS # 04014-70000-06734 TO CONNECT  AND REMOVE KITCHEN TO  (E) SFD.. CofO Issued. 1151 N AVENUE 64","address":"1151 North Avenue 64, CA, Los Angeles, 90042, US","ct":"1831.01","ev":"N","hl":"YES","apc":"East Los Angeles","cpa":"Northeast Los Angeles","zone":"R1-1","solar":"N","height":"29.42","pin_nbr":"157-5A233  74","use_code":"1","geolocation":"POINT (-118.17672 34.12658)","status_date":"07/27/2010","construction":"Type V-N Construction","permit_group":"Building","refresh_time":"06/10/2026","type_lat_lon":"ADDRESS","business_unit":"Regular Plan Check","square_footage":"932"},"geometry":{"type":"Point","coordinates":[-118.17672,34.12658]}},{"type":"Feature","properties":{"date":"2005-04-14T00:00:00.000Z","year":2005,"description":"Propose irr addition to (E) SFD connecting to relocated building under permit #04012-10000-00014.  Work to include 2nd floor addition to relocated building.","metadescription":"Bldg-Addition. 1 or 2 Family Dwelling. Propose irr addition to (E) SFD connecting to relocated building under permit #04012-10000-00014.  Work to include 2nd floor addition to relocated building.. Permit Finaled. 1151 N AVENUE 64","address":"1151 North Avenue 64, CA, Los Angeles, 90042, US","ct":"1831.01","ev":"N","hl":"YES","apc":"East Los Angeles","cpa":"Northeast Los Angeles","zone":"R1-1","solar":"N","height":"29.42","pin_nbr":"157-5A233  74","use_code":"1","geolocation":"POINT (-118.17672 34.12658)","status_date":"09/30/2009","construction":"Type V-N Construction","permit_group":"Building","refresh_time":"06/10/2026","type_lat_lon":"ADDRESS","business_unit":"Regular Plan Check","square_footage":"932"},"geometry":{"type":"Point","coordinates":[-118.17672,34.12658]}},{"type":"Feature","properties":{"date":"2005-02-17T00:00:00.000Z","year":2005,"description":"PROPOSED 12' x 15'-8\" (188 SQFT.) WALK-IN CLOSET & BATHROOM ADDITION TO REAR OF (E) SFD PER LA CITY STD TYPE V SHEET.  \"COMPLY WITH DEPARTMENT ORDER DATED 01/21/05.  PERMIT WILL EXPIRE 30 DAYS FROM ISSUANCE DATE.\"","metadescription":"Bldg-Addition. 1 or 2 Family Dwelling. PROPOSED 12' x 15'-8\" (188 SQFT.) WALK-IN CLOSET & BATHROOM ADDITION TO REAR OF (E) SFD PER LA CITY STD TYPE V SHEET.  \"COMPLY WITH DEPARTMENT ORDER DATED 01/21/05.  PERMIT WILL EXPIRE 30 DAYS FROM ISSUANCE DATE.\". CofO Issued. 6361 E CHURCH ST","address":"6367 Church Street, CA, Los Angeles, 90042, US","ct":"1831.01","ev":"N","hl":"YES","apc":"East Los Angeles","cpa":"Northeast Los Angeles","zone":"R1-1","solar":"N","height":"15","pin_nbr":"157-5A233 190","use_code":"1","geolocation":"POINT (-118.17722 34.12502)","status_date":"11/17/2009","construction":"Type V-N Construction","permit_group":"Building","refresh_time":"06/10/2026","type_lat_lon":"ADDRESS","business_unit":"Plan Check at Counter","square_footage":"188"},"geometry":{"type":"Point","coordinates":[-118.17722,34.12502]}},{"type":"Feature","properties":{"date":"2002-10-10T00:00:00.000Z","year":2002,"description":"LEGALIZE 11'-4\" X 16' ADDITION TO REAR OF (E) SFD.","metadescription":"Bldg-Addition. 1 or 2 Family Dwelling. LEGALIZE 11'-4\" X 16' ADDITION TO REAR OF (E) SFD.. Permit Finaled. 6256 E TIPTON WAY","address":"6252 Tipton Way, CA, Los Angeles, 90042, US","ct":"1815.00","ev":"N","hl":"YES","apc":"East Los Angeles","zone":"R1-1","solar":"N","pin_nbr":"159A231   123","use_code":"1","geolocation":"POINT (-118.18429 34.13094)","status_date":"06/12/2003","construction":"Type V-N Construction","permit_group":"Building","refresh_time":"06/10/2026","type_lat_lon":"ADDRESS","business_unit":"Plan Check at Counter","square_footage":"181"},"geometry":{"type":"Point","coordinates":[-118.18429,34.13094]}},{"type":"Feature","properties":{"date":"2002-06-10T00:00:00.000Z","year":2002,"description":"ADD 20 SQFT. TO ENLARGE KITCHEN AREA.  REMODEL KITCHEN; REMODEL BATHTUB IN BATHROOM; REPLACE WINDOWS.","metadescription":"Bldg-Addition. 1 or 2 Family Dwelling. ADD 20 SQFT. TO ENLARGE KITCHEN AREA.  REMODEL KITCHEN; REMODEL BATHTUB IN BATHROOM; REPLACE WINDOWS.. Permit Finaled. 6256 E TIPTON WAY","address":"6252 Tipton Way, CA, Los Angeles, 90042, US","ct":"1815.00","ev":"N","hl":"YES","apc":"East Los Angeles","zone":"R1-1","solar":"N","pin_nbr":"159A231   123","use_code":"1","geolocation":"POINT (-118.18429 34.13094)","status_date":"06/12/2003","construction":"Type V-N Construction","permit_group":"Building","refresh_time":"06/10/2026","type_lat_lon":"ADDRESS","business_unit":"Plan Check at Counter","square_footage":"20"},"geometry":{"type":"Point","coordinates":[-118.18429,34.13094]}},{"type":"Feature","properties":{"date":"2000-01-05T00:00:00.000Z","year":2000,"description":"ROOM ADDITION - 3-BEDROOMS & 1- BATH AT REAR YARD.","metadescription":"Bldg-Addition. 1 or 2 Family Dwelling. ROOM ADDITION - 3-BEDROOMS & 1- BATH AT REAR YARD.. Permit Finaled. 1031 N AVENUE 64","address":"1031 North Avenue 64, CA, Los Angeles, 90042, US","ct":"1831.01","ev":"N","hl":"YES","apc":"East Los Angeles","zone":"R1-1","solar":"N","pin_nbr":"157-5A233 268","use_code":"1","geolocation":"POINT (-118.17703 34.12409)","status_date":"09/07/2000","construction":"Type V-N Construction","permit_group":"Building","refresh_time":"06/10/2026","type_lat_lon":"ADDRESS","business_unit":"Plan Check at Counter","square_footage":"729"},"geometry":{"type":"Point","coordinates":[-118.17703,34.12409]}},{"type":"Feature","properties":{"date":"1999-09-22T00:00:00.000Z","year":1999,"description":"ADD 4'X24' TO ENLARGE AND REMODEL (E)KITCHEN/DINING & LIVING RM. ADD 4'14'6\" COVERED FRONT PORCH & ENLARGE (E) DECK-7X10 PLUS 12X14 AT FRONT. ADD 3'10\"X24' AT REAR TO ENLARGE (E)BDRM/ W.I.C. REMODEL (E)BATHRM. REPLACE ROOF FRAMING. INSTALL RELATED ELECTRICAL, PLUMBING AND HVAC.","metadescription":"Bldg-Addition. 1 or 2 Family Dwelling. ADD 4'X24' TO ENLARGE AND REMODEL (E)KITCHEN/DINING & LIVING RM. ADD 4'14'6\" COVERED FRONT PORCH & ENLARGE (E) DECK-7X10 PLUS 12X14 AT FRONT. ADD 3'10\"X24' AT REAR TO ENLARGE (E)BDRM/ W.I.C. REMODEL (E)BATHRM. REPLACE ROOF FRAMING. INSTALL RELATED ELECTRICAL, PLUMBING AND HVAC.. Permit Finaled. 6260 E TIPTON WAY","address":"6252 Tipton Way, CA, Los Angeles, 90042, US","ct":"1815.00","ev":"N","hl":"YES","apc":"East Los Angeles","zone":"R1-1","solar":"N","pin_nbr":"159A231   120","use_code":"1","geolocation":"POINT (-118.18413 34.13098)","status_date":"09/14/2000","construction":"Type V-N Construction","permit_group":"Building","refresh_time":"06/10/2026","type_lat_lon":"ADDRESS","business_unit":"Appointment Plan Check","square_footage":"188"},"geometry":{"type":"Point","coordinates":[-118.18413,34.13098]}},{"type":"Feature","properties":{"date":"1999-07-29T00:00:00.000Z","year":1999,"description":"13' X 29' IRREGULAR PATIO COVER ADDITION TO (E) SFD correct discription no fee dept error.","metadescription":"Bldg-Addition. 1 or 2 Family Dwelling. 13' X 29' IRREGULAR PATIO COVER ADDITION TO (E) SFD correct discription no fee dept error.. Permit Finaled. 1113 N AVENUE 64","address":"1109 North Avenue 64, CA, Los Angeles, 90042, US","ct":"1831.01","ev":"N","hl":"YES","apc":"East Los Angeles","zone":"R1-1","solar":"N","pin_nbr":"157-5A233 159","use_code":"1","geolocation":"POINT (-118.17685 34.12552)","status_date":"01/30/2007","permit_group":"Building","refresh_time":"06/10/2026","type_lat_lon":"ADDRESS","business_unit":"Plan Check at Counter"},"geometry":{"type":"Point","coordinates":[-118.17685,34.12552]}},{"type":"Feature","properties":{"date":"1999-07-27T00:00:00.000Z","year":1999,"description":"14' X 34' IRREGULAR PATIO COVER ADDITION TO (E) SFD","metadescription":"Bldg-Addition. 1 or 2 Family Dwelling. 14' X 34' IRREGULAR PATIO COVER ADDITION TO (E) SFD. Permit Closed. 1113 N AVENUE 64","address":"1109 North Avenue 64, CA, Los Angeles, 90042, US","ct":"1831.01","ev":"N","hl":"YES","apc":"East Los Angeles","zone":"R1-1","solar":"N","pin_nbr":"157-5A233 159","use_code":"1","geolocation":"POINT (-118.17685 34.12552)","status_date":"09/16/1999","permit_group":"Building","refresh_time":"06/10/2026","type_lat_lon":"ADDRESS","business_unit":"Plan Check at Counter"},"geometry":{"type":"Point","coordinates":[-118.17685,34.12552]}},{"type":"Feature","properties":{"date":"1997-09-18T00:00:00.000Z","year":1997,"description":"4 X 13 ADDITION AND INTERIOR REMODEL. NEW RESTROOM. CONVERT [E] DEN TO BEDROOM. TOTAL OF 3-BEDROOMS AND 2-BATHROOMS.","metadescription":"Bldg-Addition. 1 or 2 Family Dwelling. 4 X 13 ADDITION AND INTERIOR REMODEL. NEW RESTROOM. CONVERT [E] DEN TO BEDROOM. TOTAL OF 3-BEDROOMS AND 2-BATHROOMS.. Permit Closed. 1113 N AVENUE 64","address":"1109 North Avenue 64, CA, Los Angeles, 90042, US","ct":"1831.01","ev":"N","hl":"Y","apc":"East Los Angeles","zone":"R1-1","solar":"N","pin_nbr":"157-5A233 159","use_code":"1","geolocation":"POINT (-118.17685 34.12552)","status_date":"09/22/1999","construction":"Type V-N Construction","permit_group":"Building","refresh_time":"06/10/2026","type_lat_lon":"ADDRESS","business_unit":"Plan Check at Counter","square_footage":"52"},"geometry":{"type":"Point","coordinates":[-118.17685,34.12552]}},{"type":"Feature","properties":{"date":"1997-06-27T00:00:00.000Z","year":1997,"description":"ENCLOSE EXISTING PATIO COVER TO EXTEND THE LIVING ROOM AND CREATE A BE DROOM. 315 SQ. FT.","metadescription":"Bldg-Addition. 1 or 2 Family Dwelling. ENCLOSE EXISTING PATIO COVER TO EXTEND THE LIVING ROOM AND CREATE A BE DROOM. 315 SQ. FT.. Permit Closed. 1049 N RUTLAND AVE","address":"1049 Rutland Avenue, CA, Los Angeles, 90042, US","ct":"1831.02","ev":"N","hl":"Y","apc":"East Los Angeles","zone":"R1-1","solar":"N","pin_nbr":"157-5A235 107","use_code":"1","geolocation":"POINT (-118.17235 34.12525)","status_date":"09/22/1999","construction":"Type V-N Construction","permit_group":"Building","refresh_time":"06/10/2026","type_lat_lon":"ADDRESS","business_unit":"Plan Check at Counter","square_footage":"315"},"geometry":{"type":"Point","coordinates":[-118.17235,34.12525]}}]}
