{"type":"FeatureCollection","features":[{"type":"Feature","properties":{"date":"2002-07-11T00:00:00.000Z","year":2002,"description":"TANK CONTAINMENT","metadescription":"Nonbldg-New. Commercial. TANK CONTAINMENT. Permit Expired. 7761 N FIGUEROA ST","address":"7800 North Figueroa Street, CA, Pasadena, 91105, US","ct":"1810.00","ev":"N","hl":"YES","apc":"East Los Angeles","zone":"OS-1XL","solar":"N","pin_nbr":"165A231    19","use_code":"23","geolocation":"POINT (-118.1845 34.14678)","status_date":"03/19/2007","permit_group":"Building","refresh_time":"06/10/2026","type_lat_lon":"ADDRESS","business_unit":"Plan Check at Counter"},"geometry":{"type":"Point","coordinates":[-118.1845,34.14678]}},{"type":"Feature","properties":{"date":"2002-07-11T00:00:00.000Z","year":2002,"description":"RETAINING WALL","metadescription":"Nonbldg-New. Commercial. RETAINING WALL. Issued. 7761 N FIGUEROA ST","address":"7800 North Figueroa Street, CA, Pasadena, 91105, US","ct":"1810.00","ev":"N","hl":"YES","apc":"East Los Angeles","zone":"OS-1XL","solar":"N","pin_nbr":"165A231    19","use_code":"23","geolocation":"POINT (-118.1845 34.14678)","status_date":"07/11/2002","permit_group":"Building","refresh_time":"06/10/2026","type_lat_lon":"ADDRESS","business_unit":"Regular Plan Check"},"geometry":{"type":"Point","coordinates":[-118.1845,34.14678]}},{"type":"Feature","properties":{"date":"2002-07-11T00:00:00.000Z","year":2002,"description":"FLUORIDATION STATION","metadescription":"Bldg-New. Commercial. FLUORIDATION STATION. Issued. 7761 N FIGUEROA ST","address":"7800 North Figueroa Street, CA, Pasadena, 91105, US","ct":"1810.00","ev":"N","hl":"YES","apc":"East Los Angeles","zone":"OS-1XL","solar":"N","height":"14.5","pin_nbr":"165A231    19","use_code":"15","geolocation":"POINT (-118.1845 34.14678)","status_date":"07/11/2002","construction":"Type V-N Construction","permit_group":"Building","refresh_time":"06/10/2026","type_lat_lon":"ADDRESS","business_unit":"Regular Plan Check","square_footage":"374"},"geometry":{"type":"Point","coordinates":[-118.1845,34.14678]}},{"type":"Feature","properties":{"date":"2002-07-11T00:00:00.000Z","year":2002,"description":"SITE PREP FOR FLUORIDATION STATION ( CUT 850 CY ) AND BACKFILL FOR RET WALL / FENCE ( 10 CY )","metadescription":"Grading. Commercial. SITE PREP FOR FLUORIDATION STATION ( CUT 850 CY ) AND BACKFILL FOR RET WALL / FENCE ( 10 CY ). Permit Finaled. 7761 N FIGUEROA ST","address":"7800 North Figueroa Street, CA, Pasadena, 91105, US","ct":"1810.00","ev":"N","hl":"YES","apc":"East Los Angeles","zone":"OS-1XL","solar":"N","pin_nbr":"165A231    19","use_code":"70","geolocation":"POINT (-118.1845 34.14678)","status_date":"08/12/2004","permit_group":"Building","refresh_time":"06/10/2026","type_lat_lon":"ADDRESS","business_unit":"Regular Plan Check"},"geometry":{"type":"Point","coordinates":[-118.1845,34.14678]}},{"type":"Feature","properties":{"date":"2002-07-11T00:00:00.000Z","year":2002,"description":"CONSTRUCT 82' LONG, 6' MAX. HIGH CMU RETAINING WALL.  (FRONT WALL ONLY)","metadescription":"Nonbldg-New. Commercial. CONSTRUCT 82' LONG, 6' MAX. HIGH CMU RETAINING WALL.  (FRONT WALL ONLY). Issued. 7761 N FIGUEROA ST","address":"7800 North Figueroa Street, CA, Pasadena, 91105, US","ct":"1810.00","ev":"N","hl":"YES","apc":"East Los Angeles","zone":"OS-1XL","solar":"N","pin_nbr":"165A231    19","use_code":"23","geolocation":"POINT (-118.1845 34.14678)","status_date":"07/11/2002","permit_group":"Building","refresh_time":"06/10/2026","type_lat_lon":"ADDRESS","business_unit":"Regular Plan Check"},"geometry":{"type":"Point","coordinates":[-118.1845,34.14678]}},{"type":"Feature","properties":{"date":"1997-06-13T00:00:00.000Z","year":1997,"description":"remove existing roofing; reroof building with 13 squares of BUR CL 'B' MIN","metadescription":"Bldg-Alter/Repair. Commercial. remove existing roofing; reroof building with 13 squares of BUR CL 'B' MIN. Permit Finaled. 7800 N FIGUEROA ST","address":"7800 North Figueroa Street, CA, Los Angeles, 90041, US","ct":"1810.00","ev":"N","hl":"Y","solar":"N","pin_nbr":"165A231    14","use_code":"13","geolocation":"POINT (-118.18383 34.14789)","status_date":"07/02/1999","permit_group":"Building","refresh_time":"06/10/2026","type_lat_lon":"ADDRESS","business_unit":"Express Permit"},"geometry":{"type":"Point","coordinates":[-118.18383,34.14789]}}]}
