{"type":"FeatureCollection","features":[{"type":"Feature","properties":{"date":"2024-08-28T00:00:00.000Z","year":2024,"description":"ePlan: (N) 3-STORY ACCESSORY DWELLING UNIT WITH ATTACHED GARAGE AND PATIO OVER ON THE ROOFTOP DECK.","metadescription":"Bldg-New. 1 or 2 Family Dwelling. ePlan: (N) 3-STORY ACCESSORY DWELLING UNIT WITH ATTACHED GARAGE AND PATIO OVER ON THE ROOFTOP DECK.. Verifications in Progress. 6266 E CRESTWOOD WAY","address":"6266 Crestwood Way, CA, Los Angeles, 90042, US","ct":"1815.00","ev":"N","hl":"YES","apc":"East Los Angeles","cpa":"Northeast Los Angeles","zone":"R1-1-HCR","solar":"N","pin_nbr":"159A231    22","use_code":"1","status_date":"07/10/2025","permit_group":"Building","refresh_time":"06/10/2026","type_lat_lon":"ADDRESS","business_unit":"Plan Check at Counter"},"geometry":{"type":"Point","coordinates":[-118.18496,34.13206]}},{"type":"Feature","properties":{"date":"2018-06-12T00:00:00.000Z","year":2018,"description":"2-STORY ADDITION WITH ATTACHED 2-CAR GARAGE WITH ROOF DECK ABOVE PROPOSED GARGE TO EXISTING SINGLE FAMILY DWELLING. ADDITION DOES NOT EXCEED (E) ROOF RIDGE LINE.","metadescription":"Bldg-Addition. 1 or 2 Family Dwelling. 2-STORY ADDITION WITH ATTACHED 2-CAR GARAGE WITH ROOF DECK ABOVE PROPOSED GARGE TO EXISTING SINGLE FAMILY DWELLING. ADDITION DOES NOT EXCEED (E) ROOF RIDGE LINE.. CofO Issued. 937 N ELDER CT","address":"937 Elder Court, CA, Los Angeles, 90042, US","ct":"1831.04","ev":"N","hl":"YES","apc":"East Los Angeles","cpa":"Northeast Los Angeles","zone":"R1-1-HPOZ","solar":"N","height":"22.75","pin_nbr":"156A233   425","use_code":"1","geolocation":"POINT (-118.17532584 34.12357437)","status_date":"05/13/2020","construction":"Type V-B Construction","permit_group":"Building","refresh_time":"06/10/2026","type_lat_lon":"BUILDING","business_unit":"Regular Plan Check","square_footage":"1337"},"geometry":{"type":"Point","coordinates":[-118.17532584,34.12357437]}},{"type":"Feature","properties":{"date":"2017-08-25T00:00:00.000Z","year":2017,"description":"SUPPLEMENTAL PERMIT TO 15014-20000-00993 TO ADD 31' x 4' RAISED DECK PER ENGINEERING","metadescription":"Bldg-Alter/Repair. 1 or 2 Family Dwelling. SUPPLEMENTAL PERMIT TO 15014-20000-00993 TO ADD 31' x 4' RAISED DECK PER ENGINEERING. Permit Finaled. 6280 E CRESTWOOD WAY","address":"6277 Crestwood Way, CA, Los Angeles, 90042, US","ct":"1815.00","ev":"N","hl":"YES","apc":"East Los Angeles","cpa":"Northeast Los Angeles","zone":"R1-1","solar":"N","pin_nbr":"159A231     3","use_code":"1","geolocation":"POINT (-118.18449 34.13214)","status_date":"03/16/2018","construction":"Type V-B Construction","permit_group":"Building","refresh_time":"06/10/2026","type_lat_lon":"ADDRESS","business_unit":"Plan Check at Counter"},"geometry":{"type":"Point","coordinates":[-118.18449,34.13214]}},{"type":"Feature","properties":{"date":"1999-09-22T00:00:00.000Z","year":1999,"description":"ADD 4'X24' TO ENLARGE AND REMODEL (E)KITCHEN/DINING & LIVING RM. ADD 4'14'6\" COVERED FRONT PORCH & ENLARGE (E) DECK-7X10 PLUS 12X14 AT FRONT. ADD 3'10\"X24' AT REAR TO ENLARGE (E)BDRM/ W.I.C. REMODEL (E)BATHRM. REPLACE ROOF FRAMING. INSTALL RELATED ELECTRICAL, PLUMBING AND HVAC.","metadescription":"Bldg-Addition. 1 or 2 Family Dwelling. ADD 4'X24' TO ENLARGE AND REMODEL (E)KITCHEN/DINING & LIVING RM. ADD 4'14'6\" COVERED FRONT PORCH & ENLARGE (E) DECK-7X10 PLUS 12X14 AT FRONT. ADD 3'10\"X24' AT REAR TO ENLARGE (E)BDRM/ W.I.C. REMODEL (E)BATHRM. REPLACE ROOF FRAMING. INSTALL RELATED ELECTRICAL, PLUMBING AND HVAC.. Permit Finaled. 6260 E TIPTON WAY","address":"6252 Tipton Way, CA, Los Angeles, 90042, US","ct":"1815.00","ev":"N","hl":"YES","apc":"East Los Angeles","zone":"R1-1","solar":"N","pin_nbr":"159A231   120","use_code":"1","geolocation":"POINT (-118.18413 34.13098)","status_date":"09/14/2000","construction":"Type V-N Construction","permit_group":"Building","refresh_time":"06/10/2026","type_lat_lon":"ADDRESS","business_unit":"Appointment Plan Check","square_footage":"188"},"geometry":{"type":"Point","coordinates":[-118.18413,34.13098]}}]}
