{"type":"FeatureCollection","features":[{"type":"Feature","properties":{"date":"2025-03-27T00:00:00.000Z","year":2025,"description":"DEMOLITION OF EXISTING SINGLE FAMILY DWELLING WITH ATTACHED GARAGE. PEDESTRIAN PROTECTION FENCE REQUIRED.SEE COMMENT","metadescription":"Bldg-Demolition. 1 or 2 Family Dwelling. DEMOLITION OF EXISTING SINGLE FAMILY DWELLING WITH ATTACHED GARAGE. PEDESTRIAN PROTECTION FENCE REQUIRED.SEE COMMENT. Issued. 1065 N SAN RAFAEL AVE","address":"1101 South San Rafael Avenue, CA, Pasadena, 91105, US","ct":"1831.04","ev":"N","hl":"YES","apc":"East Los Angeles","cpa":"Northeast Los Angeles","zone":"R1-1-HCR","solar":"N","pin_nbr":"157-5A237  16","use_code":"1","status_date":"03/27/2025","permit_group":"Building","refresh_time":"06/10/2026","type_lat_lon":"ADDRESS","business_unit":"Plan Check at Counter","square_footage":"0"},"geometry":{"type":"Point","coordinates":[-118.1659,34.12576]}},{"type":"Feature","properties":{"date":"2024-08-28T00:00:00.000Z","year":2024,"description":"ePlan: DEMO (E) SINGLE FAMILY DWELLING","metadescription":"Bldg-Demolition. 1 or 2 Family Dwelling. ePlan: DEMO (E) SINGLE FAMILY DWELLING. Verifications in Progress. 6266 E CRESTWOOD WAY","address":"6266 Crestwood Way, CA, Los Angeles, 90042, US","ct":"1815.00","ev":"N","hl":"YES","apc":"East Los Angeles","cpa":"Northeast Los Angeles","zone":"R1-1-HCR","solar":"N","pin_nbr":"159A231    22","use_code":"1","status_date":"07/10/2025","permit_group":"Building","refresh_time":"06/10/2026","type_lat_lon":"ADDRESS","business_unit":"Plan Check at Counter"},"geometry":{"type":"Point","coordinates":[-118.18496,34.13206]}},{"type":"Feature","properties":{"date":"2014-02-20T00:00:00.000Z","year":2014,"description":"DEMO TWO KITCHEN WALLS AND REMODEL KITCHEN.","metadescription":"Bldg-Alter/Repair. 1 or 2 Family Dwelling. DEMO TWO KITCHEN WALLS AND REMODEL KITCHEN.. Permit Finaled. 6272 E TIPTON WAY","address":"6272 Tipton Way, CA, Los Angeles, 90042, US","ct":"1815.00","ev":"N","hl":"YES","apc":"East Los Angeles","cpa":"Northeast Los Angeles","zone":"R1-1","solar":"N","pin_nbr":"159A231   116","use_code":"1","geolocation":"POINT (-118.18381 34.13104)","status_date":"05/05/2014","permit_group":"Building","refresh_time":"06/10/2026","type_lat_lon":"ADDRESS","business_unit":"Plan Check at Counter"},"geometry":{"type":"Point","coordinates":[-118.18381,34.13104]}},{"type":"Feature","properties":{"date":"2009-05-06T00:00:00.000Z","year":2009,"description":"RELOCATE PORTION OF SFD FROM 829 BARTLETT ST TO 1125 N. AVENUE 64 AND CONVERT TO ACCESSORY LIVING QUARTERS. REMOVE THE KITCHEN. ADD A BATHROOM,  CONVERT (E) BEDROOM TO STUDY ROOM AND DEN.  RELOCATED WINDOWS AND DOORS.  REMOVE AND REPLACE ALL OF WINDOWS.  ADD SHAEARWALLS AT THE REAR WALL.  REMOVE AND REPLACE SOME OF THE DRYWALLS.***separate permit is being issued for demolition of s.f.d. at 829 Bartlett st.","metadescription":"Bldg-Relocation. 1 or 2 Family Dwelling. RELOCATE PORTION OF SFD FROM 829 BARTLETT ST TO 1125 N. AVENUE 64 AND CONVERT TO ACCESSORY LIVING QUARTERS. REMOVE THE KITCHEN. ADD A BATHROOM,  CONVERT (E) BEDROOM TO STUDY ROOM AND DEN.  RELOCATED WINDOWS AND DOORS.  REMOVE AND REPLACE ALL OF WINDOWS.  ADD SHAEARWALLS AT THE REAR WALL.  REMOVE AND REPLACE SOME OF THE DRYWALLS.***separate permit is being issued for demolition of s.f.d. at 829 Bartlett st.. CofO Issued. 1125 N AVENUE 64","address":"1125 North Avenue 64, CA, Los Angeles, 90042, US","ct":"1831.01","ev":"N","hl":"YES","apc":"East Los Angeles","cpa":"Northeast Los Angeles","zone":"R1-1","solar":"N","height":"27.83","pin_nbr":"157-5A233 126","use_code":"23","geolocation":"POINT (-118.17674 34.12612)","status_date":"01/17/2013","construction":"Type V-B Construction","permit_group":"Building","refresh_time":"06/10/2026","type_lat_lon":"ADDRESS","business_unit":"Regular Plan Check","square_footage":"625"},"geometry":{"type":"Point","coordinates":[-118.17674,34.12612]}},{"type":"Feature","properties":{"date":"2004-02-10T00:00:00.000Z","year":2004,"description":"REVISE WORK DESCRIPTION ON PERMIT # 04030-10001-00313 : BACKFILL AND DEMO EXISTING POOL - KEEP SHELL.","metadescription":"Grading. 1 or 2 Family Dwelling. REVISE WORK DESCRIPTION ON PERMIT # 04030-10001-00313 : BACKFILL AND DEMO EXISTING POOL - KEEP SHELL.. Permit Finaled. 1029 N ARATINA ST","address":"1029 Aratina Street, CA, Los Angeles, 90042, US","ct":"1831.02","ev":"N","hl":"YES","apc":"East Los Angeles","cpa":"Northeast Los Angeles","zone":"R1-1","solar":"N","pin_nbr":"157-5A235 124","use_code":"70","geolocation":"POINT (-118.16914 34.12495)","status_date":"03/06/2004","permit_group":"Building","refresh_time":"06/10/2026","type_lat_lon":"ADDRESS","business_unit":"Plan Check at Counter"},"geometry":{"type":"Point","coordinates":[-118.16914,34.12495]}},{"type":"Feature","properties":{"date":"2004-02-05T00:00:00.000Z","year":2004,"description":"BACKFILL AND DEMO EXISTING POOL - REMOVE THE SHELL. BACKFILL COMPACTION TO 90% MIN.","metadescription":"Grading. 1 or 2 Family Dwelling. BACKFILL AND DEMO EXISTING POOL - REMOVE THE SHELL. BACKFILL COMPACTION TO 90% MIN.. Permit Finaled. 1029 N ARATINA ST","address":"1029 Aratina Street, CA, Los Angeles, 90042, US","ct":"1831.02","ev":"N","hl":"YES","apc":"East Los Angeles","cpa":"Northeast Los Angeles","zone":"R1-1","solar":"N","pin_nbr":"157-5A235 124","use_code":"70","geolocation":"POINT (-118.16914 34.12495)","status_date":"02/20/2004","permit_group":"Building","refresh_time":"06/10/2026","type_lat_lon":"ADDRESS","business_unit":"Plan Check at Counter"},"geometry":{"type":"Point","coordinates":[-118.16914,34.12495]}},{"type":"Feature","properties":{"date":"1998-05-04T00:00:00.000Z","year":1998,"description":"DEMOLISH HOUSE AND SEWER CAP (30' X 60'). HAND WRECK DEMOLITION","metadescription":"Bldg-Demolition. 1 or 2 Family Dwelling. DEMOLISH HOUSE AND SEWER CAP (30' X 60'). HAND WRECK DEMOLITION. Permit Closed. 70 PATRICIAN WAY","address":"5412 Patrician Way, CA, Pasadena, 91105, US","ev":"N","apc":"East Los Angeles","zone":"R1-1","solar":"N","pin_nbr":"163-5A231  69","use_code":"1","geolocation":"POINT (-118.18209562 34.14248)","status_date":"09/20/1999","permit_group":"Building","refresh_time":"06/10/2026","type_lat_lon":"PIN","business_unit":"Plan Check at Counter","square_footage":"-1800"},"geometry":{"type":"Point","coordinates":[-118.18209562,34.14248]}}]}
