{"type":"FeatureCollection","features":[{"type":"Feature","properties":{"date":"2015-04-14T00:00:00.000Z","year":2015,"description":"ONE STORY ADDITION (498 SQ FT) AND ATTACHED COVERED PATIO (227 SQ FT) TO EXISTING ONE STORY SINGLE FAMILY DWELLING.","metadescription":"Bldg-Addition. 1 or 2 Family Dwelling. ONE STORY ADDITION (498 SQ FT) AND ATTACHED COVERED PATIO (227 SQ FT) TO EXISTING ONE STORY SINGLE FAMILY DWELLING.. CofO Issued. 1216 N GLEN ARBOR AVE","address":"1216 N GLEN ARBOR AVE","ct":"1815.00","ev":"N","hl":"YES","apc":"East Los Angeles","cpa":"Northeast Los Angeles","zone":"R1-1","solar":"N","height":"21","pin_nbr":"160-5A231  25","use_code":"1","geolocation":"POINT (-118.18553953 34.13558142)","status_date":"04/19/2016","construction":"Type V-B Construction","permit_group":"Building","refresh_time":"06/10/2026","type_lat_lon":"BUILDING","business_unit":"Regular Plan Check","square_footage":"2382"},"geometry":{"type":"Point","coordinates":[-118.18553953,34.13558142]}}]}
