{"type":"FeatureCollection","features":[{"type":"Feature","properties":{"date":"2019-03-06T00:00:00.000Z","year":2019,"description":"Bathroom remodel combined with electrical, plumbing & hvac for  residential buildings (no structural changes).","metadescription":"Bldg-Alter/Repair. 1 or 2 Family Dwelling. Bathroom remodel combined with electrical, plumbing & hvac for  residential buildings (no structural changes).. Permit Finaled. 1025 N ADELANTE AVE","address":"1025 Adelante Avenue, CA, Los Angeles, 90042, US","ct":"1831.04","ev":"N","hl":"YES","apc":"East Los Angeles","cpa":"Northeast Los Angeles","zone":"R1-1","solar":"N","pin_nbr":"157-5A235 121","use_code":"1","geolocation":"POINT (-118.17154 34.12503)","status_date":"05/01/2019","permit_group":"Building","refresh_time":"06/10/2026","type_lat_lon":"ADDRESS","business_unit":"Express Permit"},"geometry":{"type":"Point","coordinates":[-118.17154,34.12503]}},{"type":"Feature","properties":{"date":"2017-01-13T00:00:00.000Z","year":2017,"description":"Kitchen/bathroom remodel for residential buildings (no structural changes). **INCLUDE ELECTRICAL, HVAC, PLUMBING COMBO** HOT MOP INCLUDED.","metadescription":"Bldg-Alter/Repair. 1 or 2 Family Dwelling. Kitchen/bathroom remodel for residential buildings (no structural changes). **INCLUDE ELECTRICAL, HVAC, PLUMBING COMBO** HOT MOP INCLUDED.. Issued. 1021 N LARKER AVE","address":"1021 Larker Avenue, CA, Los Angeles, 90042, US","ct":"1831.04","ev":"N","hl":"YES","apc":"East Los Angeles","cpa":"Northeast Los Angeles","zone":"R1-1","solar":"N","pin_nbr":"157-5A235 131","use_code":"1","geolocation":"POINT (-118.17074 34.12486)","status_date":"01/13/2017","permit_group":"Building","refresh_time":"06/10/2026","type_lat_lon":"ADDRESS","business_unit":"Express Permit"},"geometry":{"type":"Point","coordinates":[-118.17074,34.12486]}},{"type":"Feature","properties":{"date":"2016-08-29T00:00:00.000Z","year":2016,"description":"Kitchen/(2) bathrooms remodel for residential buildings (no structural changes)-INCLUDES PLUMBING.","metadescription":"Bldg-Alter/Repair. 1 or 2 Family Dwelling. Kitchen/(2) bathrooms remodel for residential buildings (no structural changes)-INCLUDES PLUMBING.. Permit Finaled. 1104 N LARKER AVE","address":"1104 Larker Avenue, CA, Los Angeles, 90042, US","ct":"1831.04","ev":"N","hl":"YES","apc":"East Los Angeles","cpa":"Northeast Los Angeles","zone":"R1-1","solar":"N","pin_nbr":"157-5A235  48","use_code":"1","geolocation":"POINT (-118.17049 34.12625)","status_date":"10/04/2016","permit_group":"Building","refresh_time":"06/10/2026","type_lat_lon":"ADDRESS","business_unit":"Express Permit"},"geometry":{"type":"Point","coordinates":[-118.17049,34.12625]}},{"type":"Feature","properties":{"date":"2015-11-30T00:00:00.000Z","year":2015,"description":"Bathroom remodel for residential buildings (no structural changes)-INCLUDES ELECTRICAL & PLUMBING.","metadescription":"Bldg-Alter/Repair. 1 or 2 Family Dwelling. Bathroom remodel for residential buildings (no structural changes)-INCLUDES ELECTRICAL & PLUMBING.. Permit Finaled. 6601 E CHURCH ST","address":"6607 Church Street, CA, Los Angeles, 90042, US","ct":"1831.04","ev":"N","hl":"YES","apc":"East Los Angeles","cpa":"Northeast Los Angeles","zone":"R1-1","solar":"N","pin_nbr":"157-5A235  25","use_code":"1","geolocation":"POINT (-118.17041 34.12669)","status_date":"03/16/2016","permit_group":"Building","refresh_time":"06/10/2026","type_lat_lon":"ADDRESS","business_unit":"Express Permit"},"geometry":{"type":"Point","coordinates":[-118.17041,34.12669]}},{"type":"Feature","properties":{"date":"2011-05-16T00:00:00.000Z","year":2011,"description":"(2) Bathrooms remodel for residential buildings (no structural changes)-INCLUDES PLUMBING. 1 OF 2 W/ #11041-10000-09936.","metadescription":"Bldg-Alter/Repair. 1 or 2 Family Dwelling. (2) Bathrooms remodel for residential buildings (no structural changes)-INCLUDES PLUMBING. 1 OF 2 W/ #11041-10000-09936.. Permit Finaled. 1060 N FORTUNE WAY","address":"1060 Fortune Way, CA, Los Angeles, 90042, US","ct":"1831.02","ev":"N","hl":"YES","apc":"East Los Angeles","cpa":"Northeast Los Angeles","zone":"R1-1","solar":"N","pin_nbr":"157-5A235  69","use_code":"1","geolocation":"POINT (-118.16965 34.12584)","status_date":"04/16/2012","permit_group":"Building","refresh_time":"06/10/2026","type_lat_lon":"ADDRESS","business_unit":"Express Permit"},"geometry":{"type":"Point","coordinates":[-118.16965,34.12584]}},{"type":"Feature","properties":{"date":"2009-05-04T00:00:00.000Z","year":2009,"description":"Bathroom remodel for residential buildings (no structural changes). INCLUDING PLUMBING & ELECTRICAL FOR BATHROOM ONLY.","metadescription":"Bldg-Alter/Repair. 1 or 2 Family Dwelling. Bathroom remodel for residential buildings (no structural changes). INCLUDING PLUMBING & ELECTRICAL FOR BATHROOM ONLY.. Permit Finaled. 6609 E ELDER ST","address":"6583 Elder Street, CA, Los Angeles, 90042, US","ct":"1831.02","ev":"N","hl":"YES","apc":"East Los Angeles","cpa":"Northeast Los Angeles","zone":"R1-1","solar":"N","pin_nbr":"156A235    29","use_code":"1","geolocation":"POINT (-118.17399 34.12319)","status_date":"07/01/2011","permit_group":"Building","refresh_time":"06/10/2026","type_lat_lon":"ADDRESS","business_unit":"Express Permit"},"geometry":{"type":"Point","coordinates":[-118.17399,34.12319]}},{"type":"Feature","properties":{"date":"2008-04-04T00:00:00.000Z","year":2008,"description":"Supplemental  permit to  pcis 04014-70000-06734.  Revised  scope of  work,  to removed portion of  proposed addition  between the (e) SFD and the relocated building.   New scope of work:  Proposed  15'x18'-5\" irregular-shaped 2-story  addition to the rear of the 2-story SFD relocated building (pcis 04012-10000-00014) consisting of a bedroom, kitchen relocation, and (3/4) bath.  Resulting in a 2-bed & 2-bath  2-story SFD.  Related elec/hvac/plumbing.","metadescription":"Bldg-Addition. 1 or 2 Family Dwelling. Supplemental  permit to  pcis 04014-70000-06734.  Revised  scope of  work,  to removed portion of  proposed addition  between the (e) SFD and the relocated building.   New scope of work:  Proposed  15'x18'-5\" irregular-shaped 2-story  addition to the rear of the 2-story SFD relocated building (pcis 04012-10000-00014) consisting of a bedroom, kitchen relocation, and (3/4) bath.  Resulting in a 2-bed & 2-bath  2-story SFD.  Related elec/hvac/plumbing.. Permit Finaled. 1153 N AVENUE 64","address":"1153 North Avenue 64, CA, Los Angeles, 90042, US","ct":"1831.01","ev":"N","hl":"YES","apc":"East Los Angeles","cpa":"Northeast Los Angeles","zone":"R1-1","solar":"N","height":"31.83","pin_nbr":"157-5A233  74","use_code":"1","geolocation":"POINT (-118.17673 34.12662)","status_date":"07/27/2010","construction":"Type V-N Construction","permit_group":"Building","refresh_time":"06/10/2026","type_lat_lon":"ADDRESS","business_unit":"Regular Plan Check","square_footage":"1403"},"geometry":{"type":"Point","coordinates":[-118.17673,34.12662]}},{"type":"Feature","properties":{"date":"2008-04-04T00:00:00.000Z","year":2008,"description":"Proposed new 21'x32'-6\"  2-story accessory building consisting of a  2-car garage on ground level and a storage room (451 sqft) over garage  (misc.  storage, accessory to main building).  Related elec/hvac/plumbing.","metadescription":"Bldg-New. 1 or 2 Family Dwelling. Proposed new 21'x32'-6\"  2-story accessory building consisting of a  2-car garage on ground level and a storage room (451 sqft) over garage  (misc.  storage, accessory to main building).  Related elec/hvac/plumbing.. CofO Issued. 1153 N AVENUE 64","address":"1153 North Avenue 64, CA, Los Angeles, 90042, US","ct":"1831.01","ev":"N","hl":"YES","apc":"East Los Angeles","cpa":"Northeast Los Angeles","zone":"R1-1","solar":"N","height":"31.66","pin_nbr":"157-5A233  74","use_code":"7","geolocation":"POINT (-118.17673 34.12662)","status_date":"01/22/2010","construction":"Type V-N Construction","permit_group":"Building","refresh_time":"06/10/2026","type_lat_lon":"ADDRESS","business_unit":"Regular Plan Check"},"geometry":{"type":"Point","coordinates":[-118.17673,34.12662]}},{"type":"Feature","properties":{"date":"2007-12-20T00:00:00.000Z","year":2007,"description":"PROPOSED 2 STORY SINGLE FAMILY DWELLING W/ BASEMENT GARAGE. RELATED ELECTRICAL, HVAC AND PLUMBING","metadescription":"Bldg-New. 1 or 2 Family Dwelling. PROPOSED 2 STORY SINGLE FAMILY DWELLING W/ BASEMENT GARAGE. RELATED ELECTRICAL, HVAC AND PLUMBING. CofO Corrected. 961 N AVENUE 66","address":"961 North Avenue 66, CA, Los Angeles, 90042, US","ct":"1831.02","ev":"N","hl":"YES","apc":"East Los Angeles","cpa":"Northeast Los Angeles","zone":"R1-1","solar":"N","height":"32.4","pin_nbr":"156A235     3","use_code":"1","geolocation":"POINT (-118.17328 34.12318)","status_date":"06/23/2014","construction":"Type V-N Construction","permit_group":"Building","refresh_time":"06/10/2026","type_lat_lon":"ADDRESS","business_unit":"Regular Plan Check","square_footage":"2283"},"geometry":{"type":"Point","coordinates":[-118.17328,34.12318]}},{"type":"Feature","properties":{"date":"2005-04-20T00:00:00.000Z","year":2005,"description":"REMODELING BATHROOM, RELOCATION OF SHOWER, TOILET.  REMODEL OF 2 PARTITION WALLS.  ELECTRICAL (ADDING 6 RECESS LIGHTS, 2 GFCI, CEILING, HEATING AND FAN).  PLUMBING, DRAINS & FIXTURES.  ADDING 1 NEW WINDOW, CLOSING EXISTING WINDOW.","metadescription":"Bldg-Alter/Repair. 1 or 2 Family Dwelling. REMODELING BATHROOM, RELOCATION OF SHOWER, TOILET.  REMODEL OF 2 PARTITION WALLS.  ELECTRICAL (ADDING 6 RECESS LIGHTS, 2 GFCI, CEILING, HEATING AND FAN).  PLUMBING, DRAINS & FIXTURES.  ADDING 1 NEW WINDOW, CLOSING EXISTING WINDOW.. Permit Finaled. 952 N LARKER AVE","address":"946 Larker Avenue, CA, Los Angeles, 90042, US","ct":"1831.02","ev":"N","hl":"YES","apc":"East Los Angeles","cpa":"Northeast Los Angeles","zone":"R1-1","solar":"N","height":"18","pin_nbr":"156A235    25","use_code":"1","geolocation":"POINT (-118.1705 34.12372)","status_date":"08/22/2005","construction":"Type V-N Construction","permit_group":"Building","refresh_time":"06/10/2026","type_lat_lon":"ADDRESS","business_unit":"Plan Check at Counter","square_footage":"0"},"geometry":{"type":"Point","coordinates":[-118.1705,34.12372]}},{"type":"Feature","properties":{"date":"2004-04-29T00:00:00.000Z","year":2004,"description":"KITCHEN REMODEL - CHANGE-OUT CABINETS, TILE, DRYWALL, 1 WINDOW (SAME SIZE, TYPE, AND LOCATION) AND RELATED ELECTRICAL AND PLUMBING - (E.Q. SHUT-OFF VALVE REQUIRED) -(VALUATION TO  BE VERIFIED BY FIELD INSPECTOR","metadescription":"Bldg-Alter/Repair. 1 or 2 Family Dwelling. KITCHEN REMODEL - CHANGE-OUT CABINETS, TILE, DRYWALL, 1 WINDOW (SAME SIZE, TYPE, AND LOCATION) AND RELATED ELECTRICAL AND PLUMBING - (E.Q. SHUT-OFF VALVE REQUIRED) -(VALUATION TO  BE VERIFIED BY FIELD INSPECTOR. Permit Finaled. 944 N RUTLAND AVE","address":"944 Rutland Avenue, CA, Los Angeles, 90042, US","ct":"1831.02","ev":"N","hl":"YES","apc":"East Los Angeles","cpa":"Northeast Los Angeles","zone":"R1-1","solar":"N","pin_nbr":"156A235    99","use_code":"1","geolocation":"POINT (-118.1721 34.1228)","status_date":"08/17/2004","permit_group":"Building","refresh_time":"06/10/2026","type_lat_lon":"ADDRESS","business_unit":"Express Permit"},"geometry":{"type":"Point","coordinates":[-118.1721,34.1228]}},{"type":"Feature","properties":{"date":"1999-09-22T00:00:00.000Z","year":1999,"description":"ADD 4'X24' TO ENLARGE AND REMODEL (E)KITCHEN/DINING & LIVING RM. ADD 4'14'6\" COVERED FRONT PORCH & ENLARGE (E) DECK-7X10 PLUS 12X14 AT FRONT. ADD 3'10\"X24' AT REAR TO ENLARGE (E)BDRM/ W.I.C. REMODEL (E)BATHRM. REPLACE ROOF FRAMING. INSTALL RELATED ELECTRICAL, PLUMBING AND HVAC.","metadescription":"Bldg-Addition. 1 or 2 Family Dwelling. ADD 4'X24' TO ENLARGE AND REMODEL (E)KITCHEN/DINING & LIVING RM. ADD 4'14'6\" COVERED FRONT PORCH & ENLARGE (E) DECK-7X10 PLUS 12X14 AT FRONT. ADD 3'10\"X24' AT REAR TO ENLARGE (E)BDRM/ W.I.C. REMODEL (E)BATHRM. REPLACE ROOF FRAMING. INSTALL RELATED ELECTRICAL, PLUMBING AND HVAC.. Permit Finaled. 6260 E TIPTON WAY","address":"6252 Tipton Way, CA, Los Angeles, 90042, US","ct":"1815.00","ev":"N","hl":"YES","apc":"East Los Angeles","zone":"R1-1","solar":"N","pin_nbr":"159A231   120","use_code":"1","geolocation":"POINT (-118.18413 34.13098)","status_date":"09/14/2000","construction":"Type V-N Construction","permit_group":"Building","refresh_time":"06/10/2026","type_lat_lon":"ADDRESS","business_unit":"Appointment Plan Check","square_footage":"188"},"geometry":{"type":"Point","coordinates":[-118.18413,34.13098]}},{"type":"Feature","properties":{"date":"1997-05-29T00:00:00.000Z","year":1997,"description":"REPAIR FIRE DAMAGE (25%), ELECTRICAL & PLUMBING","metadescription":"Bldg-Alter/Repair. 1 or 2 Family Dwelling. REPAIR FIRE DAMAGE (25%), ELECTRICAL & PLUMBING. Permit Closed. 7676 N FIGUEROA ST","address":"7676 North Figueroa Street, CA, Los Angeles, 90041, US","ct":"1810.00","ev":"N","hl":"Y","apc":"East Los Angeles","solar":"N","pin_nbr":"165A231    31","use_code":"1","geolocation":"POINT (-118.18508 34.14492)","status_date":"02/19/2000","permit_group":"Building","refresh_time":"06/10/2026","type_lat_lon":"ADDRESS","business_unit":"Express Permit"},"geometry":{"type":"Point","coordinates":[-118.18508,34.14492]}}]}
