{"type":"FeatureCollection","features":[{"type":"Feature","properties":{"date":"2026-04-09T00:00:00.000Z","year":2026,"description":"NEW RETAINING WALL","metadescription":"Nonbldg-New. 1 or 2 Family Dwelling. NEW RETAINING WALL. Issued. 1065 N SAN RAFAEL AVE","address":"1065 N SAN RAFAEL AVE","ct":"1831.04","ev":"N","hl":"YES","apc":"East Los Angeles","cpa":"Northeast Los Angeles","zone":"R1-1-HCR","solar":"N","pin_nbr":"157-5A237  16","use_code":"23","status_date":"04/09/2026","permit_group":"Building","refresh_time":"06/10/2026","type_lat_lon":"ADDRESS","business_unit":"Regular Plan Check"},"geometry":{"type":"Point","coordinates":[-118.1659,34.12576]}}]}
