{"type":"FeatureCollection","features":[{"type":"Feature","properties":{"date":"2025-10-22T00:00:00.000Z","year":2025,"description":"REPLACING OF 21 WINDOWS AND 2 PATIO DOORS (SAME SIZE AND TYPE) AND LOWER SILL ON 3 WINDOWS (115, 117 AND 118) 5 INCHES, NO CHANGE TO HEADER.","metadescription":"Bldg-Alter/Repair. 1 or 2 Family Dwelling. REPLACING OF 21 WINDOWS AND 2 PATIO DOORS (SAME SIZE AND TYPE) AND LOWER SILL ON 3 WINDOWS (115, 117 AND 118) 5 INCHES, NO CHANGE TO HEADER.. Permit Finaled. 1034 N ADELANTE AVE","address":"1034 Adelante Avenue, CA, Los Angeles, 90042, US","ct":"1831.04","ev":"N","hl":"YES","apc":"East Los Angeles","cpa":"Northeast Los Angeles","zone":"R1-1-HCR","solar":"N","pin_nbr":"157-5A235 113","use_code":"1","status_date":"01/09/2026","permit_group":"Building","refresh_time":"06/10/2026","type_lat_lon":"ADDRESS","business_unit":"Plan Check at Counter"},"geometry":{"type":"Point","coordinates":[-118.1713,34.12519]}},{"type":"Feature","properties":{"date":"2025-09-12T00:00:00.000Z","year":2025,"description":"Exterior alternation to (E) single family dwelling. to replace window and door. All work per wfpp","metadescription":"Bldg-Alter/Repair. 1 or 2 Family Dwelling. Exterior alternation to (E) single family dwelling. to replace window and door. All work per wfpp. Issued. 1053 N RUTLAND AVE","address":"1049 Rutland Avenue, CA, Los Angeles, 90042, US","ct":"1831.04","ev":"N","hl":"YES","apc":"East Los Angeles","cpa":"Northeast Los Angeles","zone":"R1-1-HCR","solar":"N","pin_nbr":"157-5A235  99","use_code":"1","status_date":"09/12/2025","permit_group":"Building","refresh_time":"06/10/2026","type_lat_lon":"ADDRESS","business_unit":"Plan Check at Counter"},"geometry":{"type":"Point","coordinates":[-118.17231,34.1253]}},{"type":"Feature","properties":{"date":"2019-03-18T00:00:00.000Z","year":2019,"description":"Replace 9 window(s). Same size, location, number, type.","metadescription":"Bldg-Alter/Repair. 1 or 2 Family Dwelling. Replace 9 window(s). Same size, location, number, type.. Permit Finaled. 944 N RUTLAND AVE","address":"944 Rutland Avenue, CA, Los Angeles, 90042, US","ct":"1831.04","ev":"N","hl":"YES","apc":"East Los Angeles","cpa":"Northeast Los Angeles","zone":"R1-1","solar":"N","pin_nbr":"156A235    99","use_code":"1","geolocation":"POINT (-118.1721 34.1228)","status_date":"06/29/2019","permit_group":"Building","refresh_time":"06/10/2026","type_lat_lon":"ADDRESS","business_unit":"Express Permit"},"geometry":{"type":"Point","coordinates":[-118.1721,34.1228]}},{"type":"Feature","properties":{"date":"2018-11-08T00:00:00.000Z","year":2018,"description":"Window (23) and door (4) change-out (same size & type) for residential buildings.  Dual glazing, labeled and certified by National Fenestration Rating Council (NFRC), is required for doors and windows replaced in all residential buildings, three stories or less, per Section 150.2(b) 1B of Title 24.Re-stucco for single family dwellings and duplexes only.","metadescription":"Bldg-Alter/Repair. 1 or 2 Family Dwelling. Window (23) and door (4) change-out (same size & type) for residential buildings.  Dual glazing, labeled and certified by National Fenestration Rating Council (NFRC), is required for doors and windows replaced in all residential buildings, three stories or less, per Section 150.2(b) 1B of Title 24.Re-stucco for single family dwellings and duplexes only.. Permit Finaled. 1060 N FORTUNE WAY","address":"1060 Fortune Way, CA, Los Angeles, 90042, US","ct":"1831.04","ev":"N","hl":"YES","apc":"East Los Angeles","cpa":"Northeast Los Angeles","zone":"R1-1","solar":"N","pin_nbr":"157-5A235  69","use_code":"1","geolocation":"POINT (-118.16965 34.12584)","status_date":"01/31/2019","permit_group":"Building","refresh_time":"06/10/2026","type_lat_lon":"ADDRESS","business_unit":"Express Permit"},"geometry":{"type":"Point","coordinates":[-118.16965,34.12584]}},{"type":"Feature","properties":{"date":"2018-10-26T00:00:00.000Z","year":2018,"description":"1 DOOR CHANGE-OUT (SAME SIZE & TYPE) FOR RESIDENTIAL BUILDINGS.  DUAL GLAZING, LABELED AND CERTIFIED BY NATIONAL FENESTRATION RATING COUNCIL (NFRC), IS REQUIRED FOR DOORS AND WINDOWS REPLACED IN ALL RESIDENTIAL BUILDINGS, THREE STORIES OR LESS, PER SECTION 150.2 (B) 1B OF TITLE 24.","metadescription":"Bldg-Alter/Repair. 1 or 2 Family Dwelling. 1 DOOR CHANGE-OUT (SAME SIZE & TYPE) FOR RESIDENTIAL BUILDINGS.  DUAL GLAZING, LABELED AND CERTIFIED BY NATIONAL FENESTRATION RATING COUNCIL (NFRC), IS REQUIRED FOR DOORS AND WINDOWS REPLACED IN ALL RESIDENTIAL BUILDINGS, THREE STORIES OR LESS, PER SECTION 150.2 (B) 1B OF TITLE 24.. Permit Finaled. 972 N RUTLAND AVE","address":"972 Rutland Avenue, CA, Los Angeles, 90042, US","ct":"1831.04","ev":"N","hl":"YES","apc":"East Los Angeles","cpa":"Northeast Los Angeles","zone":"R1-1","solar":"N","pin_nbr":"156A235    54","use_code":"1","geolocation":"POINT (-118.1721 34.12348)","status_date":"11/29/2018","permit_group":"Building","refresh_time":"06/10/2026","type_lat_lon":"ADDRESS","business_unit":"Express Permit"},"geometry":{"type":"Point","coordinates":[-118.1721,34.12348]}},{"type":"Feature","properties":{"date":"2017-10-31T00:00:00.000Z","year":2017,"description":"Replace 15 window(s). Same size, location, number, type. New Stucco w/wire lath over (e) siding to remain. Area = 1280 sqft.","metadescription":"Bldg-Alter/Repair. 1 or 2 Family Dwelling. Replace 15 window(s). Same size, location, number, type. New Stucco w/wire lath over (e) siding to remain. Area = 1280 sqft.. Permit Finaled. 1014 N AVENUE 66","address":"1014 North Avenue 66, CA, Los Angeles, 90042, US","ct":"1831.04","ev":"N","hl":"YES","apc":"East Los Angeles","cpa":"Northeast Los Angeles","zone":"R1-1","solar":"N","pin_nbr":"157-5A235 175","use_code":"1","geolocation":"POINT (-118.17299 34.12387)","status_date":"11/19/2018","permit_group":"Building","refresh_time":"06/10/2026","type_lat_lon":"ADDRESS","business_unit":"Express Permit"},"geometry":{"type":"Point","coordinates":[-118.17299,34.12387]}},{"type":"Feature","properties":{"date":"2016-06-14T00:00:00.000Z","year":2016,"description":"Window (19) change-out (same size & type) for residential buildings.  Dual glazing, labeled and certified by National Fenestration Rating Council (NFRC), is required for doors and windows replaced in all residential buildings, three stories or less, per Section 152(b) of Title 24.","metadescription":"Bldg-Alter/Repair. 1 or 2 Family Dwelling. Window (19) change-out (same size & type) for residential buildings.  Dual glazing, labeled and certified by National Fenestration Rating Council (NFRC), is required for doors and windows replaced in all residential buildings, three stories or less, per Section 152(b) of Title 24.. Permit Finaled. 1029 N ARATINA ST","address":"1029 Aratina Street, CA, Los Angeles, 90042, US","ct":"1831.04","ev":"N","hl":"YES","apc":"East Los Angeles","cpa":"Northeast Los Angeles","zone":"R1-1","solar":"N","pin_nbr":"157-5A235 124","use_code":"1","geolocation":"POINT (-118.16914 34.12495)","status_date":"09/30/2016","permit_group":"Building","refresh_time":"06/10/2026","type_lat_lon":"ADDRESS","business_unit":"Express Permit"},"geometry":{"type":"Point","coordinates":[-118.16914,34.12495]}},{"type":"Feature","properties":{"date":"2016-02-01T00:00:00.000Z","year":2016,"description":"SUPPLEMENTAL TO PERMIT 15014-20000-00993 TO RELOCATE WINDOWS AND REVISE STRUCTURAL PLANS.","metadescription":"Bldg-Alter/Repair. 1 or 2 Family Dwelling. SUPPLEMENTAL TO PERMIT 15014-20000-00993 TO RELOCATE WINDOWS AND REVISE STRUCTURAL PLANS.. Permit Finaled. 6280 E CRESTWOOD WAY","address":"6277 Crestwood Way, CA, Los Angeles, 90042, US","ct":"1815.00","ev":"N","hl":"YES","apc":"East Los Angeles","cpa":"Northeast Los Angeles","zone":"R1-1","solar":"N","pin_nbr":"159A231     3","use_code":"1","geolocation":"POINT (-118.18449 34.13214)","status_date":"03/16/2018","permit_group":"Building","refresh_time":"06/10/2026","type_lat_lon":"ADDRESS","business_unit":"Plan Check at Counter"},"geometry":{"type":"Point","coordinates":[-118.18449,34.13214]}},{"type":"Feature","properties":{"date":"2015-10-01T00:00:00.000Z","year":2015,"description":"Replace 10 window(s). Same size, location, number, type.","metadescription":"Bldg-Alter/Repair. 1 or 2 Family Dwelling. Replace 10 window(s). Same size, location, number, type.. Permit Finaled. 1021 N LARKER AVE","address":"1021 Larker Avenue, CA, Los Angeles, 90042, US","ct":"1831.04","ev":"N","hl":"YES","apc":"East Los Angeles","cpa":"Northeast Los Angeles","zone":"R1-1","solar":"N","pin_nbr":"157-5A235 131","use_code":"1","geolocation":"POINT (-118.17074 34.12486)","status_date":"10/20/2017","permit_group":"Building","refresh_time":"06/10/2026","type_lat_lon":"ADDRESS","business_unit":"Express Permit"},"geometry":{"type":"Point","coordinates":[-118.17074,34.12486]}},{"type":"Feature","properties":{"date":"2015-09-16T00:00:00.000Z","year":2015,"description":"NO FEE DEPARTMENT ERROR - CHANGE OF DESCRIPTION OF WORK TO   -   Door (1) change-out (same size & type) for residential buildings.  Dual glazing, labeled and certified by National Fenestration Rating Council (NFRC), is required for doors and windows replaced in all residential buildings, three stories or less, per Section 152(b) of Title 24","metadescription":"Bldg-Alter/Repair. 1 or 2 Family Dwelling. NO FEE DEPARTMENT ERROR - CHANGE OF DESCRIPTION OF WORK TO   -   Door (1) change-out (same size & type) for residential buildings.  Dual glazing, labeled and certified by National Fenestration Rating Council (NFRC), is required for doors and windows replaced in all residential buildings, three stories or less, per Section 152(b) of Title 24. Permit Expired. 1046 N RUTLAND AVE","address":"1046 Rutland Avenue, CA, Los Angeles, 90042, US","ct":"1831.04","ev":"N","hl":"YES","apc":"East Los Angeles","cpa":"Northeast Los Angeles","zone":"R1-1","solar":"N","pin_nbr":"157-5A235 116","use_code":"1","geolocation":"POINT (-118.1721 34.12512)","status_date":"10/11/2017","permit_group":"Building","refresh_time":"06/10/2026","type_lat_lon":"ADDRESS","business_unit":"Express Permit"},"geometry":{"type":"Point","coordinates":[-118.1721,34.12512]}},{"type":"Feature","properties":{"date":"2015-07-21T00:00:00.000Z","year":2015,"description":"(10)Window and (4)door change-out (same size & type) for residential buildings.  Dual glazing, labeled and certified by National Fenestration Rating Council (NFRC), is required for doors and windows replaced in all residential buildings, three stories or less, per Section 152(b) of Title 24.  **SEE COMMENTS**","metadescription":"Bldg-Alter/Repair. 1 or 2 Family Dwelling. (10)Window and (4)door change-out (same size & type) for residential buildings.  Dual glazing, labeled and certified by National Fenestration Rating Council (NFRC), is required for doors and windows replaced in all residential buildings, three stories or less, per Section 152(b) of Title 24.  **SEE COMMENTS**. Permit Finaled. 6613 E CHURCH ST","address":"6613 Church Street, CA, Los Angeles, 90042, US","ct":"1831.04","ev":"N","hl":"YES","apc":"East Los Angeles","cpa":"Northeast Los Angeles","zone":"R1-1","solar":"N","pin_nbr":"157-5A235  30","use_code":"1","geolocation":"POINT (-118.17008 34.12651)","status_date":"07/12/2016","permit_group":"Building","refresh_time":"06/10/2026","type_lat_lon":"ADDRESS","business_unit":"Express Permit"},"geometry":{"type":"Point","coordinates":[-118.17008,34.12651]}},{"type":"Feature","properties":{"date":"2015-07-16T00:00:00.000Z","year":2015,"description":"Interior remodel to (E) single family dwelling, new exterior opening for new sliding door. Replace exterior windows with new ones. (N) slab at rear of kitchen.","metadescription":"Bldg-Alter/Repair. 1 or 2 Family Dwelling. Interior remodel to (E) single family dwelling, new exterior opening for new sliding door. Replace exterior windows with new ones. (N) slab at rear of kitchen.. Permit Finaled. 1104 N LARKER AVE","address":"1104 Larker Avenue, CA, Los Angeles, 90042, US","ct":"1831.04","ev":"N","hl":"YES","apc":"East Los Angeles","cpa":"Northeast Los Angeles","zone":"R1-1","solar":"N","pin_nbr":"157-5A235  48","use_code":"1","geolocation":"POINT (-118.17049 34.12625)","status_date":"08/31/2016","permit_group":"Building","refresh_time":"06/10/2026","type_lat_lon":"ADDRESS","business_unit":"Plan Check at Counter"},"geometry":{"type":"Point","coordinates":[-118.17049,34.12625]}},{"type":"Feature","properties":{"date":"2015-06-25T00:00:00.000Z","year":2015,"description":"Window (1) change-out (same size & type) for residential buildings.  Dual glazing, labeled and certified by National Fenestration Rating Council (NFRC), is required for doors and windows replaced in all residential buildings, three stories or less, per Section 152(b) of Title 24","metadescription":"Bldg-Alter/Repair. 1 or 2 Family Dwelling. Window (1) change-out (same size & type) for residential buildings.  Dual glazing, labeled and certified by National Fenestration Rating Council (NFRC), is required for doors and windows replaced in all residential buildings, three stories or less, per Section 152(b) of Title 24. Permit Expired. 1046 N RUTLAND AVE","address":"1046 Rutland Avenue, CA, Los Angeles, 90042, US","ct":"1831.04","ev":"N","hl":"YES","apc":"East Los Angeles","cpa":"Northeast Los Angeles","zone":"R1-1","solar":"N","pin_nbr":"157-5A235 116","use_code":"1","geolocation":"POINT (-118.1721 34.12512)","status_date":"07/20/2017","permit_group":"Building","refresh_time":"06/10/2026","type_lat_lon":"ADDRESS","business_unit":"Express Permit"},"geometry":{"type":"Point","coordinates":[-118.1721,34.12512]}},{"type":"Feature","properties":{"date":"2015-06-18T00:00:00.000Z","year":2015,"description":"Window (10) change-out (same size & type) for residential buildings.Dual glazing, labeled and certified by National Fenestration Rating Council (NFRC), is required for doors and windows replaced in all residential buildings, three stories or less, per Section 152(b) of Title 24.","metadescription":"Bldg-Alter/Repair. 1 or 2 Family Dwelling. Window (10) change-out (same size & type) for residential buildings.Dual glazing, labeled and certified by National Fenestration Rating Council (NFRC), is required for doors and windows replaced in all residential buildings, three stories or less, per Section 152(b) of Title 24.. Permit Finaled. 1021 N RUTLAND AVE","address":"1021 Rutland Avenue, CA, Los Angeles, 90042, US","ct":"1831.04","ev":"N","hl":"YES","apc":"East Los Angeles","cpa":"Northeast Los Angeles","zone":"R1-1","solar":"N","pin_nbr":"157-5A235 174","use_code":"1","geolocation":"POINT (-118.17235 34.12416)","status_date":"07/06/2017","permit_group":"Building","refresh_time":"06/10/2026","type_lat_lon":"ADDRESS","business_unit":"Express Permit"},"geometry":{"type":"Point","coordinates":[-118.17235,34.12416]}},{"type":"Feature","properties":{"date":"2014-07-15T00:00:00.000Z","year":2014,"description":"ADDITION AND ALTERATION OF EXISTING 1-STORY SINGLE FAMILY DWELLING INCLUDING NEW WINDOWS, DOORS AND ROOF.","metadescription":"Bldg-Addition. 1 or 2 Family Dwelling. ADDITION AND ALTERATION OF EXISTING 1-STORY SINGLE FAMILY DWELLING INCLUDING NEW WINDOWS, DOORS AND ROOF.. CofO Issued. 1008 N LARKER AVE","address":"1008 Larker Avenue, CA, Los Angeles, 90042, US","ct":"1831.04","ev":"N","hl":"YES","apc":"East Los Angeles","cpa":"Northeast Los Angeles","zone":"R1-1","solar":"N","pin_nbr":"157-5A235 152","use_code":"1","geolocation":"POINT (-118.1705 34.12451)","status_date":"04/02/2020","construction":"Type V-B Construction","permit_group":"Building","refresh_time":"06/10/2026","type_lat_lon":"ADDRESS","business_unit":"Regular Plan Check","square_footage":"2006.5"},"geometry":{"type":"Point","coordinates":[-118.1705,34.12451]}},{"type":"Feature","properties":{"date":"2014-05-22T00:00:00.000Z","year":2014,"description":"\"COMPLY WITH DEPARTMENT ORDER effective date 05/14/2014. PERMIT WILL EXPIRE 30 DAYS FROM ISSUANCE DATE\". General rehabilitation (No alteration & no structural changes.) (less than 10% of replacement cost of building).  Replace drywall. (no new walls added). Kitchen/bathroom remodel for residential buildings (no structural changes).  Valuation to be verified by Inspector. Window and door change-out (same size & type) for residential buildings. Dual glazing, labeled and certified by National Fenestration Rating Council (NFRC), is required for doors and windows replaced in all residential buildings, three stories or less, per Section 152(b) of Title 24.  Valuation to be verified by Inspector.","metadescription":"Bldg-Alter/Repair. 1 or 2 Family Dwelling. \"COMPLY WITH DEPARTMENT ORDER effective date 05/14/2014. PERMIT WILL EXPIRE 30 DAYS FROM ISSUANCE DATE\". General rehabilitation (No alteration & no structural changes.) (less than 10% of replacement cost of building).  Replace drywall. (no new walls added). Kitchen/bathroom remodel for residential buildings (no structural changes).  Valuation to be verified by Inspector. Window and door change-out (same size & type) for residential buildings. Dual glazing, labeled and certified by National Fenestration Rating Council (NFRC), is required for doors and windows replaced in all residential buildings, three stories or less, per Section 152(b) of Title 24.  Valuation to be verified by Inspector.. Permit Expired. 6266 E CRESTWOOD WAY","address":"6266 Crestwood Way, CA, Los Angeles, 90042, US","ct":"1815.00","ev":"N","hl":"YES","apc":"East Los Angeles","cpa":"Northeast Los Angeles","zone":"R1-1","solar":"N","pin_nbr":"159A231    22","use_code":"1","geolocation":"POINT (-118.18496 34.13206)","status_date":"07/07/2016","permit_group":"Building","refresh_time":"06/10/2026","type_lat_lon":"ADDRESS","business_unit":"Express Permit"},"geometry":{"type":"Point","coordinates":[-118.18496,34.13206]}},{"type":"Feature","properties":{"date":"2014-04-30T00:00:00.000Z","year":2014,"description":"Kitchen remodel for residential buildings (no structural changes).  Window (1 ) and door (1) change-out (same size & type) for residential buildings.  Dual glazing, labeled and certified by National Fenestration Rating Council (NFRC), is required for doors and windows replaced in all residential buildings, three stories or less, per Section 152(b) of Title 24.","metadescription":"Bldg-Alter/Repair. 1 or 2 Family Dwelling. Kitchen remodel for residential buildings (no structural changes).  Window (1 ) and door (1) change-out (same size & type) for residential buildings.  Dual glazing, labeled and certified by National Fenestration Rating Council (NFRC), is required for doors and windows replaced in all residential buildings, three stories or less, per Section 152(b) of Title 24.. Issued. 1031 N LARKER AVE","address":"1031 Larker Avenue, CA, Los Angeles, 90042, US","ct":"1831.04","ev":"N","hl":"YES","apc":"East Los Angeles","cpa":"Northeast Los Angeles","zone":"R1-1","solar":"N","pin_nbr":"157-5A235 109","use_code":"1","geolocation":"POINT (-118.17074 34.12524)","status_date":"04/30/2014","permit_group":"Building","refresh_time":"06/10/2026","type_lat_lon":"ADDRESS","business_unit":"Express Permit"},"geometry":{"type":"Point","coordinates":[-118.17074,34.12524]}},{"type":"Feature","properties":{"date":"2012-07-17T00:00:00.000Z","year":2012,"description":"Windows change-out (same size & type) for residential buildings.  Dual glazing, labeled and certified by National Fenestration Rating Council (NFRC), is required for windows replaced in all residential buildings, three stories or less, per Section 152(b) of Title 24.","metadescription":"Bldg-Alter/Repair. 1 or 2 Family Dwelling. Windows change-out (same size & type) for residential buildings.  Dual glazing, labeled and certified by National Fenestration Rating Council (NFRC), is required for windows replaced in all residential buildings, three stories or less, per Section 152(b) of Title 24.. Permit Finaled. 1028 N FORTUNE WAY","address":"1028 Fortune Way, CA, Los Angeles, 90042, US","ct":"1831.02","ev":"N","hl":"YES","apc":"East Los Angeles","cpa":"Northeast Los Angeles","zone":"R1-1","solar":"N","pin_nbr":"157-5A235 118","use_code":"1","geolocation":"POINT (-118.1697 34.12507)","status_date":"07/20/2012","permit_group":"Building","refresh_time":"06/10/2026","type_lat_lon":"ADDRESS","business_unit":"Express Permit"},"geometry":{"type":"Point","coordinates":[-118.1697,34.12507]}},{"type":"Feature","properties":{"date":"2010-12-07T00:00:00.000Z","year":2010,"description":"Replace 1 window(s). Same size, location, number, type.  Sandblast/restucco over existing stucco to remain. Area = 112 sqft.","metadescription":"Bldg-Alter/Repair. 1 or 2 Family Dwelling. Replace 1 window(s). Same size, location, number, type.  Sandblast/restucco over existing stucco to remain. Area = 112 sqft.. Permit Finaled. 1062 N LARKER AVE","address":"1062 Larker Avenue, CA, Los Angeles, 90042, US","ct":"1831.02","ev":"N","hl":"YES","apc":"East Los Angeles","cpa":"Northeast Los Angeles","zone":"R1-1","solar":"N","pin_nbr":"157-5A235  62","use_code":"1","geolocation":"POINT (-118.1705 34.12617)","status_date":"02/24/2011","permit_group":"Building","refresh_time":"06/10/2026","type_lat_lon":"ADDRESS","business_unit":"Express Permit"},"geometry":{"type":"Point","coordinates":[-118.1705,34.12617]}},{"type":"Feature","properties":{"date":"2010-08-16T00:00:00.000Z","year":2010,"description":"Replace 11 window(s). Same size, location, number, type.  Replace 1 door(s). Same size, location, number, type.","metadescription":"Bldg-Alter/Repair. 1 or 2 Family Dwelling. Replace 11 window(s). Same size, location, number, type.  Replace 1 door(s). Same size, location, number, type.. Permit Finaled. 1016 N RUTLAND AVE","address":"1016 Rutland Avenue, CA, Los Angeles, 90042, US","ct":"1831.02","ev":"N","hl":"YES","apc":"East Los Angeles","cpa":"Northeast Los Angeles","zone":"R1-1","solar":"N","pin_nbr":"157-5A235 180","use_code":"1","geolocation":"POINT (-118.17209 34.12387)","status_date":"12/29/2010","permit_group":"Building","refresh_time":"06/10/2026","type_lat_lon":"ADDRESS","business_unit":"Express Permit"},"geometry":{"type":"Point","coordinates":[-118.17209,34.12387]}},{"type":"Feature","properties":{"date":"2009-05-06T00:00:00.000Z","year":2009,"description":"RELOCATE PORTION OF SFD FROM 829 BARTLETT ST TO 1125 N. AVENUE 64 AND CONVERT TO ACCESSORY LIVING QUARTERS. REMOVE THE KITCHEN. ADD A BATHROOM,  CONVERT (E) BEDROOM TO STUDY ROOM AND DEN.  RELOCATED WINDOWS AND DOORS.  REMOVE AND REPLACE ALL OF WINDOWS.  ADD SHAEARWALLS AT THE REAR WALL.  REMOVE AND REPLACE SOME OF THE DRYWALLS.***separate permit is being issued for demolition of s.f.d. at 829 Bartlett st.","metadescription":"Bldg-Relocation. 1 or 2 Family Dwelling. RELOCATE PORTION OF SFD FROM 829 BARTLETT ST TO 1125 N. AVENUE 64 AND CONVERT TO ACCESSORY LIVING QUARTERS. REMOVE THE KITCHEN. ADD A BATHROOM,  CONVERT (E) BEDROOM TO STUDY ROOM AND DEN.  RELOCATED WINDOWS AND DOORS.  REMOVE AND REPLACE ALL OF WINDOWS.  ADD SHAEARWALLS AT THE REAR WALL.  REMOVE AND REPLACE SOME OF THE DRYWALLS.***separate permit is being issued for demolition of s.f.d. at 829 Bartlett st.. CofO Issued. 1125 N AVENUE 64","address":"1125 North Avenue 64, CA, Los Angeles, 90042, US","ct":"1831.01","ev":"N","hl":"YES","apc":"East Los Angeles","cpa":"Northeast Los Angeles","zone":"R1-1","solar":"N","height":"27.83","pin_nbr":"157-5A233 126","use_code":"23","geolocation":"POINT (-118.17674 34.12612)","status_date":"01/17/2013","construction":"Type V-B Construction","permit_group":"Building","refresh_time":"06/10/2026","type_lat_lon":"ADDRESS","business_unit":"Regular Plan Check","square_footage":"625"},"geometry":{"type":"Point","coordinates":[-118.17674,34.12612]}},{"type":"Feature","properties":{"date":"2007-12-26T00:00:00.000Z","year":2007,"description":"C/O (3) WINDOWS & (3) SLIDING DOORS SAME SIZE.","metadescription":"Bldg-Alter/Repair. 1 or 2 Family Dwelling. C/O (3) WINDOWS & (3) SLIDING DOORS SAME SIZE.. Permit Finaled. 1055 N RUTLAND AVE","address":"1055 Rutland Avenue, CA, Los Angeles, 90042, US","ct":"1831.02","ev":"N","hl":"YES","apc":"East Los Angeles","cpa":"Northeast Los Angeles","zone":"R1-1","solar":"N","pin_nbr":"157-5A235  83","use_code":"1","geolocation":"POINT (-118.17232 34.12561)","status_date":"11/05/2009","permit_group":"Building","refresh_time":"06/10/2026","type_lat_lon":"ADDRESS","business_unit":"Express Permit"},"geometry":{"type":"Point","coordinates":[-118.17232,34.12561]}},{"type":"Feature","properties":{"date":"2007-04-05T00:00:00.000Z","year":2007,"description":"CHANGE OUT 2 WINDOWS. SAME SIZE/ LOCATION.Dual glazing, labeled and certified by National Fenestration Rating Council (NFRC), is required for doors and windows replaced in all residential buildings, three stories or less, per Section 152(b) of Title 24.","metadescription":"Bldg-Alter/Repair. 1 or 2 Family Dwelling. CHANGE OUT 2 WINDOWS. SAME SIZE/ LOCATION.Dual glazing, labeled and certified by National Fenestration Rating Council (NFRC), is required for doors and windows replaced in all residential buildings, three stories or less, per Section 152(b) of Title 24.. Permit Finaled. 1055 N RUTLAND AVE","address":"1055 Rutland Avenue, CA, Los Angeles, 90042, US","ct":"1831.02","ev":"N","hl":"YES","apc":"East Los Angeles","cpa":"Northeast Los Angeles","zone":"R1-1","solar":"N","pin_nbr":"157-5A235  83","use_code":"1","geolocation":"POINT (-118.17232 34.12561)","status_date":"06/25/2007","permit_group":"Building","refresh_time":"06/10/2026","type_lat_lon":"ADDRESS","business_unit":"Express Permit"},"geometry":{"type":"Point","coordinates":[-118.17232,34.12561]}},{"type":"Feature","properties":{"date":"2006-08-09T00:00:00.000Z","year":2006,"description":"Replace 10 window(s). Same size, location, number, type.  Sandblast/restucco over existing stucco to remain. Area = 1440 sqft.","metadescription":"Bldg-Alter/Repair. 1 or 2 Family Dwelling. Replace 10 window(s). Same size, location, number, type.  Sandblast/restucco over existing stucco to remain. Area = 1440 sqft.. Permit Finaled. 1032 N LARKER AVE","address":"1038 Larker Avenue, CA, Los Angeles, 90042, US","ct":"1831.02","ev":"N","hl":"YES","apc":"East Los Angeles","cpa":"Northeast Los Angeles","zone":"R1-1","solar":"N","pin_nbr":"157-5A235 111","use_code":"1","geolocation":"POINT (-118.1705 34.12522)","status_date":"08/17/2006","permit_group":"Building","refresh_time":"06/10/2026","type_lat_lon":"ADDRESS","business_unit":"Express Permit"},"geometry":{"type":"Point","coordinates":[-118.1705,34.12522]}},{"type":"Feature","properties":{"date":"2006-04-28T00:00:00.000Z","year":2006,"description":"REPAIR WATER DAMAGE LESS THAN 10%. RE-ROOF W/ ROLLED ROOFING. REPLACE INSULATION & DRYWALL PAINT. CHANGE OUT WINDOWS-SAME FOR SAME. 1 OF 2 W/ # 06044-10000-04323.","metadescription":"Bldg-Alter/Repair. 1 or 2 Family Dwelling. REPAIR WATER DAMAGE LESS THAN 10%. RE-ROOF W/ ROLLED ROOFING. REPLACE INSULATION & DRYWALL PAINT. CHANGE OUT WINDOWS-SAME FOR SAME. 1 OF 2 W/ # 06044-10000-04323.. Permit Finaled. 1027 N FORTUNE WAY","address":"1027 Fortune Way, CA, Los Angeles, 90042, US","ct":"1831.02","ev":"N","hl":"YES","apc":"East Los Angeles","cpa":"Northeast Los Angeles","zone":"R1-1","solar":"N","pin_nbr":"157-5A235 122","use_code":"1","geolocation":"POINT (-118.16994 34.12502)","status_date":"09/05/2006","permit_group":"Building","refresh_time":"06/10/2026","type_lat_lon":"ADDRESS","business_unit":"Express Permit"},"geometry":{"type":"Point","coordinates":[-118.16994,34.12502]}},{"type":"Feature","properties":{"date":"2005-11-15T00:00:00.000Z","year":2005,"description":"REPLACE (15) WINDOWS AND (3) SLIDING DOORS.   (SAME SIZE AND LOC.)","metadescription":"Bldg-Alter/Repair. 1 or 2 Family Dwelling. REPLACE (15) WINDOWS AND (3) SLIDING DOORS.   (SAME SIZE AND LOC.). Permit Finaled. 6601 E CHURCH ST","address":"6607 Church Street, CA, Los Angeles, 90042, US","ct":"1831.02","ev":"N","hl":"YES","apc":"East Los Angeles","cpa":"Northeast Los Angeles","zone":"R1-1","solar":"N","pin_nbr":"157-5A235  25","use_code":"1","geolocation":"POINT (-118.17041 34.12669)","status_date":"02/22/2006","permit_group":"Building","refresh_time":"06/10/2026","type_lat_lon":"ADDRESS","business_unit":"Express Permit"},"geometry":{"type":"Point","coordinates":[-118.17041,34.12669]}},{"type":"Feature","properties":{"date":"2005-06-15T00:00:00.000Z","year":2005,"description":"REPLACE (9) WINDOWS AND (1) PATIO DOOR (SAME SIZE, TYPE AND LOCATION).  REPLACE (2) WINDOWS W/ DIFFERENT SIZE (SAME WIDTH & DEPTH CHANGE FROM 33\" TO 40\").","metadescription":"Bldg-Alter/Repair. 1 or 2 Family Dwelling. REPLACE (9) WINDOWS AND (1) PATIO DOOR (SAME SIZE, TYPE AND LOCATION).  REPLACE (2) WINDOWS W/ DIFFERENT SIZE (SAME WIDTH & DEPTH CHANGE FROM 33\" TO 40\").. Permit Finaled. 1058 N RUTLAND AVE","address":"1054 Rutland Avenue, CA, Los Angeles, 90042, US","ct":"1831.02","ev":"N","hl":"YES","apc":"East Los Angeles","cpa":"Northeast Los Angeles","zone":"R1-1","solar":"N","pin_nbr":"157-5A235  79","use_code":"1","geolocation":"POINT (-118.1721 34.12552)","status_date":"07/22/2005","permit_group":"Building","refresh_time":"06/10/2026","type_lat_lon":"ADDRESS","business_unit":"Plan Check at Counter"},"geometry":{"type":"Point","coordinates":[-118.1721,34.12552]}},{"type":"Feature","properties":{"date":"2005-04-20T00:00:00.000Z","year":2005,"description":"REMODELING BATHROOM, RELOCATION OF SHOWER, TOILET.  REMODEL OF 2 PARTITION WALLS.  ELECTRICAL (ADDING 6 RECESS LIGHTS, 2 GFCI, CEILING, HEATING AND FAN).  PLUMBING, DRAINS & FIXTURES.  ADDING 1 NEW WINDOW, CLOSING EXISTING WINDOW.","metadescription":"Bldg-Alter/Repair. 1 or 2 Family Dwelling. REMODELING BATHROOM, RELOCATION OF SHOWER, TOILET.  REMODEL OF 2 PARTITION WALLS.  ELECTRICAL (ADDING 6 RECESS LIGHTS, 2 GFCI, CEILING, HEATING AND FAN).  PLUMBING, DRAINS & FIXTURES.  ADDING 1 NEW WINDOW, CLOSING EXISTING WINDOW.. Permit Finaled. 952 N LARKER AVE","address":"946 Larker Avenue, CA, Los Angeles, 90042, US","ct":"1831.02","ev":"N","hl":"YES","apc":"East Los Angeles","cpa":"Northeast Los Angeles","zone":"R1-1","solar":"N","height":"18","pin_nbr":"156A235    25","use_code":"1","geolocation":"POINT (-118.1705 34.12372)","status_date":"08/22/2005","construction":"Type V-N Construction","permit_group":"Building","refresh_time":"06/10/2026","type_lat_lon":"ADDRESS","business_unit":"Plan Check at Counter","square_footage":"0"},"geometry":{"type":"Point","coordinates":[-118.1705,34.12372]}},{"type":"Feature","properties":{"date":"2004-07-19T00:00:00.000Z","year":2004,"description":"Replace 10 window(s). Same size, location, number, type.","metadescription":"Bldg-Alter/Repair. 1 or 2 Family Dwelling. Replace 10 window(s). Same size, location, number, type.. Permit Finaled. 1009 N FORTUNE WAY","address":"1009 Fortune Way, CA, Los Angeles, 90042, US","ct":"1831.02","ev":"N","hl":"YES","apc":"East Los Angeles","cpa":"Northeast Los Angeles","zone":"R1-1","solar":"N","pin_nbr":"157-5A235 153","use_code":"1","geolocation":"POINT (-118.16994 34.12451)","status_date":"09/13/2004","permit_group":"Building","refresh_time":"06/10/2026","type_lat_lon":"ADDRESS","business_unit":"Express Permit"},"geometry":{"type":"Point","coordinates":[-118.16994,34.12451]}},{"type":"Feature","properties":{"date":"2004-04-29T00:00:00.000Z","year":2004,"description":"KITCHEN REMODEL - CHANGE-OUT CABINETS, TILE, DRYWALL, 1 WINDOW (SAME SIZE, TYPE, AND LOCATION) AND RELATED ELECTRICAL AND PLUMBING - (E.Q. SHUT-OFF VALVE REQUIRED) -(VALUATION TO  BE VERIFIED BY FIELD INSPECTOR","metadescription":"Bldg-Alter/Repair. 1 or 2 Family Dwelling. KITCHEN REMODEL - CHANGE-OUT CABINETS, TILE, DRYWALL, 1 WINDOW (SAME SIZE, TYPE, AND LOCATION) AND RELATED ELECTRICAL AND PLUMBING - (E.Q. SHUT-OFF VALVE REQUIRED) -(VALUATION TO  BE VERIFIED BY FIELD INSPECTOR. Permit Finaled. 944 N RUTLAND AVE","address":"944 Rutland Avenue, CA, Los Angeles, 90042, US","ct":"1831.02","ev":"N","hl":"YES","apc":"East Los Angeles","cpa":"Northeast Los Angeles","zone":"R1-1","solar":"N","pin_nbr":"156A235    99","use_code":"1","geolocation":"POINT (-118.1721 34.1228)","status_date":"08/17/2004","permit_group":"Building","refresh_time":"06/10/2026","type_lat_lon":"ADDRESS","business_unit":"Express Permit"},"geometry":{"type":"Point","coordinates":[-118.1721,34.1228]}},{"type":"Feature","properties":{"date":"2003-04-29T00:00:00.000Z","year":2003,"description":"CHANGE OUT (6) WINDOWS -SAME SIZE & TYPE.","metadescription":"Bldg-Alter/Repair. 1 or 2 Family Dwelling. CHANGE OUT (6) WINDOWS -SAME SIZE & TYPE.. Permit Finaled. 1000 N LARKER AVE","address":"1000 Larker Avenue, CA, Los Angeles, 90042, US","ct":"1831.02","ev":"N","hl":"YES","apc":"East Los Angeles","cpa":"Northeast Los Angeles","zone":"R1-1","solar":"N","pin_nbr":"157-5A235 165","use_code":"1","geolocation":"POINT (-118.1705 34.12433)","status_date":"07/02/2003","permit_group":"Building","refresh_time":"06/10/2026","type_lat_lon":"ADDRESS","business_unit":"Express Permit"},"geometry":{"type":"Point","coordinates":[-118.1705,34.12433]}},{"type":"Feature","properties":{"date":"2003-02-28T00:00:00.000Z","year":2003,"description":"REPLACE 5 (E) WINDOWS = LIKE FOR LIKE =, SAME SIZE  & LOCATION.","metadescription":"Bldg-Alter/Repair. 1 or 2 Family Dwelling. REPLACE 5 (E) WINDOWS = LIKE FOR LIKE =, SAME SIZE  & LOCATION.. Permit Finaled. 1104 N LARKER AVE","address":"1104 Larker Avenue, CA, Los Angeles, 90042, US","ct":"1831.02","ev":"N","hl":"YES","apc":"East Los Angeles","cpa":"Northeast Los Angeles","zone":"R1-1","solar":"N","pin_nbr":"157-5A235  48","use_code":"1","geolocation":"POINT (-118.17049 34.12625)","status_date":"04/04/2004","permit_group":"Building","refresh_time":"06/10/2026","type_lat_lon":"ADDRESS","business_unit":"Express Permit"},"geometry":{"type":"Point","coordinates":[-118.17049,34.12625]}},{"type":"Feature","properties":{"date":"2003-02-07T00:00:00.000Z","year":2003,"description":"REPLACE FOUR (4) WINDOWS + TWO (2) PATIO DOORS - SAME SIZES+SAME LOCATIONS","metadescription":"Bldg-Alter/Repair. 1 or 2 Family Dwelling. REPLACE FOUR (4) WINDOWS + TWO (2) PATIO DOORS - SAME SIZES+SAME LOCATIONS. Permit Finaled. 6649 E CHURCH ST","address":"6649 Church Street, CA, Los Angeles, 90042, US","ct":"1831.02","ev":"N","hl":"YES","apc":"East Los Angeles","cpa":"Northeast Los Angeles","zone":"R1-1","solar":"N","pin_nbr":"157-5A235  54","use_code":"1","geolocation":"POINT (-118.16888 34.12595)","status_date":"04/21/2003","permit_group":"Building","refresh_time":"06/10/2026","type_lat_lon":"ADDRESS","business_unit":"Express Permit"},"geometry":{"type":"Point","coordinates":[-118.16888,34.12595]}},{"type":"Feature","properties":{"date":"2003-01-24T00:00:00.000Z","year":2003,"description":"CHANGE OUT 8 (E) WINDOWS, SAME SIZE & LOCATION IN THE SFD.","metadescription":"Bldg-Alter/Repair. 1 or 2 Family Dwelling. CHANGE OUT 8 (E) WINDOWS, SAME SIZE & LOCATION IN THE SFD.. Permit Finaled. 1104 N LARKER AVE","address":"1104 Larker Avenue, CA, Los Angeles, 90042, US","ct":"1831.02","ev":"N","hl":"YES","apc":"East Los Angeles","zone":"R1-1","solar":"N","pin_nbr":"157-5A235  48","use_code":"1","geolocation":"POINT (-118.17049 34.12625)","status_date":"04/07/2004","permit_group":"Building","refresh_time":"06/10/2026","type_lat_lon":"ADDRESS","business_unit":"Express Permit"},"geometry":{"type":"Point","coordinates":[-118.17049,34.12625]}},{"type":"Feature","properties":{"date":"2002-06-10T00:00:00.000Z","year":2002,"description":"ADD 20 SQFT. TO ENLARGE KITCHEN AREA.  REMODEL KITCHEN; REMODEL BATHTUB IN BATHROOM; REPLACE WINDOWS.","metadescription":"Bldg-Addition. 1 or 2 Family Dwelling. ADD 20 SQFT. TO ENLARGE KITCHEN AREA.  REMODEL KITCHEN; REMODEL BATHTUB IN BATHROOM; REPLACE WINDOWS.. Permit Finaled. 6256 E TIPTON WAY","address":"6252 Tipton Way, CA, Los Angeles, 90042, US","ct":"1815.00","ev":"N","hl":"YES","apc":"East Los Angeles","zone":"R1-1","solar":"N","pin_nbr":"159A231   123","use_code":"1","geolocation":"POINT (-118.18429 34.13094)","status_date":"06/12/2003","construction":"Type V-N Construction","permit_group":"Building","refresh_time":"06/10/2026","type_lat_lon":"ADDRESS","business_unit":"Plan Check at Counter","square_footage":"20"},"geometry":{"type":"Point","coordinates":[-118.18429,34.13094]}},{"type":"Feature","properties":{"date":"2000-08-03T00:00:00.000Z","year":2000,"description":"Kit & porch remodel & kit cabinets/ add bay window","metadescription":"Bldg-Alter/Repair. 1 or 2 Family Dwelling. Kit & porch remodel & kit cabinets/ add bay window. Permit Finaled. 1047 N AVENUE 64","address":"1051 North Avenue 64, CA, Los Angeles, 90042, US","ct":"1831.01","ev":"N","hl":"YES","apc":"East Los Angeles","zone":"R1-1","solar":"N","pin_nbr":"157-5A233 240","use_code":"1","geolocation":"POINT (-118.17698 34.12451)","status_date":"12/11/2000","permit_group":"Building","refresh_time":"06/10/2026","type_lat_lon":"ADDRESS","business_unit":"Plan Check at Counter"},"geometry":{"type":"Point","coordinates":[-118.17698,34.12451]}},{"type":"Feature","properties":{"date":"1998-01-20T00:00:00.000Z","year":1998,"description":"STUCCO EXTERIOR WALLS REPLACE (9) WINDOWS (SAME SIZE)","metadescription":"Bldg-Alter/Repair. 1 or 2 Family Dwelling. STUCCO EXTERIOR WALLS REPLACE (9) WINDOWS (SAME SIZE). Permit Closed. 960 N ADELANTE AVE","address":"960 Adelante Avenue, CA, Los Angeles, 90042, US","ct":"1831.02","ev":"N","hl":"Y","apc":"East Los Angeles","solar":"N","pin_nbr":"156A235    48","use_code":"1","geolocation":"POINT (-118.1713 34.12351)","status_date":"09/15/1999","permit_group":"Building","refresh_time":"06/10/2026","type_lat_lon":"ADDRESS","business_unit":"Express Permit"},"geometry":{"type":"Point","coordinates":[-118.1713,34.12351]}}]}
