{"type":"FeatureCollection","features":[{"type":"Feature","properties":{"date":"2007-09-14T00:00:00.000Z","year":2007,"description":"FURNISH AND INSTALL ONE HYDRAULIC PASSENGER ELEVATOR AS PER PLANS","metadescription":"PERMIT - ELEVATOR EQUIPMENT. FURNISH AND INSTALL ONE HYDRAULIC PASSENGER ELEVATOR AS PER PLANS. 6759","address":"6757 West FOREST PRESERVE Avenue, Chicago, IL, CHICAGO, 60634, US","location":"POINT (-87.796361757179 41.95895420516)","review_type":"CONVEYANCE DEVICE PERMIT","street_name":"FOREST PRESERVE AVE","xcoordinate":"1130299.70872733","ycoordinate":"1928090.3705757505","subtotal_paid":"$165.00","contact_1_city":"ITASCA","contact_1_name":"SCHINDLER ELEV CORP ITASCA","contact_1_type":"CONTRACTOR-ELEVATOR","contact_2_city":"CHGO","contact_2_name":"ROBERT GAWRONSKI","contact_2_type":"OWNER","other_fee_paid":"$0.00","contact_1_state":"IL","contact_2_state":"IL","processing_time":"0","subtotal_unpaid":"$0.00","subtotal_waived":"$0.00","zoning_fee_paid":"$0.00","other_fee_unpaid":"$0.00","other_fee_waived":"$0.00","street_direction":"W","building_fee_paid":"$165.00","contact_1_zipcode":"60143-","contact_2_zipcode":"60601-","zoning_fee_unpaid":"$0.00","zoning_fee_waived":"$0.00","other_fee_subtotal":"$0","building_fee_unpaid":"$0.00","building_fee_waived":"$0.00","zoning_fee_subtotal":"$0","building_fee_subtotal":"$165"},"geometry":{"type":"Point","coordinates":[-87.796361757,41.958954205]}}]}
