{"type":"FeatureCollection","features":[{"type":"Feature","properties":{"date":"2006-04-21T00:00:00.000Z","year":2006,"description":"CONSTRUCT A NEW 4 STORY 36 UNIT RESIDENTIAL BUILDING WITH GROUND FLOOR PARKING.","metadescription":"PERMIT - NEW CONSTRUCTION. CONSTRUCT A NEW 4 STORY 36 UNIT RESIDENTIAL BUILDING WITH GROUND FLOOR PARKING.. EXPIRED. 6759","address":"6759","location":"POINT (-87.796361757179 41.95895420516)","review_type":"TRADITIONAL DEVELOPER SERVICES","street_name":"FOREST PRESERVE AVE","xcoordinate":"1130299.70872733","ycoordinate":"1928090.3705757505","subtotal_paid":"$18,715.59","contact_1_city":"CHICAGO","contact_1_name":"AUTUMN GRN @ WRIGHT CAMPUS INV","contact_1_type":"OWNER","contact_2_city":"GRAYSLAKE","contact_2_name":"HAYLOCK, MATTHEW S","contact_2_type":"ARCHITECT","contact_3_city":"ALSIP","contact_3_name":"EMM ELECTRIC, INC.","contact_3_type":"CONTRACTOR-ELECTRICAL","contact_4_city":"CHICAGO","contact_4_name":"DEGRAZIA DEVELOPMENT & REALTY","contact_4_type":"CONTRACTOR-GENERAL CONTRACTOR","contact_5_city":"ELMHURST","contact_5_name":"HANSEN & HEMPEL CO.","contact_5_type":"MASON - BRICK AND CONCRETE","contact_6_city":"BENSENVILLE","contact_6_name":"EWING-DOHERTY MECH. INC","contact_6_type":"CONTRACTOR-PLUMBER/PLUMBING","contact_7_city":"ELK GROVE","contact_7_name":"GHC MECHANICAL, INC.","contact_7_type":"CONTRACTOR-REFRIGERATION","contact_8_city":"ELK GROVE","contact_8_name":"GHC MECHANICAL, INC.","contact_8_type":"CONTRACTOR-VENTILATION","other_fee_paid":"$0.00","contact_1_state":"IL","contact_2_state":"IL","contact_3_state":"IL","contact_4_state":"IL","contact_5_state":"IL","contact_6_state":"IL","contact_7_state":"IL","contact_8_state":"IL","processing_time":"0","subtotal_unpaid":"$0.00","subtotal_waived":"$22,536.00","zoning_fee_paid":"$598.00","other_fee_unpaid":"$0.00","other_fee_waived":"$22,536.00","permit_milestone":"CERTIFICATE OF OCCUPANCY PENDING (TEMPORARY OR PARTIAL OCCUPANCY APPROVED)","street_direction":"W","building_fee_paid":"$18,117.59","contact_1_zipcode":"60601-","contact_2_zipcode":"60030","contact_3_zipcode":"60803","contact_4_zipcode":"60608-","contact_5_zipcode":"60126-","contact_6_zipcode":"60106-","contact_7_zipcode":"60007-","contact_8_zipcode":"60007-","zoning_fee_unpaid":"$0.00","zoning_fee_waived":"$0.00","other_fee_subtotal":"$22,536","building_fee_unpaid":"$0.00","building_fee_waived":"$0.00","zoning_fee_subtotal":"$598","building_fee_subtotal":"$18,117.59"},"geometry":{"type":"Point","coordinates":[-87.796361757,41.958954205]}}]}
