{"type":"FeatureCollection","features":[{"type":"Feature","properties":{"date":"2025-05-06T00:00:00.000Z","year":2025,"description":"PROPOSED MASTER BEDROOM AND BATHROOM EXPANSION AT REAR OF (E) SFD WITH GARAGE.","metadescription":"Bldg-Addition. 1 or 2 Family Dwelling. PROPOSED MASTER BEDROOM AND BATHROOM EXPANSION AT REAR OF (E) SFD WITH GARAGE.. CofO Issued. 3817 S SHAD PL","address":"3817 Shad Place, CA, San Pedro, 90732, US","ct":"2974.00","ev":"N","hl":"YES","apc":"Harbor","cpa":"San Pedro","zone":"R1-1XL","solar":"N","pin_nbr":"009B185    45","use_code":"1","status_date":"09/25/2025","construction":"Type V-B Construction","permit_group":"Building","refresh_time":"06/10/2026","type_lat_lon":"BUILDING","business_unit":"Expanded Counter Plan Check","square_footage":"1879"},"geometry":{"type":"Point","coordinates":[-118.32893319,33.72150678]}},{"type":"Feature","properties":{"date":"2023-01-30T00:00:00.000Z","year":2023,"description":"ePlan  Attn Garo Telmi 16 total application Deferred submittal for wood trusses.Garo to create additional application (add time given) Subdivision for 102 three-story townhome units in 17 total buildings, addresses and permit numbers:1575-1599 W Nicole Way21010-10000-017721574-1598 W Nicole Way21010-10000-017731573-1597 W. Austyn Dr21010-10000-017741572-1596 W Austyn Dr21010-10000-017751571-1595 W Maddison Way21010-10000-017761570-1594 W Maddison Way21010-10000-017771479-1491 W Vista Way21010-10000-017941505-1525 W Vista Way21010-10000-017951534-1558 W Austyn Dr21010-10000-017971519-1539 W Austyn Dr21010-10000-017981547-1567 W Austyn Dr21010-10000-017991550-1570 W Austyn Dr21010-10000-018001518 -1538 W Austyn Dr21010-10000-0180127805-27817 W Austyn Dr21010-10000-0180227802-27820 W Austyn Dr21010-10000-018031511-1538 W Austyn Dr21010-10000-018041547-1571 W Austyn Dr21010-10000-01805","metadescription":"Bldg-Alter/Repair. Apartment. ePlan  Attn Garo Telmi 16 total application Deferred submittal for wood trusses.Garo to create additional application (add time given) Subdivision for 102 three-story townhome units in 17 total buildings, addresses and permit numbers:1575-1599 W Nicole Way21010-10000-017721574-1598 W Nicole Way21010-10000-017731573-1597 W. Austyn Dr21010-10000-017741572-1596 W Austyn Dr21010-10000-017751571-1595 W Maddison Way21010-10000-017761570-1594 W Maddison Way21010-10000-017771479-1491 W Vista Way21010-10000-017941505-1525 W Vista Way21010-10000-017951534-1558 W Austyn Dr21010-10000-017971519-1539 W Austyn Dr21010-10000-017981547-1567 W Austyn Dr21010-10000-017991550-1570 W Austyn Dr21010-10000-018001518 -1538 W Austyn Dr21010-10000-0180127805-27817 W Austyn Dr21010-10000-0180227802-27820 W Austyn Dr21010-10000-018031511-1538 W Austyn Dr21010-10000-018041547-1571 W Austyn Dr21010-10000-01805. Issued. 26900 S WESTERN AVE","address":"26900 South Western Avenue, CA, San Pedro, 90732, US","ct":"9800.15","ev":"N","hl":"YES","apc":"Harbor","cpa":"Wilmington - Harbor City","zone":"OS-1XL","solar":"N","pin_nbr":"027B193   158","use_code":"5","status_date":"01/30/2023","permit_group":"Building","refresh_time":"06/10/2026","type_lat_lon":"ADDRESS","business_unit":"Regular Plan Check"},"geometry":{"type":"Point","coordinates":[-118.30872,33.77491]}},{"type":"Feature","properties":{"date":"2020-09-21T00:00:00.000Z","year":2020,"description":"Partial demo to (e) maintenance building includes removal of (e) addition, bathrooms, portion of exterior wall, and floor slab,  (n) construction of addtition to serve as club house to (e) apartment.","metadescription":"Bldg-Addition. Commercial. Partial demo to (e) maintenance building includes removal of (e) addition, bathrooms, portion of exterior wall, and floor slab,  (n) construction of addtition to serve as club house to (e) apartment.. CofO Issued. 1329 W PARK WESTERN DR","address":"1379 West Park Western Drive, CA, San Pedro, 90732, US","ct":"2963.00","ev":"N","hl":"YES","apc":"Harbor","cpa":"San Pedro","zone":"RD1.5-1XL","solar":"N","pin_nbr":"021B193   134","use_code":"4","status_date":"11/19/2021","construction":"Type V-B Construction","permit_group":"Building","refresh_time":"06/10/2026","type_lat_lon":"BUILDING","business_unit":"Regular Plan Check","square_footage":"2375"},"geometry":{"type":"Point","coordinates":[-118.30676591,33.75243676]}},{"type":"Feature","properties":{"date":"2020-05-19T00:00:00.000Z","year":2020,"description":"SUPPLEMENTAL TO 16020-10000-02047 FOR 4 ADDITIONAL RETAINING WALLS IN TRACT 71886-04. IN BETWEEN LOTS 23 - 30, 37 - 40, 31 - 36, 48 - 51, 60 - 63,  52 - 55, AND 56-59","metadescription":"Nonbldg-New. Commercial. SUPPLEMENTAL TO 16020-10000-02047 FOR 4 ADDITIONAL RETAINING WALLS IN TRACT 71886-04. IN BETWEEN LOTS 23 - 30, 37 - 40, 31 - 36, 48 - 51, 60 - 63,  52 - 55, AND 56-59. Issued. 27812 S WESTERN AVE","address":"27900 South Western Avenue, CA, San Pedro, 90732, US","ct":"9800.15","ev":"N","hl":"YES","apc":"Harbor","cpa":"Wilmington - Harbor City","zone":"PVSP","solar":"N","pin_nbr":"027B193     2","use_code":"23","status_date":"05/19/2020","permit_group":"Building","refresh_time":"06/10/2026","type_lat_lon":"ADDRESS","business_unit":"Regular Plan Check"},"geometry":{"type":"Point","coordinates":[-118.31031,33.76682]}},{"type":"Feature","properties":{"date":"2016-02-11T00:00:00.000Z","year":2016,"description":"Addition to one story SFD and new roof deck over the existing attached garage.","metadescription":"Bldg-Addition. 1 or 2 Family Dwelling. Addition to one story SFD and new roof deck over the existing attached garage.. CofO Issued. 2318 W 37TH ST","address":"2318 West 37Th Street, CA, San Pedro, 90732, US","ct":"2974.00","ev":"N","hl":"YES","apc":"Harbor","cpa":"San Pedro","zone":"R1-1XL","solar":"N","pin_nbr":"009B189   147","use_code":"1","geolocation":"POINT (-118.32664607 33.72307856)","status_date":"12/31/2019","construction":"Type V-B Construction","permit_group":"Building","refresh_time":"06/10/2026","type_lat_lon":"BUILDING","business_unit":"Regular Plan Check","square_footage":"499"},"geometry":{"type":"Point","coordinates":[-118.32664607,33.72307856]}},{"type":"Feature","properties":{"date":"2015-12-31T00:00:00.000Z","year":2015,"description":"ADDITION TO REAR OF EXISTING 1- STORY S.F.D.","metadescription":"Bldg-Addition. 1 or 2 Family Dwelling. ADDITION TO REAR OF EXISTING 1- STORY S.F.D.. CofO Issued. 2300 W 37TH ST","address":"2300 West 37Th Street, CA, San Pedro, 90732, US","ct":"2974.00","ev":"N","hl":"YES","apc":"Harbor","cpa":"San Pedro","zone":"R1-1XL","solar":"N","pin_nbr":"009B189   192","use_code":"1","geolocation":"POINT (-118.3264652 33.72263802)","status_date":"07/09/2016","construction":"Type V-B Construction","permit_group":"Building","refresh_time":"06/10/2026","type_lat_lon":"BUILDING","business_unit":"Regular Plan Check","square_footage":"2052"},"geometry":{"type":"Point","coordinates":[-118.3264652,33.72263802]}},{"type":"Feature","properties":{"date":"2015-07-29T00:00:00.000Z","year":2015,"description":"SUPPLEMENTAL PERMIT FOR PERMIT #15016-40000-14397 TO ADD PLUMBING, ELECTRICAL AND HVAC FEES AND ADDITIONAL FEES FOR NEW VALUATION PER INSPECTOR","metadescription":"Bldg-Alter/Repair. 1 or 2 Family Dwelling. SUPPLEMENTAL PERMIT FOR PERMIT #15016-40000-14397 TO ADD PLUMBING, ELECTRICAL AND HVAC FEES AND ADDITIONAL FEES FOR NEW VALUATION PER INSPECTOR. Permit Expired. 3737 S STARGAZER AVE","address":"2304 West Paseo Del Mar, CA, San Pedro, 90732, US","ct":"2974.00","ev":"N","hl":"YES","apc":"Harbor","cpa":"San Pedro","zone":"R1-1XL","solar":"N","pin_nbr":"009B185    31","use_code":"1","geolocation":"POINT (-118.32739 33.72205)","status_date":"08/23/2017","permit_group":"Building","refresh_time":"06/10/2026","type_lat_lon":"ADDRESS","business_unit":"Express Permit"},"geometry":{"type":"Point","coordinates":[-118.32739,33.72205]}},{"type":"Feature","properties":{"date":"2012-05-15T00:00:00.000Z","year":2012,"description":"ADDITION OF A TRASH CHUTE AS PART OF AN EXISTING SHOPPING CENTER  ( 8' 2\" X 17' 6\" )","metadescription":"Bldg-Alter/Repair. Commercial. ADDITION OF A TRASH CHUTE AS PART OF AN EXISTING SHOPPING CENTER  ( 8' 2\" X 17' 6\" ). Permit Finaled. 916 N WESTERN AVE","address":"916 North Western Avenue, CA, San Pedro, 90732, US","ct":"2963.00, 2964.00","ev":"N","hl":"YES","apc":"Harbor","cpa":"San Pedro","zone":"(Q)C2-1XL","solar":"N","pin_nbr":"021B193   193","use_code":"16","geolocation":"POINT (-118.30886 33.75076)","status_date":"07/27/2012","permit_group":"Building","refresh_time":"06/10/2026","type_lat_lon":"ADDRESS","business_unit":"Regular Plan Check"},"geometry":{"type":"Point","coordinates":[-118.30886,33.75076]}},{"type":"Feature","properties":{"date":"2011-02-22T00:00:00.000Z","year":2011,"description":"TI--BUILD NEW DEMISING WALL TO CREATE AN ADDITIONAL TENANT SPACE.  INSTALL NEW STORE FRONT DOORS. NEW BATHROOM. SHELL ONLY. NO CHANGE OF USE.","metadescription":"Bldg-Alter/Repair. Commercial. TI--BUILD NEW DEMISING WALL TO CREATE AN ADDITIONAL TENANT SPACE.  INSTALL NEW STORE FRONT DOORS. NEW BATHROOM. SHELL ONLY. NO CHANGE OF USE.. Permit Finaled. 1000 N WESTERN AVE #102","address":"1000 North Western Avenue, CA, San Pedro, 90732, US","ct":"2963.00","ev":"N","hl":"YES","apc":"Harbor","cpa":"San Pedro","zone":"(Q)C2-1XL","solar":"N","pin_nbr":"021B193   140","use_code":"16","geolocation":"POINT (-118.30869 33.75242)","status_date":"05/06/2011","permit_group":"Building","refresh_time":"06/10/2026","type_lat_lon":"ADDRESS","business_unit":"Plan Check at Counter"},"geometry":{"type":"Point","coordinates":[-118.30869,33.75242]}},{"type":"Feature","properties":{"date":"2010-05-10T00:00:00.000Z","year":2010,"description":"ONE ILLUMINATED SIGN.  SIGN WILL READ \"GAMES WORKSHOP\"  (1.75' X 17.58').  NO ADDITIONAL SIGNS ON THIS TENANT SPACE.","metadescription":"Sign. Onsite. ONE ILLUMINATED SIGN.  SIGN WILL READ \"GAMES WORKSHOP\"  (1.75' X 17.58').  NO ADDITIONAL SIGNS ON THIS TENANT SPACE.. Permit Finaled. 1385 W PARK WESTERN DR","address":"1385 West Park Western Drive, CA, San Pedro, 90732, US","ct":"2963.00","ev":"N","hl":"YES","apc":"Harbor","cpa":"San Pedro","zone":"(Q)C2-1XL","solar":"N","pin_nbr":"021B193   192","use_code":"19","geolocation":"POINT (-118.30751 33.7523)","status_date":"08/24/2010","permit_group":"Building","refresh_time":"06/10/2026","type_lat_lon":"ADDRESS","business_unit":"Plan Check at Counter"},"geometry":{"type":"Point","coordinates":[-118.30751,33.7523]}},{"type":"Feature","properties":{"date":"2010-01-25T00:00:00.000Z","year":2010,"description":"THE PECK PARK CANYON ENHANCEMENT PROJECT IS A PROPOSITION 0 PROJECT.   THE PROJECT CALLS FOR IMPROVEMENTS TO THE EXISTING TRAIL SYSTEM,  WHICH INCLUDES THE ADDITION OF THREE (3) PEDESTRIAN BRIDGES  ( THIS PERMIT IS ONLY FOR (6)  BRIDGE ABUTMENTS AND WINGWALLS )   (FUTURE WORK OF BRIDGES WILL REQUIRE HANDICAP ACCESS & STRUCTURAL PLAN CHECK)(PREFABRICATED BRIDGE UNDER SEPARATE PERMIT)","metadescription":"Nonbldg-New. Commercial. THE PECK PARK CANYON ENHANCEMENT PROJECT IS A PROPOSITION 0 PROJECT.   THE PROJECT CALLS FOR IMPROVEMENTS TO THE EXISTING TRAIL SYSTEM,  WHICH INCLUDES THE ADDITION OF THREE (3) PEDESTRIAN BRIDGES  ( THIS PERMIT IS ONLY FOR (6)  BRIDGE ABUTMENTS AND WINGWALLS )   (FUTURE WORK OF BRIDGES WILL REQUIRE HANDICAP ACCESS & STRUCTURAL PLAN CHECK)(PREFABRICATED BRIDGE UNDER SEPARATE PERMIT). Permit Finaled. 560 N WESTERN AVE","address":"560 North Western Avenue, CA, San Pedro, 90732, US","ct":"2963.00, 2964.00","ev":"N","hl":"YES","apc":"Harbor","cpa":"San Pedro","zone":"OS-1XL","solar":"N","pin_nbr":"018B193     7","use_code":"23","geolocation":"POINT (-118.30907 33.7478)","status_date":"12/06/2011","permit_group":"Building","refresh_time":"06/10/2026","type_lat_lon":"ADDRESS","business_unit":"Regular Plan Check","square_footage":"0"},"geometry":{"type":"Point","coordinates":[-118.30907,33.7478]}},{"type":"Feature","properties":{"date":"2010-01-25T00:00:00.000Z","year":2010,"description":"GRADING PERMIT FOR (E) PARK.  PECK PARK CANYON ENHANCEMENT PROJECT IS A PROPOSITION \"O\" PROJECT.  CUT = 10,630 CU. YDS.,  FILL = 3,423 CU. YDS., EXPORT = 7,207 CU. YDS.   (see additional comments).  **haul route approved for export of 7,207 cy export and 3,877 cy import on December 2, 2009, under BF 090077.  appeal period ends December 2, 2009.**","metadescription":"Grading. Commercial. GRADING PERMIT FOR (E) PARK.  PECK PARK CANYON ENHANCEMENT PROJECT IS A PROPOSITION \"O\" PROJECT.  CUT = 10,630 CU. YDS.,  FILL = 3,423 CU. YDS., EXPORT = 7,207 CU. YDS.   (see additional comments).  **haul route approved for export of 7,207 cy export and 3,877 cy import on December 2, 2009, under BF 090077.  appeal period ends December 2, 2009.**. Permit Finaled. 560 N WESTERN AVE","address":"560 North Western Avenue, CA, San Pedro, 90732, US","ct":"2963.00, 2964.00","ev":"N","hl":"YES","apc":"Harbor","cpa":"San Pedro","zone":"OS-1XL","solar":"N","pin_nbr":"018B193     7","use_code":"70","geolocation":"POINT (-118.30907 33.7478)","status_date":"11/28/2011","permit_group":"Building","refresh_time":"06/10/2026","type_lat_lon":"ADDRESS","business_unit":"Regular Plan Check"},"geometry":{"type":"Point","coordinates":[-118.30907,33.7478]}},{"type":"Feature","properties":{"date":"2008-04-04T00:00:00.000Z","year":2008,"description":"SUPLEMENTAL TO PERMIT # 07016-40000-21867: TO INCLUDE WORK DESCRIPTION \"ADDITION OF THREE NEW BATHROOMS\"","metadescription":"Bldg-Alter/Repair. 1 or 2 Family Dwelling. SUPLEMENTAL TO PERMIT # 07016-40000-21867: TO INCLUDE WORK DESCRIPTION \"ADDITION OF THREE NEW BATHROOMS\". Permit Finaled. 2310 W PASEO DEL MAR","address":"2310 West Paseo Del Mar, CA, San Pedro, 90732, US","ct":"2974.00","ev":"N","hl":"YES","apc":"Harbor","cpa":"San Pedro","zone":"R1-1XL","solar":"N","pin_nbr":"009B185    26","use_code":"0","geolocation":"POINT (-118.3279 33.72206)","status_date":"04/21/2009","permit_group":"Building","refresh_time":"06/10/2026","type_lat_lon":"ADDRESS","business_unit":"Plan Check at Counter"},"geometry":{"type":"Point","coordinates":[-118.3279,33.72206]}},{"type":"Feature","properties":{"date":"2008-01-30T00:00:00.000Z","year":2008,"description":"remodel single family home by relocationg and adding new non-bearing walls","metadescription":"Bldg-Addition. 1 or 2 Family Dwelling. remodel single family home by relocationg and adding new non-bearing walls. CofO Issued. 2310 W PASEO DEL MAR","address":"2310 West Paseo Del Mar, CA, San Pedro, 90732, US","ct":"2974.00","ev":"N","hl":"YES","apc":"Harbor","cpa":"San Pedro","zone":"R1-1XL","solar":"N","pin_nbr":"009B185    26","use_code":"1","geolocation":"POINT (-118.3279 33.72206)","status_date":"04/27/2009","construction":"Type V-N Construction","permit_group":"Building","refresh_time":"06/10/2026","type_lat_lon":"ADDRESS","business_unit":"Plan Check at Counter","square_footage":"81"},"geometry":{"type":"Point","coordinates":[-118.3279,33.72206]}},{"type":"Feature","properties":{"date":"2007-09-18T00:00:00.000Z","year":2007,"description":"ONE STORY ADDITION AND INTERIOR REMODELING","metadescription":"Bldg-Addition. 1 or 2 Family Dwelling. ONE STORY ADDITION AND INTERIOR REMODELING. CofO Issued. 2327 W 37TH ST","address":"2327 West 37Th Street, CA, San Pedro, 90732, US","ct":"2974.00","ev":"N","hl":"EXEMPT","apc":"Harbor","cpa":"San Pedro","zone":"R1-1XL","solar":"N","pin_nbr":"009B185    10","use_code":"1","geolocation":"POINT (-118.32705 33.72338)","status_date":"05/28/2008","construction":"Type V-N Construction","permit_group":"Building","refresh_time":"06/10/2026","type_lat_lon":"ADDRESS","business_unit":"Appointment Plan Check","square_footage":"399"},"geometry":{"type":"Point","coordinates":[-118.32705,33.72338]}},{"type":"Feature","properties":{"date":"2007-08-10T00:00:00.000Z","year":2007,"description":"SUPPLEMENTAL TO  06010-10000-00183:  CREATE PUBLIC RESTROOM FOR SPA AREA [6' x 39'-3 1/2\"]","metadescription":"Bldg-Addition. Apartment. SUPPLEMENTAL TO  06010-10000-00183:  CREATE PUBLIC RESTROOM FOR SPA AREA [6' x 39'-3 1/2\"]. Permit Finaled. 28000 S WESTERN AVE","address":"28000 South Western Avenue, CA, San Pedro, 90732, US","ct":"2951.01","ev":"N","hl":"YES","apc":"Harbor","cpa":"Wilmington - Harbor City","zone":"(T)(Q)C2-2, R1-1VL","solar":"N","height":"64","pin_nbr":"027B193    85","use_code":"5","geolocation":"POINT (-118.31053 33.76568)","status_date":"05/09/2008","construction":"Type V-1HR Construction","permit_group":"Building","refresh_time":"06/10/2026","type_lat_lon":"ADDRESS","business_unit":"Plan Check at Counter","square_footage":"142997"},"geometry":{"type":"Point","coordinates":[-118.31053,33.76568]}},{"type":"Feature","properties":{"date":"2004-04-13T00:00:00.000Z","year":2004,"description":"open patio addition with 2x2 lattice at 12 in o.c.","metadescription":"Bldg-Addition. Apartment. open patio addition with 2x2 lattice at 12 in o.c.. Permit Finaled. 1315 W WESTMONT DR","address":"1315 Westmont Drive, CA, San Pedro, 90732, US","ct":"2951.01","ev":"N","hl":"YES","apc":"Harbor","cpa":"San Pedro","zone":"RD2-1XL","solar":"N","pin_nbr":"024B193    58","use_code":"23","geolocation":"POINT (-118.30446 33.76331)","status_date":"06/24/2004","construction":"Type V-N Construction","permit_group":"Building","refresh_time":"06/10/2026","type_lat_lon":"ADDRESS","business_unit":"Plan Check at Counter","square_footage":"134"},"geometry":{"type":"Point","coordinates":[-118.30446,33.76331]}},{"type":"Feature","properties":{"date":"2004-01-20T00:00:00.000Z","year":2004,"description":"1-story, 50' x 70'-8\" (3,564 sqft) addition to (E) retail building.","metadescription":"Bldg-Addition. Commercial. 1-story, 50' x 70'-8\" (3,564 sqft) addition to (E) retail building.. Permit Finaled. 810 N WESTERN AVE","address":"1379 West Park Western Drive, CA, San Pedro, 90732, US","ct":"2963.00","ev":"N","apc":"Harbor","cpa":"San Pedro","zone":"[Q] C2-1 XL","solar":"N","pin_nbr":"021B193   192","use_code":"16","geolocation":"POINT (-118.30694164 33.75239062)","status_date":"08/17/2004","construction":"Type V-N Construction","permit_group":"Building","refresh_time":"06/10/2026","type_lat_lon":"PIN","business_unit":"Regular Plan Check","square_footage":"3564"},"geometry":{"type":"Point","coordinates":[-118.30694164,33.75239062]}},{"type":"Feature","properties":{"date":"2003-09-30T00:00:00.000Z","year":2003,"description":"Addition of 5' x 20' (100 sqft) at 1st floor and 24' x 54' (948 sqft) at 2nd floor to (E) 1-story SFD.","metadescription":"Bldg-Addition. 1 or 2 Family Dwelling. Addition of 5' x 20' (100 sqft) at 1st floor and 24' x 54' (948 sqft) at 2nd floor to (E) 1-story SFD.. Permit Finaled. 2317 W WARMOUTH ST","address":"2317 Warmouth Street, CA, San Pedro, 90732, US","ct":"2974.00","ev":"N","hl":"YES","apc":"Harbor","cpa":"San Pedro","zone":"R1-1XL","solar":"N","pin_nbr":"009B185    61","use_code":"1","geolocation":"POINT (-118.32884 33.72099)","status_date":"01/17/2006","construction":"Type V-N Construction","permit_group":"Building","refresh_time":"06/10/2026","type_lat_lon":"ADDRESS","business_unit":"Regular Plan Check","square_footage":"1048"},"geometry":{"type":"Point","coordinates":[-118.32884,33.72099]}},{"type":"Feature","properties":{"date":"2003-02-03T00:00:00.000Z","year":2003,"description":"5'-8\" X 19'-6\" IRREGULAR ONE STORY ADDITION TO EXPAND DINING ROOM AND TO CONNECT EXISTING DETACHED GARAGE TO HOUSE (+ 80 SQ FT). REPLACE FRONT WINDOWS (SAME SIZE AND LOCATION). FRAME GABLE ROOF OVER EX'G SHED ROOF AT GARAGE. ADD PREFAB FIREPLACE IN LVG RM (see comments)","metadescription":"Bldg-Addition. 1 or 2 Family Dwelling. 5'-8\" X 19'-6\" IRREGULAR ONE STORY ADDITION TO EXPAND DINING ROOM AND TO CONNECT EXISTING DETACHED GARAGE TO HOUSE (+ 80 SQ FT). REPLACE FRONT WINDOWS (SAME SIZE AND LOCATION). FRAME GABLE ROOF OVER EX'G SHED ROOF AT GARAGE. ADD PREFAB FIREPLACE IN LVG RM (see comments). Permit Finaled. 2335 W 37TH ST","address":"2327 West 37Th Street, CA, San Pedro, 90732, US","ct":"2974.00","ev":"N","hl":"YES","apc":"Harbor","zone":"R1-1XL","solar":"N","pin_nbr":"009B185     8","use_code":"1","geolocation":"POINT (-118.32709 33.72354)","status_date":"06/08/2004","construction":"Type V-N Construction","permit_group":"Building","refresh_time":"06/10/2026","type_lat_lon":"ADDRESS","business_unit":"Plan Check at Counter","square_footage":"80"},"geometry":{"type":"Point","coordinates":[-118.32709,33.72354]}},{"type":"Feature","properties":{"date":"2001-08-01T00:00:00.000Z","year":2001,"description":"Remove Portion of Existing Covered walkway and Replace with a New Larger Covered Walkway. (Addition of 737 sq. ft. to existing building) Addition of two towers above existing roof. Interior T.I. Add 7 new parking stalls(3 stalls due to this adition & 4 new stalls to replace 4 stalls being removed due to trash enclosure)","metadescription":"Bldg-Addition. Commercial. Remove Portion of Existing Covered walkway and Replace with a New Larger Covered Walkway. (Addition of 737 sq. ft. to existing building) Addition of two towers above existing roof. Interior T.I. Add 7 new parking stalls(3 stalls due to this adition & 4 new stalls to replace 4 stalls being removed due to trash enclosure). Permit Finaled. 28190 S WESTERN AVE","address":"28090 South Western Avenue, CA, San Pedro, 90732, US","ct":"2951.00","ev":"N","hl":"YES","apc":"Harbor","zone":"C4-1XL, Q, P-1XL, [Q]C2-1XL","solar":"N","pin_nbr":"024B193     4","use_code":"16","geolocation":"POINT (-118.31015177 33.76495447)","status_date":"06/17/2002","construction":"Type V-N Construction","permit_group":"Building","refresh_time":"06/10/2026","type_lat_lon":"PIN","business_unit":"Regular Plan Check","square_footage":"737"},"geometry":{"type":"Point","coordinates":[-118.31015177,33.76495447]}},{"type":"Feature","properties":{"date":"2000-12-15T00:00:00.000Z","year":2000,"description":"ADD 1-STORY 85'x175' ADDITION (15,900 SQ.FT.) TO ENLARGE (E) 1-STORY 200'x175' MARKET (35,000 SQ.FT.). T.I. ON 1ST FLOOR AND MEZZANINE LEVEL.","metadescription":"Bldg-Addition. Commercial. ADD 1-STORY 85'x175' ADDITION (15,900 SQ.FT.) TO ENLARGE (E) 1-STORY 200'x175' MARKET (35,000 SQ.FT.). T.I. ON 1ST FLOOR AND MEZZANINE LEVEL.. Permit Finaled. 1050 N WESTERN AVE","address":"1050 North Western Avenue, CA, San Pedro, 90732, US","ct":"2963.00","ev":"N","hl":"N/A","apc":"Harbor","zone":"(Q)C2-1XL","solar":"N","pin_nbr":"021B193   140","use_code":"16","geolocation":"POINT (-118.30864 33.75276)","status_date":"08/07/2006","construction":"Type III-N Construction","permit_group":"Building","refresh_time":"06/10/2026","type_lat_lon":"ADDRESS","business_unit":"Regular Plan Check","square_footage":"53665"},"geometry":{"type":"Point","coordinates":[-118.30864,33.75276]}},{"type":"Feature","properties":{"date":"1998-09-23T00:00:00.000Z","year":1998,"description":"ADD AN 11'X12' LOFT","metadescription":"Bldg-Addition. Apartment. ADD AN 11'X12' LOFT. Permit Finaled. 1360 W CAPITOL DR #142","address":"1370 West Capitol Drive, CA, San Pedro, 90732, US","ct":"2963.00","ev":"N","hl":"YES","apc":"Harbor","zone":"R3-1VL, D","solar":"N","pin_nbr":"021B193    58","use_code":"35","geolocation":"POINT (-118.30724 33.7543)","status_date":"08/21/2001","permit_group":"Building","refresh_time":"06/10/2026","type_lat_lon":"ADDRESS","business_unit":"Plan Check at Counter","square_footage":"132"},"geometry":{"type":"Point","coordinates":[-118.30724,33.7543]}},{"type":"Feature","properties":{"date":"1998-07-22T00:00:00.000Z","year":1998,"description":"ADD CANOPY (12'8\"X46') ADJACENT TO SPACE #390. ( TI permit issued on 98016-10000-08873)","metadescription":"Bldg-Addition. Commercial. ADD CANOPY (12'8\"X46') ADJACENT TO SPACE #390. ( TI permit issued on 98016-10000-08873). Permit Finaled. 840 N WESTERN AVE #390","address":"840 North Western Avenue, CA, San Pedro, 90732, US","ct":"2963.00","ev":"N","hl":"YES","apc":"Harbor","zone":"C2-1XL, Q","solar":"N","pin_nbr":"021B193   193","use_code":"16","geolocation":"POINT (-118.30892 33.7504)","status_date":"03/14/2000","construction":"Type V-N Construction","permit_group":"Building","refresh_time":"06/10/2026","type_lat_lon":"ADDRESS","business_unit":"Appointment Plan Check","square_footage":"583"},"geometry":{"type":"Point","coordinates":[-118.30892,33.7504]}},{"type":"Feature","properties":{"date":"1997-04-22T00:00:00.000Z","year":1997,"description":"Addition to the garage potion of the dwelling creating another stall to the North side of building.","metadescription":"Bldg-Addition. 1 or 2 Family Dwelling. Addition to the garage potion of the dwelling creating another stall to the North side of building.. Permit Finaled. 2251 W AMIRANTE DR","address":"2249 Amirante Drive, CA, San Pedro, 90732, US","ct":"2974.00","ev":"N","hl":"Y","apc":"Harbor","zone":"R1-1XL","solar":"N","pin_nbr":"012B189    92","use_code":"1","geolocation":"POINT (-118.32571 33.72913)","status_date":"12/07/2006","construction":"Type V-N Construction","permit_group":"Building","refresh_time":"06/10/2026","type_lat_lon":"ADDRESS","business_unit":"Plan Check at Counter","square_footage":"0"},"geometry":{"type":"Point","coordinates":[-118.32571,33.72913]}}]}
