{"type":"FeatureCollection","features":[{"type":"Feature","properties":{"date":"2025-02-18T00:00:00.000Z","year":2025,"description":"EPLAN: REMODEL (E) MASTER BATHROOM OF UNIT # 360 . PER ENGINEER DESIGN.","metadescription":"Bldg-Alter/Repair. Apartment. EPLAN: REMODEL (E) MASTER BATHROOM OF UNIT # 360 . PER ENGINEER DESIGN.. Permit Finaled. 1424 W BRETT PL 360","address":"1424 Brett Place, CA, San Pedro, 90732, US","ct":"2963.00","ev":"N","hl":"YES","apc":"Harbor","cpa":"San Pedro","zone":"(Q)RD1.5-1VLD","solar":"N","pin_nbr":"021B193    26","use_code":"35","status_date":"08/19/2025","permit_group":"Building","refresh_time":"06/10/2026","type_lat_lon":"ADDRESS","business_unit":"Plan Check at Counter"},"geometry":{"type":"Point","coordinates":[-118.306,33.75585]}},{"type":"Feature","properties":{"date":"2024-10-01T00:00:00.000Z","year":2024,"description":"Eplan. Remodel of existing bathroom in condominium home","metadescription":"Bldg-Alter/Repair. 1 or 2 Family Dwelling. Eplan. Remodel of existing bathroom in condominium home. Permit Finaled. 1424 W BRETT PL 360","address":"1424 Brett Place, CA, San Pedro, 90732, US","ct":"2963.00","ev":"N","hl":"YES","apc":"Harbor","cpa":"San Pedro","zone":"(Q)RD1.5-1VLD","solar":"N","pin_nbr":"021B193    26","use_code":"35","status_date":"04/17/2025","permit_group":"Building","refresh_time":"06/10/2026","type_lat_lon":"ADDRESS","business_unit":"Plan Check at Counter"},"geometry":{"type":"Point","coordinates":[-118.306,33.75585]}},{"type":"Feature","properties":{"date":"2023-12-07T00:00:00.000Z","year":2023,"description":"REMODEL BOTH FLOORS OF  (E) 2-STORY SFD WITH GARAGE.","metadescription":"Bldg-Alter/Repair. 1 or 2 Family Dwelling. REMODEL BOTH FLOORS OF  (E) 2-STORY SFD WITH GARAGE.. Permit Finaled. 3713 S STARGAZER AVE","address":"3709 Stargazer Avenue, CA, San Pedro, 90732, US","ct":"2974.00","ev":"N","hl":"YES","apc":"Harbor","cpa":"San Pedro","zone":"R1-1XL","solar":"N","pin_nbr":"009B185    21","use_code":"1","status_date":"04/21/2026","permit_group":"Building","refresh_time":"06/10/2026","type_lat_lon":"ADDRESS","business_unit":"Expanded Counter Plan Check"},"geometry":{"type":"Point","coordinates":[-118.32711,33.72237]}},{"type":"Feature","properties":{"date":"2023-03-23T00:00:00.000Z","year":2023,"description":"INTERIOR NON-STRUCTURAL ALTERATION IN EXISTING CONDOMINIUM UNIT 201.  REMOVE EXISTING FLOORING, AND REPLACE WITH NEW VYNIL FLOORING.","metadescription":"Bldg-Alter/Repair. Apartment. INTERIOR NON-STRUCTURAL ALTERATION IN EXISTING CONDOMINIUM UNIT 201.  REMOVE EXISTING FLOORING, AND REPLACE WITH NEW VYNIL FLOORING.. Issued. 1418 W BRETT PL 201","address":"1414 Brett Place, CA, San Pedro, 90732, US","ct":"2963.00","ev":"N","hl":"YES","apc":"Harbor","cpa":"San Pedro","zone":"(Q)RD1.5-1VLD","solar":"N","pin_nbr":"021B193    26","use_code":"35","status_date":"03/23/2023","permit_group":"Building","refresh_time":"06/10/2026","type_lat_lon":"ADDRESS","business_unit":"Plan Check at Counter"},"geometry":{"type":"Point","coordinates":[-118.30595,33.75579]}},{"type":"Feature","properties":{"date":"2022-10-06T00:00:00.000Z","year":2022,"description":"eplan1. Remodel (E) Pool2. Build a (N) SPA*Plan checker to generate and check add'l applications*","metadescription":"Swimming-Pool/Spa. Apartment. eplan1. Remodel (E) Pool2. Build a (N) SPA*Plan checker to generate and check add'l applications*. Verifications in Progress. 2275 W 25TH ST","address":"2275 W 25TH ST","ct":"2974.00","ev":"N","hl":"YES","apc":"Harbor","cpa":"San Pedro","zone":"R1-1XL","solar":"N","pin_nbr":"012B189   353","use_code":"4","status_date":"11/15/2022","permit_group":"Building","refresh_time":"06/10/2026","type_lat_lon":"ADDRESS","business_unit":"Regular Plan Check"},"geometry":{"type":"Point","coordinates":[-118.3272,33.72714]}},{"type":"Feature","properties":{"date":"2021-10-06T00:00:00.000Z","year":2021,"description":"Interior remodel to install vinyl plank in living room, bedroom, hallway.","metadescription":"Bldg-Alter/Repair. Apartment. Interior remodel to install vinyl plank in living room, bedroom, hallway.. Permit Expired. 1418 W BRETT PL 304","address":"1414 Brett Place, CA, San Pedro, 90732, US","ct":"2963.00","ev":"N","hl":"YES","apc":"Harbor","cpa":"San Pedro","zone":"(Q)RD1.5-1VLD","solar":"N","pin_nbr":"021B193    26","use_code":"35","status_date":"05/21/2026","permit_group":"Building","refresh_time":"06/10/2026","type_lat_lon":"ADDRESS","business_unit":"Plan Check at Counter"},"geometry":{"type":"Point","coordinates":[-118.30595,33.75579]}},{"type":"Feature","properties":{"date":"2021-07-21T00:00:00.000Z","year":2021,"description":"INTERIOR/EXTERIOR ALTERATIN OF (E) SFD. REMODEL FULL KITCHEN REMODEL, CLOSING 1 WINDOW.  REMOVE FIREPLACE AND CHIMNEY.all work per Engr Design","metadescription":"Bldg-Alter/Repair. 1 or 2 Family Dwelling. INTERIOR/EXTERIOR ALTERATIN OF (E) SFD. REMODEL FULL KITCHEN REMODEL, CLOSING 1 WINDOW.  REMOVE FIREPLACE AND CHIMNEY.all work per Engr Design. Permit Finaled. 3815 S STARGAZER AVE","address":"3819 Stargazer Avenue, CA, San Pedro, 90732, US","ct":"2974.00","ev":"N","hl":"YES","apc":"Harbor","cpa":"San Pedro","zone":"R1-1XL","solar":"N","pin_nbr":"009B185    52","use_code":"1","status_date":"12/06/2021","permit_group":"Building","refresh_time":"06/10/2026","type_lat_lon":"ADDRESS","business_unit":"Plan Check at Counter"},"geometry":{"type":"Point","coordinates":[-118.32793,33.7212]}},{"type":"Feature","properties":{"date":"2021-07-14T00:00:00.000Z","year":2021,"description":"INTERIOR AND EXTERIOR REMODEL TO (E) SFD. PER ENGINEER'S CALCS.","metadescription":"Bldg-Alter/Repair. 1 or 2 Family Dwelling. INTERIOR AND EXTERIOR REMODEL TO (E) SFD. PER ENGINEER'S CALCS.. Permit Finaled. 2304 W PASEO DEL MAR","address":"2304 West Paseo Del Mar, CA, San Pedro, 90732, US","ct":"2974.00","ev":"N","hl":"YES","apc":"Harbor","cpa":"San Pedro","zone":"R1-1XL","solar":"N","pin_nbr":"009B185    31","use_code":"1","status_date":"10/20/2021","permit_group":"Building","refresh_time":"06/10/2026","type_lat_lon":"ADDRESS","business_unit":"Plan Check at Counter"},"geometry":{"type":"Point","coordinates":[-118.32768,33.72192]}},{"type":"Feature","properties":{"date":"2021-04-21T00:00:00.000Z","year":2021,"description":"PROPOSED STRUCTURAL ALTERATIONS FOR REPAIRING AND STRENGTHENING FOR EXISTING ROOF FRAMING.\"COMPLY WITH DEPARTMENT ORDER EFFECTIVE DATE 11/05/2020. PERMIT WILL EXPIRE 30 DAYS FROM ISSUANCE DATE\".","metadescription":"Bldg-Alter/Repair. Commercial. PROPOSED STRUCTURAL ALTERATIONS FOR REPAIRING AND STRENGTHENING FOR EXISTING ROOF FRAMING.\"COMPLY WITH DEPARTMENT ORDER EFFECTIVE DATE 11/05/2020. PERMIT WILL EXPIRE 30 DAYS FROM ISSUANCE DATE\".. Permit Finaled. 29050 S WESTERN AVE","address":"29050 South Western Avenue, CA, San Pedro, 90732, US","ct":"2963.00","ev":"N","hl":"YES","apc":"Harbor","cpa":"San Pedro","zone":"(Q)C2-1VLD","solar":"N","pin_nbr":"021B193    39","use_code":"16","status_date":"11/01/2021","permit_group":"Building","refresh_time":"06/10/2026","type_lat_lon":"PIN","business_unit":"Regular Plan Check"},"geometry":{"type":"Point","coordinates":[-118.30875089,33.75477294]}},{"type":"Feature","properties":{"date":"2021-02-08T00:00:00.000Z","year":2021,"description":"REMODEL THE (E) KITCHEN; LOWER THE PONY WALL BY APPROX. 6\",  REPLACE DRYWALL IN THE KITCHEN AS NEEDED & NEW FLOORING (STC 50 & IIC50 FLOOR-CEILING ASSEMBLY REQ).","metadescription":"Bldg-Alter/Repair. Apartment. REMODEL THE (E) KITCHEN; LOWER THE PONY WALL BY APPROX. 6\",  REPLACE DRYWALL IN THE KITCHEN AS NEEDED & NEW FLOORING (STC 50 & IIC50 FLOOR-CEILING ASSEMBLY REQ).. Permit Expired. 1424 W BRETT PL #251","address":"1424 Brett Place, CA, San Pedro, 90732, US","ct":"2963.00","ev":"N","hl":"YES","apc":"Harbor","cpa":"San Pedro","zone":"(Q)RD1.5-1VLD","solar":"N","pin_nbr":"021B193    26","use_code":"35","status_date":"05/21/2026","permit_group":"Building","refresh_time":"06/10/2026","type_lat_lon":"ADDRESS","business_unit":"Plan Check at Counter"},"geometry":{"type":"Point","coordinates":[-118.306,33.75585]}},{"type":"Feature","properties":{"date":"2020-10-01T00:00:00.000Z","year":2020,"description":"Interior remodel to an exisiting one story SFD with attached 3-car garage and basement. \"COMPLY WITH DEPARTMENT ORDER effective date 07/21/2020. PERMIT WILL EXPIRE 30 DAYS FROM ISSUANCE DATE\".","metadescription":"Bldg-Alter/Repair. 1 or 2 Family Dwelling. Interior remodel to an exisiting one story SFD with attached 3-car garage and basement. \"COMPLY WITH DEPARTMENT ORDER effective date 07/21/2020. PERMIT WILL EXPIRE 30 DAYS FROM ISSUANCE DATE\".. Permit Finaled. 2331 W WARMOUTH ST","address":"2323 Warmouth Street, CA, San Pedro, 90732, US","ct":"2974.00","ev":"N","hl":"YES","apc":"Harbor","cpa":"San Pedro","zone":"R1-1XL","solar":"N","pin_nbr":"009B185    56","use_code":"1","status_date":"09/21/2021","permit_group":"Building","refresh_time":"06/10/2026","type_lat_lon":"ADDRESS","business_unit":"Expanded Counter Plan Check"},"geometry":{"type":"Point","coordinates":[-118.32924,33.72113]}},{"type":"Feature","properties":{"date":"2020-09-18T00:00:00.000Z","year":2020,"description":"CHANGE OF USE OF EXISTING RETAIL (M OCC) TO PET STORE (M OCC), GROOMING (B OCC), AND VET CLINIC (B OCC). FULL SERVICE VET CLINIC INCLUDING EXAM ROOMS, TREATMENT ROOM, X-RAY ROOM, AND SURGERY ROOM. VET CLINIC FOR MINOR SAME-DAY PROCEDURES, NO OVERNIGHT STAYS. RELOCATION OF AQUATIC FIXTURES. TOTAL AREA OF WORK OF REMODEL 1872 SQFT.","metadescription":"Bldg-Alter/Repair. Commercial. CHANGE OF USE OF EXISTING RETAIL (M OCC) TO PET STORE (M OCC), GROOMING (B OCC), AND VET CLINIC (B OCC). FULL SERVICE VET CLINIC INCLUDING EXAM ROOMS, TREATMENT ROOM, X-RAY ROOM, AND SURGERY ROOM. VET CLINIC FOR MINOR SAME-DAY PROCEDURES, NO OVERNIGHT STAYS. RELOCATION OF AQUATIC FIXTURES. TOTAL AREA OF WORK OF REMODEL 1872 SQFT.. CofO Issued. 852 N WESTERN AVE","address":"976 North Western Avenue, CA, San Pedro, 90732, US","ct":"2963.00","ev":"N","hl":"YES","apc":"Harbor","cpa":"San Pedro","zone":"[Q]C2-1XL","solar":"N","pin_nbr":"021B193   193","use_code":"16","status_date":"12/30/2020","construction":"Type IV-H.T. Construction","permit_group":"Building","refresh_time":"06/10/2026","type_lat_lon":"PIN","business_unit":"Regular Plan Check","square_footage":"15254"},"geometry":{"type":"Point","coordinates":[-118.30765886,33.75103565]}},{"type":"Feature","properties":{"date":"2019-10-31T00:00:00.000Z","year":2019,"description":"NONSTRUCT INT REMODEL WITHIN EX BATHRM - REMOVE WALL ADJ TO SHOWER STALL TO ENLARGE THE EX SHOWER.","metadescription":"Bldg-Alter/Repair. Apartment. NONSTRUCT INT REMODEL WITHIN EX BATHRM - REMOVE WALL ADJ TO SHOWER STALL TO ENLARGE THE EX SHOWER.. Permit Finaled. 28006 S WESTERN AVE #259","address":"28006 South Western Avenue, CA, San Pedro, 90732, US","ct":"2951.03","ev":"N","hl":"YES","apc":"Harbor","cpa":"Wilmington - Harbor City","zone":"(Q)C2-2, R1-1VL","solar":"N","pin_nbr":"027B193   150","use_code":"5","geolocation":"POINT (-118.31055 33.76562)","status_date":"02/21/2020","permit_group":"Building","refresh_time":"06/10/2026","type_lat_lon":"ADDRESS","business_unit":"Plan Check at Counter"},"geometry":{"type":"Point","coordinates":[-118.31055,33.76562]}},{"type":"Feature","properties":{"date":"2019-10-15T00:00:00.000Z","year":2019,"description":"Bathroom (master) remodel for residential buildings (no structural changes).","metadescription":"Bldg-Alter/Repair. Apartment. Bathroom (master) remodel for residential buildings (no structural changes).. Permit Expired. 1424 W BRETT PL #254","address":"1424 Brett Place, CA, San Pedro, 90732, US","ct":"2963.00","ev":"N","hl":"YES","apc":"Harbor","cpa":"San Pedro","zone":"(Q)RD1.5-1VLD","solar":"N","pin_nbr":"021B193    26","use_code":"35","geolocation":"POINT (-118.306 33.75585)","status_date":"01/07/2026","permit_group":"Building","refresh_time":"06/10/2026","type_lat_lon":"ADDRESS","business_unit":"Express Permit"},"geometry":{"type":"Point","coordinates":[-118.306,33.75585]}},{"type":"Feature","properties":{"date":"2019-09-16T00:00:00.000Z","year":2019,"description":"(1) Bathroom remodel for residential buildings (no structural changes).","metadescription":"Bldg-Alter/Repair. Apartment. (1) Bathroom remodel for residential buildings (no structural changes).. Permit Expired. 1410 W BRETT PL UNIT#140","address":"1410 Brett Place, CA, San Pedro, 90732, US","ct":"2963.00","ev":"N","hl":"YES","apc":"Harbor","cpa":"San Pedro","zone":"(Q)RD1.5-1VLD","solar":"N","pin_nbr":"021B193    26","use_code":"5","geolocation":"POINT (-118.30592 33.75575)","status_date":"01/07/2026","permit_group":"Building","refresh_time":"06/10/2026","type_lat_lon":"ADDRESS","business_unit":"Express Permit"},"geometry":{"type":"Point","coordinates":[-118.30592,33.75575]}},{"type":"Feature","properties":{"date":"2019-09-16T00:00:00.000Z","year":2019,"description":"(1) Bathroom remodel for residential buildings (no structural changes).","metadescription":"Bldg-Alter/Repair. Apartment. (1) Bathroom remodel for residential buildings (no structural changes).. Permit Finaled. 1414 W BRETT PL UNIT#127","address":"1414 Brett Place, CA, San Pedro, 90732, US","ct":"2963.00","ev":"N","hl":"YES","apc":"Harbor","cpa":"San Pedro","zone":"(Q)RD1.5-1VLD","solar":"N","pin_nbr":"021B193    26","use_code":"5","geolocation":"POINT (-118.30594 33.75577)","status_date":"10/16/2019","permit_group":"Building","refresh_time":"06/10/2026","type_lat_lon":"ADDRESS","business_unit":"Express Permit"},"geometry":{"type":"Point","coordinates":[-118.30594,33.75577]}},{"type":"Feature","properties":{"date":"2019-08-28T00:00:00.000Z","year":2019,"description":"Bathroom remodel for residential buildings (no structural changes).","metadescription":"Bldg-Alter/Repair. Apartment. Bathroom remodel for residential buildings (no structural changes).. Permit Expired. 1410 W BRETT PL #331","address":"1410 Brett Place, CA, San Pedro, 90732, US","ct":"2963.00","ev":"N","hl":"YES","apc":"Harbor","cpa":"San Pedro","zone":"(Q)RD1.5-1VLD","solar":"N","pin_nbr":"021B193    26","use_code":"35","geolocation":"POINT (-118.30592 33.75575)","status_date":"01/07/2026","permit_group":"Building","refresh_time":"06/10/2026","type_lat_lon":"ADDRESS","business_unit":"Express Permit"},"geometry":{"type":"Point","coordinates":[-118.30592,33.75575]}},{"type":"Feature","properties":{"date":"2019-08-23T00:00:00.000Z","year":2019,"description":"Bathroom remodel for residential buildings (no structural changes).","metadescription":"Bldg-Alter/Repair. Apartment. Bathroom remodel for residential buildings (no structural changes).. Permit Expired. 1424 W BRETT PL #254","address":"1424 Brett Place, CA, San Pedro, 90732, US","ct":"2963.00","ev":"N","hl":"YES","apc":"Harbor","cpa":"San Pedro","zone":"(Q)RD1.5-1VLD","solar":"N","pin_nbr":"021B193    26","use_code":"35","geolocation":"POINT (-118.306 33.75585)","status_date":"01/07/2026","permit_group":"Building","refresh_time":"06/10/2026","type_lat_lon":"ADDRESS","business_unit":"Express Permit"},"geometry":{"type":"Point","coordinates":[-118.306,33.75585]}},{"type":"Feature","properties":{"date":"2019-06-20T00:00:00.000Z","year":2019,"description":"Interior kitchen remodel/repair (no changes in walls or openings).","metadescription":"Bldg-Alter/Repair. Apartment. Interior kitchen remodel/repair (no changes in walls or openings).. Permit Finaled. 2069 N STONEWOOD CT","address":"2069 Stonewood Court, CA, San Pedro, 90732, US","ct":"2951.03","ev":"N","hl":"YES","apc":"Harbor","cpa":"San Pedro","zone":"RD2-1XL","solar":"N","pin_nbr":"024B193     5","use_code":"1","geolocation":"POINT (-118.30837 33.76345)","status_date":"10/11/2019","permit_group":"Building","refresh_time":"06/10/2026","type_lat_lon":"ADDRESS","business_unit":"Express Permit"},"geometry":{"type":"Point","coordinates":[-118.30837,33.76345]}},{"type":"Feature","properties":{"date":"2019-05-10T00:00:00.000Z","year":2019,"description":"KITCHEN/BATHROOM REMODEL FOR RESIDENTIAL BUILDNGS (NO STRUCTURAL CHANGES).","metadescription":"Bldg-Alter/Repair. Apartment. KITCHEN/BATHROOM REMODEL FOR RESIDENTIAL BUILDNGS (NO STRUCTURAL CHANGES).. Permit Finaled. 27980 S WESTERN AVE #206","address":"27980 South Western Avenue, CA, San Pedro, 90732, US","ct":"2951.03","ev":"N","hl":"YES","apc":"Harbor","cpa":"Wilmington - Harbor City","zone":"R1-1VL","solar":"N","pin_nbr":"027B193    84","use_code":"35","geolocation":"POINT (-118.31061 33.76578)","status_date":"07/02/2019","permit_group":"Building","refresh_time":"06/10/2026","type_lat_lon":"ADDRESS","business_unit":"Express Permit"},"geometry":{"type":"Point","coordinates":[-118.31061,33.76578]}},{"type":"Feature","properties":{"date":"2019-04-30T00:00:00.000Z","year":2019,"description":"INT T.I. NEW RESTROOMS, LIGHTING, MILLWORK, FINISHES, ETC.., AND EXTERIOR ALTERATION REVISE PARAPET WALL","metadescription":"Bldg-Alter/Repair. Commercial. INT T.I. NEW RESTROOMS, LIGHTING, MILLWORK, FINISHES, ETC.., AND EXTERIOR ALTERATION REVISE PARAPET WALL. CofO Issued. 29050 S WESTERN AVE SUITES 113-123","address":"29035 South Western Avenue, CA, Rancho Palos Verdes, 90275, US","ct":"2963.00","ev":"N","hl":"YES","apc":"Harbor","cpa":"San Pedro","zone":"(Q)C2-1VLD","solar":"N","height":"22","pin_nbr":"021B193    39","use_code":"16","geolocation":"POINT (-118.30904 33.7545)","status_date":"07/18/2019","permit_group":"Building","refresh_time":"06/10/2026","type_lat_lon":"ADDRESS","business_unit":"Regular Plan Check"},"geometry":{"type":"Point","coordinates":[-118.30904,33.7545]}},{"type":"Feature","properties":{"date":"2019-04-18T00:00:00.000Z","year":2019,"description":"(2)/bathroom remodel for residential buildings (no structural changes).","metadescription":"Bldg-Alter/Repair. Apartment. (2)/bathroom remodel for residential buildings (no structural changes).. Permit Finaled. 28006 S WESTERN AVE","address":"28006 South Western Avenue, CA, San Pedro, 90732, US","ct":"2951.03","ev":"N","hl":"YES","apc":"Harbor","cpa":"Wilmington - Harbor City","zone":"(Q)C2-2, R1-1VL","solar":"N","pin_nbr":"027B193   150","use_code":"5","geolocation":"POINT (-118.31055 33.76562)","status_date":"02/21/2020","permit_group":"Building","refresh_time":"06/10/2026","type_lat_lon":"ADDRESS","business_unit":"Express Permit"},"geometry":{"type":"Point","coordinates":[-118.31055,33.76562]}},{"type":"Feature","properties":{"date":"2019-02-26T00:00:00.000Z","year":2019,"description":"Interior alteration to (E) condominium building to provide fire protection at (E) chimney.","metadescription":"Bldg-Alter/Repair. Apartment. Interior alteration to (E) condominium building to provide fire protection at (E) chimney.. Permit Finaled. 1424 W BRETT PL UNIT 249","address":"1424 Brett Place, CA, San Pedro, 90732, US","ct":"2963.00","ev":"N","hl":"YES","apc":"Harbor","cpa":"San Pedro","zone":"(Q)RD1.5-1VLD","solar":"N","pin_nbr":"024B193   590","use_code":"35","geolocation":"POINT (-118.306 33.75585)","status_date":"05/24/2019","permit_group":"Building","refresh_time":"06/10/2026","type_lat_lon":"ADDRESS","business_unit":"Plan Check at Counter"},"geometry":{"type":"Point","coordinates":[-118.306,33.75585]}},{"type":"Feature","properties":{"date":"2019-01-28T00:00:00.000Z","year":2019,"description":"Interior alteration to (E) two-story condo unit to divide existing bedroom into two bedrooms.  No change in parking.","metadescription":"Bldg-Alter/Repair. Apartment. Interior alteration to (E) two-story condo unit to divide existing bedroom into two bedrooms.  No change in parking.. Permit Finaled. 2131 N STONEWOOD CT","address":"2131 Stonewood Court, CA, San Pedro, 90732, US","ct":"2951.03","ev":"N","hl":"YES","apc":"Harbor","cpa":"San Pedro","zone":"RD2-1XL","solar":"N","pin_nbr":"024B193     5","use_code":"35","geolocation":"POINT (-118.30828 33.76407)","status_date":"06/17/2019","permit_group":"Building","refresh_time":"06/10/2026","type_lat_lon":"ADDRESS","business_unit":"Plan Check at Counter"},"geometry":{"type":"Point","coordinates":[-118.30828,33.76407]}},{"type":"Feature","properties":{"date":"2018-12-20T00:00:00.000Z","year":2018,"description":"Alteration to (E) garage to repair vehicle damage per engineered design. COMPLY WITH DEPARTMENT ORDER effective date 10/04/2018. PERMIT WILL EXPIRE 30 DAYS FROM ISSUANCE DATE","metadescription":"Bldg-Alter/Repair. Apartment. Alteration to (E) garage to repair vehicle damage per engineered design. COMPLY WITH DEPARTMENT ORDER effective date 10/04/2018. PERMIT WILL EXPIRE 30 DAYS FROM ISSUANCE DATE. Permit Finaled. 1352 W STONEWOOD CT","address":"1352 Stonewood Court, CA, San Pedro, 90732, US","ct":"2951.03","ev":"N","hl":"YES","apc":"Harbor","cpa":"San Pedro","zone":"RD2-1XL","solar":"N","pin_nbr":"024B193   198","use_code":"7","geolocation":"POINT (-118.30464 33.76149)","status_date":"12/27/2018","permit_group":"Building","refresh_time":"06/10/2026","type_lat_lon":"ADDRESS","business_unit":"Plan Check at Counter"},"geometry":{"type":"Point","coordinates":[-118.30464,33.76149]}},{"type":"Feature","properties":{"date":"2018-12-03T00:00:00.000Z","year":2018,"description":"PROPOSED INTERIOR ALTERATION TO RELOCATE ONE DOOR IN KITCHEN AREA","metadescription":"Bldg-Alter/Repair. Commercial. PROPOSED INTERIOR ALTERATION TO RELOCATE ONE DOOR IN KITCHEN AREA. Permit Finaled. 29050 N WESTERN AVE #100","address":"29050 South Western Avenue, CA, San Pedro, 90732, US","ct":"2963.00","ev":"N","hl":"YES","apc":"Harbor","cpa":"San Pedro","zone":"(Q)C2-1VLD","solar":"N","pin_nbr":"021B193    39","use_code":"17","geolocation":"POINT (-118.30875089 33.75477294)","status_date":"12/06/2018","permit_group":"Building","refresh_time":"06/10/2026","type_lat_lon":"PIN","business_unit":"Plan Check at Counter"},"geometry":{"type":"Point","coordinates":[-118.30875089,33.75477294]}},{"type":"Feature","properties":{"date":"2018-08-30T00:00:00.000Z","year":2018,"description":"Interior alteration to (E) SFD:  Kitchen and bathroom remodel on first floor.  \"COMPLY WITH DEPARTMENT ORDER effective date 08/27/2018. PERMIT WILL EXPIRE 30 DAYS FROM ISSUANCE DATE\"","metadescription":"Bldg-Alter/Repair. 1 or 2 Family Dwelling. Interior alteration to (E) SFD:  Kitchen and bathroom remodel on first floor.  \"COMPLY WITH DEPARTMENT ORDER effective date 08/27/2018. PERMIT WILL EXPIRE 30 DAYS FROM ISSUANCE DATE\". Permit Finaled. 2324 W 37TH ST","address":"2324 West 37Th Street, CA, San Pedro, 90732, US","ct":"2974.00","ev":"N","hl":"YES","apc":"Harbor","cpa":"San Pedro","zone":"R1-1XL","solar":"N","pin_nbr":"009B189   126","use_code":"1","geolocation":"POINT (-118.32674 33.72329)","status_date":"04/03/2019","permit_group":"Building","refresh_time":"06/10/2026","type_lat_lon":"ADDRESS","business_unit":"Plan Check at Counter"},"geometry":{"type":"Point","coordinates":[-118.32674,33.72329]}},{"type":"Feature","properties":{"date":"2018-08-24T00:00:00.000Z","year":2018,"description":"\"COMPLY WITH DEPARMENT ORDER EFFECTIVE 08/27/2018. PERMIT WILL EXPIRE 30 DAYS FROM ISSUANCE DATE\". KITCHEN/BATHROOM REMODEL PERMIT FOR RESIDENTIAL BUILDINGS (NO STRUCTURAL CHANGES) COMBINED WITH ELECTRICAL/PLUMBING.","metadescription":"Bldg-Alter/Repair. 1 or 2 Family Dwelling. \"COMPLY WITH DEPARMENT ORDER EFFECTIVE 08/27/2018. PERMIT WILL EXPIRE 30 DAYS FROM ISSUANCE DATE\". KITCHEN/BATHROOM REMODEL PERMIT FOR RESIDENTIAL BUILDINGS (NO STRUCTURAL CHANGES) COMBINED WITH ELECTRICAL/PLUMBING.. Permit Finaled. 2324 W 37TH ST","address":"2324 West 37Th Street, CA, San Pedro, 90732, US","ct":"2974.00","ev":"N","hl":"YES","apc":"Harbor","cpa":"San Pedro","zone":"R1-1XL","solar":"N","pin_nbr":"009B189   126","use_code":"1","geolocation":"POINT (-118.32674 33.72329)","status_date":"04/03/2019","permit_group":"Building","refresh_time":"06/10/2026","type_lat_lon":"ADDRESS","business_unit":"Express Permit"},"geometry":{"type":"Point","coordinates":[-118.32674,33.72329]}},{"type":"Feature","properties":{"date":"2018-08-02T00:00:00.000Z","year":2018,"description":"Kitchen remodel for residential buildings (no structural changes).","metadescription":"Bldg-Alter/Repair. Apartment. Kitchen remodel for residential buildings (no structural changes).. Permit Expired. 1414 W BRETT PL 243","address":"1414 Brett Place, CA, San Pedro, 90732, US","ct":"2963.00","ev":"N","hl":"YES","apc":"Harbor","cpa":"San Pedro","zone":"(Q)RD1.5-1VLD","solar":"N","pin_nbr":"021B193    26","use_code":"35","geolocation":"POINT (-118.30594 33.75577)","status_date":"01/07/2026","permit_group":"Building","refresh_time":"06/10/2026","type_lat_lon":"ADDRESS","business_unit":"Express Permit"},"geometry":{"type":"Point","coordinates":[-118.30594,33.75577]}},{"type":"Feature","properties":{"date":"2018-08-01T00:00:00.000Z","year":2018,"description":"BATHROOM REMODEL FOR RESIDENTIAL BUILDINGS (NO STRUCTURAL CHANGES).","metadescription":"Bldg-Alter/Repair. Apartment. BATHROOM REMODEL FOR RESIDENTIAL BUILDINGS (NO STRUCTURAL CHANGES).. Permit Finaled. 1424 W BRETT PL 355","address":"1424 Brett Place, CA, San Pedro, 90732, US","ct":"2963.00","ev":"N","hl":"YES","apc":"Harbor","cpa":"San Pedro","zone":"(Q)RD1.5-1VLD","solar":"N","pin_nbr":"021B193    26","use_code":"5","geolocation":"POINT (-118.306 33.75585)","status_date":"09/11/2018","permit_group":"Building","refresh_time":"06/10/2026","type_lat_lon":"ADDRESS","business_unit":"Express Permit"},"geometry":{"type":"Point","coordinates":[-118.306,33.75585]}},{"type":"Feature","properties":{"date":"2018-07-06T00:00:00.000Z","year":2018,"description":"BATHROOM REMODEL-REPAIR/REPLACE ONLY. FOR RESIDENTIAL BUILDINGS (NO STRUCTURAL CHANGES). COMBINED WITH ELECTRICAL & PLUMBING.DRYWALL/PLASTER PATCH & PAINT.","metadescription":"Bldg-Alter/Repair. Apartment. BATHROOM REMODEL-REPAIR/REPLACE ONLY. FOR RESIDENTIAL BUILDINGS (NO STRUCTURAL CHANGES). COMBINED WITH ELECTRICAL & PLUMBING.DRYWALL/PLASTER PATCH & PAINT.. Permit Finaled. 1410 W BRETT PL #134","address":"1410 Brett Place, CA, San Pedro, 90732, US","ct":"2963.00","ev":"N","hl":"YES","apc":"Harbor","cpa":"San Pedro","zone":"(Q)RD1.5-1VLD","solar":"N","pin_nbr":"021B193    26","use_code":"35","geolocation":"POINT (-118.30592 33.75575)","status_date":"10/05/2018","permit_group":"Building","refresh_time":"06/10/2026","type_lat_lon":"ADDRESS","business_unit":"Express Permit"},"geometry":{"type":"Point","coordinates":[-118.30592,33.75575]}},{"type":"Feature","properties":{"date":"2018-05-25T00:00:00.000Z","year":2018,"description":"Bathroom (1 ) remodel for residential buildings (no structural changes).","metadescription":"Bldg-Alter/Repair. 1 or 2 Family Dwelling. Bathroom (1 ) remodel for residential buildings (no structural changes).. Permit Finaled. 3815 S STARGAZER AVE","address":"3819 Stargazer Avenue, CA, San Pedro, 90732, US","ct":"2974.00","ev":"N","hl":"YES","apc":"Harbor","cpa":"San Pedro","zone":"R1-1XL","solar":"N","pin_nbr":"009B185    52","use_code":"1","geolocation":"POINT (-118.32793 33.7212)","status_date":"07/05/2018","permit_group":"Building","refresh_time":"06/10/2026","type_lat_lon":"ADDRESS","business_unit":"Express Permit"},"geometry":{"type":"Point","coordinates":[-118.32793,33.7212]}},{"type":"Feature","properties":{"date":"2018-04-26T00:00:00.000Z","year":2018,"description":"(2) Bathroom remodel for residential buildings (no structural changes","metadescription":"Bldg-Alter/Repair. Apartment. (2) Bathroom remodel for residential buildings (no structural changes. Permit Finaled. 1445 W BRETT PL Unit 122","address":"1441 Brett Place, CA, San Pedro, 90732, US","ct":"2963.00","ev":"N","hl":"YES","apc":"Harbor","cpa":"San Pedro","zone":"R3-1VLD","solar":"N","pin_nbr":"021B193    31","use_code":"5","geolocation":"POINT (-118.30869 33.75651)","status_date":"12/31/2018","permit_group":"Building","refresh_time":"06/10/2026","type_lat_lon":"ADDRESS","business_unit":"Express Permit"},"geometry":{"type":"Point","coordinates":[-118.30869,33.75651]}},{"type":"Feature","properties":{"date":"2018-01-24T00:00:00.000Z","year":2018,"description":"BATHROOM & KITCHEN REMODEL (FOR RESIDENTIAL BUILDINGS; NO STRUCTURAL CHANGES). DRYWALL/PLASTER PATCH AND PAINT.","metadescription":"Bldg-Alter/Repair. Commercial. BATHROOM & KITCHEN REMODEL (FOR RESIDENTIAL BUILDINGS; NO STRUCTURAL CHANGES). DRYWALL/PLASTER PATCH AND PAINT.. Permit Finaled. 1418 W BRETT PL #322","address":"1414 Brett Place, CA, San Pedro, 90732, US","ct":"2963.00","ev":"N","hl":"Yes","apc":"Harbor","cpa":"San Pedro","zone":"(Q)RD1.5-1VLD","solar":"N","pin_nbr":"021B193    26","use_code":"35","geolocation":"POINT (-118.30595 33.75579)","status_date":"07/06/2018","permit_group":"Building","refresh_time":"06/10/2026","type_lat_lon":"ADDRESS","business_unit":"Express Permit"},"geometry":{"type":"Point","coordinates":[-118.30595,33.75579]}},{"type":"Feature","properties":{"date":"2017-11-29T00:00:00.000Z","year":2017,"description":"RESIDENTIAL KITCHEN REMODEL-REPAIR/REPLACE ONLY  NO CHANGES IN WALLS OR OPENINGS.","metadescription":"Bldg-Alter/Repair. Apartment. RESIDENTIAL KITCHEN REMODEL-REPAIR/REPLACE ONLY  NO CHANGES IN WALLS OR OPENINGS.. Permit Finaled. 1414 W BRETT PL #230","address":"1414 Brett Place, CA, San Pedro, 90732, US","ct":"2963.00","ev":"N","hl":"Yes","apc":"Harbor","cpa":"San Pedro","zone":"(Q)RD1.5-1VLD","solar":"N","pin_nbr":"021B193    26","use_code":"35","geolocation":"POINT (-118.30594 33.75577)","status_date":"04/09/2019","permit_group":"Building","refresh_time":"06/10/2026","type_lat_lon":"ADDRESS","business_unit":"Express Permit"},"geometry":{"type":"Point","coordinates":[-118.30594,33.75577]}},{"type":"Feature","properties":{"date":"2017-06-29T00:00:00.000Z","year":2017,"description":"KITCHEN REMODEL FOR RESIDENTIAL BUILDINGS (NO STRUCTURAL CHANGES).","metadescription":"Bldg-Alter/Repair. Apartment. KITCHEN REMODEL FOR RESIDENTIAL BUILDINGS (NO STRUCTURAL CHANGES).. Permit Finaled. 27980 S WESTERN AVE #321","address":"27980 South Western Avenue, CA, San Pedro, 90732, US","ct":"2951.03","ev":"N","hl":"Yes","apc":"Harbor","cpa":"Wilmington - Harbor City","zone":"R1-1VL","solar":"N","pin_nbr":"027B193    84","use_code":"35","geolocation":"POINT (-118.31061 33.76578)","status_date":"09/01/2017","permit_group":"Building","refresh_time":"06/10/2026","type_lat_lon":"ADDRESS","business_unit":"Express Permit"},"geometry":{"type":"Point","coordinates":[-118.31061,33.76578]}},{"type":"Feature","properties":{"date":"2017-04-24T00:00:00.000Z","year":2017,"description":"(2) BATHROOM REMODEL WITH PLUMBING(FOR RESIDENTIAL BUILDINGS; NO STRUCTURAL CHANGES). CHANGE OUT 16 (SAME SIZE & TYPE FOR RESIDENTIAL BUILDINGS ONLY) DUAL GLAZING, LABELED AND CERTIFIED BY NATIONAL FENESTRATION RATING COUNCIL (NFRC), IS REQUIRED FOR DOORS AND WINDOWS REPLACED IN ALL RESIDENTIAL BUILDING, THREE STORIES OR LESS, PER SECTION 152(B) OF TITLE 24. COMPLY WITH DEPARTMENT ORDER EFFECTIVE DATE 05/18/17. PERMIT WILL EXPIRE 30 DAYS FROM ISSUANCE DATE.","metadescription":"Bldg-Alter/Repair. 1 or 2 Family Dwelling. (2) BATHROOM REMODEL WITH PLUMBING(FOR RESIDENTIAL BUILDINGS; NO STRUCTURAL CHANGES). CHANGE OUT 16 (SAME SIZE & TYPE FOR RESIDENTIAL BUILDINGS ONLY) DUAL GLAZING, LABELED AND CERTIFIED BY NATIONAL FENESTRATION RATING COUNCIL (NFRC), IS REQUIRED FOR DOORS AND WINDOWS REPLACED IN ALL RESIDENTIAL BUILDING, THREE STORIES OR LESS, PER SECTION 152(B) OF TITLE 24. COMPLY WITH DEPARTMENT ORDER EFFECTIVE DATE 05/18/17. PERMIT WILL EXPIRE 30 DAYS FROM ISSUANCE DATE.. Permit Finaled. 2262 W AMIRANTE DR","address":"2262 Amirante Drive, CA, San Pedro, 90732, US","ct":"2974.00","ev":"N","hl":"YES","apc":"Harbor","cpa":"San Pedro","zone":"R1-1XL","solar":"N","pin_nbr":"012B189    45","use_code":"1","geolocation":"POINT (-118.32575 33.7293)","status_date":"12/06/2017","permit_group":"Building","refresh_time":"06/10/2026","type_lat_lon":"ADDRESS","business_unit":"Express Permit"},"geometry":{"type":"Point","coordinates":[-118.32575,33.7293]}},{"type":"Feature","properties":{"date":"2017-03-28T00:00:00.000Z","year":2017,"description":"KITCHEN AND BATHROOM REMODEL  (FOR RESIDENTIAL BUILDINGS; NO STRUCTURAL CHANGES). DRYWALL/PLASTER PATCH AND PAINT.  CHANGE OUT 2 WINDOWS AND 6 DOORS  (SAME SIZE & TYPE FOR RESIDENTIAL BUILDINGS ONLY) DUAL GLAZING, LABELED AND CERTIFIED BY NATIONAL FENESTRATION RATING COUNCIL (NFRC), IS REQUIRED FOR DOORS AND WINDOWS REPLACED IN ALL RESIDENTIAL BUILDING, THREE STORIES OR LESS, PER SECTION 152(B) OF TITLE 24.","metadescription":"Bldg-Alter/Repair. Commercial. KITCHEN AND BATHROOM REMODEL  (FOR RESIDENTIAL BUILDINGS; NO STRUCTURAL CHANGES). DRYWALL/PLASTER PATCH AND PAINT.  CHANGE OUT 2 WINDOWS AND 6 DOORS  (SAME SIZE & TYPE FOR RESIDENTIAL BUILDINGS ONLY) DUAL GLAZING, LABELED AND CERTIFIED BY NATIONAL FENESTRATION RATING COUNCIL (NFRC), IS REQUIRED FOR DOORS AND WINDOWS REPLACED IN ALL RESIDENTIAL BUILDING, THREE STORIES OR LESS, PER SECTION 152(B) OF TITLE 24.. Permit Finaled. 1414 W BRETT PL #248","address":"1414 Brett Place, CA, San Pedro, 90732, US","ct":"2963.00","ev":"N","hl":"YES","apc":"Harbor","cpa":"San Pedro","zone":"(Q)RD1.5-1VLD","solar":"N","pin_nbr":"021B193    26","use_code":"35","geolocation":"POINT (-118.30594 33.75577)","status_date":"01/05/2018","permit_group":"Building","refresh_time":"06/10/2026","type_lat_lon":"ADDRESS","business_unit":"Express Permit"},"geometry":{"type":"Point","coordinates":[-118.30594,33.75577]}},{"type":"Feature","properties":{"date":"2016-12-30T00:00:00.000Z","year":2016,"description":"Remodel existing bedroom and living room.  Remove existing laminated floor and replace with new floor with cork backing.","metadescription":"Bldg-Alter/Repair. Apartment. Remodel existing bedroom and living room.  Remove existing laminated floor and replace with new floor with cork backing.. Permit Finaled. 1418 W BRETT PL","address":"1414 Brett Place, CA, San Pedro, 90732, US","ct":"2963.00","ev":"N","hl":"YES","apc":"Harbor","cpa":"San Pedro","zone":"(Q)RD1.5-1VLD","solar":"N","pin_nbr":"021B193    26","use_code":"35","geolocation":"POINT (-118.30595 33.75579)","status_date":"07/31/2018","permit_group":"Building","refresh_time":"06/10/2026","type_lat_lon":"ADDRESS","business_unit":"Plan Check at Counter"},"geometry":{"type":"Point","coordinates":[-118.30595,33.75579]}},{"type":"Feature","properties":{"date":"2016-12-09T00:00:00.000Z","year":2016,"description":"Interior tenant remodel in existing Albertson Store.No change in floor area and parking.","metadescription":"Bldg-Alter/Repair. Commercial. Interior tenant remodel in existing Albertson Store.No change in floor area and parking.. Permit Finaled. 28090 S WESTERN AVE","address":"28090 South Western Avenue, CA, San Pedro, 90732, US","ct":"2951.03","ev":"N","hl":"YES","apc":"Harbor","cpa":"San Pedro","zone":"P-1XL, [Q]C2-1XL, [Q]C4-1XL","solar":"N","pin_nbr":"024B193     4","use_code":"16","geolocation":"POINT (-118.31014 33.76533)","status_date":"02/02/2017","construction":"Type III-B Construction","permit_group":"Building","refresh_time":"06/10/2026","type_lat_lon":"ADDRESS","business_unit":"Regular Plan Check"},"geometry":{"type":"Point","coordinates":[-118.31014,33.76533]}},{"type":"Feature","properties":{"date":"2016-11-29T00:00:00.000Z","year":2016,"description":"NONSTRUCT INT REMODEL, REMOVE & REPLACE EXISTING STOREFRONT DOOR: \"CHANGE USE FROM OFFICE TO MASSAGE PARLOR WHERE ANY PERSON WHO PROVIDES MASSAGE SERVICES AT THIS PREMISE SHALL BE CERTIFIED AS A MASSAGE THERAPIST OR A MASSAGE PRACTITIONER PURSUANT TO CALIFORNIA BUSINESS AND PROFESSIONS SECTION 4600 ET SEQ.\"","metadescription":"Bldg-Alter/Repair. Commercial. NONSTRUCT INT REMODEL, REMOVE & REPLACE EXISTING STOREFRONT DOOR: \"CHANGE USE FROM OFFICE TO MASSAGE PARLOR WHERE ANY PERSON WHO PROVIDES MASSAGE SERVICES AT THIS PREMISE SHALL BE CERTIFIED AS A MASSAGE THERAPIST OR A MASSAGE PRACTITIONER PURSUANT TO CALIFORNIA BUSINESS AND PROFESSIONS SECTION 4600 ET SEQ.\". CofO Issued. 928 N WESTERN AVE","address":"928 North Western Avenue, CA, San Pedro, 90732, US","ct":"2963.00","ev":"N","hl":"YES","apc":"Harbor","cpa":"San Pedro","zone":"(Q)C2-1XL","solar":"N","pin_nbr":"021B193   193","use_code":"16","geolocation":"POINT (-118.30884 33.75089)","status_date":"05/11/2017","permit_group":"Building","refresh_time":"06/10/2026","type_lat_lon":"ADDRESS","business_unit":"Regular Plan Check","square_footage":"4130"},"geometry":{"type":"Point","coordinates":[-118.30884,33.75089]}},{"type":"Feature","properties":{"date":"2016-11-21T00:00:00.000Z","year":2016,"description":"Bathroom (1) remodel for residential buildings (no structural changes).","metadescription":"Bldg-Alter/Repair. Apartment. Bathroom (1) remodel for residential buildings (no structural changes).. Permit Finaled. 28006 S WESTERN AVE #170","address":"28006 South Western Avenue, CA, San Pedro, 90732, US","ct":"2951.03","ev":"N","hl":"YES","apc":"Harbor","cpa":"Wilmington - Harbor City","zone":"(Q)C2-2, R1-1VL","solar":"N","pin_nbr":"027B193   150","use_code":"5","geolocation":"POINT (-118.31055 33.76562)","status_date":"02/26/2018","permit_group":"Building","refresh_time":"06/10/2026","type_lat_lon":"ADDRESS","business_unit":"Express Permit"},"geometry":{"type":"Point","coordinates":[-118.31055,33.76562]}},{"type":"Feature","properties":{"date":"2016-10-20T00:00:00.000Z","year":2016,"description":"BATHROOM REMODEL (FOR RESIDENTIAL BUILDINGS; NO STRUCTURAL CHANGES).","metadescription":"Bldg-Alter/Repair. Apartment. BATHROOM REMODEL (FOR RESIDENTIAL BUILDINGS; NO STRUCTURAL CHANGES).. Permit Finaled. 1448 W BRETT PL #41","address":"1448 Brett Place, CA, San Pedro, 90732, US","ct":"2963.00","ev":"N","hl":"YES","apc":"Harbor","cpa":"San Pedro","zone":"(Q)RD1.5-1VLD","solar":"N","pin_nbr":"024B193   588","use_code":"1","geolocation":"POINT (-118.30867 33.75681)","status_date":"12/27/2016","permit_group":"Building","refresh_time":"06/10/2026","type_lat_lon":"ADDRESS","business_unit":"Express Permit"},"geometry":{"type":"Point","coordinates":[-118.30867,33.75681]}},{"type":"Feature","properties":{"date":"2016-10-05T00:00:00.000Z","year":2016,"description":"Bathroom remodel for residential buildings (no structural changes).","metadescription":"Bldg-Alter/Repair. Apartment. Bathroom remodel for residential buildings (no structural changes).. Permit Finaled. 1605 W WESTMONT DR","address":"1605 Westmont Drive, CA, San Pedro, 90732, US","ct":"2951.03","ev":"N","hl":"YES","apc":"Harbor","cpa":"San Pedro","zone":"RD2-1XL","solar":"N","pin_nbr":"024B193   154","use_code":"5","geolocation":"POINT (-118.30628 33.76299)","status_date":"02/17/2017","permit_group":"Building","refresh_time":"06/10/2026","type_lat_lon":"ADDRESS","business_unit":"Express Permit"},"geometry":{"type":"Point","coordinates":[-118.30628,33.76299]}},{"type":"Feature","properties":{"date":"2016-09-13T00:00:00.000Z","year":2016,"description":"BATHROOM REMODEL (FOR RESIDENTIAL BUILDINGS; NO STRUCTURAL CHANGES).DRYWALL/PLASTER PATCH AND PAINT.","metadescription":"Bldg-Alter/Repair. Commercial. BATHROOM REMODEL (FOR RESIDENTIAL BUILDINGS; NO STRUCTURAL CHANGES).DRYWALL/PLASTER PATCH AND PAINT.. Permit Finaled. 2068 N STONEWOOD CT","address":"2068 Stonewood Court, CA, San Pedro, 90732, US","ct":"2951.03","ev":"N","hl":"YES","apc":"Harbor","cpa":"San Pedro","zone":"RD2-1XL","solar":"N","pin_nbr":"024B193    58","use_code":"35","geolocation":"POINT (-118.30795 33.76385)","status_date":"11/10/2016","permit_group":"Building","refresh_time":"06/10/2026","type_lat_lon":"ADDRESS","business_unit":"Express Permit"},"geometry":{"type":"Point","coordinates":[-118.30795,33.76385]}},{"type":"Feature","properties":{"date":"2016-08-31T00:00:00.000Z","year":2016,"description":"(2) BATHROOM REMODEL (FOR RESIDENTIAL BUILDINGS; NO STRUCTURAL CHANGES).","metadescription":"Bldg-Alter/Repair. Apartment. (2) BATHROOM REMODEL (FOR RESIDENTIAL BUILDINGS; NO STRUCTURAL CHANGES).. Permit Finaled. 1634 W STONEWOOD CT","address":"1634 Stonewood Court, CA, San Pedro, 90732, US","ct":"2951.03","ev":"N","hl":"YES","apc":"Harbor","cpa":"San Pedro","zone":"RD2-1XL","solar":"N","pin_nbr":"024B193   153","use_code":"35","geolocation":"POINT (-118.30843 33.76203)","status_date":"02/17/2017","permit_group":"Building","refresh_time":"06/10/2026","type_lat_lon":"ADDRESS","business_unit":"Express Permit"},"geometry":{"type":"Point","coordinates":[-118.30843,33.76203]}},{"type":"Feature","properties":{"date":"2016-07-11T00:00:00.000Z","year":2016,"description":"BATHROOM REMODEL (FOR RESIDENTIAL BUILDINGS; NO STRUCTURAL CHANGES).","metadescription":"Bldg-Alter/Repair. Commercial. BATHROOM REMODEL (FOR RESIDENTIAL BUILDINGS; NO STRUCTURAL CHANGES).. Permit Finaled. 1360 W CAPITOL DR #131","address":"1370 West Capitol Drive, CA, San Pedro, 90732, US","ct":"2963.00","ev":"N","hl":"YES","apc":"Harbor","cpa":"San Pedro","zone":"R3-1VLD","solar":"N","pin_nbr":"021B193    58","use_code":"35","geolocation":"POINT (-118.30724 33.7543)","status_date":"09/30/2016","permit_group":"Building","refresh_time":"06/10/2026","type_lat_lon":"ADDRESS","business_unit":"Express Permit"},"geometry":{"type":"Point","coordinates":[-118.30724,33.7543]}},{"type":"Feature","properties":{"date":"2016-02-10T00:00:00.000Z","year":2016,"description":"KITCHEN AND 2 BATHROOM REMODEL (FOR RESIDENTIAL BUILDINGS; NO STRUCTURAL CHANGES).","metadescription":"Bldg-Alter/Repair. Commercial. KITCHEN AND 2 BATHROOM REMODEL (FOR RESIDENTIAL BUILDINGS; NO STRUCTURAL CHANGES).. Permit Finaled. 28006 S WESTERN AVE #254","address":"28006 South Western Avenue, CA, San Pedro, 90732, US","ct":"2951.03","ev":"N","hl":"YES","apc":"Harbor","cpa":"Wilmington - Harbor City","zone":"(Q)C2-2, R1-1VL","solar":"N","pin_nbr":"027B193   150","use_code":"35","geolocation":"POINT (-118.31055 33.76562)","status_date":"04/14/2016","permit_group":"Building","refresh_time":"06/10/2026","type_lat_lon":"ADDRESS","business_unit":"Express Permit"},"geometry":{"type":"Point","coordinates":[-118.31055,33.76562]}},{"type":"Feature","properties":{"date":"2016-02-10T00:00:00.000Z","year":2016,"description":"KITCHEN AND BATHROOM REMODEL  (FOR RESIDENTIAL BUILDINGS; NO STRUCTURAL CHANGES).","metadescription":"Bldg-Alter/Repair. Apartment. KITCHEN AND BATHROOM REMODEL  (FOR RESIDENTIAL BUILDINGS; NO STRUCTURAL CHANGES).. Permit Expired. 1410 W BRETT PL #340","address":"1410 Brett Place, CA, San Pedro, 90732, US","ct":"2963.00","ev":"N","hl":"YES","apc":"Harbor","cpa":"San Pedro","zone":"(Q)RD1.5-1VLD","solar":"N","pin_nbr":"021B193    26","use_code":"35","geolocation":"POINT (-118.30592 33.75575)","status_date":"03/12/2018","permit_group":"Building","refresh_time":"06/10/2026","type_lat_lon":"ADDRESS","business_unit":"Express Permit"},"geometry":{"type":"Point","coordinates":[-118.30592,33.75575]}},{"type":"Feature","properties":{"date":"2016-01-11T00:00:00.000Z","year":2016,"description":"BATHROOM REMODEL (FOR RESIDENTIAL BUILDINGS; NO STRUCTURAL CHANGES).","metadescription":"Bldg-Alter/Repair. Commercial. BATHROOM REMODEL (FOR RESIDENTIAL BUILDINGS; NO STRUCTURAL CHANGES).. Permit Finaled. 28004 S WESTERN AVE #113","address":"28004 South Western Avenue, CA, San Pedro, 90732, US","ct":"2951.03","ev":"N","hl":"YES","apc":"Harbor","cpa":"Wilmington - Harbor City","zone":"(Q)C2-2, R1-1VL","solar":"N","pin_nbr":"027B193   150","use_code":"35","geolocation":"POINT (-118.31054 33.76565)","status_date":"11/09/2016","permit_group":"Building","refresh_time":"06/10/2026","type_lat_lon":"ADDRESS","business_unit":"Express Permit"},"geometry":{"type":"Point","coordinates":[-118.31054,33.76565]}},{"type":"Feature","properties":{"date":"2015-12-16T00:00:00.000Z","year":2015,"description":"BATHROOM REMODEL COMBINED WITH ELECTRICAL AND PLUMBING  (FOR RESIDENTIAL BUILDINGS; NO STRUCTURAL CHANGES). TILE WORK AND REPLACE SINK, BATHRUB, CABINETS AND TOILET.","metadescription":"Bldg-Alter/Repair. Commercial. BATHROOM REMODEL COMBINED WITH ELECTRICAL AND PLUMBING  (FOR RESIDENTIAL BUILDINGS; NO STRUCTURAL CHANGES). TILE WORK AND REPLACE SINK, BATHRUB, CABINETS AND TOILET.. Permit Finaled. 1440 W BRETT PL #64","address":"1440 Brett Place, CA, San Pedro, 90732, US","ct":"2963.00","ev":"N","hl":"YES","apc":"Harbor","cpa":"San Pedro","zone":"(Q)RD1.5-1VLD","solar":"N","pin_nbr":"024B193   588","use_code":"35","geolocation":"POINT (-118.30852 33.7568)","status_date":"04/12/2016","permit_group":"Building","refresh_time":"06/10/2026","type_lat_lon":"ADDRESS","business_unit":"Express Permit"},"geometry":{"type":"Point","coordinates":[-118.30852,33.7568]}},{"type":"Feature","properties":{"date":"2015-08-14T00:00:00.000Z","year":2015,"description":"BATHROOM REMODEL (FOR RESIDENTIAL BUILDINGS; NO STRUCTURAL CHANGES).","metadescription":"Bldg-Alter/Repair. Apartment. BATHROOM REMODEL (FOR RESIDENTIAL BUILDINGS; NO STRUCTURAL CHANGES).. Permit Expired. 1424 W BRETT PL 252","address":"1424 Brett Place, CA, San Pedro, 90732, US","ct":"2963.00","ev":"N","hl":"YES","apc":"Harbor","cpa":"San Pedro","zone":"(Q)RD1.5-1VLD","solar":"N","pin_nbr":"021B193    26","use_code":"5","geolocation":"POINT (-118.306 33.75585)","status_date":"09/08/2017","permit_group":"Building","refresh_time":"06/10/2026","type_lat_lon":"ADDRESS","business_unit":"Express Permit"},"geometry":{"type":"Point","coordinates":[-118.306,33.75585]}},{"type":"Feature","properties":{"date":"2015-07-16T00:00:00.000Z","year":2015,"description":"REMODEL OF AN EXISTING CONDO UNIT","metadescription":"Bldg-Alter/Repair. Apartment. REMODEL OF AN EXISTING CONDO UNIT. Permit Finaled. 2048 N STONEWOOD CT","address":"2048 Stonewood Court, CA, San Pedro, 90732, US","ct":"2951.03","ev":"N","hl":"YES","apc":"Harbor","cpa":"San Pedro","zone":"RD2-1XL","solar":"N","pin_nbr":"024B193    58","use_code":"35","geolocation":"POINT (-118.30797 33.76356)","status_date":"10/16/2015","permit_group":"Building","refresh_time":"06/10/2026","type_lat_lon":"ADDRESS","business_unit":"Plan Check at Counter"},"geometry":{"type":"Point","coordinates":[-118.30797,33.76356]}},{"type":"Feature","properties":{"date":"2015-07-10T00:00:00.000Z","year":2015,"description":"CHANGE OUT 9 WINDOWNS AND 6 DOORS  (SAME SIZE & TYPE FOR RESIDENTIAL BUILDINGS ONLY) DUAL GLAZING, LABELED AND CERTIFIED BY NATIONAL FENESTRATION RATING COUNCIL (NFRC), IS REQUIRED FOR DOORS AND WINDOWS REPLACED IN ALL RESIDENTIAL BUILDINGS, THREE STORIES OR LESS, PER SECTION 152(B) OF TITLE 24. NEW STUCCO, REPLACE DRYWALL (NO NEW WALLS ADDED) SPECIFIC LOCATION: EXTERIOR OF HOUSE. TERMITE DAMAGE/DRY ROT REPAIR LESS THAN 10% OF REPLACEMENT COST OF BUILDING. DRYWALL/PLASTER PATCH AND PAINT. KITCHEN AND BATHROOM REMODEL  (FOR RESIDENTIAL BUILDINGS; NO STRUCTURAL CHANGES).","metadescription":"Bldg-Alter/Repair. 1 or 2 Family Dwelling. CHANGE OUT 9 WINDOWNS AND 6 DOORS  (SAME SIZE & TYPE FOR RESIDENTIAL BUILDINGS ONLY) DUAL GLAZING, LABELED AND CERTIFIED BY NATIONAL FENESTRATION RATING COUNCIL (NFRC), IS REQUIRED FOR DOORS AND WINDOWS REPLACED IN ALL RESIDENTIAL BUILDINGS, THREE STORIES OR LESS, PER SECTION 152(B) OF TITLE 24. NEW STUCCO, REPLACE DRYWALL (NO NEW WALLS ADDED) SPECIFIC LOCATION: EXTERIOR OF HOUSE. TERMITE DAMAGE/DRY ROT REPAIR LESS THAN 10% OF REPLACEMENT COST OF BUILDING. DRYWALL/PLASTER PATCH AND PAINT. KITCHEN AND BATHROOM REMODEL  (FOR RESIDENTIAL BUILDINGS; NO STRUCTURAL CHANGES).. Permit Expired. 2304 W PASEO DEL MAR","address":"2304 West Paseo Del Mar, CA, San Pedro, 90732, US","ct":"2974.00","ev":"N","hl":"YES","apc":"Harbor","cpa":"San Pedro","zone":"R1-1XL","solar":"N","pin_nbr":"009B185    31","use_code":"1","geolocation":"POINT (-118.32768 33.72192)","status_date":"02/08/2018","permit_group":"Building","refresh_time":"06/10/2026","type_lat_lon":"ADDRESS","business_unit":"Express Permit"},"geometry":{"type":"Point","coordinates":[-118.32768,33.72192]}},{"type":"Feature","properties":{"date":"2015-06-03T00:00:00.000Z","year":2015,"description":"Interior remodeling by removing existing bearing wall (non shear wall) between living room and dining room at 1st floor of e. townhouse.","metadescription":"Bldg-Alter/Repair. Apartment. Interior remodeling by removing existing bearing wall (non shear wall) between living room and dining room at 1st floor of e. townhouse.. Permit Expired. 1323 W WESTMONT DR","address":"1323 Westmont Drive, CA, San Pedro, 90732, US","ct":"2951.03","ev":"N","hl":"YES","apc":"Harbor","cpa":"San Pedro","zone":"RD2-1XL","solar":"N","pin_nbr":"024B193    58","use_code":"35","geolocation":"POINT (-118.30457 33.76329)","status_date":"02/17/2017","permit_group":"Building","refresh_time":"06/10/2026","type_lat_lon":"ADDRESS","business_unit":"Plan Check at Counter"},"geometry":{"type":"Point","coordinates":[-118.30457,33.76329]}},{"type":"Feature","properties":{"date":"2015-05-20T00:00:00.000Z","year":2015,"description":"ALTERATION TO (E) SFD; KITCHEN REMODEL, BATHROOM  REMODEL, ADDING WINDOWS TO THE KITCHEN, ADDING FIREPLACE IN LIVING ROOM; SOME WINDOW CHANGEOUT; REMOVE WINDOW IN MASTER BATH AND IN FILL (ADD R-13 INSULATION AT INFILL)","metadescription":"Bldg-Alter/Repair. 1 or 2 Family Dwelling. ALTERATION TO (E) SFD; KITCHEN REMODEL, BATHROOM  REMODEL, ADDING WINDOWS TO THE KITCHEN, ADDING FIREPLACE IN LIVING ROOM; SOME WINDOW CHANGEOUT; REMOVE WINDOW IN MASTER BATH AND IN FILL (ADD R-13 INSULATION AT INFILL). Permit Finaled. 2250 W AMIRANTE DR","address":"2262 Amirante Drive, CA, San Pedro, 90732, US","ct":"2974.00","ev":"N","hl":"YES","apc":"Harbor","cpa":"San Pedro","zone":"R1-1XL","solar":"N","pin_nbr":"012B189    46","use_code":"1","geolocation":"POINT (-118.32567 33.72928)","status_date":"03/29/2016","construction":"Type V-B Construction","permit_group":"Building","refresh_time":"06/10/2026","type_lat_lon":"ADDRESS","business_unit":"Regular Plan Check","square_footage":"0"},"geometry":{"type":"Point","coordinates":[-118.32567,33.72928]}},{"type":"Feature","properties":{"date":"2015-05-11T00:00:00.000Z","year":2015,"description":"BATHROOM REMODEL COMBINED WITH ELECTRICAL, AND PLUMBING  (FOR RESIDENTIAL BUILDINGS; NO STRUCTURAL CHANGES).","metadescription":"Bldg-Alter/Repair. Apartment. BATHROOM REMODEL COMBINED WITH ELECTRICAL, AND PLUMBING  (FOR RESIDENTIAL BUILDINGS; NO STRUCTURAL CHANGES).. Permit Finaled. 1410 W BRETT PL 233","address":"1410 Brett Place, CA, San Pedro, 90732, US","ct":"2963.00","ev":"N","hl":"YES","apc":"Harbor","cpa":"San Pedro","zone":"(Q)RD1.5-1VLD","solar":"N","pin_nbr":"021B193    26","use_code":"2","geolocation":"POINT (-118.30592 33.75575)","status_date":"06/23/2015","permit_group":"Building","refresh_time":"06/10/2026","type_lat_lon":"ADDRESS","business_unit":"Express Permit"},"geometry":{"type":"Point","coordinates":[-118.30592,33.75575]}},{"type":"Feature","properties":{"date":"2015-05-05T00:00:00.000Z","year":2015,"description":"Bathroom remodel for residential buildings (no structural changes).","metadescription":"Bldg-Alter/Repair. Apartment. Bathroom remodel for residential buildings (no structural changes).. Permit Finaled. 1380 W CAPITOL DR 303","address":"1380 West Capitol Drive, CA, San Pedro, 90732, US","ct":"2963.00","ev":"N","hl":"YES","apc":"Harbor","cpa":"San Pedro","zone":"R3-1VLD","solar":"N","pin_nbr":"021B193    53","use_code":"35","geolocation":"POINT (-118.30814 33.75409)","status_date":"06/08/2015","permit_group":"Building","refresh_time":"06/10/2026","type_lat_lon":"ADDRESS","business_unit":"Express Permit"},"geometry":{"type":"Point","coordinates":[-118.30814,33.75409]}},{"type":"Feature","properties":{"date":"2015-04-08T00:00:00.000Z","year":2015,"description":"Interior remodel of existing restaurant| demo interior non-structural partitions| Relocate restroom and accommodate disable access requirements| No change of uses| No changes to (E) parkings","metadescription":"Bldg-Alter/Repair. Commercial. Interior remodel of existing restaurant| demo interior non-structural partitions| Relocate restroom and accommodate disable access requirements| No change of uses| No changes to (E) parkings. Permit Finaled. 1030 N WESTERN AVE","address":"1030 North Western Avenue, CA, San Pedro, 90732, US","ct":"2963.00","ev":"N","hl":"YES","apc":"Harbor","cpa":"San Pedro","zone":"(Q)C2-1XL","solar":"N","pin_nbr":"021B193   140","use_code":"17","geolocation":"POINT (-118.30869 33.75267)","status_date":"06/12/2015","construction":"Type V-B Construction","permit_group":"Building","refresh_time":"06/10/2026","type_lat_lon":"ADDRESS","business_unit":"Regular Plan Check"},"geometry":{"type":"Point","coordinates":[-118.30869,33.75267]}},{"type":"Feature","properties":{"date":"2015-01-02T00:00:00.000Z","year":2015,"description":"KITCHEN AND BATHROOM REMODEL(NO STRUCTURAL CHANGES)","metadescription":"Bldg-Alter/Repair. Apartment. KITCHEN AND BATHROOM REMODEL(NO STRUCTURAL CHANGES). Permit Finaled. 28006 S WESTERN AVE #365","address":"28006 South Western Avenue, CA, San Pedro, 90732, US","ct":"2951.03","ev":"N","hl":"YES","apc":"Harbor","cpa":"Wilmington - Harbor City","zone":"(Q)C2-2, R1-1VL","solar":"N","pin_nbr":"027B193   150","use_code":"35","geolocation":"POINT (-118.31055 33.76562)","status_date":"02/14/2017","permit_group":"Building","refresh_time":"06/10/2026","type_lat_lon":"ADDRESS","business_unit":"Express Permit"},"geometry":{"type":"Point","coordinates":[-118.31055,33.76562]}},{"type":"Feature","properties":{"date":"2014-12-12T00:00:00.000Z","year":2014,"description":"Remodel condo. Remove one existing shear wall in family room. Add new shear wall in kitchen. remodel kitchen and bathroom","metadescription":"Bldg-Alter/Repair. Apartment. Remodel condo. Remove one existing shear wall in family room. Add new shear wall in kitchen. remodel kitchen and bathroom. Permit Finaled. 1954 N MT SHASTA DR","address":"1954 Mt Shasta Drive, CA, San Pedro, 90732, US","ct":"2951.03","ev":"N","hl":"YES","apc":"Harbor","cpa":"San Pedro","zone":"RD2-1XL","solar":"N","pin_nbr":"024B193   114","use_code":"35","geolocation":"POINT (-118.30358 33.76239)","status_date":"01/08/2015","permit_group":"Building","refresh_time":"06/10/2026","type_lat_lon":"ADDRESS","business_unit":"Plan Check at Counter"},"geometry":{"type":"Point","coordinates":[-118.30358,33.76239]}},{"type":"Feature","properties":{"date":"2014-11-24T00:00:00.000Z","year":2014,"description":"Change out 1 Door (Same size & type for residential buildings only). Kitchen & Bathroom remodel (For residential buildings; no structural changes). New stucco Specifiv location: Kitchen Window. Re-stucco: Replace drywall (no new walls added) Specific location: Bathrooms.","metadescription":"Bldg-Alter/Repair. Apartment. Change out 1 Door (Same size & type for residential buildings only). Kitchen & Bathroom remodel (For residential buildings; no structural changes). New stucco Specifiv location: Kitchen Window. Re-stucco: Replace drywall (no new walls added) Specific location: Bathrooms.. Permit Finaled. 1954 N MT SHASTA DR","address":"1954 Mt Shasta Drive, CA, San Pedro, 90732, US","ct":"2951.03","ev":"N","hl":"YES","apc":"Harbor","cpa":"San Pedro","zone":"RD2-1XL","solar":"N","pin_nbr":"024B193   114","use_code":"35","geolocation":"POINT (-118.30358 33.76239)","status_date":"01/05/2017","permit_group":"Building","refresh_time":"06/10/2026","type_lat_lon":"ADDRESS","business_unit":"Express Permit"},"geometry":{"type":"Point","coordinates":[-118.30358,33.76239]}},{"type":"Feature","properties":{"date":"2014-09-12T00:00:00.000Z","year":2014,"description":"CHANGE 8 WINDOWS AND 1 DOOR(SAME SIZE AND TYPE FOR RESIDENTIAL BUILDINGS ONLY)AND KITCHEN REMODEL(FOR RESIDENTAIL BUILDINGS)  NO STRUCTURAL CHANGES)DUAL GLAZING LABELED AND CERTIFIED BY NATIONAL FENESTRATION RATING COUNCIL (NFRC), IS REQUIRED FOR DOORS AND WINDOWS REPLACED IN ALL RESIDENTIAL BUILDINGS THREE STORIES OR LESS PER SECTION 152(b) OF TITLE 24.","metadescription":"Bldg-Alter/Repair. Apartment. CHANGE 8 WINDOWS AND 1 DOOR(SAME SIZE AND TYPE FOR RESIDENTIAL BUILDINGS ONLY)AND KITCHEN REMODEL(FOR RESIDENTAIL BUILDINGS)  NO STRUCTURAL CHANGES)DUAL GLAZING LABELED AND CERTIFIED BY NATIONAL FENESTRATION RATING COUNCIL (NFRC), IS REQUIRED FOR DOORS AND WINDOWS REPLACED IN ALL RESIDENTIAL BUILDINGS THREE STORIES OR LESS PER SECTION 152(b) OF TITLE 24.. Permit Expired. 1424 W BRETT PL #360","address":"1424 Brett Place, CA, San Pedro, 90732, US","ct":"2963.00","ev":"N","hl":"YES","apc":"Harbor","cpa":"San Pedro","zone":"(Q)RD1.5-1VLD","solar":"N","pin_nbr":"021B193    26","use_code":"35","geolocation":"POINT (-118.306 33.75585)","status_date":"10/17/2016","permit_group":"Building","refresh_time":"06/10/2026","type_lat_lon":"ADDRESS","business_unit":"Express Permit"},"geometry":{"type":"Point","coordinates":[-118.306,33.75585]}},{"type":"Feature","properties":{"date":"2014-08-20T00:00:00.000Z","year":2014,"description":"KITCHEN & BATHROOM REMODEL (FOR RESIDENTIAL BUILDINGS; NO STRUCTURAL CHANGES).","metadescription":"Bldg-Alter/Repair. Apartment. KITCHEN & BATHROOM REMODEL (FOR RESIDENTIAL BUILDINGS; NO STRUCTURAL CHANGES).. Permit Expired. 1414 W BRETT PL #228","address":"1414 Brett Place, CA, San Pedro, 90732, US","ct":"2963.00","ev":"N","hl":"YES","apc":"Harbor","cpa":"San Pedro","zone":"(Q)RD1.5-1VLD","solar":"N","pin_nbr":"021B193    26","use_code":"35","geolocation":"POINT (-118.30594 33.75577)","status_date":"09/20/2016","permit_group":"Building","refresh_time":"06/10/2026","type_lat_lon":"ADDRESS","business_unit":"Express Permit"},"geometry":{"type":"Point","coordinates":[-118.30594,33.75577]}},{"type":"Feature","properties":{"date":"2014-05-23T00:00:00.000Z","year":2014,"description":"BATHROOM REMODEL (FOR RESIDENTIAL BUILDINGS; NO STRUCTURAL CHANGES).","metadescription":"Bldg-Alter/Repair. Apartment. BATHROOM REMODEL (FOR RESIDENTIAL BUILDINGS; NO STRUCTURAL CHANGES).. Permit Finaled. 1424 W BRETT PL #354","address":"1424 Brett Place, CA, San Pedro, 90732, US","ct":"2963.00","ev":"N","hl":"YES","apc":"Harbor","cpa":"San Pedro","zone":"(Q)RD1.5-1VLD","solar":"N","pin_nbr":"021B193    26","use_code":"35","geolocation":"POINT (-118.306 33.75585)","status_date":"06/27/2014","permit_group":"Building","refresh_time":"06/10/2026","type_lat_lon":"ADDRESS","business_unit":"Express Permit"},"geometry":{"type":"Point","coordinates":[-118.306,33.75585]}},{"type":"Feature","properties":{"date":"2014-03-17T00:00:00.000Z","year":2014,"description":"BATHROOM REMODEL (FOR RESIDENTIAL BUILDINGS; NO STRUCTURAL CHANGES).","metadescription":"Bldg-Alter/Repair. Apartment. BATHROOM REMODEL (FOR RESIDENTIAL BUILDINGS; NO STRUCTURAL CHANGES).. Permit Finaled. 1424 W BRETT PL #354","address":"1424 Brett Place, CA, San Pedro, 90732, US","ct":"2963.00","ev":"N","hl":"YES","apc":"Harbor","cpa":"San Pedro","zone":"(Q)RD1.5-1VLD","solar":"N","pin_nbr":"021B193    26","use_code":"35","geolocation":"POINT (-118.306 33.75585)","status_date":"06/27/2014","permit_group":"Building","refresh_time":"06/10/2026","type_lat_lon":"ADDRESS","business_unit":"Express Permit"},"geometry":{"type":"Point","coordinates":[-118.306,33.75585]}},{"type":"Feature","properties":{"date":"2014-03-10T00:00:00.000Z","year":2014,"description":"KITCHEN & BATHROOM REMODEL (FOR RESIDENTIAL BUILDINGS; NO STRUCTURAL CHANGES). REPLACE DRYWALL (NO NEW WALLS ADDED) SPECIFIC LOCATION: 2 FT BOTTOM OF DRYWALL THROUGHOUT.","metadescription":"Bldg-Alter/Repair. Apartment. KITCHEN & BATHROOM REMODEL (FOR RESIDENTIAL BUILDINGS; NO STRUCTURAL CHANGES). REPLACE DRYWALL (NO NEW WALLS ADDED) SPECIFIC LOCATION: 2 FT BOTTOM OF DRYWALL THROUGHOUT.. Permit Finaled. 1612 W DALMATIA DR","address":"1612 Dalmatia Drive, CA, San Pedro, 90732, US","ct":"2951.03","ev":"N","hl":"YES","apc":"Harbor","cpa":"San Pedro","zone":"RD2-1XL","solar":"N","pin_nbr":"024B193    58","use_code":"35","geolocation":"POINT (-118.30726 33.76405)","status_date":"06/19/2014","permit_group":"Building","refresh_time":"06/10/2026","type_lat_lon":"ADDRESS","business_unit":"Express Permit"},"geometry":{"type":"Point","coordinates":[-118.30726,33.76405]}},{"type":"Feature","properties":{"date":"2014-01-27T00:00:00.000Z","year":2014,"description":"KITCHEN REMODEL (FOR RESIDENTIAL BUILDINGS; NO STRUCTURAL CHANGES). REPLACE DRYWALL (NO NEW WALLS ADDED) SPECIFIC LOCATION: KITCHEN PATCH DRYWALL.","metadescription":"Bldg-Alter/Repair. Apartment. KITCHEN REMODEL (FOR RESIDENTIAL BUILDINGS; NO STRUCTURAL CHANGES). REPLACE DRYWALL (NO NEW WALLS ADDED) SPECIFIC LOCATION: KITCHEN PATCH DRYWALL.. Permit Expired. 1466 W STONEWOOD CT","address":"1466 Stonewood Court, CA, San Pedro, 90732, US","ct":"2951.03","ev":"N","hl":"YES","apc":"Harbor","cpa":"San Pedro","zone":"RD2-1XL","solar":"N","pin_nbr":"024B193   196","use_code":"35","geolocation":"POINT (-118.3067 33.76134)","status_date":"10/25/2017","permit_group":"Building","refresh_time":"06/10/2026","type_lat_lon":"ADDRESS","business_unit":"Express Permit"},"geometry":{"type":"Point","coordinates":[-118.3067,33.76134]}},{"type":"Feature","properties":{"date":"2013-08-26T00:00:00.000Z","year":2013,"description":"INTERIOR REMODEL TO KITCHEN, REMOVE WALL BETWEEN DINING ROOM AND LIVING ROOM","metadescription":"Bldg-Alter/Repair. Apartment. INTERIOR REMODEL TO KITCHEN, REMOVE WALL BETWEEN DINING ROOM AND LIVING ROOM. Permit Finaled. 1615 W WESTMONT DR","address":"1615 Westmont Drive, CA, San Pedro, 90732, US","ct":"2951.03","ev":"N","hl":"YES","apc":"Harbor","cpa":"San Pedro","zone":"RD2-1XL","solar":"N","pin_nbr":"024B193   154","use_code":"2","geolocation":"POINT (-118.30649 33.76295)","status_date":"11/25/2013","permit_group":"Building","refresh_time":"06/10/2026","type_lat_lon":"ADDRESS","business_unit":"Plan Check at Counter"},"geometry":{"type":"Point","coordinates":[-118.30649,33.76295]}},{"type":"Feature","properties":{"date":"2013-06-25T00:00:00.000Z","year":2013,"description":"Bathroom remodel (For residential buildings; no structural changes).","metadescription":"Bldg-Alter/Repair. Apartment. Bathroom remodel (For residential buildings; no structural changes).. Permit Finaled. 1663 W WESTMONT DR","address":"1663 Westmont Drive, CA, San Pedro, 90732, US","ct":"2951.03","ev":"N","hl":"YES","apc":"Harbor","cpa":"San Pedro","zone":"RD2-1XL","solar":"N","pin_nbr":"024B193    58","use_code":"35","geolocation":"POINT (-118.30744 33.76279)","status_date":"03/07/2017","permit_group":"Building","refresh_time":"06/10/2026","type_lat_lon":"ADDRESS","business_unit":"Express Permit"},"geometry":{"type":"Point","coordinates":[-118.30744,33.76279]}},{"type":"Feature","properties":{"date":"2013-06-21T00:00:00.000Z","year":2013,"description":"Change out 7 Windows and 2 Doors (Same size & type for residential buildings only). Kitchen & Bathroom remodel (For residential buildings; no structural changes).","metadescription":"Bldg-Alter/Repair. Apartment. Change out 7 Windows and 2 Doors (Same size & type for residential buildings only). Kitchen & Bathroom remodel (For residential buildings; no structural changes).. Permit Finaled. 1507 W STONEWOOD CT","address":"1507 Stonewood Court, CA, San Pedro, 90732, US","ct":"2951.03","ev":"N","hl":"YES","apc":"Harbor","cpa":"San Pedro","zone":"RD2-1XL","solar":"N","pin_nbr":"024B193   140","use_code":"35","geolocation":"POINT (-118.30651 33.7616)","status_date":"09/20/2013","permit_group":"Building","refresh_time":"06/10/2026","type_lat_lon":"ADDRESS","business_unit":"Express Permit"},"geometry":{"type":"Point","coordinates":[-118.30651,33.7616]}},{"type":"Feature","properties":{"date":"2013-06-12T00:00:00.000Z","year":2013,"description":"INTERIOR REMODEL TO (E) RESTAURANT  - CONSTRUCT NEW NONBEARING PARTITIONS FOR NEW RESTROOM, KITCHEN, OFFICE, STORAGE ROOM AND DINING AREA. REMOVE AND REPLACE CEILING.","metadescription":"Bldg-Alter/Repair. Commercial. INTERIOR REMODEL TO (E) RESTAURANT  - CONSTRUCT NEW NONBEARING PARTITIONS FOR NEW RESTROOM, KITCHEN, OFFICE, STORAGE ROOM AND DINING AREA. REMOVE AND REPLACE CEILING.. Permit Finaled. 980 N WESTERN AVE UNIT C","address":"A-H, 980 North Western Avenue, CA, San Pedro, 90732, US","ct":"2963.00","ev":"N","hl":"YES","apc":"Harbor","cpa":"San Pedro","zone":"(Q)C2-1XL","solar":"N","pin_nbr":"021B193   193","use_code":"17","geolocation":"POINT (-118.30878 33.7515)","status_date":"08/30/2013","permit_group":"Building","refresh_time":"06/10/2026","type_lat_lon":"ADDRESS","business_unit":"Plan Check at Counter"},"geometry":{"type":"Point","coordinates":[-118.30878,33.7515]}},{"type":"Feature","properties":{"date":"2013-05-21T00:00:00.000Z","year":2013,"description":"Bathroom (2) remodel for residential buildings (no structural changes).  Valuation to be verified by inspector.","metadescription":"Bldg-Alter/Repair. 1 or 2 Family Dwelling. Bathroom (2) remodel for residential buildings (no structural changes).  Valuation to be verified by inspector.. Permit Finaled. 2311 W 37TH ST","address":"2301 West 37Th Street, CA, San Pedro, 90732, US","ct":"2974.00","ev":"N","hl":"YES","apc":"Harbor","cpa":"San Pedro","zone":"R1-1XL","solar":"N","pin_nbr":"009B185    17","use_code":"1","geolocation":"POINT (-118.32701 33.72276)","status_date":"03/12/2014","permit_group":"Building","refresh_time":"06/10/2026","type_lat_lon":"ADDRESS","business_unit":"Express Permit"},"geometry":{"type":"Point","coordinates":[-118.32701,33.72276]}},{"type":"Feature","properties":{"date":"2012-09-10T00:00:00.000Z","year":2012,"description":"TENANT IMPROVEMENTS TO 1ST FLOOR LOBBY AND 2ND FLOOR RESTROOMS & CORRIDOR OF EXISTING TWO STORY, TYPE II-A, OFFICE BUILDING. INTERIOR ALTERATION ON 2ND FLOOR AND NEW STORE FRONT ON 1ST FLOOR","metadescription":"Bldg-Alter/Repair. Commercial. TENANT IMPROVEMENTS TO 1ST FLOOR LOBBY AND 2ND FLOOR RESTROOMS & CORRIDOR OF EXISTING TWO STORY, TYPE II-A, OFFICE BUILDING. INTERIOR ALTERATION ON 2ND FLOOR AND NEW STORE FRONT ON 1ST FLOOR. Permit Expired. 916 N WESTERN AVE BLDG F","address":"916 North Western Avenue, CA, San Pedro, 90732, US","ct":"2963.00","ev":"N","hl":"YES","apc":"Harbor","cpa":"San Pedro","zone":"(Q)C2-1XL","solar":"N","pin_nbr":"021B193   193","use_code":"13","geolocation":"POINT (-118.30886 33.75076)","status_date":"10/08/2014","permit_group":"Building","refresh_time":"06/10/2026","type_lat_lon":"ADDRESS","business_unit":"Regular Plan Check"},"geometry":{"type":"Point","coordinates":[-118.30886,33.75076]}},{"type":"Feature","properties":{"date":"2012-07-20T00:00:00.000Z","year":2012,"description":"BATHROOM REMODEL (FOR RESIDENTIAL BUILDINGS:  NO STRUCTURAL CHANGES)REPLACE DRYWALL(NO NEW WALLS ADDED)","metadescription":"Bldg-Alter/Repair. Apartment. BATHROOM REMODEL (FOR RESIDENTIAL BUILDINGS:  NO STRUCTURAL CHANGES)REPLACE DRYWALL(NO NEW WALLS ADDED). Permit Finaled. 1663 W WESTMONT DR","address":"1663 Westmont Drive, CA, San Pedro, 90732, US","ct":"2951.01","ev":"N","hl":"YES","apc":"Harbor","cpa":"San Pedro","zone":"RD2-1XL","solar":"N","pin_nbr":"024B193    58","use_code":"35","geolocation":"POINT (-118.30744 33.76279)","status_date":"09/10/2012","permit_group":"Building","refresh_time":"06/10/2026","type_lat_lon":"ADDRESS","business_unit":"Express Permit"},"geometry":{"type":"Point","coordinates":[-118.30744,33.76279]}},{"type":"Feature","properties":{"date":"2012-04-23T00:00:00.000Z","year":2012,"description":"bathroom remodel / tub replacement for residential buildings (no structural changes). Valuation to be verified by the field inspector.","metadescription":"Bldg-Alter/Repair. Apartment. bathroom remodel / tub replacement for residential buildings (no structural changes). Valuation to be verified by the field inspector.. Permit Expired. 1418 W BRETT PL #101","address":"1414 Brett Place, CA, San Pedro, 90732, US","ct":"2963.00","ev":"N","hl":"YES","apc":"Harbor","cpa":"San Pedro","zone":"(Q)RD1.5-1VLD","solar":"N","pin_nbr":"021B193    26","use_code":"35","geolocation":"POINT (-118.30595 33.75579)","status_date":"05/20/2014","permit_group":"Building","refresh_time":"06/10/2026","type_lat_lon":"ADDRESS","business_unit":"Express Permit"},"geometry":{"type":"Point","coordinates":[-118.30595,33.75579]}},{"type":"Feature","properties":{"date":"2012-04-20T00:00:00.000Z","year":2012,"description":"TENANT IMPROVEMENT TO (E) RESTAURANT: NON-BEARING PARTITIONS, SUSPENDED CEILING, FINISHES, FXITURES, AND RELATED MILLWORKS; STRUCTURAL ALTERATION TO (E) ROOF TO STRENGTHEN FRAMING FOR INSTALLATION OF ROOF EQUIPMENT.","metadescription":"Bldg-Alter/Repair. Commercial. TENANT IMPROVEMENT TO (E) RESTAURANT: NON-BEARING PARTITIONS, SUSPENDED CEILING, FINISHES, FXITURES, AND RELATED MILLWORKS; STRUCTURAL ALTERATION TO (E) ROOF TO STRENGTHEN FRAMING FOR INSTALLATION OF ROOF EQUIPMENT.. CofO Issued. 940 N WESTERN AVE UNIT  E","address":"A-E, 940 North Western Avenue, CA, San Pedro, 90732, US","ct":"2963.00, 2964.00","ev":"N","hl":"YES","apc":"Harbor","cpa":"San Pedro","zone":"(Q)C2-1XL","solar":"N","pin_nbr":"021B193   193","use_code":"17","geolocation":"POINT (-118.30881 33.75105)","status_date":"08/13/2012","construction":"Type III-B Construction","permit_group":"Building","refresh_time":"06/10/2026","type_lat_lon":"ADDRESS","business_unit":"Regular Plan Check","square_footage":"0"},"geometry":{"type":"Point","coordinates":[-118.30881,33.75105]}},{"type":"Feature","properties":{"date":"2012-03-08T00:00:00.000Z","year":2012,"description":"General Rehabilitation (No Alteration & No Structural Changes.) (Less Than 10% Of Replacement Cost Of Building. New Wall Heater. Gas Outlet For Outside Grill. Residential Kitchen & Bathroom Remodel - Repari/Replace Only. No Changes In Walls Or Openings. Combined With Electrical, Plumbing, & HVAC. Comply Wilth Department Order Effective Date 02/24/2012. Permit Will Expire 30 Days From Issuance Date. All Permits Shall Be For The Same Time Period Limitation.","metadescription":"Bldg-Alter/Repair. 1 or 2 Family Dwelling. General Rehabilitation (No Alteration & No Structural Changes.) (Less Than 10% Of Replacement Cost Of Building. New Wall Heater. Gas Outlet For Outside Grill. Residential Kitchen & Bathroom Remodel - Repari/Replace Only. No Changes In Walls Or Openings. Combined With Electrical, Plumbing, & HVAC. Comply Wilth Department Order Effective Date 02/24/2012. Permit Will Expire 30 Days From Issuance Date. All Permits Shall Be For The Same Time Period Limitation.. Permit Finaled. 3817 S SHAD PL","address":"3817 Shad Place, CA, San Pedro, 90732, US","ct":"2974.00","ev":"N","hl":"YES","apc":"Harbor","cpa":"San Pedro","zone":"R1-1XL","solar":"N","pin_nbr":"009B185    45","use_code":"1","geolocation":"POINT (-118.3288 33.72154)","status_date":"04/17/2012","permit_group":"Building","refresh_time":"06/10/2026","type_lat_lon":"ADDRESS","business_unit":"Express Permit"},"geometry":{"type":"Point","coordinates":[-118.3288,33.72154]}},{"type":"Feature","properties":{"date":"2012-03-05T00:00:00.000Z","year":2012,"description":"RESIDENTIAL BATHROOM REMODEL - REPAIR/REPLACE ONLY. NO CHANGES IN WALLS OR OPENINGS.","metadescription":"Bldg-Alter/Repair. Apartment. RESIDENTIAL BATHROOM REMODEL - REPAIR/REPLACE ONLY. NO CHANGES IN WALLS OR OPENINGS.. Permit Finaled. 28004 S WESTERN AVE #202","address":"28004 South Western Avenue, CA, San Pedro, 90732, US","ct":"2951.01","ev":"N","hl":"YES","apc":"Harbor","cpa":"Wilmington - Harbor City","zone":"(Q)C2-2, R1-1VL","solar":"N","pin_nbr":"027B193   150","use_code":"35","geolocation":"POINT (-118.31054 33.76565)","status_date":"05/10/2012","permit_group":"Building","refresh_time":"06/10/2026","type_lat_lon":"ADDRESS","business_unit":"Express Permit"},"geometry":{"type":"Point","coordinates":[-118.31054,33.76565]}},{"type":"Feature","properties":{"date":"2012-01-18T00:00:00.000Z","year":2012,"description":"TI--REMODEL PORTION OF PHARMACY AREA. BUILD NEW PRIVACY ROOM AND WAITING AREA.","metadescription":"Bldg-Alter/Repair. Commercial. TI--REMODEL PORTION OF PHARMACY AREA. BUILD NEW PRIVACY ROOM AND WAITING AREA.. Permit Finaled. 28100 S WESTERN AVE","address":"28100 South Western Avenue, CA, San Pedro, 90732, US","ct":"2951.01","ev":"N","hl":"YES","apc":"Harbor","cpa":"San Pedro","zone":"P-1XL, [Q]C2-1XL","solar":"N","pin_nbr":"024B193   622","use_code":"16","geolocation":"POINT (-118.31012 33.76429)","status_date":"02/07/2012","permit_group":"Building","refresh_time":"06/10/2026","type_lat_lon":"ADDRESS","business_unit":"Plan Check at Counter"},"geometry":{"type":"Point","coordinates":[-118.31012,33.76429]}},{"type":"Feature","properties":{"date":"2011-12-14T00:00:00.000Z","year":2011,"description":"RESIDENTIAL KITCHEN REMODEL-REPAIR/REPLACE ONLY.  NO CHANGES IN WALLS OR OPENINGS.  RESIDENTIAL BATHROOM REMODEL-REPAIR/REPLACE ONLY.  NO CHANGE IN WALLS OR OPENINGS","metadescription":"Bldg-Alter/Repair. Apartment. RESIDENTIAL KITCHEN REMODEL-REPAIR/REPLACE ONLY.  NO CHANGES IN WALLS OR OPENINGS.  RESIDENTIAL BATHROOM REMODEL-REPAIR/REPLACE ONLY.  NO CHANGE IN WALLS OR OPENINGS. Permit Finaled. 1414 W BRETT PL #146","address":"1414 Brett Place, CA, San Pedro, 90732, US","ct":"2963.00","ev":"N","hl":"YES","apc":"Harbor","cpa":"San Pedro","zone":"(Q)RD1.5-1VLD","solar":"N","pin_nbr":"021B193    26","use_code":"35","geolocation":"POINT (-118.30594 33.75577)","status_date":"01/10/2012","permit_group":"Building","refresh_time":"06/10/2026","type_lat_lon":"ADDRESS","business_unit":"Express Permit"},"geometry":{"type":"Point","coordinates":[-118.30594,33.75577]}},{"type":"Feature","properties":{"date":"2011-11-28T00:00:00.000Z","year":2011,"description":"Kitchen remodel for residential buildings.  No structural changes.  Valuation to be verified by the field inspector.","metadescription":"Bldg-Alter/Repair. Apartment. Kitchen remodel for residential buildings.  No structural changes.  Valuation to be verified by the field inspector.. Permit Finaled. 1410 W BRETT PL #341","address":"1410 Brett Place, CA, San Pedro, 90732, US","ct":"2963.00","ev":"N","hl":"YES","apc":"Harbor","cpa":"San Pedro","zone":"(Q)RD1.5-1VLD","solar":"N","pin_nbr":"021B193    26","use_code":"5","geolocation":"POINT (-118.30592 33.75575)","status_date":"02/21/2012","permit_group":"Building","refresh_time":"06/10/2026","type_lat_lon":"ADDRESS","business_unit":"Express Permit"},"geometry":{"type":"Point","coordinates":[-118.30592,33.75575]}},{"type":"Feature","properties":{"date":"2011-06-17T00:00:00.000Z","year":2011,"description":"RESIDENTIAL KITCHEN REMODEL - REPAIR/REPLACE ONLY.  NO CHANGES IN WALLS OR OPENINGS.  ELECTRICAL & PLUMBING UNDER SEPARATE PERMITS.","metadescription":"Bldg-Alter/Repair. Apartment. RESIDENTIAL KITCHEN REMODEL - REPAIR/REPLACE ONLY.  NO CHANGES IN WALLS OR OPENINGS.  ELECTRICAL & PLUMBING UNDER SEPARATE PERMITS.. Permit Expired. 1410 W BRETT PL #131","address":"1410 Brett Place, CA, San Pedro, 90732, US","ct":"2963.00","ev":"N","hl":"YES","apc":"Harbor","cpa":"San Pedro","zone":"(Q)RD1.5-1VLD","solar":"N","pin_nbr":"021B193    26","use_code":"35","geolocation":"POINT (-118.30592 33.75575)","status_date":"07/10/2013","permit_group":"Building","refresh_time":"06/10/2026","type_lat_lon":"ADDRESS","business_unit":"Express Permit"},"geometry":{"type":"Point","coordinates":[-118.30592,33.75575]}},{"type":"Feature","properties":{"date":"2010-07-23T00:00:00.000Z","year":2010,"description":"BATHTUB REMODEL.  DRYWALL PATCH & TILE.  INSTALL (2) BATHTUBS.","metadescription":"Bldg-Alter/Repair. Apartment. BATHTUB REMODEL.  DRYWALL PATCH & TILE.  INSTALL (2) BATHTUBS.. Permit Finaled. 2123 N STONEWOOD CT","address":"2123 Stonewood Court, CA, San Pedro, 90732, US","ct":"2951.01","ev":"N","hl":"YES","apc":"Harbor","cpa":"San Pedro","zone":"RD2-1XL","solar":"N","pin_nbr":"024B193     5","use_code":"35","geolocation":"POINT (-118.3083 33.76398)","status_date":"09/08/2010","permit_group":"Building","refresh_time":"06/10/2026","type_lat_lon":"ADDRESS","business_unit":"Express Permit"},"geometry":{"type":"Point","coordinates":[-118.3083,33.76398]}},{"type":"Feature","properties":{"date":"2010-01-29T00:00:00.000Z","year":2010,"description":"remodel (e) starbucks coffee kiosk within (e) retail grocery store. (No Seating)","metadescription":"Bldg-Alter/Repair. Commercial. remodel (e) starbucks coffee kiosk within (e) retail grocery store. (No Seating). Permit Finaled. 28090 S WESTERN AVE","address":"28090 South Western Avenue, CA, San Pedro, 90732, US","ct":"2951.01","ev":"N","hl":"YES","apc":"Harbor","cpa":"San Pedro","zone":"P-1XL, [Q]C2-1XL, [Q]C4-1XL","solar":"N","pin_nbr":"024B193     4","use_code":"16","geolocation":"POINT (-118.31014 33.76533)","status_date":"02/23/2010","permit_group":"Building","refresh_time":"06/10/2026","type_lat_lon":"ADDRESS","business_unit":"Regular Plan Check"},"geometry":{"type":"Point","coordinates":[-118.31014,33.76533]}},{"type":"Feature","properties":{"date":"2009-02-05T00:00:00.000Z","year":2009,"description":"THE PROPOSED SCOPE OF WORK WILL CONSIST OF UPGRADES AND ALTERATIONS TO THE BEVERAGE PORTION OF THE DRIVE THRU WINDOW AREA AND BEVERAGE COUNTERS","metadescription":"Bldg-Alter/Repair. Commercial. THE PROPOSED SCOPE OF WORK WILL CONSIST OF UPGRADES AND ALTERATIONS TO THE BEVERAGE PORTION OF THE DRIVE THRU WINDOW AREA AND BEVERAGE COUNTERS. Permit Finaled. 976 N WESTERN AVE","address":"976 North Western Avenue, CA, San Pedro, 90732, US","ct":"2963.00, 2964.00","ev":"N","hl":"YES","apc":"Harbor","cpa":"San Pedro","zone":"(Q)C2-1XL","solar":"N","pin_nbr":"021B193   193","use_code":"17","geolocation":"POINT (-118.30832 33.75151)","status_date":"03/25/2009","permit_group":"Building","refresh_time":"06/10/2026","type_lat_lon":"ADDRESS","business_unit":"Plan Check at Counter"},"geometry":{"type":"Point","coordinates":[-118.30832,33.75151]}},{"type":"Feature","properties":{"date":"2008-07-03T00:00:00.000Z","year":2008,"description":"KITCHEN REMODEL.","metadescription":"Bldg-Alter/Repair. Commercial. KITCHEN REMODEL.. Permit Finaled. 2275 W 25TH ST","address":"2275 W 25TH ST","ct":"2974.00","ev":"N","hl":"YES","apc":"Harbor","cpa":"San Pedro","zone":"R1-1XL","solar":"N","pin_nbr":"012B189   353","use_code":"23","geolocation":"POINT (-118.3272 33.72714)","status_date":"07/09/2008","permit_group":"Building","refresh_time":"06/10/2026","type_lat_lon":"ADDRESS","business_unit":"Express Permit"},"geometry":{"type":"Point","coordinates":[-118.3272,33.72714]}},{"type":"Feature","properties":{"date":"2008-06-11T00:00:00.000Z","year":2008,"description":"MARKET TI, NEW PARTITIONS, T-BAR CLG, AND GENERAL INTERIOR REMODEL.","metadescription":"Bldg-Alter/Repair. Commercial. MARKET TI, NEW PARTITIONS, T-BAR CLG, AND GENERAL INTERIOR REMODEL.. Permit Finaled. 1050 N WESTERN AVE","address":"1050 North Western Avenue, CA, San Pedro, 90732, US","ct":"2963.00","ev":"N","hl":"YES","apc":"Harbor","cpa":"San Pedro","zone":"(Q)C2-1XL","solar":"N","pin_nbr":"021B193   140","use_code":"16","geolocation":"POINT (-118.30864 33.75276)","status_date":"10/17/2008","permit_group":"Building","refresh_time":"06/10/2026","type_lat_lon":"ADDRESS","business_unit":"Regular Plan Check"},"geometry":{"type":"Point","coordinates":[-118.30864,33.75276]}},{"type":"Feature","properties":{"date":"2008-03-17T00:00:00.000Z","year":2008,"description":"Kitchen remodel for residential buildings (no structural changes). Replace drywall. (no new walls added) VALUATION TO BE VERIFIED BY FIELD INSPECTOR","metadescription":"Bldg-Alter/Repair. Apartment. Kitchen remodel for residential buildings (no structural changes). Replace drywall. (no new walls added) VALUATION TO BE VERIFIED BY FIELD INSPECTOR. Permit Finaled. 1444 W BRETT PL #53","address":"1444 Brett Place, CA, San Pedro, 90732, US","ct":"2963.00","ev":"N","hl":"YES","apc":"Harbor","cpa":"San Pedro","zone":"(Q)RD1.5-1VLD","solar":"N","pin_nbr":"024B193   588","use_code":"5","geolocation":"POINT (-118.30859 33.75682)","status_date":"04/14/2008","permit_group":"Building","refresh_time":"06/10/2026","type_lat_lon":"ADDRESS","business_unit":"Express Permit"},"geometry":{"type":"Point","coordinates":[-118.30859,33.75682]}},{"type":"Feature","properties":{"date":"2008-02-13T00:00:00.000Z","year":2008,"description":"Kitchen remodel for residential buildings (no structural changes). Valuation to be verified by field inspector.","metadescription":"Bldg-Alter/Repair. Apartment. Kitchen remodel for residential buildings (no structural changes). Valuation to be verified by field inspector.. Permit Finaled. 1971 N MT SHASTA DR","address":"1971 Mt Shasta Drive, CA, San Pedro, 90732, US","ct":"2951.01","ev":"N","hl":"YES","apc":"Harbor","cpa":"San Pedro","zone":"RD2-1XL","solar":"N","pin_nbr":"024B193   124","use_code":"35","geolocation":"POINT (-118.30391 33.76263)","status_date":"04/01/2008","permit_group":"Building","refresh_time":"06/10/2026","type_lat_lon":"ADDRESS","business_unit":"Express Permit"},"geometry":{"type":"Point","coordinates":[-118.30391,33.76263]}},{"type":"Feature","properties":{"date":"2008-01-30T00:00:00.000Z","year":2008,"description":"remodel single family home by relocationg and adding new non-bearing walls","metadescription":"Bldg-Addition. 1 or 2 Family Dwelling. remodel single family home by relocationg and adding new non-bearing walls. CofO Issued. 2310 W PASEO DEL MAR","address":"2310 West Paseo Del Mar, CA, San Pedro, 90732, US","ct":"2974.00","ev":"N","hl":"YES","apc":"Harbor","cpa":"San Pedro","zone":"R1-1XL","solar":"N","pin_nbr":"009B185    26","use_code":"1","geolocation":"POINT (-118.3279 33.72206)","status_date":"04/27/2009","construction":"Type V-N Construction","permit_group":"Building","refresh_time":"06/10/2026","type_lat_lon":"ADDRESS","business_unit":"Plan Check at Counter","square_footage":"81"},"geometry":{"type":"Point","coordinates":[-118.3279,33.72206]}},{"type":"Feature","properties":{"date":"2007-09-18T00:00:00.000Z","year":2007,"description":"ONE STORY ADDITION AND INTERIOR REMODELING","metadescription":"Bldg-Addition. 1 or 2 Family Dwelling. ONE STORY ADDITION AND INTERIOR REMODELING. CofO Issued. 2327 W 37TH ST","address":"2327 West 37Th Street, CA, San Pedro, 90732, US","ct":"2974.00","ev":"N","hl":"EXEMPT","apc":"Harbor","cpa":"San Pedro","zone":"R1-1XL","solar":"N","pin_nbr":"009B185    10","use_code":"1","geolocation":"POINT (-118.32705 33.72338)","status_date":"05/28/2008","construction":"Type V-N Construction","permit_group":"Building","refresh_time":"06/10/2026","type_lat_lon":"ADDRESS","business_unit":"Appointment Plan Check","square_footage":"399"},"geometry":{"type":"Point","coordinates":[-118.32705,33.72338]}},{"type":"Feature","properties":{"date":"2007-08-22T00:00:00.000Z","year":2007,"description":"Kitchen Remodel.  Install Rec. Lights, Relocate Outlets, Patch Drywall & Paint.  Install Cabinets and Appliances.  Elec, HVAC & Plumb. under separate permits.","metadescription":"Bldg-Alter/Repair. Apartment. Kitchen Remodel.  Install Rec. Lights, Relocate Outlets, Patch Drywall & Paint.  Install Cabinets and Appliances.  Elec, HVAC & Plumb. under separate permits.. Permit Finaled. 2058 N STONEWOOD CT","address":"2058 Stonewood Court, CA, San Pedro, 90732, US","ct":"2951.01","ev":"N","hl":"YES","apc":"Harbor","cpa":"San Pedro","zone":"RD2-1XL","solar":"N","pin_nbr":"024B193    58","use_code":"35","geolocation":"POINT (-118.30796 33.7637)","status_date":"10/29/2007","permit_group":"Building","refresh_time":"06/10/2026","type_lat_lon":"ADDRESS","business_unit":"Express Permit"},"geometry":{"type":"Point","coordinates":[-118.30796,33.7637]}},{"type":"Feature","properties":{"date":"2007-07-09T00:00:00.000Z","year":2007,"description":"UNIT 140 KITCHEN REMODEL:  REMOVE WALL AND INSTALL SUPPORT BEAM.  INSTALL NEW KITCHEN CABINETS","metadescription":"Bldg-Alter/Repair. Apartment. UNIT 140 KITCHEN REMODEL:  REMOVE WALL AND INSTALL SUPPORT BEAM.  INSTALL NEW KITCHEN CABINETS. Permit Finaled. 1410 W BRETT PL BLDG. # 3","address":"1410 Brett Place, CA, San Pedro, 90732, US","ct":"2963.00","ev":"N","hl":"YES","apc":"Harbor","cpa":"San Pedro","zone":"(Q)RD1.5-1VLD","solar":"N","pin_nbr":"021B193    26","use_code":"35","geolocation":"POINT (-118.30592 33.75575)","status_date":"09/25/2007","permit_group":"Building","refresh_time":"06/10/2026","type_lat_lon":"ADDRESS","business_unit":"Regular Plan Check"},"geometry":{"type":"Point","coordinates":[-118.30592,33.75575]}},{"type":"Feature","properties":{"date":"2007-04-18T00:00:00.000Z","year":2007,"description":"Replace drywall/plaster (patch and paint). Non-structural repair only.Sandblast/restucco over existing stucco to remain. Area = 480 sqft.  Interior bathroom remodel/repair (no changes in walls or openings).","metadescription":"Bldg-Alter/Repair. 1 or 2 Family Dwelling. Replace drywall/plaster (patch and paint). Non-structural repair only.Sandblast/restucco over existing stucco to remain. Area = 480 sqft.  Interior bathroom remodel/repair (no changes in walls or openings).. Permit Finaled. 2310 W PASEO DEL MAR","address":"2310 West Paseo Del Mar, CA, San Pedro, 90732, US","ct":"2974.00","ev":"N","hl":"YES","apc":"Harbor","cpa":"San Pedro","zone":"R1-1XL","solar":"N","pin_nbr":"009B185    26","use_code":"1","geolocation":"POINT (-118.3279 33.72206)","status_date":"04/23/2009","permit_group":"Building","refresh_time":"06/10/2026","type_lat_lon":"ADDRESS","business_unit":"Express Permit"},"geometry":{"type":"Point","coordinates":[-118.3279,33.72206]}},{"type":"Feature","properties":{"date":"2007-03-28T00:00:00.000Z","year":2007,"description":"Residential Bathroom Remodel - Repair/Replace Only.  The Remodel is 1st Floor.  No Changes in Walls or Openings.  Elec. & Plumb. Under Seperate Permits.","metadescription":"Bldg-Alter/Repair. Apartment. Residential Bathroom Remodel - Repair/Replace Only.  The Remodel is 1st Floor.  No Changes in Walls or Openings.  Elec. & Plumb. Under Seperate Permits.. Permit Finaled. 27980 S WESTERN AVE #106","address":"27980 South Western Avenue, CA, San Pedro, 90732, US","ct":"2951.01","ev":"N","hl":"YES","apc":"Harbor","cpa":"Wilmington - Harbor City","zone":"R1-1VL","solar":"N","pin_nbr":"027B193    84","use_code":"5","geolocation":"POINT (-118.31061 33.76578)","status_date":"10/29/2008","permit_group":"Building","refresh_time":"06/10/2026","type_lat_lon":"ADDRESS","business_unit":"Express Permit"},"geometry":{"type":"Point","coordinates":[-118.31061,33.76578]}},{"type":"Feature","properties":{"date":"2005-04-06T00:00:00.000Z","year":2005,"description":"BATHROOM REMODEL.  INCLUDE ELECT, PLUMBING & HEATING","metadescription":"Bldg-Alter/Repair. Apartment. BATHROOM REMODEL.  INCLUDE ELECT, PLUMBING & HEATING. Permit Finaled. 28004 S WESTERN AVE #112","address":"28004 South Western Avenue, CA, San Pedro, 90732, US","ct":"2951.01","ev":"N","hl":"YES","apc":"Harbor","cpa":"Wilmington - Harbor City","zone":"(T)(Q)C2-2, R1-1VL","solar":"N","pin_nbr":"027B193    85","use_code":"35","geolocation":"POINT (-118.31054 33.76565)","status_date":"06/02/2005","permit_group":"Building","refresh_time":"06/10/2026","type_lat_lon":"ADDRESS","business_unit":"Express Permit"},"geometry":{"type":"Point","coordinates":[-118.31054,33.76565]}},{"type":"Feature","properties":{"date":"2003-11-25T00:00:00.000Z","year":2003,"description":"CHANGE OF USE FROM RETAIL TO \"ART STORE\".  \"FASTFRAME\"  INTERIOR WORK FOR NEW NONBEARING WALLS AND REMODEL.","metadescription":"Bldg-Alter/Repair. Commercial. CHANGE OF USE FROM RETAIL TO \"ART STORE\".  \"FASTFRAME\"  INTERIOR WORK FOR NEW NONBEARING WALLS AND REMODEL.. Permit Finaled. 28122 S WESTERN AVE STE. A","address":"28122 South Western Avenue, CA, San Pedro, 90732, US","ct":"2951.01","ev":"N","hl":"YES","apc":"Harbor","zone":"P-1XL, [Q]C2-1XL","solar":"N","pin_nbr":"024B193   622","use_code":"16","geolocation":"POINT (-118.31024 33.76387)","status_date":"02/04/2004","permit_group":"Building","refresh_time":"06/10/2026","type_lat_lon":"ADDRESS","business_unit":"Plan Check at Counter"},"geometry":{"type":"Point","coordinates":[-118.31024,33.76387]}},{"type":"Feature","properties":{"date":"2003-11-05T00:00:00.000Z","year":2003,"description":"TENANT IMPROVEMENT IN (E) RETAIL:  REMODEL RESTROOM AND CREATE (N) CLOSET SPACE.  REMOVE AND REPLACE SUSPENDED CEILING GRID.  WORK INCLUDES FINISHES AND MILLWORK.  (1225 SF)","metadescription":"Bldg-Alter/Repair. Commercial. TENANT IMPROVEMENT IN (E) RETAIL:  REMODEL RESTROOM AND CREATE (N) CLOSET SPACE.  REMOVE AND REPLACE SUSPENDED CEILING GRID.  WORK INCLUDES FINISHES AND MILLWORK.  (1225 SF). Permit Finaled. 1385 W PARK WESTERN DR","address":"1385 West Park Western Drive, CA, San Pedro, 90732, US","ct":"2963.00, 2964.00","ev":"N","hl":"YES","apc":"Harbor","cpa":"San Pedro","zone":"(Q)C2-1XL","solar":"N","pin_nbr":"021B193   193","use_code":"16","geolocation":"POINT (-118.30751 33.7523)","status_date":"07/02/2004","permit_group":"Building","refresh_time":"06/10/2026","type_lat_lon":"ADDRESS","business_unit":"Plan Check at Counter"},"geometry":{"type":"Point","coordinates":[-118.30751,33.7523]}},{"type":"Feature","properties":{"date":"2003-09-30T00:00:00.000Z","year":2003,"description":"Non-structural remodel to (E) 2-car garage. Remove mansard roofing.","metadescription":"Bldg-Alter/Repair. 1 or 2 Family Dwelling. Non-structural remodel to (E) 2-car garage. Remove mansard roofing.. Permit Finaled. 2317 W WARMOUTH ST","address":"2317 Warmouth Street, CA, San Pedro, 90732, US","ct":"2974.00","ev":"N","hl":"YES","apc":"Harbor","cpa":"San Pedro","zone":"R1-1XL","solar":"N","pin_nbr":"009B185    61","use_code":"7","geolocation":"POINT (-118.32884 33.72099)","status_date":"01/13/2006","permit_group":"Building","refresh_time":"06/10/2026","type_lat_lon":"ADDRESS","business_unit":"Regular Plan Check"},"geometry":{"type":"Point","coordinates":[-118.32884,33.72099]}},{"type":"Feature","properties":{"date":"2003-09-30T00:00:00.000Z","year":2003,"description":"Non-structural remodel to (E) storage bldg. Remove mansard roofing.","metadescription":"Bldg-Alter/Repair. 1 or 2 Family Dwelling. Non-structural remodel to (E) storage bldg. Remove mansard roofing.. Permit Finaled. 2317 W WARMOUTH ST","address":"2317 Warmouth Street, CA, San Pedro, 90732, US","ct":"2974.00","ev":"N","hl":"YES","apc":"Harbor","cpa":"San Pedro","zone":"R1-1XL","solar":"N","pin_nbr":"009B185    61","use_code":"22","geolocation":"POINT (-118.32884 33.72099)","status_date":"03/29/2007","permit_group":"Building","refresh_time":"06/10/2026","type_lat_lon":"ADDRESS","business_unit":"Regular Plan Check"},"geometry":{"type":"Point","coordinates":[-118.32884,33.72099]}},{"type":"Feature","properties":{"date":"2002-08-27T00:00:00.000Z","year":2002,"description":"ALTERATION TO (E) STOREFRONT FOR SPACE #13.  Replace (E) Shear Wall with Inverted Steel Frame and Grade Beam.","metadescription":"Bldg-Alter/Repair. Commercial. ALTERATION TO (E) STOREFRONT FOR SPACE #13.  Replace (E) Shear Wall with Inverted Steel Frame and Grade Beam.. Permit Finaled. 28150 S WESTERN AVE","address":"28150 South Western Avenue, CA, San Pedro, 90732, US","ct":"2951.01","ev":"N","hl":"YES","apc":"Harbor","zone":"P-1XL, [Q]C2-1XL, [Q]C4-1XL","solar":"N","pin_nbr":"024B193     4","use_code":"16","geolocation":"POINT (-118.31046 33.7634)","status_date":"11/18/2002","permit_group":"Building","refresh_time":"06/10/2026","type_lat_lon":"ADDRESS","business_unit":"Regular Plan Check"},"geometry":{"type":"Point","coordinates":[-118.31046,33.7634]}},{"type":"Feature","properties":{"date":"2002-04-02T00:00:00.000Z","year":2002,"description":"Structural alteration to existing wood shear wall of retail space, replace existing  w/ new (2) 6'-0\" shear wall sections. Relocate entry/exit door in space#10.","metadescription":"Bldg-Alter/Repair. Commercial. Structural alteration to existing wood shear wall of retail space, replace existing  w/ new (2) 6'-0\" shear wall sections. Relocate entry/exit door in space#10.. Permit Finaled. 28150 S WESTERN AVE","address":"28150 South Western Avenue, CA, San Pedro, 90732, US","ct":"2951.00","ev":"N","hl":"YES","apc":"Harbor","zone":"P-1XL, [Q]C2-1XL","solar":"N","pin_nbr":"024B193     4","use_code":"16","geolocation":"POINT (-118.31046 33.7634)","status_date":"07/05/2002","permit_group":"Building","refresh_time":"06/10/2026","type_lat_lon":"ADDRESS","business_unit":"Appointment Plan Check"},"geometry":{"type":"Point","coordinates":[-118.31046,33.7634]}},{"type":"Feature","properties":{"date":"2001-08-01T00:00:00.000Z","year":2001,"description":"Exterior Canopy Remodel and Tenant Improvement. (no new added sq ft) Revise parapet height. No other site improvements are being approved under this permit.","metadescription":"Bldg-Alter/Repair. Commercial. Exterior Canopy Remodel and Tenant Improvement. (no new added sq ft) Revise parapet height. No other site improvements are being approved under this permit.. Permit Finaled. 28178 S WESTERN AVE","address":"28090 South Western Avenue, CA, San Pedro, 90732, US","ct":"2951.00","ev":"N","hl":"YES","apc":"Harbor","zone":"C4-1XL, Q, P-1XL, [Q]C2-1XL","solar":"N","pin_nbr":"024B193     4","use_code":"16","geolocation":"POINT (-118.31015177 33.76495447)","status_date":"01/09/2003","construction":"Type V-N Construction","permit_group":"Building","refresh_time":"06/10/2026","type_lat_lon":"PIN","business_unit":"Regular Plan Check"},"geometry":{"type":"Point","coordinates":[-118.31015177,33.76495447]}},{"type":"Feature","properties":{"date":"2000-03-01T00:00:00.000Z","year":2000,"description":"REMODEL EXISTING RETAIL STORE FACADE (2 OF 2) VALUATION=80,000","metadescription":"Bldg-Alter/Repair. Commercial. REMODEL EXISTING RETAIL STORE FACADE (2 OF 2) VALUATION=80,000. Permit Finaled. 1000 N WESTERN AVE","address":"1000 North Western Avenue, CA, San Pedro, 90732, US","ct":"2963.00","ev":"N","hl":"YES","apc":"Harbor","zone":"( Q ) C2-1XL","solar":"N","pin_nbr":"021B193   140","use_code":"16","geolocation":"POINT (-118.30869 33.75242)","status_date":"03/20/2001","permit_group":"Building","refresh_time":"06/10/2026","type_lat_lon":"ADDRESS","business_unit":"Regular Plan Check"},"geometry":{"type":"Point","coordinates":[-118.30869,33.75242]}},{"type":"Feature","properties":{"date":"2000-01-10T00:00:00.000Z","year":2000,"description":"NONSTRUCTURAL ALTERATIONS TO EXISTING RETAIL SPACE WHICH INCLUDE HANDICAP BATHROOMS.","metadescription":"Bldg-Alter/Repair. Commercial. NONSTRUCTURAL ALTERATIONS TO EXISTING RETAIL SPACE WHICH INCLUDE HANDICAP BATHROOMS.. Permit Finaled. 960 N WESTERN AVE","address":"960 North Western Avenue, CA, San Pedro, 90732, US","ct":"2963.00, 2964.00","ev":"N","hl":"YES","apc":"Harbor","solar":"N","pin_nbr":"021B193   193","use_code":"16","geolocation":"POINT (-118.30879 33.75144)","status_date":"07/18/2001","permit_group":"Building","refresh_time":"06/10/2026","type_lat_lon":"ADDRESS","business_unit":"Plan Check at Counter"},"geometry":{"type":"Point","coordinates":[-118.30879,33.75144]}},{"type":"Feature","properties":{"date":"1999-01-26T00:00:00.000Z","year":1999,"description":"PARTITION INSTALLATION & INTERIOR ALTERATIONS","metadescription":"Bldg-Alter/Repair. Commercial. PARTITION INSTALLATION & INTERIOR ALTERATIONS. Permit Finaled. 980 N WESTERN AVE #H","address":"A-H, 980 North Western Avenue, CA, San Pedro, 90732, US","ct":"2963.00, 2964.00","ev":"N","hl":"YES","apc":"Harbor","zone":"C2-1XL","solar":"N","pin_nbr":"021B193   193","use_code":"16","geolocation":"POINT (-118.30878 33.7515)","status_date":"05/12/2001","permit_group":"Building","refresh_time":"06/10/2026","type_lat_lon":"ADDRESS","business_unit":"Plan Check at Counter"},"geometry":{"type":"Point","coordinates":[-118.30878,33.7515]}},{"type":"Feature","properties":{"date":"1998-09-04T00:00:00.000Z","year":1998,"description":"Interior remodel to existing retail (entire space) for PETCO. rti for eric c. by syed ali","metadescription":"Bldg-Alter/Repair. Commercial. Interior remodel to existing retail (entire space) for PETCO. rti for eric c. by syed ali. Permit Closed. 800 N WESTERN AVE","address":"800 North Western Avenue, CA, San Pedro, 90732, US","ev":"N","apc":"Central","zone":"C2-1XL, Q","solar":"N","pin_nbr":"021B193","use_code":"16","geolocation":"POINT (-118.30895 33.75019)","status_date":"05/10/2001","construction":"Type V-N Construction","permit_group":"Building","refresh_time":"06/10/2026","type_lat_lon":"ADDRESS","business_unit":"Plan Check at Counter"},"geometry":{"type":"Point","coordinates":[-118.30895,33.75019]}},{"type":"Feature","properties":{"date":"1998-07-02T00:00:00.000Z","year":1998,"description":"ALTERATIONS TO (E) SPACE #390. PROVIDE SHELL FOR FUTURE TENENT 15000S.F. (95'X182'). ADD DOCK, 8'X15', (WITHOUT ROOF) AT REAR.","metadescription":"Bldg-Alter/Repair. Commercial. ALTERATIONS TO (E) SPACE #390. PROVIDE SHELL FOR FUTURE TENENT 15000S.F. (95'X182'). ADD DOCK, 8'X15', (WITHOUT ROOF) AT REAR.. Permit Finaled. 840 N WESTERN AVE #390","address":"840 North Western Avenue, CA, San Pedro, 90732, US","ct":"2963.00","ev":"N","hl":"YES","apc":"Harbor","zone":"C2-1XL, Q","solar":"N","pin_nbr":"021B193   193","use_code":"16","geolocation":"POINT (-118.30892 33.7504)","status_date":"08/10/1999","construction":"Type V-N Construction","permit_group":"Building","refresh_time":"06/10/2026","type_lat_lon":"ADDRESS","business_unit":"Regular Plan Check"},"geometry":{"type":"Point","coordinates":[-118.30892,33.7504]}},{"type":"Feature","properties":{"date":"1998-03-12T00:00:00.000Z","year":1998,"description":"ALTERATIONS TO PUBLIC COUNTER AREA AND DOOR HARDWARE FOR HANDICAP ACCESSIBILITY","metadescription":"Bldg-Alter/Repair. Commercial. ALTERATIONS TO PUBLIC COUNTER AREA AND DOOR HARDWARE FOR HANDICAP ACCESSIBILITY. Permit Closed. 800 N WESTERN AVE","address":"800 North Western Avenue, CA, San Pedro, 90732, US","ct":"2963.00, 2964.00","ev":"N","hl":"YES","apc":"Harbor","solar":"N","pin_nbr":"021B193   193","use_code":"13","geolocation":"POINT (-118.30895 33.75019)","status_date":"05/10/2001","permit_group":"Building","refresh_time":"06/10/2026","type_lat_lon":"ADDRESS","business_unit":"Regular Plan Check"},"geometry":{"type":"Point","coordinates":[-118.30895,33.75019]}},{"type":"Feature","properties":{"date":"1998-02-26T00:00:00.000Z","year":1998,"description":"REMODEL KITCHEN. INCLUDE ELECT. & PLUMB. PERMIT APPROVED BY ENG. SK","metadescription":"Bldg-Alter/Repair. 1 or 2 Family Dwelling. REMODEL KITCHEN. INCLUDE ELECT. & PLUMB. PERMIT APPROVED BY ENG. SK. Permit Finaled. 2327 W 37TH ST","address":"2327 West 37Th Street, CA, San Pedro, 90732, US","ct":"2974.00","ev":"N","hl":"YES","apc":"Harbor","solar":"N","pin_nbr":"009B185    10","use_code":"1","geolocation":"POINT (-118.32705 33.72338)","status_date":"12/19/2006","permit_group":"Building","refresh_time":"06/10/2026","type_lat_lon":"ADDRESS","business_unit":"Express Permit"},"geometry":{"type":"Point","coordinates":[-118.32705,33.72338]}},{"type":"Feature","properties":{"date":"1997-07-17T00:00:00.000Z","year":1997,"description":"INTERIOR NON-STRUCTURAL REMODEL W/IN EXISTING SUPERMARKET ADD WALK-IN-COOLER AT EXISTING BAKERY","metadescription":"Bldg-Alter/Repair. Commercial. INTERIOR NON-STRUCTURAL REMODEL W/IN EXISTING SUPERMARKET ADD WALK-IN-COOLER AT EXISTING BAKERY. Permit Closed. 1050 N WESTERN AVE","address":"1050 North Western Avenue, CA, San Pedro, 90732, US","ct":"1916.00","ev":"N","apc":"Central","zone":"C4-1, D","solar":"N","pin_nbr":"144B193   907","use_code":"16","geolocation":"POINT (-118.30864 33.75276)","status_date":"02/05/2000","permit_group":"Building","refresh_time":"06/10/2026","type_lat_lon":"ADDRESS","business_unit":"Plan Check at Counter"},"geometry":{"type":"Point","coordinates":[-118.30864,33.75276]}}]}
