{"type":"FeatureCollection","features":[{"type":"Feature","properties":{"date":"2019-10-29T00:00:00.000Z","year":2019,"description":"2 windows change-out (same size & type) for residential buildings.  Dual glazing, labeled and certified by National Fenestration Rating Council (NFRC), is required for doors and windows replaced in all residential buildings, three stories or less, per Section 150.2 (b) 1b of Title 24.","metadescription":"Bldg-Alter/Repair. 1 or 2 Family Dwelling. 2 windows change-out (same size & type) for residential buildings.  Dual glazing, labeled and certified by National Fenestration Rating Council (NFRC), is required for doors and windows replaced in all residential buildings, three stories or less, per Section 150.2 (b) 1b of Title 24.. Permit Finaled. 2300 W 37TH ST","address":"2300 W 37TH ST","ct":"2974.00","ev":"N","hl":"YES","apc":"Harbor","cpa":"San Pedro","zone":"R1-1XL","solar":"N","pin_nbr":"009B189   192","use_code":"1","geolocation":"POINT (-118.32661 33.72264)","status_date":"12/18/2019","permit_group":"Building","refresh_time":"06/10/2026","type_lat_lon":"ADDRESS","business_unit":"Express Permit"},"geometry":{"type":"Point","coordinates":[-118.32661,33.72264]}},{"type":"Feature","properties":{"date":"2019-10-02T00:00:00.000Z","year":2019,"description":"WINDOW(3) AND DOOR(0) CHANGE OUT(SAME SIZE&TYPE) FOR RESIDENTIAL BUILDINGS.  DUAL GLAZING, LABELED AND CERTIFIED BY NATIONAL FENESTRATION RATING COUNCIL (NFRC), IS REQUIRED FOR DOORS AND WINDOWS REPLACED IN ALL RESIDENTIAL BUILLDINGS, THREE STORIES OR LESS, PER SECTION 150.2(b)1B OF TITLE 24.","metadescription":"Bldg-Alter/Repair. 1 or 2 Family Dwelling. WINDOW(3) AND DOOR(0) CHANGE OUT(SAME SIZE&TYPE) FOR RESIDENTIAL BUILDINGS.  DUAL GLAZING, LABELED AND CERTIFIED BY NATIONAL FENESTRATION RATING COUNCIL (NFRC), IS REQUIRED FOR DOORS AND WINDOWS REPLACED IN ALL RESIDENTIAL BUILLDINGS, THREE STORIES OR LESS, PER SECTION 150.2(b)1B OF TITLE 24.. Issued. 2005 N STONEWOOD CT","address":"2005 N STONEWOOD CT","ct":"2951.03","ev":"N","hl":"YES","apc":"Harbor","cpa":"Wilmington - Harbor City","zone":"R1-1VL","solar":"N","pin_nbr":"027B193    84","use_code":"35","geolocation":"POINT (-118.30844 33.76289)","status_date":"10/02/2019","permit_group":"Building","refresh_time":"06/10/2026","type_lat_lon":"ADDRESS","business_unit":"Express Permit"},"geometry":{"type":"Point","coordinates":[-118.30844,33.76289]}},{"type":"Feature","properties":{"date":"2019-07-15T00:00:00.000Z","year":2019,"description":"3 Windows and 1 door change-out (same size & type) for residential buildings.  Dual glazing, labeled and certified by national fenestration rating council (NFRC), is required for doors and windows replaced in all residential buildings, three stories or less, per section 150.2 (b) 1b of title 24.","metadescription":"Bldg-Alter/Repair. Apartment. 3 Windows and 1 door change-out (same size & type) for residential buildings.  Dual glazing, labeled and certified by national fenestration rating council (NFRC), is required for doors and windows replaced in all residential buildings, three stories or less, per section 150.2 (b) 1b of title 24.. Permit Expired. 28004 S WESTERN AVE #101","address":"28004 S WESTERN AVE #101","ct":"2951.03","ev":"N","hl":"YES","apc":"Harbor","cpa":"Wilmington - Harbor City","zone":"(Q)C2-2, R1-1VL","solar":"N","pin_nbr":"027B193   150","use_code":"35","geolocation":"POINT (-118.31054 33.76565)","status_date":"02/28/2023","permit_group":"Building","refresh_time":"06/10/2026","type_lat_lon":"ADDRESS","business_unit":"Express Permit"},"geometry":{"type":"Point","coordinates":[-118.31054,33.76565]}},{"type":"Feature","properties":{"date":"2019-06-04T00:00:00.000Z","year":2019,"description":"WINDOW(7) CHANGE OUT(SAME SIZE&TYPE) FOR RESIDENTIAL BUILDINGS.  DUAL GLAZING, LABELED AND CERTIFIED BY NATIONAL FENESTRATION RATING COUNCIL (NFRC), IS REQUIRED FOR DOORS AND WINDOWS REPLACED IN ALL RESIDENTIAL BUILDINGS, THREE MSTORIES OR LESS, PER SECTION 150.2(b)1B.","metadescription":"Bldg-Alter/Repair. Apartment. WINDOW(7) CHANGE OUT(SAME SIZE&TYPE) FOR RESIDENTIAL BUILDINGS.  DUAL GLAZING, LABELED AND CERTIFIED BY NATIONAL FENESTRATION RATING COUNCIL (NFRC), IS REQUIRED FOR DOORS AND WINDOWS REPLACED IN ALL RESIDENTIAL BUILDINGS, THREE MSTORIES OR LESS, PER SECTION 150.2(b)1B.. Permit Finaled. 1610 W STONEWOOD CT","address":"1610 W STONEWOOD CT","ct":"2951.03","ev":"N","hl":"YES","apc":"Harbor","cpa":"San Pedro","zone":"RD2-1XL","solar":"N","pin_nbr":"024B193   153","use_code":"35","geolocation":"POINT (-118.30837 33.76175)","status_date":"07/10/2019","permit_group":"Building","refresh_time":"06/10/2026","type_lat_lon":"ADDRESS","business_unit":"Express Permit"},"geometry":{"type":"Point","coordinates":[-118.30837,33.76175]}},{"type":"Feature","properties":{"date":"2019-05-01T00:00:00.000Z","year":2019,"description":"11 WINDOWS AND 1 DOOR CHANGE-OUT (SAME SIZE & TYPE) FOR RESIDENTIAL BUILDINGS.  DUAL GLAZING, LABELED AND CERTIFIED BY NATIONAL FENESTRATION RATING COUNCIL (NFRC), IS REQUIRED FOR DOORS AND WINDOWS REPLACED IN ALL RESIDENTIAL BUILDINGS, THREE STORIES OR LESS, PER SECTION 150.2 (b) 1B OF TITLE 24.      (SINGLE INSPECTION)","metadescription":"Bldg-Alter/Repair. 1 or 2 Family Dwelling. 11 WINDOWS AND 1 DOOR CHANGE-OUT (SAME SIZE & TYPE) FOR RESIDENTIAL BUILDINGS.  DUAL GLAZING, LABELED AND CERTIFIED BY NATIONAL FENESTRATION RATING COUNCIL (NFRC), IS REQUIRED FOR DOORS AND WINDOWS REPLACED IN ALL RESIDENTIAL BUILDINGS, THREE STORIES OR LESS, PER SECTION 150.2 (b) 1B OF TITLE 24.      (SINGLE INSPECTION). Issued. 1642 W DALMATIA DR","address":"1642 W DALMATIA DR","ct":"2951.03","ev":"N","hl":"YES","apc":"Harbor","cpa":"San Pedro","zone":"RD2-1XL","solar":"N","pin_nbr":"024B193    58","use_code":"1","geolocation":"POINT (-118.30784 33.76398)","status_date":"05/01/2019","permit_group":"Building","refresh_time":"06/10/2026","type_lat_lon":"ADDRESS","business_unit":"Express Permit"},"geometry":{"type":"Point","coordinates":[-118.30784,33.76398]}},{"type":"Feature","properties":{"date":"2019-02-27T00:00:00.000Z","year":2019,"description":"WINDOW(2)AND DOOR(1) CHANGE OUT(SAME SIZE&TYPE)FOR RESIDENTIAL BUILDINGS.  DUAL GLAZING, LABELED AND CERTIFIED BY NATIONAL FENESTRATON RATING COUNCIL (NFRC), IS REQURED FOR DOORS AND WINDOWS REPLACED IN ALL RESIDENTIAL BUILDINGS, THREE STORIES OR LESS, PER SECTION 150.2(b)1B OF TITLE 24.","metadescription":"Bldg-Alter/Repair. Apartment. WINDOW(2)AND DOOR(1) CHANGE OUT(SAME SIZE&TYPE)FOR RESIDENTIAL BUILDINGS.  DUAL GLAZING, LABELED AND CERTIFIED BY NATIONAL FENESTRATON RATING COUNCIL (NFRC), IS REQURED FOR DOORS AND WINDOWS REPLACED IN ALL RESIDENTIAL BUILDINGS, THREE STORIES OR LESS, PER SECTION 150.2(b)1B OF TITLE 24.. Permit Finaled. 28004 S WESTERN AVE #305","address":"28004 S WESTERN AVE #305","ct":"2951.03","ev":"N","hl":"YES","apc":"Harbor","cpa":"Wilmington - Harbor City","zone":"(Q)C2-2, R1-1VL","solar":"N","pin_nbr":"027B193   150","use_code":"1","geolocation":"POINT (-118.31054 33.76565)","status_date":"04/02/2019","permit_group":"Building","refresh_time":"06/10/2026","type_lat_lon":"ADDRESS","business_unit":"Express Permit"},"geometry":{"type":"Point","coordinates":[-118.31054,33.76565]}},{"type":"Feature","properties":{"date":"2015-07-29T00:00:00.000Z","year":2015,"description":"SUPPLEMENTAL PERMIT FOR PERMIT #15016-40000-14397 TO ADD PLUMBING, ELECTRICAL AND HVAC FEES AND ADDITIONAL FEES FOR NEW VALUATION PER INSPECTOR","metadescription":"Bldg-Alter/Repair. 1 or 2 Family Dwelling. SUPPLEMENTAL PERMIT FOR PERMIT #15016-40000-14397 TO ADD PLUMBING, ELECTRICAL AND HVAC FEES AND ADDITIONAL FEES FOR NEW VALUATION PER INSPECTOR. Permit Expired. 3737 S STARGAZER AVE","address":"2304 West Paseo Del Mar, CA, San Pedro, 90732, US","ct":"2974.00","ev":"N","hl":"YES","apc":"Harbor","cpa":"San Pedro","zone":"R1-1XL","solar":"N","pin_nbr":"009B185    31","use_code":"1","geolocation":"POINT (-118.32739 33.72205)","status_date":"08/23/2017","permit_group":"Building","refresh_time":"06/10/2026","type_lat_lon":"ADDRESS","business_unit":"Express Permit"},"geometry":{"type":"Point","coordinates":[-118.32739,33.72205]}},{"type":"Feature","properties":{"date":"2012-03-08T00:00:00.000Z","year":2012,"description":"General Rehabilitation (No Alteration & No Structural Changes.) (Less Than 10% Of Replacement Cost Of Building. New Wall Heater. Gas Outlet For Outside Grill. Residential Kitchen & Bathroom Remodel - Repari/Replace Only. No Changes In Walls Or Openings. Combined With Electrical, Plumbing, & HVAC. Comply Wilth Department Order Effective Date 02/24/2012. Permit Will Expire 30 Days From Issuance Date. All Permits Shall Be For The Same Time Period Limitation.","metadescription":"Bldg-Alter/Repair. 1 or 2 Family Dwelling. General Rehabilitation (No Alteration & No Structural Changes.) (Less Than 10% Of Replacement Cost Of Building. New Wall Heater. Gas Outlet For Outside Grill. Residential Kitchen & Bathroom Remodel - Repari/Replace Only. No Changes In Walls Or Openings. Combined With Electrical, Plumbing, & HVAC. Comply Wilth Department Order Effective Date 02/24/2012. Permit Will Expire 30 Days From Issuance Date. All Permits Shall Be For The Same Time Period Limitation.. Permit Finaled. 3817 S SHAD PL","address":"3817 Shad Place, CA, San Pedro, 90732, US","ct":"2974.00","ev":"N","hl":"YES","apc":"Harbor","cpa":"San Pedro","zone":"R1-1XL","solar":"N","pin_nbr":"009B185    45","use_code":"1","geolocation":"POINT (-118.3288 33.72154)","status_date":"04/17/2012","permit_group":"Building","refresh_time":"06/10/2026","type_lat_lon":"ADDRESS","business_unit":"Express Permit"},"geometry":{"type":"Point","coordinates":[-118.3288,33.72154]}},{"type":"Feature","properties":{"date":"2012-03-07T00:00:00.000Z","year":2012,"description":"CHANGE OUT 15 WINDOWS & 1 DOOR  (SAME SIZE & TYPE FOR RESIDENTIAL BUILDINGS ONLY). COMPLY WITH DEPARTMENT ORDER EFFECTIVE DATE 02/24/2012. PERMIT WILL EXPIRE 30 DAYS FROM ISSUANCE DATE. ALL PERMITS SHALL BE FOR THE SAME TIME PERIOD LIMITATION. INVESTIGATION FEE PAID ON THIS PERMIT.","metadescription":"Bldg-Alter/Repair. 1 or 2 Family Dwelling. CHANGE OUT 15 WINDOWS & 1 DOOR  (SAME SIZE & TYPE FOR RESIDENTIAL BUILDINGS ONLY). COMPLY WITH DEPARTMENT ORDER EFFECTIVE DATE 02/24/2012. PERMIT WILL EXPIRE 30 DAYS FROM ISSUANCE DATE. ALL PERMITS SHALL BE FOR THE SAME TIME PERIOD LIMITATION. INVESTIGATION FEE PAID ON THIS PERMIT.. Permit Finaled. 3817 S SHAD PL","address":"3817 S SHAD PL","ct":"2974.00","ev":"N","hl":"YES","apc":"Harbor","cpa":"San Pedro","zone":"R1-1XL","solar":"N","pin_nbr":"009B185    45","use_code":"1","geolocation":"POINT (-118.3288 33.72154)","status_date":"04/03/2012","permit_group":"Building","refresh_time":"06/10/2026","type_lat_lon":"ADDRESS","business_unit":"Express Permit"},"geometry":{"type":"Point","coordinates":[-118.3288,33.72154]}},{"type":"Feature","properties":{"date":"2011-11-28T00:00:00.000Z","year":2011,"description":"**GO OVER EXISTING B.U.R. CAP SHEET ROOF OVER WOOD DECK.  INSTALL 1/4\" DENS-DECK, THEN LAY 'GAF' 60 MIL SINGLE PLY TPO MECHANICALLY FASTENED ROOF SYSTEM, WHITE CRRC# 0676-0001, ICC# ESR-1597, 448.8 SQS.,    *GO OVER, NO HAULING OF OLD ROOF****","metadescription":"Bldg-Alter/Repair. Commercial. **GO OVER EXISTING B.U.R. CAP SHEET ROOF OVER WOOD DECK.  INSTALL 1/4\" DENS-DECK, THEN LAY 'GAF' 60 MIL SINGLE PLY TPO MECHANICALLY FASTENED ROOF SYSTEM, WHITE CRRC# 0676-0001, ICC# ESR-1597, 448.8 SQS.,    *GO OVER, NO HAULING OF OLD ROOF****. Permit Finaled. 940 N WESTERN AVE","address":"A-E, 940 North Western Avenue, CA, San Pedro, 90732, US","ct":"2963.00, 2964.00","ev":"N","hl":"YES","apc":"Harbor","cpa":"San Pedro","zone":"(Q)C2-1XL","solar":"N","pin_nbr":"021B193   193","use_code":"16","geolocation":"POINT (-118.30881 33.75105)","status_date":"01/12/2012","permit_group":"Building","refresh_time":"06/10/2026","type_lat_lon":"ADDRESS","business_unit":"Express Permit"},"geometry":{"type":"Point","coordinates":[-118.30881,33.75105]}},{"type":"Feature","properties":{"date":"2011-11-28T00:00:00.000Z","year":2011,"description":"**GO OVER EXISTING B.U.R. CAP SHEET ROOF OVER WOOD DECK.  INSTALL 1/4\" DENS-DECK, THEN LAY 'GAF' 60 MIL SINGLE PLY TPO MECHANICALLY FASTENED ROOF SYSTEM, WHITE CRRC# 0676-0001, ICC# ESR-1597, 165.4 SQS.,    *GO OVER, NO HAULING OF OLD ROOF****","metadescription":"Bldg-Alter/Repair. Commercial. **GO OVER EXISTING B.U.R. CAP SHEET ROOF OVER WOOD DECK.  INSTALL 1/4\" DENS-DECK, THEN LAY 'GAF' 60 MIL SINGLE PLY TPO MECHANICALLY FASTENED ROOF SYSTEM, WHITE CRRC# 0676-0001, ICC# ESR-1597, 165.4 SQS.,    *GO OVER, NO HAULING OF OLD ROOF****. Permit Finaled. 980 N WESTERN AVE","address":"A-H, 980 North Western Avenue, CA, San Pedro, 90732, US","ct":"2963.00, 2964.00","ev":"N","hl":"YES","apc":"Harbor","cpa":"San Pedro","zone":"(Q)C2-1XL","solar":"N","pin_nbr":"021B193   193","use_code":"16","geolocation":"POINT (-118.30878 33.7515)","status_date":"01/12/2012","permit_group":"Building","refresh_time":"06/10/2026","type_lat_lon":"ADDRESS","business_unit":"Express Permit"},"geometry":{"type":"Point","coordinates":[-118.30878,33.7515]}},{"type":"Feature","properties":{"date":"2011-10-28T00:00:00.000Z","year":2011,"description":"CHANGE OUT 3 WINDOWS (SAME SIZE AND LOCATION).","metadescription":"Bldg-Alter/Repair. Apartment. CHANGE OUT 3 WINDOWS (SAME SIZE AND LOCATION).. Permit Finaled. 1630 W DALMATIA DR","address":"1630 W DALMATIA DR","ct":"2951.03","ev":"N","hl":"YES","apc":"Harbor","cpa":"San Pedro","zone":"RD2-1XL","solar":"N","pin_nbr":"024B193    58","use_code":"35","geolocation":"POINT (-118.30759 33.76401)","status_date":"11/13/2013","permit_group":"Building","refresh_time":"06/10/2026","type_lat_lon":"ADDRESS","business_unit":"Express Permit"},"geometry":{"type":"Point","coordinates":[-118.30759,33.76401]}},{"type":"Feature","properties":{"date":"2010-03-15T00:00:00.000Z","year":2010,"description":"CHANGE OUT 1 PEDESTRIAN DOOR (SAME SIZE AND LOCATION).","metadescription":"Bldg-Alter/Repair. Apartment. CHANGE OUT 1 PEDESTRIAN DOOR (SAME SIZE AND LOCATION).. Permit Expired. 1604 W STONEWOOD CT","address":"1604 W STONEWOOD CT","ct":"2951.01","ev":"N","hl":"YES","apc":"Harbor","cpa":"San Pedro","zone":"RD2-1XL","solar":"N","pin_nbr":"024B193   153","use_code":"5","geolocation":"POINT (-118.30838 33.76167)","status_date":"08/23/2012","permit_group":"Building","refresh_time":"06/10/2026","type_lat_lon":"ADDRESS","business_unit":"Express Permit"},"geometry":{"type":"Point","coordinates":[-118.30838,33.76167]}},{"type":"Feature","properties":{"date":"2007-08-22T00:00:00.000Z","year":2007,"description":"Kitchen Remodel.  Install Rec. Lights, Relocate Outlets, Patch Drywall & Paint.  Install Cabinets and Appliances.  Elec, HVAC & Plumb. under separate permits.","metadescription":"Bldg-Alter/Repair. Apartment. Kitchen Remodel.  Install Rec. Lights, Relocate Outlets, Patch Drywall & Paint.  Install Cabinets and Appliances.  Elec, HVAC & Plumb. under separate permits.. Permit Finaled. 2058 N STONEWOOD CT","address":"2058 Stonewood Court, CA, San Pedro, 90732, US","ct":"2951.01","ev":"N","hl":"YES","apc":"Harbor","cpa":"San Pedro","zone":"RD2-1XL","solar":"N","pin_nbr":"024B193    58","use_code":"35","geolocation":"POINT (-118.30796 33.7637)","status_date":"10/29/2007","permit_group":"Building","refresh_time":"06/10/2026","type_lat_lon":"ADDRESS","business_unit":"Express Permit"},"geometry":{"type":"Point","coordinates":[-118.30796,33.7637]}},{"type":"Feature","properties":{"date":"2000-10-10T00:00:00.000Z","year":2000,"description":"REPLACE THREE NEW WOOD PLATFORM FOR MECHANICAL EQUIPMENT AT UNIT 1) 615 # UNIT 2) 1083# UNIT 3) 5142 # HEIGHT OF UNITS=33\". THE BUILDING HEIGHT TO BE REMAINED THE SAME.","metadescription":"Bldg-Alter/Repair. Commercial. REPLACE THREE NEW WOOD PLATFORM FOR MECHANICAL EQUIPMENT AT UNIT 1) 615 # UNIT 2) 1083# UNIT 3) 5142 # HEIGHT OF UNITS=33\". THE BUILDING HEIGHT TO BE REMAINED THE SAME.. Permit Finaled. 800 N WESTERN AVE","address":"800 North Western Avenue, CA, San Pedro, 90732, US","ct":"2963.00, 2964.00","ev":"N","hl":"YES","apc":"Harbor","zone":"(Q)C2-1XL","solar":"N","pin_nbr":"021B193   193","use_code":"13","geolocation":"POINT (-118.30895 33.75019)","status_date":"07/18/2001","permit_group":"Building","refresh_time":"06/10/2026","type_lat_lon":"ADDRESS","business_unit":"Plan Check at Counter"},"geometry":{"type":"Point","coordinates":[-118.30895,33.75019]}}]}
