{"type":"FeatureCollection","features":[{"type":"Feature","properties":{"date":"2021-05-11T00:00:00.000Z","year":2021,"description":"ePlan Proposed Commercial rooftop solar panels, solar Anchorage.","metadescription":"Bldg-Alter/Repair. Commercial. ePlan Proposed Commercial rooftop solar panels, solar Anchorage.. Permit Finaled. 916 N WESTERN AVE","address":"916 North Western Avenue, CA, San Pedro, 90732, US","ct":"2963.00","ev":"N","hl":"YES","apc":"Harbor","cpa":"San Pedro","zone":"[Q]C2-1XL","solar":"N","pin_nbr":"021B193   193","use_code":"16","status_date":"11/22/2021","permit_group":"Building","refresh_time":"06/10/2026","type_lat_lon":"ADDRESS","business_unit":"Regular Plan Check"},"geometry":{"type":"Point","coordinates":[-118.30886,33.75076]}}]}
