{"type":"FeatureCollection","features":[{"type":"Feature","properties":{"date":"2025-12-01T00:00:00.000Z","year":2025,"description":"eplan: (2) new window signs (sign E)","metadescription":"Sign. Onsite. eplan: (2) new window signs (sign E). Permit Finaled. 1000 N WESTERN AVE","address":"1000 North Western Avenue, CA, San Pedro, 90732, US","ct":"2963.00","ev":"N","hl":"YES","apc":"Harbor","cpa":"San Pedro","zone":"(Q)C2-1XL","solar":"N","pin_nbr":"021B193   140","use_code":"19","status_date":"01/20/2026","permit_group":"Building","refresh_time":"06/10/2026","type_lat_lon":"ADDRESS","business_unit":"Plan Check at Counter"},"geometry":{"type":"Point","coordinates":[-118.30869,33.75242]}},{"type":"Feature","properties":{"date":"2023-02-21T00:00:00.000Z","year":2023,"description":"(1) WINDOW SIGN: INSTALL VINYL GRAPHICS ON DOOR WINDOW (1'-5\" X 0'-9.875\") (1.16 SF)","metadescription":"Sign. Onsite. (1) WINDOW SIGN: INSTALL VINYL GRAPHICS ON DOOR WINDOW (1'-5\" X 0'-9.875\") (1.16 SF). Permit Finaled. 900 N WESTERN AVE 350A","address":"900 North Western Avenue, CA, San Pedro, 90732, US","ct":"2963.00","ev":"N","hl":"YES","apc":"Harbor","cpa":"San Pedro","zone":"[Q]C2-1XL","solar":"N","pin_nbr":"021B193   192","use_code":"19","status_date":"06/07/2024","permit_group":"Building","refresh_time":"06/10/2026","type_lat_lon":"ADDRESS","business_unit":"Plan Check at Counter"},"geometry":{"type":"Point","coordinates":[-118.30889,33.75058]}},{"type":"Feature","properties":{"date":"2021-07-21T00:00:00.000Z","year":2021,"description":"INTERIOR/EXTERIOR ALTERATIN OF (E) SFD. REMODEL FULL KITCHEN REMODEL, CLOSING 1 WINDOW.  REMOVE FIREPLACE AND CHIMNEY.all work per Engr Design","metadescription":"Bldg-Alter/Repair. 1 or 2 Family Dwelling. INTERIOR/EXTERIOR ALTERATIN OF (E) SFD. REMODEL FULL KITCHEN REMODEL, CLOSING 1 WINDOW.  REMOVE FIREPLACE AND CHIMNEY.all work per Engr Design. Permit Finaled. 3815 S STARGAZER AVE","address":"3819 Stargazer Avenue, CA, San Pedro, 90732, US","ct":"2974.00","ev":"N","hl":"YES","apc":"Harbor","cpa":"San Pedro","zone":"R1-1XL","solar":"N","pin_nbr":"009B185    52","use_code":"1","status_date":"12/06/2021","permit_group":"Building","refresh_time":"06/10/2026","type_lat_lon":"ADDRESS","business_unit":"Plan Check at Counter"},"geometry":{"type":"Point","coordinates":[-118.32793,33.7212]}},{"type":"Feature","properties":{"date":"2019-10-29T00:00:00.000Z","year":2019,"description":"2 windows change-out (same size & type) for residential buildings.  Dual glazing, labeled and certified by National Fenestration Rating Council (NFRC), is required for doors and windows replaced in all residential buildings, three stories or less, per Section 150.2 (b) 1b of Title 24.","metadescription":"Bldg-Alter/Repair. 1 or 2 Family Dwelling. 2 windows change-out (same size & type) for residential buildings.  Dual glazing, labeled and certified by National Fenestration Rating Council (NFRC), is required for doors and windows replaced in all residential buildings, three stories or less, per Section 150.2 (b) 1b of Title 24.. Permit Finaled. 2300 W 37TH ST","address":"2300 West 37Th Street, CA, San Pedro, 90732, US","ct":"2974.00","ev":"N","hl":"YES","apc":"Harbor","cpa":"San Pedro","zone":"R1-1XL","solar":"N","pin_nbr":"009B189   192","use_code":"1","geolocation":"POINT (-118.32661 33.72264)","status_date":"12/18/2019","permit_group":"Building","refresh_time":"06/10/2026","type_lat_lon":"ADDRESS","business_unit":"Express Permit"},"geometry":{"type":"Point","coordinates":[-118.32661,33.72264]}},{"type":"Feature","properties":{"date":"2019-10-02T00:00:00.000Z","year":2019,"description":"WINDOW(3) AND DOOR(0) CHANGE OUT(SAME SIZE&TYPE) FOR RESIDENTIAL BUILDINGS.  DUAL GLAZING, LABELED AND CERTIFIED BY NATIONAL FENESTRATION RATING COUNCIL (NFRC), IS REQUIRED FOR DOORS AND WINDOWS REPLACED IN ALL RESIDENTIAL BUILLDINGS, THREE STORIES OR LESS, PER SECTION 150.2(b)1B OF TITLE 24.","metadescription":"Bldg-Alter/Repair. 1 or 2 Family Dwelling. WINDOW(3) AND DOOR(0) CHANGE OUT(SAME SIZE&TYPE) FOR RESIDENTIAL BUILDINGS.  DUAL GLAZING, LABELED AND CERTIFIED BY NATIONAL FENESTRATION RATING COUNCIL (NFRC), IS REQUIRED FOR DOORS AND WINDOWS REPLACED IN ALL RESIDENTIAL BUILLDINGS, THREE STORIES OR LESS, PER SECTION 150.2(b)1B OF TITLE 24.. Issued. 2005 N STONEWOOD CT","address":"2005 Stonewood Court, CA, San Pedro, 90732, US","ct":"2951.03","ev":"N","hl":"YES","apc":"Harbor","cpa":"Wilmington - Harbor City","zone":"R1-1VL","solar":"N","pin_nbr":"027B193    84","use_code":"35","geolocation":"POINT (-118.30844 33.76289)","status_date":"10/02/2019","permit_group":"Building","refresh_time":"06/10/2026","type_lat_lon":"ADDRESS","business_unit":"Express Permit"},"geometry":{"type":"Point","coordinates":[-118.30844,33.76289]}},{"type":"Feature","properties":{"date":"2019-07-15T00:00:00.000Z","year":2019,"description":"3 Windows and 1 door change-out (same size & type) for residential buildings.  Dual glazing, labeled and certified by national fenestration rating council (NFRC), is required for doors and windows replaced in all residential buildings, three stories or less, per section 150.2 (b) 1b of title 24.","metadescription":"Bldg-Alter/Repair. Apartment. 3 Windows and 1 door change-out (same size & type) for residential buildings.  Dual glazing, labeled and certified by national fenestration rating council (NFRC), is required for doors and windows replaced in all residential buildings, three stories or less, per section 150.2 (b) 1b of title 24.. Permit Expired. 28004 S WESTERN AVE #101","address":"28004 South Western Avenue, CA, San Pedro, 90732, US","ct":"2951.03","ev":"N","hl":"YES","apc":"Harbor","cpa":"Wilmington - Harbor City","zone":"(Q)C2-2, R1-1VL","solar":"N","pin_nbr":"027B193   150","use_code":"35","geolocation":"POINT (-118.31054 33.76565)","status_date":"02/28/2023","permit_group":"Building","refresh_time":"06/10/2026","type_lat_lon":"ADDRESS","business_unit":"Express Permit"},"geometry":{"type":"Point","coordinates":[-118.31054,33.76565]}},{"type":"Feature","properties":{"date":"2019-06-04T00:00:00.000Z","year":2019,"description":"WINDOW(7) CHANGE OUT(SAME SIZE&TYPE) FOR RESIDENTIAL BUILDINGS.  DUAL GLAZING, LABELED AND CERTIFIED BY NATIONAL FENESTRATION RATING COUNCIL (NFRC), IS REQUIRED FOR DOORS AND WINDOWS REPLACED IN ALL RESIDENTIAL BUILDINGS, THREE MSTORIES OR LESS, PER SECTION 150.2(b)1B.","metadescription":"Bldg-Alter/Repair. Apartment. WINDOW(7) CHANGE OUT(SAME SIZE&TYPE) FOR RESIDENTIAL BUILDINGS.  DUAL GLAZING, LABELED AND CERTIFIED BY NATIONAL FENESTRATION RATING COUNCIL (NFRC), IS REQUIRED FOR DOORS AND WINDOWS REPLACED IN ALL RESIDENTIAL BUILDINGS, THREE MSTORIES OR LESS, PER SECTION 150.2(b)1B.. Permit Finaled. 1610 W STONEWOOD CT","address":"1610 Stonewood Court, CA, San Pedro, 90732, US","ct":"2951.03","ev":"N","hl":"YES","apc":"Harbor","cpa":"San Pedro","zone":"RD2-1XL","solar":"N","pin_nbr":"024B193   153","use_code":"35","geolocation":"POINT (-118.30837 33.76175)","status_date":"07/10/2019","permit_group":"Building","refresh_time":"06/10/2026","type_lat_lon":"ADDRESS","business_unit":"Express Permit"},"geometry":{"type":"Point","coordinates":[-118.30837,33.76175]}},{"type":"Feature","properties":{"date":"2019-05-21T00:00:00.000Z","year":2019,"description":"Replace 9 window(s) Same size, location, number, type.","metadescription":"Bldg-Alter/Repair. Apartment. Replace 9 window(s) Same size, location, number, type.. Issued. 1334 W STONEWOOD CT","address":"1334 Stonewood Court, CA, San Pedro, 90732, US","ct":"2951.03","ev":"N","hl":"YES","apc":"Harbor","cpa":"San Pedro","zone":"RD2-1XL","solar":"N","pin_nbr":"024B193   197","use_code":"1","geolocation":"POINT (-118.30433 33.76152)","status_date":"05/21/2019","permit_group":"Building","refresh_time":"06/10/2026","type_lat_lon":"ADDRESS","business_unit":"Express Permit"},"geometry":{"type":"Point","coordinates":[-118.30433,33.76152]}},{"type":"Feature","properties":{"date":"2019-05-01T00:00:00.000Z","year":2019,"description":"11 WINDOWS AND 1 DOOR CHANGE-OUT (SAME SIZE & TYPE) FOR RESIDENTIAL BUILDINGS.  DUAL GLAZING, LABELED AND CERTIFIED BY NATIONAL FENESTRATION RATING COUNCIL (NFRC), IS REQUIRED FOR DOORS AND WINDOWS REPLACED IN ALL RESIDENTIAL BUILDINGS, THREE STORIES OR LESS, PER SECTION 150.2 (b) 1B OF TITLE 24.      (SINGLE INSPECTION)","metadescription":"Bldg-Alter/Repair. 1 or 2 Family Dwelling. 11 WINDOWS AND 1 DOOR CHANGE-OUT (SAME SIZE & TYPE) FOR RESIDENTIAL BUILDINGS.  DUAL GLAZING, LABELED AND CERTIFIED BY NATIONAL FENESTRATION RATING COUNCIL (NFRC), IS REQUIRED FOR DOORS AND WINDOWS REPLACED IN ALL RESIDENTIAL BUILDINGS, THREE STORIES OR LESS, PER SECTION 150.2 (b) 1B OF TITLE 24.      (SINGLE INSPECTION). Issued. 1642 W DALMATIA DR","address":"1642 Dalmatia Drive, CA, San Pedro, 90732, US","ct":"2951.03","ev":"N","hl":"YES","apc":"Harbor","cpa":"San Pedro","zone":"RD2-1XL","solar":"N","pin_nbr":"024B193    58","use_code":"1","geolocation":"POINT (-118.30784 33.76398)","status_date":"05/01/2019","permit_group":"Building","refresh_time":"06/10/2026","type_lat_lon":"ADDRESS","business_unit":"Express Permit"},"geometry":{"type":"Point","coordinates":[-118.30784,33.76398]}},{"type":"Feature","properties":{"date":"2019-04-23T00:00:00.000Z","year":2019,"description":"SUPPLEMENTAL PERMIT TO 18016-10000-30190 TO CHANGE DOOR TO WINDOW","metadescription":"Bldg-Alter/Repair. Commercial. SUPPLEMENTAL PERMIT TO 18016-10000-30190 TO CHANGE DOOR TO WINDOW. Permit Finaled. 29050 S WESTERN AVE #127B","address":"29035 South Western Avenue, CA, Rancho Palos Verdes, 90275, US","ct":"2963.00","ev":"N","hl":"YES","apc":"Harbor","zone":"(Q)C2-1VLD","solar":"N","pin_nbr":"021B193    39","use_code":"12","geolocation":"POINT (-118.30904 33.7545)","status_date":"05/03/2019","permit_group":"Building","refresh_time":"06/10/2026","type_lat_lon":"ADDRESS","business_unit":"Plan Check at Counter"},"geometry":{"type":"Point","coordinates":[-118.30904,33.7545]}},{"type":"Feature","properties":{"date":"2019-02-27T00:00:00.000Z","year":2019,"description":"WINDOW(2)AND DOOR(1) CHANGE OUT(SAME SIZE&TYPE)FOR RESIDENTIAL BUILDINGS.  DUAL GLAZING, LABELED AND CERTIFIED BY NATIONAL FENESTRATON RATING COUNCIL (NFRC), IS REQURED FOR DOORS AND WINDOWS REPLACED IN ALL RESIDENTIAL BUILDINGS, THREE STORIES OR LESS, PER SECTION 150.2(b)1B OF TITLE 24.","metadescription":"Bldg-Alter/Repair. Apartment. WINDOW(2)AND DOOR(1) CHANGE OUT(SAME SIZE&TYPE)FOR RESIDENTIAL BUILDINGS.  DUAL GLAZING, LABELED AND CERTIFIED BY NATIONAL FENESTRATON RATING COUNCIL (NFRC), IS REQURED FOR DOORS AND WINDOWS REPLACED IN ALL RESIDENTIAL BUILDINGS, THREE STORIES OR LESS, PER SECTION 150.2(b)1B OF TITLE 24.. Permit Finaled. 28004 S WESTERN AVE #305","address":"28004 South Western Avenue, CA, San Pedro, 90732, US","ct":"2951.03","ev":"N","hl":"YES","apc":"Harbor","cpa":"Wilmington - Harbor City","zone":"(Q)C2-2, R1-1VL","solar":"N","pin_nbr":"027B193   150","use_code":"1","geolocation":"POINT (-118.31054 33.76565)","status_date":"04/02/2019","permit_group":"Building","refresh_time":"06/10/2026","type_lat_lon":"ADDRESS","business_unit":"Express Permit"},"geometry":{"type":"Point","coordinates":[-118.31054,33.76565]}},{"type":"Feature","properties":{"date":"2018-12-19T00:00:00.000Z","year":2018,"description":"Door (1) change-out (same size & type) for residential buildings.  Dual glazing, labeled and certified by National Fenestration Rating Council (NFRC), is required for doors and windows replaced in all residential buildings, three stories or less, per Section 150.2(b)1B of Title 24.","metadescription":"Bldg-Alter/Repair. Apartment. Door (1) change-out (same size & type) for residential buildings.  Dual glazing, labeled and certified by National Fenestration Rating Council (NFRC), is required for doors and windows replaced in all residential buildings, three stories or less, per Section 150.2(b)1B of Title 24.. Permit Expired. 1450 W BRETT PL #101","address":"1448 Brett Place, CA, San Pedro, 90732, US","ct":"2963.00","ev":"N","hl":"YES","apc":"Harbor","cpa":"San Pedro","zone":"(Q)RD1.5-1VLD","solar":"N","pin_nbr":"024B193   607","use_code":"5","geolocation":"POINT (-118.30869 33.75681)","status_date":"03/28/2023","permit_group":"Building","refresh_time":"06/10/2026","type_lat_lon":"ADDRESS","business_unit":"Express Permit"},"geometry":{"type":"Point","coordinates":[-118.30869,33.75681]}},{"type":"Feature","properties":{"date":"2018-12-07T00:00:00.000Z","year":2018,"description":"Window (2) and door (1) change-out (same size & type) for residential buildings.  Dual glazing, labeled and certified by National Fenestration Rating Council (NFRC), is required for doors and windows replaced in all residential buildings, three stories or less, per Section 150.2(b)1B of Title 24.","metadescription":"Bldg-Alter/Repair. Apartment. Window (2) and door (1) change-out (same size & type) for residential buildings.  Dual glazing, labeled and certified by National Fenestration Rating Council (NFRC), is required for doors and windows replaced in all residential buildings, three stories or less, per Section 150.2(b)1B of Title 24.. Permit Finaled. 1376 W STONEWOOD CT","address":"1376 Stonewood Court, CA, San Pedro, 90732, US","ct":"2951.03","ev":"N","hl":"Yes","apc":"Harbor","cpa":"San Pedro","zone":"RD2-1XL","solar":"N","pin_nbr":"024B193   198","use_code":"35","geolocation":"POINT (-118.30512 33.76143)","status_date":"01/25/2019","permit_group":"Building","refresh_time":"06/10/2026","type_lat_lon":"ADDRESS","business_unit":"Express Permit"},"geometry":{"type":"Point","coordinates":[-118.30512,33.76143]}},{"type":"Feature","properties":{"date":"2018-08-17T00:00:00.000Z","year":2018,"description":"2  DOORS CHANGE-OUT (SAME SIZE & TYPE) FOR RESIDENTIAL BUILDINGS.  DUAL GLAZING, LABELED AND CERTIFIED BY NATIONAL FENESTRATION RATING COUNCIL (NFRC), IS REQUIRED FOR DOORS AND WINDOWS REPLACED IN ALL RESIDENTIAL BUILDINGS, THREE STORIES OR LESS, PER SECTION 150.2 (B) 1B OF TITLE 24.","metadescription":"Bldg-Alter/Repair. Apartment. 2  DOORS CHANGE-OUT (SAME SIZE & TYPE) FOR RESIDENTIAL BUILDINGS.  DUAL GLAZING, LABELED AND CERTIFIED BY NATIONAL FENESTRATION RATING COUNCIL (NFRC), IS REQUIRED FOR DOORS AND WINDOWS REPLACED IN ALL RESIDENTIAL BUILDINGS, THREE STORIES OR LESS, PER SECTION 150.2 (B) 1B OF TITLE 24.. Permit Finaled. 1445 W BRETT PL 307","address":"1441 Brett Place, CA, San Pedro, 90732, US","ct":"2963.00","ev":"N","hl":"YES","apc":"Harbor","cpa":"San Pedro","zone":"R3-1VLD","solar":"N","pin_nbr":"021B193    31","use_code":"5","geolocation":"POINT (-118.30869 33.75651)","status_date":"09/27/2018","permit_group":"Building","refresh_time":"06/10/2026","type_lat_lon":"ADDRESS","business_unit":"Express Permit"},"geometry":{"type":"Point","coordinates":[-118.30869,33.75651]}},{"type":"Feature","properties":{"date":"2018-07-20T00:00:00.000Z","year":2018,"description":"2-WINDOW CHANGE OUT(SAME SIZE AND TYPE)FOR RESIDENTIAL BUILDINGS.  DUAL GLAZING, LABELED AND CERTIFIED BY NATIONAL FENESTRATION RATING COUNCIL (NFRC) IS REQUIRED FOR DOORS AND WINDOWS REPLACED IN ALL RESIDENTIAL BUILDINGS, THREE STORIES OR LESS, PER SECTION 150.2(b)1B","metadescription":"Bldg-Alter/Repair. Apartment. 2-WINDOW CHANGE OUT(SAME SIZE AND TYPE)FOR RESIDENTIAL BUILDINGS.  DUAL GLAZING, LABELED AND CERTIFIED BY NATIONAL FENESTRATION RATING COUNCIL (NFRC) IS REQUIRED FOR DOORS AND WINDOWS REPLACED IN ALL RESIDENTIAL BUILDINGS, THREE STORIES OR LESS, PER SECTION 150.2(b)1B. Permit Finaled. 2005 N STONEWOOD CT","address":"2005 Stonewood Court, CA, San Pedro, 90732, US","ct":"2951.03","ev":"N","hl":"Yes","apc":"Harbor","cpa":"San Pedro","zone":"RD2-1XL","solar":"N","pin_nbr":"024B193     5","use_code":"1","geolocation":"POINT (-118.30844 33.76289)","status_date":"08/07/2018","permit_group":"Building","refresh_time":"06/10/2026","type_lat_lon":"ADDRESS","business_unit":"Express Permit"},"geometry":{"type":"Point","coordinates":[-118.30844,33.76289]}},{"type":"Feature","properties":{"date":"2018-07-20T00:00:00.000Z","year":2018,"description":"1-DOOR CHANGE OUT (SAME SIZE AND TYPE)FOR RESIDENTIAL BUILDINGS.  DUAL GLAZING, LABELED AND CERTIFIED BY NATIONAL FENESTRATION RATING COUNCIL (NFRC), IS REQUIRED FOR DOORS AND WINDOWS REPLACED IN ALL RESIDENTIAL BUILDINGS, THREE STORIES OR LESS, PER SECTION 150.2(b)1B.","metadescription":"Bldg-Alter/Repair. Apartment. 1-DOOR CHANGE OUT (SAME SIZE AND TYPE)FOR RESIDENTIAL BUILDINGS.  DUAL GLAZING, LABELED AND CERTIFIED BY NATIONAL FENESTRATION RATING COUNCIL (NFRC), IS REQUIRED FOR DOORS AND WINDOWS REPLACED IN ALL RESIDENTIAL BUILDINGS, THREE STORIES OR LESS, PER SECTION 150.2(b)1B.. Permit Expired. 2008 N STONEWOOD CT","address":"2008 Stonewood Court, CA, San Pedro, 90732, US","ct":"2951.03","ev":"N","hl":"Yes","apc":"Harbor","cpa":"San Pedro","zone":"RD2-1XL","solar":"N","pin_nbr":"024B193    58","use_code":"1","geolocation":"POINT (-118.30806 33.76292)","status_date":"02/09/2023","permit_group":"Building","refresh_time":"06/10/2026","type_lat_lon":"ADDRESS","business_unit":"Express Permit"},"geometry":{"type":"Point","coordinates":[-118.30806,33.76292]}},{"type":"Feature","properties":{"date":"2018-07-10T00:00:00.000Z","year":2018,"description":"Window (7) and door (1) change-out (same size & type) for residential buildings.  Dual glazing, labeled and certified by National Fenestration Rating Council (NFRC), is required for doors and windows replaced in all residential buildings, three stories or less, per Section 150.2(b)1B of Title 24.","metadescription":"Bldg-Alter/Repair. Apartment. Window (7) and door (1) change-out (same size & type) for residential buildings.  Dual glazing, labeled and certified by National Fenestration Rating Council (NFRC), is required for doors and windows replaced in all residential buildings, three stories or less, per Section 150.2(b)1B of Title 24.. Permit Finaled. 1415 W WESTMONT DR","address":"1415 Westmont Drive, CA, San Pedro, 90732, US","ct":"2951.03","ev":"N","hl":"YES","apc":"Harbor","cpa":"San Pedro","zone":"RD2-1XL","solar":"N","pin_nbr":"024B193    58","use_code":"5","geolocation":"POINT (-118.30513 33.76319)","status_date":"12/20/2018","permit_group":"Building","refresh_time":"06/10/2026","type_lat_lon":"ADDRESS","business_unit":"Express Permit"},"geometry":{"type":"Point","coordinates":[-118.30513,33.76319]}},{"type":"Feature","properties":{"date":"2018-04-05T00:00:00.000Z","year":2018,"description":"Window (6) change-out (same size & type) for residential buildings.  Dual glazing, labeled and certified by National Fenestration Rating Council (NFRC), is required for doors and windows replaced in all residential buildings, three stories or less, per Section 152(b) of Title 24.","metadescription":"Bldg-Alter/Repair. Apartment. Window (6) change-out (same size & type) for residential buildings.  Dual glazing, labeled and certified by National Fenestration Rating Council (NFRC), is required for doors and windows replaced in all residential buildings, three stories or less, per Section 152(b) of Title 24.. Permit Finaled. 1417 W WESTMONT DR","address":"1417 Westmont Drive, CA, San Pedro, 90732, US","ct":"2951.03","ev":"N","hl":"YES","apc":"Harbor","cpa":"San Pedro","zone":"RD2-1XL","solar":"N","pin_nbr":"024B193   124","use_code":"5","geolocation":"POINT (-118.30517 33.76319)","status_date":"05/17/2018","permit_group":"Building","refresh_time":"06/10/2026","type_lat_lon":"ADDRESS","business_unit":"Express Permit"},"geometry":{"type":"Point","coordinates":[-118.30517,33.76319]}},{"type":"Feature","properties":{"date":"2018-03-20T00:00:00.000Z","year":2018,"description":"CHANGE OUT 2 WINDOWS  (SAME SIZE & TYPE FOR RESIDENTIAL BUILDINGS ONLY) DUAL GLAZING, LABELED AND CERTIFIED BY NATIONAL FENESTRATION RATING COUNCIL (NFRC), IS REQUIRED FOR DOORS AND WINDOWS REPLACED IN ALL RESIDENTIAL BUILDINGS, THREE STORIES OR LESS, PER SECTION 152(B) OF TITLE 24.","metadescription":"Bldg-Alter/Repair. Apartment. CHANGE OUT 2 WINDOWS  (SAME SIZE & TYPE FOR RESIDENTIAL BUILDINGS ONLY) DUAL GLAZING, LABELED AND CERTIFIED BY NATIONAL FENESTRATION RATING COUNCIL (NFRC), IS REQUIRED FOR DOORS AND WINDOWS REPLACED IN ALL RESIDENTIAL BUILDINGS, THREE STORIES OR LESS, PER SECTION 152(B) OF TITLE 24.. Permit Expired. 28006 S WESTERN AVE","address":"28006 South Western Avenue, CA, San Pedro, 90732, US","ct":"2951.03","ev":"N","hl":"YES","apc":"Harbor","cpa":"Wilmington - Harbor City","zone":"(Q)C2-2, R1-1VL","solar":"N","pin_nbr":"027B193   150","use_code":"5","geolocation":"POINT (-118.31055 33.76562)","status_date":"02/28/2023","permit_group":"Building","refresh_time":"06/10/2026","type_lat_lon":"ADDRESS","business_unit":"Express Permit"},"geometry":{"type":"Point","coordinates":[-118.31055,33.76562]}},{"type":"Feature","properties":{"date":"2018-02-08T00:00:00.000Z","year":2018,"description":"Install (2) vinyl window signs;  (1'- 3\" x 0'-5\", 0.53 sf) reads \"AT&T\" & LOGO; (1'- 6\" x 0'-7.4\", .94 sf) reads \"STORE HOURS\".","metadescription":"Sign. Onsite. Install (2) vinyl window signs;  (1'- 3\" x 0'-5\", 0.53 sf) reads \"AT&T\" & LOGO; (1'- 6\" x 0'-7.4\", .94 sf) reads \"STORE HOURS\".. Permit Finaled. 980 N WESTERN AVE H","address":"976 North Western Avenue, CA, San Pedro, 90732, US","ct":"2963.00","ev":"N","hl":"YES","apc":"Harbor","cpa":"San Pedro","zone":"(Q)C2-1XL","solar":"N","pin_nbr":"021B193   193","use_code":"19","geolocation":"POINT (-118.30765886 33.75103565)","status_date":"04/13/2018","permit_group":"Building","refresh_time":"06/10/2026","type_lat_lon":"PIN","business_unit":"Plan Check at Counter"},"geometry":{"type":"Point","coordinates":[-118.30765886,33.75103565]}},{"type":"Feature","properties":{"date":"2017-12-15T00:00:00.000Z","year":2017,"description":"Window (5 ) and door (1 ) change-out (same size & type) for residential buildings.  Dual glazing, labeled and certified by National Fenestration Rating Council (NFRC), is required for doors and windows replaced in all residential buildings, three stories or less, per Section 152(b) of Title 24.","metadescription":"Bldg-Alter/Repair. Apartment. Window (5 ) and door (1 ) change-out (same size & type) for residential buildings.  Dual glazing, labeled and certified by National Fenestration Rating Council (NFRC), is required for doors and windows replaced in all residential buildings, three stories or less, per Section 152(b) of Title 24.. Issued. 1654 W STONEWOOD CT","address":"1654 Stonewood Court, CA, San Pedro, 90732, US","ct":"2951.03","ev":"N","hl":"YES","apc":"Harbor","cpa":"San Pedro","zone":"RD2-1XL","solar":"N","pin_nbr":"024B193   153","use_code":"1","geolocation":"POINT (-118.30844 33.76228)","status_date":"12/15/2017","permit_group":"Building","refresh_time":"06/10/2026","type_lat_lon":"ADDRESS","business_unit":"Express Permit"},"geometry":{"type":"Point","coordinates":[-118.30844,33.76228]}},{"type":"Feature","properties":{"date":"2017-12-08T00:00:00.000Z","year":2017,"description":"Door (1) change-out (same size & type) for residential buildings.  Dual glazing, labeled and certified by National Fenestration Rating Council (NFRC), is required for doors and windows replaced in all residential buildings, three stories or less, per Section 152(b) of Title 24.","metadescription":"Bldg-Alter/Repair. Apartment. Door (1) change-out (same size & type) for residential buildings.  Dual glazing, labeled and certified by National Fenestration Rating Council (NFRC), is required for doors and windows replaced in all residential buildings, three stories or less, per Section 152(b) of Title 24.. Permit Expired. 1342 W STONEWOOD CT","address":"1340 Stonewood Court, CA, San Pedro, 90732, US","ct":"2951.03","ev":"N","hl":"YES","apc":"Harbor","cpa":"San Pedro","zone":"RD2-1XL","solar":"N","pin_nbr":"024B193   198","use_code":"35","geolocation":"POINT (-118.30447 33.76151)","status_date":"09/17/2018","permit_group":"Building","refresh_time":"06/10/2026","type_lat_lon":"ADDRESS","business_unit":"Express Permit"},"geometry":{"type":"Point","coordinates":[-118.30447,33.76151]}},{"type":"Feature","properties":{"date":"2017-11-15T00:00:00.000Z","year":2017,"description":"Door (1) change-out (same size & type) for residential buildings.  Dual glazing, labeled and certified by National Fenestration Rating Council (NFRC), is required for doors and windows replaced in all residential buildings, three stories or less, per Section 152(b) of Title 24.","metadescription":"Bldg-Alter/Repair. Apartment. Door (1) change-out (same size & type) for residential buildings.  Dual glazing, labeled and certified by National Fenestration Rating Council (NFRC), is required for doors and windows replaced in all residential buildings, three stories or less, per Section 152(b) of Title 24.. Permit Expired. 1673 W DALMATIA DR","address":"1673 Dalmatia Drive, CA, San Pedro, 90732, US","ct":"2951.03","ev":"N","hl":"YES","apc":"Harbor","cpa":"San Pedro","zone":"RD2-1XL","solar":"N","pin_nbr":"024B193     6","use_code":"35","geolocation":"POINT (-118.30764 33.76422)","status_date":"09/17/2018","permit_group":"Building","refresh_time":"06/10/2026","type_lat_lon":"ADDRESS","business_unit":"Express Permit"},"geometry":{"type":"Point","coordinates":[-118.30764,33.76422]}},{"type":"Feature","properties":{"date":"2017-10-10T00:00:00.000Z","year":2017,"description":"Window (5 ) change-out (same size & type) for residential buildings.  Dual glazing, labeled and certified by National Fenestration Rating Council (NFRC), is required for doors and windows replaced in all residential buildings, three stories or less, per Section 152(b) of Title 24.","metadescription":"Bldg-Alter/Repair. Apartment. Window (5 ) change-out (same size & type) for residential buildings.  Dual glazing, labeled and certified by National Fenestration Rating Council (NFRC), is required for doors and windows replaced in all residential buildings, three stories or less, per Section 152(b) of Title 24.. Permit Finaled. 1412 W STONEWOOD CT","address":"1410 Stonewood Court, CA, San Pedro, 90732, US","ct":"2951.03","ev":"N","hl":"YES","apc":"Harbor","cpa":"San Pedro","zone":"RD2-1XL","solar":"N","pin_nbr":"024B193   196","use_code":"1","geolocation":"POINT (-118.30587 33.76136)","status_date":"08/07/2018","permit_group":"Building","refresh_time":"06/10/2026","type_lat_lon":"ADDRESS","business_unit":"Express Permit"},"geometry":{"type":"Point","coordinates":[-118.30587,33.76136]}},{"type":"Feature","properties":{"date":"2017-10-06T00:00:00.000Z","year":2017,"description":"(4)Window and (1) door change-out (same size & type) for residential buildings.  Dual glazing, labeled and certified by National Fenestration Rating Council (NFRC), is required for doors and windows replaced in all residential buildings, three stories or less, per Section 152(b) of Title 24.","metadescription":"Bldg-Alter/Repair. Apartment. (4)Window and (1) door change-out (same size & type) for residential buildings.  Dual glazing, labeled and certified by National Fenestration Rating Council (NFRC), is required for doors and windows replaced in all residential buildings, three stories or less, per Section 152(b) of Title 24.. Permit Finaled. 1431 W STONEWOOD CT","address":"1431 Stonewood Court, CA, San Pedro, 90732, US","ct":"2951.03","ev":"N","hl":"YES","apc":"Harbor","cpa":"San Pedro","zone":"RD2-1XL","solar":"N","pin_nbr":"024B193   124","use_code":"1","geolocation":"POINT (-118.30553 33.76163)","status_date":"11/13/2017","permit_group":"Building","refresh_time":"06/10/2026","type_lat_lon":"ADDRESS","business_unit":"Express Permit"},"geometry":{"type":"Point","coordinates":[-118.30553,33.76163]}},{"type":"Feature","properties":{"date":"2017-09-29T00:00:00.000Z","year":2017,"description":"(1)Window change-out (same size & type) for residential buildings.  Dual glazing, labeled and certified by National Fenestration Rating Council (NFRC), is required for doors and windows replaced in all residential buildings, three stories or less, per Section 152(b) of Title 24.","metadescription":"Bldg-Alter/Repair. Apartment. (1)Window change-out (same size & type) for residential buildings.  Dual glazing, labeled and certified by National Fenestration Rating Council (NFRC), is required for doors and windows replaced in all residential buildings, three stories or less, per Section 152(b) of Title 24.. Permit Expired. 1647 W WESTMONT DR","address":"1647 Westmont Drive, CA, San Pedro, 90732, US","ct":"2951.03","ev":"N","hl":"Yes","apc":"Harbor","cpa":"San Pedro","zone":"RD2-1XL","solar":"N","pin_nbr":"024B193    58","use_code":"35","geolocation":"POINT (-118.30719 33.76283)","status_date":"09/17/2018","permit_group":"Building","refresh_time":"06/10/2026","type_lat_lon":"ADDRESS","business_unit":"Express Permit"},"geometry":{"type":"Point","coordinates":[-118.30719,33.76283]}},{"type":"Feature","properties":{"date":"2017-09-27T00:00:00.000Z","year":2017,"description":"CHANGE OUT 4 WINDOWS & 1 DOOR  (SAME SIZE & TYPE FOR RESIDENTIAL BUILDINGS ONLY) DUAL GLAZING, LABELED AND CERTIFIED BY NATIONAL FENESTRATION RATING COUNCIL (NFRC), IS REQUIRED FOR DOORS AND WINDOWS REPLACED IN ALL RESIDENTIAL BUILDINGS, THREE STORIES OR LESS, PER SECTION 152(B) OF TITLE 24.","metadescription":"Bldg-Alter/Repair. Commercial. CHANGE OUT 4 WINDOWS & 1 DOOR  (SAME SIZE & TYPE FOR RESIDENTIAL BUILDINGS ONLY) DUAL GLAZING, LABELED AND CERTIFIED BY NATIONAL FENESTRATION RATING COUNCIL (NFRC), IS REQUIRED FOR DOORS AND WINDOWS REPLACED IN ALL RESIDENTIAL BUILDINGS, THREE STORIES OR LESS, PER SECTION 152(B) OF TITLE 24.. Issued. 2273 N STONEWOOD CT","address":"2133 Stonewood Court, CA, San Pedro, 90732, US","ct":"2951.03","ev":"N","hl":"YES","apc":"Harbor","cpa":"San Pedro","zone":"RD2-1XL","solar":"N","pin_nbr":"024B193     5","use_code":"35","geolocation":"POINT (-118.30882641 33.76419322)","status_date":"09/27/2017","permit_group":"Building","refresh_time":"06/10/2026","type_lat_lon":"PIN","business_unit":"Express Permit"},"geometry":{"type":"Point","coordinates":[-118.30882641,33.76419322]}},{"type":"Feature","properties":{"date":"2017-06-16T00:00:00.000Z","year":2017,"description":"New window sign on glass door.    1'7\" x 2'10\".","metadescription":"Sign. Onsite. New window sign on glass door.    1'7\" x 2'10\".. Permit Finaled. 28124 S WESTERN AVE","address":"28124 South Western Avenue, CA, San Pedro, 90732, US","ct":"2951.03","ev":"N","hl":"YES","apc":"Harbor","cpa":"San Pedro","zone":"P-1XL, [Q]C2-1XL","solar":"N","pin_nbr":"024B193   622","use_code":"19","geolocation":"POINT (-118.31027 33.7638)","status_date":"09/12/2017","permit_group":"Building","refresh_time":"06/10/2026","type_lat_lon":"ADDRESS","business_unit":"Plan Check at Counter"},"geometry":{"type":"Point","coordinates":[-118.31027,33.7638]}},{"type":"Feature","properties":{"date":"2017-06-06T00:00:00.000Z","year":2017,"description":"EXISTING DOOR TO REMAIN IN LIUE OF REPLACED WITH A WINDOW PROPROSED IN THE ORIGINAL PERMIT 16016-10000-27586. CORRECT THE NOTES ABOUT BUILDING SPRINKER TO BE NONE.","metadescription":"Bldg-Alter/Repair. Commercial. EXISTING DOOR TO REMAIN IN LIUE OF REPLACED WITH A WINDOW PROPROSED IN THE ORIGINAL PERMIT 16016-10000-27586. CORRECT THE NOTES ABOUT BUILDING SPRINKER TO BE NONE.. Permit Finaled. 29050 S WESTERN AVE #100","address":"29035 South Western Avenue, CA, Rancho Palos Verdes, 90275, US","ct":"2963.00","ev":"N","hl":"YES","apc":"Harbor","zone":"(Q)C2-1VLD","solar":"N","pin_nbr":"021B193    39","use_code":"17","geolocation":"POINT (-118.30904 33.7545)","status_date":"06/14/2017","permit_group":"Building","refresh_time":"06/10/2026","type_lat_lon":"ADDRESS","business_unit":"Plan Check at Counter"},"geometry":{"type":"Point","coordinates":[-118.30904,33.7545]}},{"type":"Feature","properties":{"date":"2017-05-12T00:00:00.000Z","year":2017,"description":"Window (1 ) change-out (same size & type) for residential buildings.  Dual glazing, labeled and certified by National Fenestration Rating Council (NFRC), is required for doors and windows replaced in all residential buildings, three stories or less, per Section 152(b) of Title 24.","metadescription":"Bldg-Alter/Repair. Apartment. Window (1 ) change-out (same size & type) for residential buildings.  Dual glazing, labeled and certified by National Fenestration Rating Council (NFRC), is required for doors and windows replaced in all residential buildings, three stories or less, per Section 152(b) of Title 24.. Permit Finaled. 1634 W STONEWOOD CT","address":"1634 Stonewood Court, CA, San Pedro, 90732, US","ct":"2951.03","ev":"N","hl":"Yes","apc":"Harbor","cpa":"San Pedro","zone":"RD2-1XL","solar":"N","pin_nbr":"024B193   153","use_code":"35","geolocation":"POINT (-118.30843 33.76203)","status_date":"06/26/2017","permit_group":"Building","refresh_time":"06/10/2026","type_lat_lon":"ADDRESS","business_unit":"Express Permit"},"geometry":{"type":"Point","coordinates":[-118.30843,33.76203]}},{"type":"Feature","properties":{"date":"2017-04-24T00:00:00.000Z","year":2017,"description":"(2) BATHROOM REMODEL WITH PLUMBING(FOR RESIDENTIAL BUILDINGS; NO STRUCTURAL CHANGES). CHANGE OUT 16 (SAME SIZE & TYPE FOR RESIDENTIAL BUILDINGS ONLY) DUAL GLAZING, LABELED AND CERTIFIED BY NATIONAL FENESTRATION RATING COUNCIL (NFRC), IS REQUIRED FOR DOORS AND WINDOWS REPLACED IN ALL RESIDENTIAL BUILDING, THREE STORIES OR LESS, PER SECTION 152(B) OF TITLE 24. COMPLY WITH DEPARTMENT ORDER EFFECTIVE DATE 05/18/17. PERMIT WILL EXPIRE 30 DAYS FROM ISSUANCE DATE.","metadescription":"Bldg-Alter/Repair. 1 or 2 Family Dwelling. (2) BATHROOM REMODEL WITH PLUMBING(FOR RESIDENTIAL BUILDINGS; NO STRUCTURAL CHANGES). CHANGE OUT 16 (SAME SIZE & TYPE FOR RESIDENTIAL BUILDINGS ONLY) DUAL GLAZING, LABELED AND CERTIFIED BY NATIONAL FENESTRATION RATING COUNCIL (NFRC), IS REQUIRED FOR DOORS AND WINDOWS REPLACED IN ALL RESIDENTIAL BUILDING, THREE STORIES OR LESS, PER SECTION 152(B) OF TITLE 24. COMPLY WITH DEPARTMENT ORDER EFFECTIVE DATE 05/18/17. PERMIT WILL EXPIRE 30 DAYS FROM ISSUANCE DATE.. Permit Finaled. 2262 W AMIRANTE DR","address":"2262 Amirante Drive, CA, San Pedro, 90732, US","ct":"2974.00","ev":"N","hl":"YES","apc":"Harbor","cpa":"San Pedro","zone":"R1-1XL","solar":"N","pin_nbr":"012B189    45","use_code":"1","geolocation":"POINT (-118.32575 33.7293)","status_date":"12/06/2017","permit_group":"Building","refresh_time":"06/10/2026","type_lat_lon":"ADDRESS","business_unit":"Express Permit"},"geometry":{"type":"Point","coordinates":[-118.32575,33.7293]}},{"type":"Feature","properties":{"date":"2017-04-03T00:00:00.000Z","year":2017,"description":"Window (3) change-out (same size & type) for residential buildings.  Dual glazing, labeled and certified by National Fenestration Rating Council (NFRC), is required for doors and windows replaced in all residential buildings, three stories or less, per Section 152(b) of Title 24","metadescription":"Bldg-Alter/Repair. Apartment. Window (3) change-out (same size & type) for residential buildings.  Dual glazing, labeled and certified by National Fenestration Rating Council (NFRC), is required for doors and windows replaced in all residential buildings, three stories or less, per Section 152(b) of Title 24. Permit Finaled. 1475 W STONEWOOD CT","address":"1475 Stonewood Court, CA, San Pedro, 90732, US","ct":"2951.03","ev":"N","hl":"YES","apc":"Harbor","cpa":"San Pedro","zone":"RD2-1XL","solar":"N","pin_nbr":"024B193   140","use_code":"35","geolocation":"POINT (-118.30617 33.76159)","status_date":"07/03/2017","permit_group":"Building","refresh_time":"06/10/2026","type_lat_lon":"ADDRESS","business_unit":"Express Permit"},"geometry":{"type":"Point","coordinates":[-118.30617,33.76159]}},{"type":"Feature","properties":{"date":"2017-03-28T00:00:00.000Z","year":2017,"description":"KITCHEN AND BATHROOM REMODEL  (FOR RESIDENTIAL BUILDINGS; NO STRUCTURAL CHANGES). DRYWALL/PLASTER PATCH AND PAINT.  CHANGE OUT 2 WINDOWS AND 6 DOORS  (SAME SIZE & TYPE FOR RESIDENTIAL BUILDINGS ONLY) DUAL GLAZING, LABELED AND CERTIFIED BY NATIONAL FENESTRATION RATING COUNCIL (NFRC), IS REQUIRED FOR DOORS AND WINDOWS REPLACED IN ALL RESIDENTIAL BUILDING, THREE STORIES OR LESS, PER SECTION 152(B) OF TITLE 24.","metadescription":"Bldg-Alter/Repair. Commercial. KITCHEN AND BATHROOM REMODEL  (FOR RESIDENTIAL BUILDINGS; NO STRUCTURAL CHANGES). DRYWALL/PLASTER PATCH AND PAINT.  CHANGE OUT 2 WINDOWS AND 6 DOORS  (SAME SIZE & TYPE FOR RESIDENTIAL BUILDINGS ONLY) DUAL GLAZING, LABELED AND CERTIFIED BY NATIONAL FENESTRATION RATING COUNCIL (NFRC), IS REQUIRED FOR DOORS AND WINDOWS REPLACED IN ALL RESIDENTIAL BUILDING, THREE STORIES OR LESS, PER SECTION 152(B) OF TITLE 24.. Permit Finaled. 1414 W BRETT PL #248","address":"1414 Brett Place, CA, San Pedro, 90732, US","ct":"2963.00","ev":"N","hl":"YES","apc":"Harbor","cpa":"San Pedro","zone":"(Q)RD1.5-1VLD","solar":"N","pin_nbr":"021B193    26","use_code":"35","geolocation":"POINT (-118.30594 33.75577)","status_date":"01/05/2018","permit_group":"Building","refresh_time":"06/10/2026","type_lat_lon":"ADDRESS","business_unit":"Express Permit"},"geometry":{"type":"Point","coordinates":[-118.30594,33.75577]}},{"type":"Feature","properties":{"date":"2016-10-11T00:00:00.000Z","year":2016,"description":"(7) Window change-out (same size & type) for residential buildings.  Dual glazing, labeled and certified by National Fenestration Rating Council (NFRC), is required for doors and windows replaced in all residential buildings, three stories or less, per Section 152(b) of Title 24.","metadescription":"Bldg-Alter/Repair. Apartment. (7) Window change-out (same size & type) for residential buildings.  Dual glazing, labeled and certified by National Fenestration Rating Council (NFRC), is required for doors and windows replaced in all residential buildings, three stories or less, per Section 152(b) of Title 24.. Permit Finaled. 1503 W WESTMONT DR","address":"1503 Westmont Drive, CA, San Pedro, 90732, US","ct":"2951.03","ev":"N","hl":"YES","apc":"Harbor","cpa":"San Pedro","zone":"RD2-1XL","solar":"N","pin_nbr":"024B193    58","use_code":"35","geolocation":"POINT (-118.30591 33.76305)","status_date":"11/09/2016","permit_group":"Building","refresh_time":"06/10/2026","type_lat_lon":"ADDRESS","business_unit":"Express Permit"},"geometry":{"type":"Point","coordinates":[-118.30591,33.76305]}},{"type":"Feature","properties":{"date":"2016-06-14T00:00:00.000Z","year":2016,"description":"(3) Window change-out (same size & type) for residential buildings.  Dual glazing, labeled and certified by National Fenestration Rating Council (NFRC), is required for doors and windows replaced in all residential buildings, three stories or less, per Section 152(b) of Title 24.","metadescription":"Bldg-Alter/Repair. Apartment. (3) Window change-out (same size & type) for residential buildings.  Dual glazing, labeled and certified by National Fenestration Rating Council (NFRC), is required for doors and windows replaced in all residential buildings, three stories or less, per Section 152(b) of Title 24.. Permit Finaled. 1431 W STONEWOOD CT","address":"1431 Stonewood Court, CA, San Pedro, 90732, US","ct":"2951.03","ev":"N","hl":"YES","apc":"Harbor","cpa":"San Pedro","zone":"RD2-1XL","solar":"N","pin_nbr":"024B193   124","use_code":"1","geolocation":"POINT (-118.30553 33.76163)","status_date":"07/13/2016","permit_group":"Building","refresh_time":"06/10/2026","type_lat_lon":"ADDRESS","business_unit":"Express Permit"},"geometry":{"type":"Point","coordinates":[-118.30553,33.76163]}},{"type":"Feature","properties":{"date":"2016-03-04T00:00:00.000Z","year":2016,"description":"CHANGE OUT 10 WINDOWS AND 3 DOORS  (SAME SIZE & TYPE FOR RESIDENTIAL BUILDINGS ONLY) DUAL GLAZING, LABELED AND CERTIFIED BY NATIONAL FENESTRATION RATING COUNCIL (NFRC), IS REQUIRED FOR DOORS AND WINDOWS REPLACED IN ALL RESIDENTIAL BUILDINGS, THREE STORIES OR LESS, PER SECTION 152(B) OF TITLE 24.","metadescription":"Bldg-Alter/Repair. 1 or 2 Family Dwelling. CHANGE OUT 10 WINDOWS AND 3 DOORS  (SAME SIZE & TYPE FOR RESIDENTIAL BUILDINGS ONLY) DUAL GLAZING, LABELED AND CERTIFIED BY NATIONAL FENESTRATION RATING COUNCIL (NFRC), IS REQUIRED FOR DOORS AND WINDOWS REPLACED IN ALL RESIDENTIAL BUILDINGS, THREE STORIES OR LESS, PER SECTION 152(B) OF TITLE 24.. Permit Finaled. 2240 W AMIRANTE DR","address":"2240 Amirante Drive, CA, San Pedro, 90732, US","ct":"2974.00","ev":"N","hl":"YES","apc":"Harbor","cpa":"San Pedro","zone":"R1-1XL","solar":"N","pin_nbr":"012B189    47","use_code":"1","geolocation":"POINT (-118.32533 33.72925)","status_date":"04/27/2018","permit_group":"Building","refresh_time":"06/10/2026","type_lat_lon":"ADDRESS","business_unit":"Express Permit"},"geometry":{"type":"Point","coordinates":[-118.32533,33.72925]}},{"type":"Feature","properties":{"date":"2015-07-10T00:00:00.000Z","year":2015,"description":"CHANGE OUT 9 WINDOWNS AND 6 DOORS  (SAME SIZE & TYPE FOR RESIDENTIAL BUILDINGS ONLY) DUAL GLAZING, LABELED AND CERTIFIED BY NATIONAL FENESTRATION RATING COUNCIL (NFRC), IS REQUIRED FOR DOORS AND WINDOWS REPLACED IN ALL RESIDENTIAL BUILDINGS, THREE STORIES OR LESS, PER SECTION 152(B) OF TITLE 24. NEW STUCCO, REPLACE DRYWALL (NO NEW WALLS ADDED) SPECIFIC LOCATION: EXTERIOR OF HOUSE. TERMITE DAMAGE/DRY ROT REPAIR LESS THAN 10% OF REPLACEMENT COST OF BUILDING. DRYWALL/PLASTER PATCH AND PAINT. KITCHEN AND BATHROOM REMODEL  (FOR RESIDENTIAL BUILDINGS; NO STRUCTURAL CHANGES).","metadescription":"Bldg-Alter/Repair. 1 or 2 Family Dwelling. CHANGE OUT 9 WINDOWNS AND 6 DOORS  (SAME SIZE & TYPE FOR RESIDENTIAL BUILDINGS ONLY) DUAL GLAZING, LABELED AND CERTIFIED BY NATIONAL FENESTRATION RATING COUNCIL (NFRC), IS REQUIRED FOR DOORS AND WINDOWS REPLACED IN ALL RESIDENTIAL BUILDINGS, THREE STORIES OR LESS, PER SECTION 152(B) OF TITLE 24. NEW STUCCO, REPLACE DRYWALL (NO NEW WALLS ADDED) SPECIFIC LOCATION: EXTERIOR OF HOUSE. TERMITE DAMAGE/DRY ROT REPAIR LESS THAN 10% OF REPLACEMENT COST OF BUILDING. DRYWALL/PLASTER PATCH AND PAINT. KITCHEN AND BATHROOM REMODEL  (FOR RESIDENTIAL BUILDINGS; NO STRUCTURAL CHANGES).. Permit Expired. 2304 W PASEO DEL MAR","address":"2304 West Paseo Del Mar, CA, San Pedro, 90732, US","ct":"2974.00","ev":"N","hl":"YES","apc":"Harbor","cpa":"San Pedro","zone":"R1-1XL","solar":"N","pin_nbr":"009B185    31","use_code":"1","geolocation":"POINT (-118.32768 33.72192)","status_date":"02/08/2018","permit_group":"Building","refresh_time":"06/10/2026","type_lat_lon":"ADDRESS","business_unit":"Express Permit"},"geometry":{"type":"Point","coordinates":[-118.32768,33.72192]}},{"type":"Feature","properties":{"date":"2015-07-10T00:00:00.000Z","year":2015,"description":"RE-STUCCO; SPECIFIC LOCATION: DOOR EXTERIOR. KITCHEN AND BATHROOM REMOD (NO STRUCTURAL CHANGES). CHANGE OUT  1 DOOR  (SAME SIZE & TYPE FOR RESIDENTIAL BUILDINGS ONLY) DUAL GLAZING, LABELED AND CERTIFIED BY NATIONAL FENESTRATION RATING COUNCIL (NFRC), IS REQUIRED FOR DOORS AND WINDOWS REPLACED IN ALL RESIDENTIAL BUILDINGS, THREE STORIES OR LESS, PER SECTION 152(B) OF TITLE 24.","metadescription":"Bldg-Alter/Repair. Commercial. RE-STUCCO; SPECIFIC LOCATION: DOOR EXTERIOR. KITCHEN AND BATHROOM REMOD (NO STRUCTURAL CHANGES). CHANGE OUT  1 DOOR  (SAME SIZE & TYPE FOR RESIDENTIAL BUILDINGS ONLY) DUAL GLAZING, LABELED AND CERTIFIED BY NATIONAL FENESTRATION RATING COUNCIL (NFRC), IS REQUIRED FOR DOORS AND WINDOWS REPLACED IN ALL RESIDENTIAL BUILDINGS, THREE STORIES OR LESS, PER SECTION 152(B) OF TITLE 24.. Permit Finaled. 2048 N STONEWOOD CT","address":"2048 Stonewood Court, CA, San Pedro, 90732, US","ct":"2951.03","ev":"N","hl":"YES","apc":"Harbor","cpa":"San Pedro","zone":"RD2-1XL","solar":"N","pin_nbr":"024B193    58","use_code":"35","geolocation":"POINT (-118.30797 33.76356)","status_date":"10/16/2015","permit_group":"Building","refresh_time":"06/10/2026","type_lat_lon":"ADDRESS","business_unit":"Express Permit"},"geometry":{"type":"Point","coordinates":[-118.30797,33.76356]}},{"type":"Feature","properties":{"date":"2015-06-08T00:00:00.000Z","year":2015,"description":"SUPPLEMENTAL TO APPLICATION 15016-20000-07143 TO ELIMINATE NEW WINDOWS; REVISE STRUCTURAL PLAN; WINDOW CHANGEOUT IN KITCHEN","metadescription":"Bldg-Alter/Repair. 1 or 2 Family Dwelling. SUPPLEMENTAL TO APPLICATION 15016-20000-07143 TO ELIMINATE NEW WINDOWS; REVISE STRUCTURAL PLAN; WINDOW CHANGEOUT IN KITCHEN. Permit Finaled. 2250 W AMIRANTE DR","address":"2262 Amirante Drive, CA, San Pedro, 90732, US","ct":"2974.00","ev":"N","hl":"YES","apc":"Harbor","cpa":"San Pedro","zone":"R1-1XL","solar":"N","pin_nbr":"012B189    46","use_code":"1","geolocation":"POINT (-118.32567 33.72928)","status_date":"03/16/2016","permit_group":"Building","refresh_time":"06/10/2026","type_lat_lon":"ADDRESS","business_unit":"Plan Check at Counter"},"geometry":{"type":"Point","coordinates":[-118.32567,33.72928]}},{"type":"Feature","properties":{"date":"2015-05-20T00:00:00.000Z","year":2015,"description":"ALTERATION TO (E) SFD; KITCHEN REMODEL, BATHROOM  REMODEL, ADDING WINDOWS TO THE KITCHEN, ADDING FIREPLACE IN LIVING ROOM; SOME WINDOW CHANGEOUT; REMOVE WINDOW IN MASTER BATH AND IN FILL (ADD R-13 INSULATION AT INFILL)","metadescription":"Bldg-Alter/Repair. 1 or 2 Family Dwelling. ALTERATION TO (E) SFD; KITCHEN REMODEL, BATHROOM  REMODEL, ADDING WINDOWS TO THE KITCHEN, ADDING FIREPLACE IN LIVING ROOM; SOME WINDOW CHANGEOUT; REMOVE WINDOW IN MASTER BATH AND IN FILL (ADD R-13 INSULATION AT INFILL). Permit Finaled. 2250 W AMIRANTE DR","address":"2262 Amirante Drive, CA, San Pedro, 90732, US","ct":"2974.00","ev":"N","hl":"YES","apc":"Harbor","cpa":"San Pedro","zone":"R1-1XL","solar":"N","pin_nbr":"012B189    46","use_code":"1","geolocation":"POINT (-118.32567 33.72928)","status_date":"03/29/2016","construction":"Type V-B Construction","permit_group":"Building","refresh_time":"06/10/2026","type_lat_lon":"ADDRESS","business_unit":"Regular Plan Check","square_footage":"0"},"geometry":{"type":"Point","coordinates":[-118.32567,33.72928]}},{"type":"Feature","properties":{"date":"2015-05-19T00:00:00.000Z","year":2015,"description":"CHANGE OUT1 DOOR  (SAME SIZE & TYPE FOR RESIDENTIAL BUILDINGS ONLY) DUAL GLAZING, LABELED AND CERTIFIED BY NATIONAL FENESTRATION RATING COUNCIL (NFRC), IS REQUIRED FOR DOORS AND WINDOWS REPLACED IN ALL RESIDENTIAL BUILDINGS, THREE STORIES OR LESS, PER SECTION 152(B) OF TITLE 24.","metadescription":"Bldg-Alter/Repair. 1 or 2 Family Dwelling. CHANGE OUT1 DOOR  (SAME SIZE & TYPE FOR RESIDENTIAL BUILDINGS ONLY) DUAL GLAZING, LABELED AND CERTIFIED BY NATIONAL FENESTRATION RATING COUNCIL (NFRC), IS REQUIRED FOR DOORS AND WINDOWS REPLACED IN ALL RESIDENTIAL BUILDINGS, THREE STORIES OR LESS, PER SECTION 152(B) OF TITLE 24.. Permit Finaled. 1434 W BRETT PL 71","address":"1434 Brett Place, CA, San Pedro, 90732, US","ct":"2963.00","ev":"N","hl":"YES","apc":"Harbor","cpa":"San Pedro","zone":"(Q)RD1.5-1VLD","solar":"N","pin_nbr":"024B193   607","use_code":"35","geolocation":"POINT (-118.30756 33.75681)","status_date":"06/08/2015","permit_group":"Building","refresh_time":"06/10/2026","type_lat_lon":"ADDRESS","business_unit":"Express Permit"},"geometry":{"type":"Point","coordinates":[-118.30756,33.75681]}},{"type":"Feature","properties":{"date":"2015-04-08T00:00:00.000Z","year":2015,"description":"(3) Window change-out (same size & type) for residential buildings.  Dual glazing, labeled and certified by National Fenestration Rating Council (NFRC), is required for doors and windows replaced in all residential buildings, three stories or less, per Section 152(b) of Title 24.","metadescription":"Bldg-Alter/Repair. Apartment. (3) Window change-out (same size & type) for residential buildings.  Dual glazing, labeled and certified by National Fenestration Rating Council (NFRC), is required for doors and windows replaced in all residential buildings, three stories or less, per Section 152(b) of Title 24.. Permit Finaled. 1650 W STONEWOOD CT","address":"1650 Stonewood Court, CA, San Pedro, 90732, US","ct":"2951.03","ev":"N","hl":"YES","apc":"Harbor","cpa":"San Pedro","zone":"RD2-1XL","solar":"N","pin_nbr":"024B193   153","use_code":"1","geolocation":"POINT (-118.30844 33.76224)","status_date":"05/20/2015","permit_group":"Building","refresh_time":"06/10/2026","type_lat_lon":"ADDRESS","business_unit":"Express Permit"},"geometry":{"type":"Point","coordinates":[-118.30844,33.76224]}},{"type":"Feature","properties":{"date":"2015-04-07T00:00:00.000Z","year":2015,"description":"CHANGE OUT 4-WINDOWS(SAME SIZE AND TYPE)FOR RESIDENTIAL BUILDINGSDUAL GLAZING, LABELED AND CERTIFIED BY NATIONAL FENESTRATION RATING COUNCIL(NFRC), IS REQUIRED FOR DOORS AND WINDOWS REPLACED INSTALL RESIDENTIAL BUILDINGS, THREE STORIES OR LESS, PER SECTION 152(b) OF TITLE 24.","metadescription":"Bldg-Alter/Repair. Apartment. CHANGE OUT 4-WINDOWS(SAME SIZE AND TYPE)FOR RESIDENTIAL BUILDINGSDUAL GLAZING, LABELED AND CERTIFIED BY NATIONAL FENESTRATION RATING COUNCIL(NFRC), IS REQUIRED FOR DOORS AND WINDOWS REPLACED INSTALL RESIDENTIAL BUILDINGS, THREE STORIES OR LESS, PER SECTION 152(b) OF TITLE 24.. Permit Expired. 1827 N MT SHASTA DR","address":"1827 Mt Shasta Drive, CA, San Pedro, 90732, US","ct":"2951.03","ev":"N","hl":"YES","apc":"Harbor","cpa":"San Pedro","zone":"RD2-1XL","solar":"N","pin_nbr":"024B193   196","use_code":"35","geolocation":"POINT (-118.30565 33.7612)","status_date":"05/02/2017","permit_group":"Building","refresh_time":"06/10/2026","type_lat_lon":"ADDRESS","business_unit":"Express Permit"},"geometry":{"type":"Point","coordinates":[-118.30565,33.7612]}},{"type":"Feature","properties":{"date":"2015-04-03T00:00:00.000Z","year":2015,"description":"New window signs.","metadescription":"Sign. Onsite. New window signs.. Permit Finaled. 916 N WESTERN AVE","address":"916 North Western Avenue, CA, San Pedro, 90732, US","ct":"2963.00","ev":"N","hl":"YES","apc":"Harbor","cpa":"San Pedro","zone":"(Q)C2-1XL","solar":"N","pin_nbr":"021B193   193","use_code":"19","geolocation":"POINT (-118.30886 33.75076)","status_date":"07/01/2015","permit_group":"Building","refresh_time":"06/10/2026","type_lat_lon":"ADDRESS","business_unit":"Plan Check at Counter"},"geometry":{"type":"Point","coordinates":[-118.30886,33.75076]}},{"type":"Feature","properties":{"date":"2014-12-04T00:00:00.000Z","year":2014,"description":"Window(2)  change-out (same size & type) for residential buildings.Dual glazing, labeled and certified by National Fenestration Rating Council (NFRC), is required for doors and windows replaced in all residential buildings, three stories or less, per Section 152(b) of Title 24.","metadescription":"Bldg-Alter/Repair. 1 or 2 Family Dwelling. Window(2)  change-out (same size & type) for residential buildings.Dual glazing, labeled and certified by National Fenestration Rating Council (NFRC), is required for doors and windows replaced in all residential buildings, three stories or less, per Section 152(b) of Title 24.. Permit Expired. 2275 W 25TH ST #61","address":"2275 W 25TH ST #61","ct":"2974.00","ev":"N","hl":"YES","apc":"Harbor","cpa":"San Pedro","zone":"R1-1XL","solar":"N","pin_nbr":"012B189   353","use_code":"1","geolocation":"POINT (-118.3272 33.72714)","status_date":"12/28/2016","permit_group":"Building","refresh_time":"06/10/2026","type_lat_lon":"ADDRESS","business_unit":"Express Permit"},"geometry":{"type":"Point","coordinates":[-118.3272,33.72714]}},{"type":"Feature","properties":{"date":"2014-11-24T00:00:00.000Z","year":2014,"description":"Change out 1 Door (Same size & type for residential buildings only). Kitchen & Bathroom remodel (For residential buildings; no structural changes). New stucco Specifiv location: Kitchen Window. Re-stucco: Replace drywall (no new walls added) Specific location: Bathrooms.","metadescription":"Bldg-Alter/Repair. Apartment. Change out 1 Door (Same size & type for residential buildings only). Kitchen & Bathroom remodel (For residential buildings; no structural changes). New stucco Specifiv location: Kitchen Window. Re-stucco: Replace drywall (no new walls added) Specific location: Bathrooms.. Permit Finaled. 1954 N MT SHASTA DR","address":"1954 Mt Shasta Drive, CA, San Pedro, 90732, US","ct":"2951.03","ev":"N","hl":"YES","apc":"Harbor","cpa":"San Pedro","zone":"RD2-1XL","solar":"N","pin_nbr":"024B193   114","use_code":"35","geolocation":"POINT (-118.30358 33.76239)","status_date":"01/05/2017","permit_group":"Building","refresh_time":"06/10/2026","type_lat_lon":"ADDRESS","business_unit":"Express Permit"},"geometry":{"type":"Point","coordinates":[-118.30358,33.76239]}},{"type":"Feature","properties":{"date":"2014-09-12T00:00:00.000Z","year":2014,"description":"CHANGE 8 WINDOWS AND 1 DOOR(SAME SIZE AND TYPE FOR RESIDENTIAL BUILDINGS ONLY)AND KITCHEN REMODEL(FOR RESIDENTAIL BUILDINGS)  NO STRUCTURAL CHANGES)DUAL GLAZING LABELED AND CERTIFIED BY NATIONAL FENESTRATION RATING COUNCIL (NFRC), IS REQUIRED FOR DOORS AND WINDOWS REPLACED IN ALL RESIDENTIAL BUILDINGS THREE STORIES OR LESS PER SECTION 152(b) OF TITLE 24.","metadescription":"Bldg-Alter/Repair. Apartment. CHANGE 8 WINDOWS AND 1 DOOR(SAME SIZE AND TYPE FOR RESIDENTIAL BUILDINGS ONLY)AND KITCHEN REMODEL(FOR RESIDENTAIL BUILDINGS)  NO STRUCTURAL CHANGES)DUAL GLAZING LABELED AND CERTIFIED BY NATIONAL FENESTRATION RATING COUNCIL (NFRC), IS REQUIRED FOR DOORS AND WINDOWS REPLACED IN ALL RESIDENTIAL BUILDINGS THREE STORIES OR LESS PER SECTION 152(b) OF TITLE 24.. Permit Expired. 1424 W BRETT PL #360","address":"1424 Brett Place, CA, San Pedro, 90732, US","ct":"2963.00","ev":"N","hl":"YES","apc":"Harbor","cpa":"San Pedro","zone":"(Q)RD1.5-1VLD","solar":"N","pin_nbr":"021B193    26","use_code":"35","geolocation":"POINT (-118.306 33.75585)","status_date":"10/17/2016","permit_group":"Building","refresh_time":"06/10/2026","type_lat_lon":"ADDRESS","business_unit":"Express Permit"},"geometry":{"type":"Point","coordinates":[-118.306,33.75585]}},{"type":"Feature","properties":{"date":"2014-07-01T00:00:00.000Z","year":2014,"description":"(3) Windows change-out (same size, type, and location) for residential buildings.  Dual glazing, labeled and certified by National Fenestration Rating Council (NFRC), is required for doors and windows replaced in all residential buildings, three stories or less, per Section 152(b) of Title 24.  No structural changes.  Valuation to be verified by inspector","metadescription":"Bldg-Alter/Repair. Apartment. (3) Windows change-out (same size, type, and location) for residential buildings.  Dual glazing, labeled and certified by National Fenestration Rating Council (NFRC), is required for doors and windows replaced in all residential buildings, three stories or less, per Section 152(b) of Title 24.  No structural changes.  Valuation to be verified by inspector. Permit Finaled. 1650 W STONEWOOD CT","address":"1650 Stonewood Court, CA, San Pedro, 90732, US","ct":"2951.03","ev":"N","hl":"YES","apc":"Harbor","cpa":"San Pedro","zone":"RD2-1XL","solar":"N","pin_nbr":"024B193   153","use_code":"1","geolocation":"POINT (-118.30844 33.76224)","status_date":"08/22/2014","permit_group":"Building","refresh_time":"06/10/2026","type_lat_lon":"ADDRESS","business_unit":"Express Permit"},"geometry":{"type":"Point","coordinates":[-118.30844,33.76224]}},{"type":"Feature","properties":{"date":"2014-04-28T00:00:00.000Z","year":2014,"description":"Replace 7 window(s). Same size, location, number, type.","metadescription":"Bldg-Alter/Repair. 1 or 2 Family Dwelling. Replace 7 window(s). Same size, location, number, type.. Permit Expired. 1433 W WESTMONT DR","address":"1433 Westmont Drive, CA, San Pedro, 90732, US","ct":"2951.03","ev":"N","hl":"YES","apc":"Harbor","cpa":"San Pedro","zone":"RD2-1XL","solar":"N","pin_nbr":"024B193    58","use_code":"1","geolocation":"POINT (-118.30541 33.76315)","status_date":"05/20/2016","permit_group":"Building","refresh_time":"06/10/2026","type_lat_lon":"ADDRESS","business_unit":"Express Permit"},"geometry":{"type":"Point","coordinates":[-118.30541,33.76315]}},{"type":"Feature","properties":{"date":"2013-06-21T00:00:00.000Z","year":2013,"description":"Change out 7 Windows and 2 Doors (Same size & type for residential buildings only). Kitchen & Bathroom remodel (For residential buildings; no structural changes).","metadescription":"Bldg-Alter/Repair. Apartment. Change out 7 Windows and 2 Doors (Same size & type for residential buildings only). Kitchen & Bathroom remodel (For residential buildings; no structural changes).. Permit Finaled. 1507 W STONEWOOD CT","address":"1507 Stonewood Court, CA, San Pedro, 90732, US","ct":"2951.03","ev":"N","hl":"YES","apc":"Harbor","cpa":"San Pedro","zone":"RD2-1XL","solar":"N","pin_nbr":"024B193   140","use_code":"35","geolocation":"POINT (-118.30651 33.7616)","status_date":"09/20/2013","permit_group":"Building","refresh_time":"06/10/2026","type_lat_lon":"ADDRESS","business_unit":"Express Permit"},"geometry":{"type":"Point","coordinates":[-118.30651,33.7616]}},{"type":"Feature","properties":{"date":"2013-04-22T00:00:00.000Z","year":2013,"description":"Change out 3 Windows and 1 Door (Same size & type for residential buildings only).","metadescription":"Bldg-Alter/Repair. Apartment. Change out 3 Windows and 1 Door (Same size & type for residential buildings only).. Permit Expired. 28004 S WESTERN AVE #116","address":"28004 South Western Avenue, CA, San Pedro, 90732, US","ct":"2951.03","ev":"N","hl":"YES","apc":"Harbor","cpa":"Wilmington - Harbor City","zone":"(Q)C2-2, R1-1VL","solar":"N","pin_nbr":"027B193   150","use_code":"5","geolocation":"POINT (-118.31054 33.76565)","status_date":"05/19/2015","permit_group":"Building","refresh_time":"06/10/2026","type_lat_lon":"ADDRESS","business_unit":"Express Permit"},"geometry":{"type":"Point","coordinates":[-118.31054,33.76565]}},{"type":"Feature","properties":{"date":"2012-03-07T00:00:00.000Z","year":2012,"description":"CHANGE OUT 15 WINDOWS & 1 DOOR  (SAME SIZE & TYPE FOR RESIDENTIAL BUILDINGS ONLY). COMPLY WITH DEPARTMENT ORDER EFFECTIVE DATE 02/24/2012. PERMIT WILL EXPIRE 30 DAYS FROM ISSUANCE DATE. ALL PERMITS SHALL BE FOR THE SAME TIME PERIOD LIMITATION. INVESTIGATION FEE PAID ON THIS PERMIT.","metadescription":"Bldg-Alter/Repair. 1 or 2 Family Dwelling. CHANGE OUT 15 WINDOWS & 1 DOOR  (SAME SIZE & TYPE FOR RESIDENTIAL BUILDINGS ONLY). COMPLY WITH DEPARTMENT ORDER EFFECTIVE DATE 02/24/2012. PERMIT WILL EXPIRE 30 DAYS FROM ISSUANCE DATE. ALL PERMITS SHALL BE FOR THE SAME TIME PERIOD LIMITATION. INVESTIGATION FEE PAID ON THIS PERMIT.. Permit Finaled. 3817 S SHAD PL","address":"3817 Shad Place, CA, San Pedro, 90732, US","ct":"2974.00","ev":"N","hl":"YES","apc":"Harbor","cpa":"San Pedro","zone":"R1-1XL","solar":"N","pin_nbr":"009B185    45","use_code":"1","geolocation":"POINT (-118.3288 33.72154)","status_date":"04/03/2012","permit_group":"Building","refresh_time":"06/10/2026","type_lat_lon":"ADDRESS","business_unit":"Express Permit"},"geometry":{"type":"Point","coordinates":[-118.3288,33.72154]}},{"type":"Feature","properties":{"date":"2011-10-28T00:00:00.000Z","year":2011,"description":"CHANGE OUT 3 WINDOWS (SAME SIZE AND LOCATION).","metadescription":"Bldg-Alter/Repair. Apartment. CHANGE OUT 3 WINDOWS (SAME SIZE AND LOCATION).. Permit Finaled. 1630 W DALMATIA DR","address":"1630 Dalmatia Drive, CA, San Pedro, 90732, US","ct":"2951.03","ev":"N","hl":"YES","apc":"Harbor","cpa":"San Pedro","zone":"RD2-1XL","solar":"N","pin_nbr":"024B193    58","use_code":"35","geolocation":"POINT (-118.30759 33.76401)","status_date":"11/13/2013","permit_group":"Building","refresh_time":"06/10/2026","type_lat_lon":"ADDRESS","business_unit":"Express Permit"},"geometry":{"type":"Point","coordinates":[-118.30759,33.76401]}},{"type":"Feature","properties":{"date":"2009-07-27T00:00:00.000Z","year":2009,"description":"replace window from 42\" x 42:\" to 60\" x 48\" at grage.","metadescription":"Bldg-Alter/Repair. 1 or 2 Family Dwelling. replace window from 42\" x 42:\" to 60\" x 48\" at grage.. Permit Finaled. 1600 W O FARRELL ST","address":"1600 West O'Farrell Street, CA, San Pedro, 90732, US","ct":"2964.00","ev":"N","hl":"YES","apc":"Harbor","cpa":"San Pedro","zone":"R1-1XL","solar":"N","pin_nbr":"018B193   257","use_code":"1","geolocation":"POINT (-118.31046177 33.74660387)","status_date":"07/21/2010","permit_group":"Building","refresh_time":"06/10/2026","type_lat_lon":"PIN","business_unit":"Plan Check at Counter"},"geometry":{"type":"Point","coordinates":[-118.31046177,33.74660387]}},{"type":"Feature","properties":{"date":"2009-07-21T00:00:00.000Z","year":2009,"description":"replace front  window  4'-5-1/2\"x 6'-11-1/2\" with 3'-0\" x 7'-0\" window at sfd","metadescription":"Bldg-Alter/Repair. 1 or 2 Family Dwelling. replace front  window  4'-5-1/2\"x 6'-11-1/2\" with 3'-0\" x 7'-0\" window at sfd. Permit Finaled. 1600 W O FARRELL ST","address":"1600 West O'Farrell Street, CA, San Pedro, 90732, US","ct":"2964.00","ev":"N","hl":"YES","apc":"Harbor","cpa":"San Pedro","zone":"R1-1XL","solar":"N","pin_nbr":"018B193   257","use_code":"1","geolocation":"POINT (-118.31046177 33.74660387)","status_date":"07/21/2010","permit_group":"Building","refresh_time":"06/10/2026","type_lat_lon":"PIN","business_unit":"Plan Check at Counter"},"geometry":{"type":"Point","coordinates":[-118.31046177,33.74660387]}},{"type":"Feature","properties":{"date":"2009-02-05T00:00:00.000Z","year":2009,"description":"THE PROPOSED SCOPE OF WORK WILL CONSIST OF UPGRADES AND ALTERATIONS TO THE BEVERAGE PORTION OF THE DRIVE THRU WINDOW AREA AND BEVERAGE COUNTERS","metadescription":"Bldg-Alter/Repair. Commercial. THE PROPOSED SCOPE OF WORK WILL CONSIST OF UPGRADES AND ALTERATIONS TO THE BEVERAGE PORTION OF THE DRIVE THRU WINDOW AREA AND BEVERAGE COUNTERS. Permit Finaled. 976 N WESTERN AVE","address":"976 North Western Avenue, CA, San Pedro, 90732, US","ct":"2963.00, 2964.00","ev":"N","hl":"YES","apc":"Harbor","cpa":"San Pedro","zone":"(Q)C2-1XL","solar":"N","pin_nbr":"021B193   193","use_code":"17","geolocation":"POINT (-118.30832 33.75151)","status_date":"03/25/2009","permit_group":"Building","refresh_time":"06/10/2026","type_lat_lon":"ADDRESS","business_unit":"Plan Check at Counter"},"geometry":{"type":"Point","coordinates":[-118.30832,33.75151]}},{"type":"Feature","properties":{"date":"2006-07-14T00:00:00.000Z","year":2006,"description":"REPLACE (1) WINDOW, & (1) SLIDING DOOR (SAME SIZE & LOCATION)","metadescription":"Bldg-Alter/Repair. Apartment. REPLACE (1) WINDOW, & (1) SLIDING DOOR (SAME SIZE & LOCATION). Permit Finaled. 1284 W STONEWOOD CT","address":"1284 Stonewood Court, CA, San Pedro, 90732, US","ct":"2951.01","ev":"N","hl":"YES","apc":"Harbor","cpa":"San Pedro","zone":"RD2-1XL","solar":"N","pin_nbr":"024B193   197","use_code":"1","geolocation":"POINT (-118.30387 33.76152)","status_date":"08/07/2006","permit_group":"Building","refresh_time":"06/10/2026","type_lat_lon":"ADDRESS","business_unit":"Express Permit"},"geometry":{"type":"Point","coordinates":[-118.30387,33.76152]}},{"type":"Feature","properties":{"date":"2004-05-04T00:00:00.000Z","year":2004,"description":"INSTALL 2 ILLUM CHANNEL LETTER WALL SIGN AND 2 ILLUM. WINDOW SIGN.","metadescription":"Sign. Onsite. INSTALL 2 ILLUM CHANNEL LETTER WALL SIGN AND 2 ILLUM. WINDOW SIGN.. Permit Finaled. 29050 N WESTERN AVE","address":"29050 South Western Avenue, CA, San Pedro, 90732, US","ct":"2963.00","ev":"N","hl":"YES","apc":"Harbor","zone":"(Q)C2-1VLD","solar":"N","pin_nbr":"021B193    39","use_code":"19","geolocation":"POINT (-118.30875089 33.75477294)","status_date":"02/28/2005","permit_group":"Building","refresh_time":"06/10/2026","type_lat_lon":"PIN","business_unit":"Plan Check at Counter"},"geometry":{"type":"Point","coordinates":[-118.30875089,33.75477294]}},{"type":"Feature","properties":{"date":"2003-12-15T00:00:00.000Z","year":2003,"description":"3 NEW WALL SIGNS,  \"ELITE WINDOW FASHIONS BLINDS AND DRAPES\"--3- 13'-6\"x3'-1\", 42 SQ. TOTAL NEW SIGN AREA 126 SQ FT.","metadescription":"Sign. Onsite. 3 NEW WALL SIGNS,  \"ELITE WINDOW FASHIONS BLINDS AND DRAPES\"--3- 13'-6\"x3'-1\", 42 SQ. TOTAL NEW SIGN AREA 126 SQ FT.. Permit Finaled. 29050 N WESTERN AVE","address":"29050 South Western Avenue, CA, San Pedro, 90732, US","ct":"2963.00","ev":"N","hl":"YES","apc":"Harbor","zone":"(Q)C2-1VLD","solar":"N","pin_nbr":"021B193    39","use_code":"19","geolocation":"POINT (-118.30875089 33.75477294)","status_date":"12/18/2003","permit_group":"Building","refresh_time":"06/10/2026","type_lat_lon":"PIN","business_unit":"Plan Check at Counter"},"geometry":{"type":"Point","coordinates":[-118.30875089,33.75477294]}},{"type":"Feature","properties":{"date":"2003-11-03T00:00:00.000Z","year":2003,"description":"CONVERT (E) ONE BEDROOM CONDO UNIT INTO 2 BEDROOMS UNIT.  ADD NEW WINDOW AND RELOCATED EXISTING AT BEDROOMS.","metadescription":"Bldg-Alter/Repair. 1 or 2 Family Dwelling. CONVERT (E) ONE BEDROOM CONDO UNIT INTO 2 BEDROOMS UNIT.  ADD NEW WINDOW AND RELOCATED EXISTING AT BEDROOMS.. Permit Finaled. 1535 W STONEWOOD CT","address":"1535 Stonewood Court, CA, San Pedro, 90732, US","ct":"2951.01","ev":"N","hl":"YES","apc":"Harbor","cpa":"San Pedro","zone":"RD2-1XL","solar":"N","pin_nbr":"024B193   140","use_code":"35","geolocation":"POINT (-118.3069 33.7616)","status_date":"08/19/2004","permit_group":"Building","refresh_time":"06/10/2026","type_lat_lon":"ADDRESS","business_unit":"Plan Check at Counter"},"geometry":{"type":"Point","coordinates":[-118.3069,33.7616]}},{"type":"Feature","properties":{"date":"2003-06-18T00:00:00.000Z","year":2003,"description":"Replace 3 window(s). Same size, location, number, type.  Replace 2 door(s). Same size, location, number, type.","metadescription":"Bldg-Alter/Repair. 1 or 2 Family Dwelling. Replace 3 window(s). Same size, location, number, type.  Replace 2 door(s). Same size, location, number, type.. Permit Expired. 1920 N MT SHASTA DR","address":"1920 Mt Shasta Drive, CA, San Pedro, 90732, US","ct":"2951.01","ev":"N","hl":"YES","apc":"Harbor","cpa":"San Pedro","zone":"RD2-1XL","solar":"N","pin_nbr":"024B193   114","use_code":"1","geolocation":"POINT (-118.30357 33.76191)","status_date":"11/05/2007","permit_group":"Building","refresh_time":"06/10/2026","type_lat_lon":"ADDRESS","business_unit":"Express Permit"},"geometry":{"type":"Point","coordinates":[-118.30357,33.76191]}},{"type":"Feature","properties":{"date":"2003-03-04T00:00:00.000Z","year":2003,"description":"REPLACE 1-WINDOW AND 1-PATIO DOOR - SAME SIZE/LOCATION","metadescription":"Bldg-Alter/Repair. Apartment. REPLACE 1-WINDOW AND 1-PATIO DOOR - SAME SIZE/LOCATION. Permit Finaled. 1412 W STONEWOOD CT","address":"1410 Stonewood Court, CA, San Pedro, 90732, US","ct":"2951.01","ev":"N","hl":"YES","apc":"Harbor","cpa":"San Pedro","zone":"RD2-1XL","solar":"N","pin_nbr":"024B193   196","use_code":"1","geolocation":"POINT (-118.30587 33.76136)","status_date":"03/21/2003","permit_group":"Building","refresh_time":"06/10/2026","type_lat_lon":"ADDRESS","business_unit":"Express Permit"},"geometry":{"type":"Point","coordinates":[-118.30587,33.76136]}},{"type":"Feature","properties":{"date":"2003-02-03T00:00:00.000Z","year":2003,"description":"5'-8\" X 19'-6\" IRREGULAR ONE STORY ADDITION TO EXPAND DINING ROOM AND TO CONNECT EXISTING DETACHED GARAGE TO HOUSE (+ 80 SQ FT). REPLACE FRONT WINDOWS (SAME SIZE AND LOCATION). FRAME GABLE ROOF OVER EX'G SHED ROOF AT GARAGE. ADD PREFAB FIREPLACE IN LVG RM (see comments)","metadescription":"Bldg-Addition. 1 or 2 Family Dwelling. 5'-8\" X 19'-6\" IRREGULAR ONE STORY ADDITION TO EXPAND DINING ROOM AND TO CONNECT EXISTING DETACHED GARAGE TO HOUSE (+ 80 SQ FT). REPLACE FRONT WINDOWS (SAME SIZE AND LOCATION). FRAME GABLE ROOF OVER EX'G SHED ROOF AT GARAGE. ADD PREFAB FIREPLACE IN LVG RM (see comments). Permit Finaled. 2335 W 37TH ST","address":"2327 West 37Th Street, CA, San Pedro, 90732, US","ct":"2974.00","ev":"N","hl":"YES","apc":"Harbor","zone":"R1-1XL","solar":"N","pin_nbr":"009B185     8","use_code":"1","geolocation":"POINT (-118.32709 33.72354)","status_date":"06/08/2004","construction":"Type V-N Construction","permit_group":"Building","refresh_time":"06/10/2026","type_lat_lon":"ADDRESS","business_unit":"Plan Check at Counter","square_footage":"80"},"geometry":{"type":"Point","coordinates":[-118.32709,33.72354]}},{"type":"Feature","properties":{"date":"2002-01-25T00:00:00.000Z","year":2002,"description":"change out 3-windows(same size/same location)aluminum windows","metadescription":"Bldg-Alter/Repair. Apartment. change out 3-windows(same size/same location)aluminum windows. Permit Finaled. 1640 W DALMATIA DR","address":"1640 Dalmatia Drive, CA, San Pedro, 90732, US","ct":"2951.00","ev":"N","hl":"YES","apc":"Harbor","zone":"RD2-1XL","solar":"N","pin_nbr":"024B193    58","use_code":"35","geolocation":"POINT (-118.3078 33.76398)","status_date":"10/04/2004","permit_group":"Building","refresh_time":"06/10/2026","type_lat_lon":"ADDRESS","business_unit":"Express Permit"},"geometry":{"type":"Point","coordinates":[-118.3078,33.76398]}},{"type":"Feature","properties":{"date":"2001-08-09T00:00:00.000Z","year":2001,"description":"change 3-windows(same size) and 1-door(same size)","metadescription":"Bldg-Alter/Repair. 1 or 2 Family Dwelling. change 3-windows(same size) and 1-door(same size). Permit Finaled. 1414 W STONEWOOD CT","address":"1412 Stonewood Court, CA, San Pedro, 90732, US","ct":"2951.00","ev":"N","hl":"YES","apc":"Harbor","zone":"RD2-1XL","solar":"N","pin_nbr":"024B193   196","use_code":"1","geolocation":"POINT (-118.30589 33.76135)","status_date":"06/09/2004","permit_group":"Building","refresh_time":"06/10/2026","type_lat_lon":"ADDRESS","business_unit":"Express Permit"},"geometry":{"type":"Point","coordinates":[-118.30589,33.76135]}},{"type":"Feature","properties":{"date":"1998-01-26T00:00:00.000Z","year":1998,"description":"REPLACE (8)WINDOWS & (2) DOORS(SAME SIZE), REMOVE SIDING ON HOUSE& GAR. & RESTUCCO. PER O.T.C. DATED 1/23/98 PERMIT APPROVED BY ENG. PO","metadescription":"Bldg-Alter/Repair. 1 or 2 Family Dwelling. REPLACE (8)WINDOWS & (2) DOORS(SAME SIZE), REMOVE SIDING ON HOUSE& GAR. & RESTUCCO. PER O.T.C. DATED 1/23/98 PERMIT APPROVED BY ENG. PO. Permit Finaled. 2327 W 37TH ST","address":"2327 West 37Th Street, CA, San Pedro, 90732, US","ct":"2974.00","ev":"N","hl":"Y","apc":"Harbor","solar":"N","pin_nbr":"009B185    10","use_code":"1","geolocation":"POINT (-118.32705 33.72338)","status_date":"12/19/2006","permit_group":"Building","refresh_time":"06/10/2026","type_lat_lon":"ADDRESS","business_unit":"Express Permit"},"geometry":{"type":"Point","coordinates":[-118.32705,33.72338]}}]}
