{"type":"FeatureCollection","features":[{"type":"Feature","properties":{"date":"2017-10-13T00:00:00.000Z","year":2017,"description":"RE-ROOF 10  SQUARES WITH CLASS A OR B MATERIAL WEIGHING LESS THAN 6 POUNDS PER. SQ FT. FOR RESIDENTIAL ROOF REPLACEMENT > 50% OF THE TOTAL ROOF AREA, APPLY COOL ROOF PRODUCT LABELED AND CERTIFIED BY COOL ROOF COUNCIL (CCRC). WORK BEING DONE ON GARAGE & CARPORT.","metadescription":"Bldg-Alter/Repair. Apartment. RE-ROOF 10  SQUARES WITH CLASS A OR B MATERIAL WEIGHING LESS THAN 6 POUNDS PER. SQ FT. FOR RESIDENTIAL ROOF REPLACEMENT > 50% OF THE TOTAL ROOF AREA, APPLY COOL ROOF PRODUCT LABELED AND CERTIFIED BY COOL ROOF COUNCIL (CCRC). WORK BEING DONE ON GARAGE & CARPORT.. Permit Finaled. 21910 S WESTERN AVE","address":"21910 S WESTERN AVE","ct":"2932.01","ev":"N","apc":"Harbor","cpa":"Harbor Gateway","zone":"R3-1","solar":"N","pin_nbr":"048B193   218","use_code":"5","geolocation":"POINT (-118.30879 33.82861)","status_date":"10/19/2017","permit_group":"Building","refresh_time":"06/10/2026","type_lat_lon":"ADDRESS","business_unit":"Express Permit"},"geometry":{"type":"Point","coordinates":[-118.30879,33.82861]}},{"type":"Feature","properties":{"date":"2015-07-23T00:00:00.000Z","year":2015,"description":"NEW 1  CAR CARPORT PER CITY STANDARD, 9'x18'.","metadescription":"Bldg-New. 1 or 2 Family Dwelling. NEW 1  CAR CARPORT PER CITY STANDARD, 9'x18'.. CofO Issued. 1660 W 223RD ST","address":"1660 W 223RD ST","ct":"2932.02","ev":"N","apc":"Harbor","cpa":"Harbor Gateway","zone":"R1-1","solar":"N","height":"10","pin_nbr":"048B193   733","use_code":"7","geolocation":"POINT (-118.30848471 33.8240234)","status_date":"09/30/2016","construction":"Type V-B Construction","permit_group":"Building","refresh_time":"06/10/2026","type_lat_lon":"BUILDING","business_unit":"Plan Check at Counter","square_footage":"0"},"geometry":{"type":"Point","coordinates":[-118.30848471,33.8240234]}},{"type":"Feature","properties":{"date":"2015-06-09T00:00:00.000Z","year":2015,"description":"New 20'0\" x 18'6\" carport. Per engineering.","metadescription":"Bldg-New. 1 or 2 Family Dwelling. New 20'0\" x 18'6\" carport. Per engineering.. CofO Issued. 1661 W 224TH ST","address":"1661 W 224TH ST","ct":"2932.02","ev":"N","apc":"Harbor","cpa":"Harbor Gateway","zone":"R2-1","solar":"N","height":"9.92","pin_nbr":"048B193   792","use_code":"7","geolocation":"POINT (-118.3085688 33.82364337)","status_date":"10/19/2016","construction":"Type V-B Construction","permit_group":"Building","refresh_time":"06/10/2026","type_lat_lon":"BUILDING","business_unit":"Plan Check at Counter","square_footage":"370"},"geometry":{"type":"Point","coordinates":[-118.3085688,33.82364337]}}]}
