{"type":"FeatureCollection","features":[{"type":"Feature","properties":{"date":"2026-04-23T00:00:00.000Z","year":2026,"description":"Improvements include new partitions, infilling openings & making new openings in (E) full height wall, finishes, millwork, T-24 power & data, suspended ceiling, T-24 lighting and cal-compliant plumbing. No change of use or parking.","metadescription":"Bldg-Alter/Repair. Commercial. Improvements include new partitions, infilling openings & making new openings in (E) full height wall, finishes, millwork, T-24 power & data, suspended ceiling, T-24 lighting and cal-compliant plumbing. No change of use or parking.. Issued. 19200 S WESTERN AVE","address":"19200 S WESTERN AVE","ct":"2920.00","ev":"N","apc":"Harbor","cpa":"Harbor Gateway","zone":"M3-1","solar":"N","pin_nbr":"057B193     2","use_code":"22","status_date":"04/23/2026","permit_group":"Building","refresh_time":"06/10/2026","type_lat_lon":"ADDRESS","business_unit":"Regular Plan Check"},"geometry":{"type":"Point","coordinates":[-118.30917,33.85755]}},{"type":"Feature","properties":{"date":"2024-03-28T00:00:00.000Z","year":2024,"description":"eplan: Install 18' height storage racks in existing warehouse.(no change of use)","metadescription":"Bldg-Alter/Repair. Commercial. eplan: Install 18' height storage racks in existing warehouse.(no change of use). Permit Finaled. 20150 S WESTERN AVE","address":"20150 S WESTERN AVE","ct":"2920.01","ev":"N","apc":"Harbor","cpa":"Harbor Gateway","zone":"M3-1","solar":"N","pin_nbr":"057B193    33","use_code":"22","status_date":"05/13/2024","permit_group":"Building","refresh_time":"06/10/2026","type_lat_lon":"ADDRESS","business_unit":"Regular Plan Check"},"geometry":{"type":"Point","coordinates":[-118.30902,33.84812]}},{"type":"Feature","properties":{"date":"2023-03-01T00:00:00.000Z","year":2023,"description":"Eplan:Permit# 22016-10000-26508 | Scope of Work:Expanded Office T.I. Approx. 1,500sq Change of Use  Portion of a Warehouse To Office B Occupancy.See Comment.","metadescription":"Bldg-Alter/Repair. Commercial. Eplan:Permit# 22016-10000-26508 | Scope of Work:Expanded Office T.I. Approx. 1,500sq Change of Use  Portion of a Warehouse To Office B Occupancy.See Comment.. Corrections Issued. 20200 S WESTERN AVE","address":"20200 S WESTERN AVE","ct":"2920.01","ev":"N","apc":"Harbor","cpa":"Harbor Gateway","zone":"M3-1","solar":"N","pin_nbr":"054B193   700","use_code":"22","status_date":"03/17/2023","construction":"Type III-B Construction","permit_group":"Building","refresh_time":"06/10/2026","type_lat_lon":"ADDRESS","business_unit":"Expanded Counter Plan Check"},"geometry":{"type":"Point","coordinates":[-118.30905,33.84769]}},{"type":"Feature","properties":{"date":"2022-07-25T00:00:00.000Z","year":2022,"description":"CHANGE OF USE FROM TAKE OUT RESTAURANT TO RETAIL","metadescription":"Bldg-Alter/Repair. Commercial. CHANGE OF USE FROM TAKE OUT RESTAURANT TO RETAIL. Issued. 1658 W CARSON ST","address":"1658 W CARSON ST","ct":"2932.01","ev":"N","apc":"Harbor","cpa":"Harbor Gateway","zone":"C2-1","solar":"N","pin_nbr":"051B193   977","use_code":"16","status_date":"07/25/2022","construction":"Type V-B Construction","permit_group":"Building","refresh_time":"06/10/2026","type_lat_lon":"ADDRESS","business_unit":"Plan Check at Counter"},"geometry":{"type":"Point","coordinates":[-118.30868,33.8313]}},{"type":"Feature","properties":{"date":"2021-04-15T00:00:00.000Z","year":2021,"description":"CHANGE OF USE FROM RETAIL (M-OCCUPANCY) TO CHURCH (A3-OCCUPANCY).  see comments","metadescription":"Bldg-Alter/Repair. Commercial. CHANGE OF USE FROM RETAIL (M-OCCUPANCY) TO CHURCH (A3-OCCUPANCY).  see comments. Quality Review Completed. 22708 S WESTERN AVE","address":"22708 S WESTERN AVE","ct":"2932.02","ev":"N","apc":"Harbor","cpa":"Harbor Gateway","zone":"C2-1","solar":"N","pin_nbr":"045B193   258","use_code":"6","status_date":"06/07/2021","construction":"Type III-B Construction","permit_group":"Building","refresh_time":"06/10/2026","type_lat_lon":"ADDRESS","business_unit":"Regular Plan Check","square_footage":"0"},"geometry":{"type":"Point","coordinates":[-118.30868,33.81984]}},{"type":"Feature","properties":{"date":"2021-03-04T00:00:00.000Z","year":2021,"description":"Non-structural T.I. and Change of Use from Medical Office to Restaurant","metadescription":"Bldg-Alter/Repair. Commercial. Non-structural T.I. and Change of Use from Medical Office to Restaurant. PC Approved. 22828 S WESTERN AVE","address":"22828 S WESTERN AVE","ct":"2932.02","ev":"N","apc":"Harbor","cpa":"Harbor Gateway","zone":"C1-1","solar":"N","pin_nbr":"045B193   426","use_code":"17","status_date":"05/04/2022","construction":"Type V-B Construction","permit_group":"Building","refresh_time":"06/10/2026","type_lat_lon":"ADDRESS","business_unit":"Regular Plan Check"},"geometry":{"type":"Point","coordinates":[-118.30866,33.81854]}},{"type":"Feature","properties":{"date":"2019-12-27T00:00:00.000Z","year":2019,"description":"PROPOSED TI FOR NEW ON-BEARING WALLS, UGRADE FIRE-RATING OF (E) PARTITIONS AND UPGRADE EXISTING NON ACCESSIBLE RESTROOM TO ACCESSIBLE RESTROOM; NO CHANGE OF USE OR OCCUPANCY***\"COMPLY WITH DEPARTMENT ORDER effective date02/18/2010. PERMIT WILL EXPIRE 30 DAYS FROM ISSUANCE DATE\"","metadescription":"Bldg-Alter/Repair. Commercial. PROPOSED TI FOR NEW ON-BEARING WALLS, UGRADE FIRE-RATING OF (E) PARTITIONS AND UPGRADE EXISTING NON ACCESSIBLE RESTROOM TO ACCESSIBLE RESTROOM; NO CHANGE OF USE OR OCCUPANCY***\"COMPLY WITH DEPARTMENT ORDER effective date02/18/2010. PERMIT WILL EXPIRE 30 DAYS FROM ISSUANCE DATE\". Permit Finaled. 22540 S WESTERN AVE","address":"22540 S WESTERN AVE","ct":"2932.02","ev":"N","apc":"Harbor","cpa":"Harbor Gateway","zone":"MR1-1VL","solar":"N","pin_nbr":"045B193    99","use_code":"8","geolocation":"POINT (-118.30871 33.82181)","status_date":"04/01/2020","permit_group":"Building","refresh_time":"06/10/2026","type_lat_lon":"ADDRESS","business_unit":"Plan Check at Counter"},"geometry":{"type":"Point","coordinates":[-118.30871,33.82181]}},{"type":"Feature","properties":{"date":"2012-09-24T00:00:00.000Z","year":2012,"description":"TI 7500 sq  CHANGE OF USE OF A PORTION OF A WAREHOUSE TO A TESTING LABORATORY  B OCCUPANCY","metadescription":"Bldg-Alter/Repair. Commercial. TI 7500 sq  CHANGE OF USE OF A PORTION OF A WAREHOUSE TO A TESTING LABORATORY  B OCCUPANCY. CofO Issued. 20200 S WESTERN AVE","address":"20200 S WESTERN AVE","ct":"2920.00","ev":"N","apc":"Harbor","cpa":"Harbor Gateway","zone":"M3-1","solar":"N","pin_nbr":"054B193   700","use_code":"13","geolocation":"POINT (-118.30905 33.84769)","status_date":"09/09/2014","construction":"Type III-B Construction","permit_group":"Building","refresh_time":"06/10/2026","type_lat_lon":"ADDRESS","business_unit":"Plan Check at Counter"},"geometry":{"type":"Point","coordinates":[-118.30905,33.84769]}},{"type":"Feature","properties":{"date":"2011-12-07T00:00:00.000Z","year":2011,"description":"CHANGE OF USE  FROM  RETAIL ( 1000 S.F.)  TO MEDICAL  CLINIC & INTERIOR NON STRUCTURAL T.I. &  ADD. ONE STD. PARKING SPOT ON PARKING LOT.COMPLY WITH DEPARTMENT ORDER effective date11/24/2011. PERMIT WILL EXPIRE 30 DAYS FROM ISSUANCE DATESEE COMMENTS","metadescription":"Bldg-Alter/Repair. Commercial. CHANGE OF USE  FROM  RETAIL ( 1000 S.F.)  TO MEDICAL  CLINIC & INTERIOR NON STRUCTURAL T.I. &  ADD. ONE STD. PARKING SPOT ON PARKING LOT.COMPLY WITH DEPARTMENT ORDER effective date11/24/2011. PERMIT WILL EXPIRE 30 DAYS FROM ISSUANCE DATESEE COMMENTS. CofO Issued. 22828 S WESTERN AVE","address":"22828 S WESTERN AVE","ct":"2932.02","ev":"N","apc":"Harbor","cpa":"Harbor Gateway","zone":"C1-1","solar":"N","pin_nbr":"045B193   426","use_code":"16","geolocation":"POINT (-118.30866 33.81854)","status_date":"07/03/2012","construction":"Type V-B Construction","permit_group":"Building","refresh_time":"06/10/2026","type_lat_lon":"ADDRESS","business_unit":"Regular Plan Check","square_footage":"0"},"geometry":{"type":"Point","coordinates":[-118.30866,33.81854]}},{"type":"Feature","properties":{"date":"2007-05-24T00:00:00.000Z","year":2007,"description":"INTERIOR REMODEL EXISTING SUBWAY (TAKE OUT ONLY) . ATERATION REPAIR T-BAR CEILING AND INTERIOR COUNTER TILE FEATURES. NO CHANGE OF USE.","metadescription":"Bldg-Alter/Repair. Commercial. INTERIOR REMODEL EXISTING SUBWAY (TAKE OUT ONLY) . ATERATION REPAIR T-BAR CEILING AND INTERIOR COUNTER TILE FEATURES. NO CHANGE OF USE.. Permit Finaled. 1671 W CARSON ST","address":"1671 W CARSON ST","ct":"2932.01","ev":"N","apc":"Harbor","cpa":"Harbor Gateway","zone":"[Q]C2-1","solar":"N","pin_nbr":"051B193   909","use_code":"17","geolocation":"POINT (-118.3088 33.83167)","status_date":"06/05/2007","permit_group":"Building","refresh_time":"06/10/2026","type_lat_lon":"ADDRESS","business_unit":"Plan Check at Counter"},"geometry":{"type":"Point","coordinates":[-118.3088,33.83167]}},{"type":"Feature","properties":{"date":"2006-10-10T00:00:00.000Z","year":2006,"description":"CHANGE OF USE PORTION OF BUILDING 33' x 38' [1247 SF] FROM WAREHOUSE TO RETAIL AND EXPAND OFFICE SPACES TOTAL OF 23,236 SF [LESS THAN 10% OF ENTIRE WAREHOUSE].","metadescription":"Bldg-Alter/Repair. Commercial. CHANGE OF USE PORTION OF BUILDING 33' x 38' [1247 SF] FROM WAREHOUSE TO RETAIL AND EXPAND OFFICE SPACES TOTAL OF 23,236 SF [LESS THAN 10% OF ENTIRE WAREHOUSE].. CofO Issued. 19400 S WESTERN AVE","address":"19400 S WESTERN AVE","ct":"2920.00","ev":"N","apc":"Harbor","cpa":"Harbor Gateway","zone":"M3-1","solar":"N","pin_nbr":"057B193     2","use_code":"13","geolocation":"POINT (-118.30917 33.8552)","status_date":"05/07/2009","permit_group":"Building","refresh_time":"06/10/2026","type_lat_lon":"ADDRESS","business_unit":"Plan Check at Counter","square_footage":"0"},"geometry":{"type":"Point","coordinates":[-118.30917,33.8552]}},{"type":"Feature","properties":{"date":"2004-02-25T00:00:00.000Z","year":2004,"description":"TENANT IMPROVEMENT FOR (E) BAR.  WORK TO INCLUDE REMODELING OF BAR AREA, KITCHEN AND DINNING AREA.  NEW NONBEARING WALLS TO CREATE ADDITION RESTROOMS.  INTERIOR REMODEL THROUGHOUT.  NO CHANGE OF USE OR FLOOR AREA.","metadescription":"Bldg-Alter/Repair. Commercial. TENANT IMPROVEMENT FOR (E) BAR.  WORK TO INCLUDE REMODELING OF BAR AREA, KITCHEN AND DINNING AREA.  NEW NONBEARING WALLS TO CREATE ADDITION RESTROOMS.  INTERIOR REMODEL THROUGHOUT.  NO CHANGE OF USE OR FLOOR AREA.. Permit Finaled. 22804 S WESTERN AVE","address":"22804 S WESTERN AVE","ct":"2932.02","ev":"N","apc":"Harbor","cpa":"Harbor Gateway","zone":"C1-1","solar":"N","pin_nbr":"045B193   400","use_code":"17","geolocation":"POINT (-118.30866 33.8188)","status_date":"07/28/2006","construction":"Type V-N Construction","permit_group":"Building","refresh_time":"06/10/2026","type_lat_lon":"ADDRESS","business_unit":"Regular Plan Check","square_footage":"2500"},"geometry":{"type":"Point","coordinates":[-118.30866,33.8188]}},{"type":"Feature","properties":{"date":"2001-12-31T00:00:00.000Z","year":2001,"description":"CHANGE OF USE FROM (E) BILLIARD PARLOR TO RESTAURANT (1530 S.F.) (NO CHANGE IN PARKING 1/100). INTERIOR NON-BEARING PARTITIONS AND (N) 1-HR HOOD FOR KITCHEN HOOD.","metadescription":"Bldg-Alter/Repair. Commercial. CHANGE OF USE FROM (E) BILLIARD PARLOR TO RESTAURANT (1530 S.F.) (NO CHANGE IN PARKING 1/100). INTERIOR NON-BEARING PARTITIONS AND (N) 1-HR HOOD FOR KITCHEN HOOD.. Permit Finaled. 22820 S WESTERN AVE","address":"22820 S WESTERN AVE","ct":"2932.02","ev":"N","apc":"Harbor","zone":"C1-1","solar":"N","pin_nbr":"045B193   426","use_code":"17","geolocation":"POINT (-118.30866 33.81859)","status_date":"05/21/2002","permit_group":"Building","refresh_time":"06/10/2026","type_lat_lon":"ADDRESS","business_unit":"Plan Check at Counter"},"geometry":{"type":"Point","coordinates":[-118.30866,33.81859]}},{"type":"Feature","properties":{"date":"2001-07-11T00:00:00.000Z","year":2001,"description":"Teanat Improvement : non-bearing partitions and ceiling: change of use from warehouse/storage to office in part of existing warehouse building. (affected area: 35000 sf in 2-story at two locations ) 70 additional pkg required.","metadescription":"Bldg-Alter/Repair. Commercial. Teanat Improvement : non-bearing partitions and ceiling: change of use from warehouse/storage to office in part of existing warehouse building. (affected area: 35000 sf in 2-story at two locations ) 70 additional pkg required.. Permit Finaled. 19600 S WESTERN AVE","address":"19600 S WESTERN AVE","ct":"2920.00","ev":"N","apc":"Harbor","zone":"M3-1","solar":"N","pin_nbr":"057B193     2","use_code":"22","geolocation":"POINT (-118.30916 33.85318)","status_date":"11/05/2001","permit_group":"Building","refresh_time":"06/10/2026","type_lat_lon":"ADDRESS","business_unit":"Appointment Plan Check"},"geometry":{"type":"Point","coordinates":[-118.30916,33.85318]}},{"type":"Feature","properties":{"date":"2001-01-12T00:00:00.000Z","year":2001,"description":"CHANGE OF USE OF PORTION OF EXISTING MANUFACTURING USE TO OFFICE AND ADDITION OF A NEW SECOND FLOOR FOR OFFICE AND STRUCTURAL TENANT IMPROVEMENT. CUT NEW OPENINGS AT THE EXTERIOR WALLS.( no cooking facility)","metadescription":"Bldg-Addition. Commercial. CHANGE OF USE OF PORTION OF EXISTING MANUFACTURING USE TO OFFICE AND ADDITION OF A NEW SECOND FLOOR FOR OFFICE AND STRUCTURAL TENANT IMPROVEMENT. CUT NEW OPENINGS AT THE EXTERIOR WALLS.( no cooking facility). Permit Finaled. 20100 S WESTERN AVE","address":"20100 S WESTERN AVE","ct":"2920.00","ev":"N","apc":"Harbor","zone":"M3-1","solar":"N","pin_nbr":"057B193    33","use_code":"12","geolocation":"POINT (-118.30902 33.84877)","status_date":"07/19/2002","construction":"Type III-N Construction","permit_group":"Building","refresh_time":"06/10/2026","type_lat_lon":"ADDRESS","business_unit":"Regular Plan Check","square_footage":"111352"},"geometry":{"type":"Point","coordinates":[-118.30902,33.84877]}},{"type":"Feature","properties":{"date":"2001-01-05T00:00:00.000Z","year":2001,"description":"Tenant Improvement ( 2112 sf) Change of use portion of the warehouse space into an office space Change of occupacy portion of M1 group to B. New partition walls, ceiling, and flooring","metadescription":"Bldg-Alter/Repair. Commercial. Tenant Improvement ( 2112 sf) Change of use portion of the warehouse space into an office space Change of occupacy portion of M1 group to B. New partition walls, ceiling, and flooring. Permit Finaled. 20200 S WESTERN AVE","address":"20200 S WESTERN AVE","ct":"2920.00","ev":"N","apc":"Harbor","solar":"N","pin_nbr":"054B193   700","use_code":"13","geolocation":"POINT (-118.30905 33.84769)","status_date":"11/14/2001","permit_group":"Building","refresh_time":"06/10/2026","type_lat_lon":"ADDRESS","business_unit":"Plan Check at Counter"},"geometry":{"type":"Point","coordinates":[-118.30905,33.84769]}},{"type":"Feature","properties":{"date":"1999-07-13T00:00:00.000Z","year":1999,"description":"T.I. @ 2 office areas ( 1772 sf.). Add restrooms with 29' x 22.5' mezzanine above. Enlarge loading doors. Include change of use/occ. from Warehouse (S1) to Office (B) & Training (A3).","metadescription":"Bldg-Addition. Commercial. T.I. @ 2 office areas ( 1772 sf.). Add restrooms with 29' x 22.5' mezzanine above. Enlarge loading doors. Include change of use/occ. from Warehouse (S1) to Office (B) & Training (A3).. Permit Finaled. 19270 S WESTERN AVE","address":"19270 S WESTERN AVE","ct":"2920.00","ev":"N","apc":"Harbor","zone":"M3-1","solar":"N","pin_nbr":"057B193     2","use_code":"13","geolocation":"POINT (-118.30917 33.85733)","status_date":"12/17/1999","construction":"Type II-N Construction","permit_group":"Building","refresh_time":"06/10/2026","type_lat_lon":"ADDRESS","business_unit":"Regular Plan Check"},"geometry":{"type":"Point","coordinates":[-118.30917,33.85733]}},{"type":"Feature","properties":{"date":"1998-08-25T00:00:00.000Z","year":1998,"description":"TENANT IMPROVEMENT 6746 SQ. FT. CHANGE OF USE FROM EXISTING WAREHOUSE TO ACCESSORY OFFICE IN NW & SE CORNER OF EXISTING . SHELL BUILDING. NEW INTERIOR PARTITIONS, NEW RESTROOMS, AND NEW SUSPENDED CEILING. ONE TENANT FOR ENTIRE BUILDING.","metadescription":"Bldg-Alter/Repair. Commercial. TENANT IMPROVEMENT 6746 SQ. FT. CHANGE OF USE FROM EXISTING WAREHOUSE TO ACCESSORY OFFICE IN NW & SE CORNER OF EXISTING . SHELL BUILDING. NEW INTERIOR PARTITIONS, NEW RESTROOMS, AND NEW SUSPENDED CEILING. ONE TENANT FOR ENTIRE BUILDING.. Permit Expired. 19400 S WESTERN AVE","address":"19400 S WESTERN AVE","ct":"2920.00","ev":"N","apc":"Harbor","zone":"M3-1","solar":"N","height":"36","pin_nbr":"057B193     2","use_code":"22","geolocation":"POINT (-118.30917 33.8552)","status_date":"01/01/2007","construction":"Type III-N Construction","permit_group":"Building","refresh_time":"06/10/2026","type_lat_lon":"ADDRESS","business_unit":"Plan Check at Counter","square_footage":"259327"},"geometry":{"type":"Point","coordinates":[-118.30917,33.8552]}}]}
