{"type":"FeatureCollection","features":[{"type":"Feature","properties":{"date":"2019-09-16T00:00:00.000Z","year":2019,"description":"(10) Window change-out (same size & type) for residential buildings.  Dual glazing, labeled and certified by National Fenestration Rating Council (NFRC), is required for doors and windows replaced in all residential buildings, three stories or less, per Section 150.2(b) 1B of Title 24.","metadescription":"Bldg-Alter/Repair. Apartment. (10) Window change-out (same size & type) for residential buildings.  Dual glazing, labeled and certified by National Fenestration Rating Council (NFRC), is required for doors and windows replaced in all residential buildings, three stories or less, per Section 150.2(b) 1B of Title 24.. Permit Expired. 1650 W 226TH ST","address":"1642 West 226Th Street, CA, Torrance, 90501, US","ct":"2932.02","ev":"N","apc":"Harbor","cpa":"Harbor Gateway","zone":"RD1.5-1","solar":"N","pin_nbr":"045B193   143","use_code":"5","geolocation":"POINT (-118.30813 33.82122)","status_date":"12/15/2025","permit_group":"Building","refresh_time":"06/10/2026","type_lat_lon":"ADDRESS","business_unit":"Express Permit"},"geometry":{"type":"Point","coordinates":[-118.30813,33.82122]}},{"type":"Feature","properties":{"date":"2019-07-24T00:00:00.000Z","year":2019,"description":"15 windows change-out (same size & type) for residential buildings.  Dual glazing, labeled and certified by national fenestration rating council (NFRC), is required for doors and windows replaced in all residential buildings, three stories or less, per section 150.2 (b) 1b of title 24.","metadescription":"Bldg-Alter/Repair. 1 or 2 Family Dwelling. 15 windows change-out (same size & type) for residential buildings.  Dual glazing, labeled and certified by national fenestration rating council (NFRC), is required for doors and windows replaced in all residential buildings, three stories or less, per section 150.2 (b) 1b of title 24.. Permit Finaled. 1558 W 219TH ST","address":"1554 West 219Th Street, CA, Torrance, 90501, US","ct":"2932.01","ev":"N","apc":"Harbor","cpa":"Harbor Gateway","zone":"R2-1","solar":"N","pin_nbr":"048B193   203","use_code":"1","geolocation":"POINT (-118.30582 33.82901)","status_date":"07/29/2019","permit_group":"Building","refresh_time":"06/10/2026","type_lat_lon":"ADDRESS","business_unit":"Express Permit"},"geometry":{"type":"Point","coordinates":[-118.30582,33.82901]}},{"type":"Feature","properties":{"date":"2019-07-01T00:00:00.000Z","year":2019,"description":"WINDOW (2) AND DOOR(1) CHANGE OUT(SAME SIZE&TYPE)FOR RESIDENTIAL BUILDINGS.  DUAL GLAZING, LABELED AND CERTIFIED BY NATIONAL FENESTRATION RATING COUNCIL (NFRC), IS REQUIRED FOR DOORS AND WINDOWS REPLACED IN ALL RESIDENTIAL BUILDINGS, THREE STORIES OR LESS, PER SECTION 150.2(b)1B","metadescription":"Bldg-Alter/Repair. Apartment. WINDOW (2) AND DOOR(1) CHANGE OUT(SAME SIZE&TYPE)FOR RESIDENTIAL BUILDINGS.  DUAL GLAZING, LABELED AND CERTIFIED BY NATIONAL FENESTRATION RATING COUNCIL (NFRC), IS REQUIRED FOR DOORS AND WINDOWS REPLACED IN ALL RESIDENTIAL BUILDINGS, THREE STORIES OR LESS, PER SECTION 150.2(b)1B. Permit Finaled. 1667 W 204TH ST #1","address":"1667 West 204Th Street, CA, Torrance, 90501, US","ct":"2920.00","ev":"N","apc":"Harbor","cpa":"Harbor Gateway","zone":"RD1.5-1","solar":"N","pin_nbr":"054B193   122","use_code":"5","geolocation":"POINT (-118.30897 33.84577)","status_date":"07/10/2019","permit_group":"Building","refresh_time":"06/10/2026","type_lat_lon":"ADDRESS","business_unit":"Express Permit"},"geometry":{"type":"Point","coordinates":[-118.30897,33.84577]}},{"type":"Feature","properties":{"date":"2019-03-26T00:00:00.000Z","year":2019,"description":"Interior alteration to (E) Duplex with attached garage to infill door separating garage and bedroom within unit 21929.  All work per WFPP.","metadescription":"Bldg-Alter/Repair. 1 or 2 Family Dwelling. Interior alteration to (E) Duplex with attached garage to infill door separating garage and bedroom within unit 21929.  All work per WFPP.. Issued. 21927-21929 S HARVARD BLVD","address":"21927 South Harvard Boulevard, CA, Torrance, 90501, US","ct":"2932.01","ev":"N","apc":"Harbor","cpa":"Harbor Gateway","zone":"R2-1","solar":"N","pin_nbr":"048B193   276","use_code":"2","geolocation":"POINT (-118.30657 33.82843)","status_date":"03/26/2019","permit_group":"Building","refresh_time":"06/10/2026","type_lat_lon":"ADDRESS","business_unit":"Plan Check at Counter"},"geometry":{"type":"Point","coordinates":[-118.30657,33.82843]}},{"type":"Feature","properties":{"date":"2018-07-13T00:00:00.000Z","year":2018,"description":"(5) Window change-out (same size & type) for residential buildings. Dual glazing, labeled and certified by National Fenestration Rating Council (NFRC), is required for doors and windows replaced in all residential buildings, three stories or less, per Section 150.2(b) 1B of Title 24.","metadescription":"Bldg-Alter/Repair. Apartment. (5) Window change-out (same size & type) for residential buildings. Dual glazing, labeled and certified by National Fenestration Rating Council (NFRC), is required for doors and windows replaced in all residential buildings, three stories or less, per Section 150.2(b) 1B of Title 24.. Permit Finaled. 20620 S WESTERN AVE","address":"20618 1/2 South Western Avenue, CA, Torrance, 90501, US","ct":"2920.00","ev":"N","apc":"Harbor","cpa":"Harbor Gateway","zone":"RD1.5-1","solar":"N","pin_nbr":"054B193   314","use_code":"5","geolocation":"POINT (-118.30899 33.84317)","status_date":"08/09/2018","permit_group":"Building","refresh_time":"06/10/2026","type_lat_lon":"ADDRESS","business_unit":"Express Permit"},"geometry":{"type":"Point","coordinates":[-118.30899,33.84317]}},{"type":"Feature","properties":{"date":"2018-03-09T00:00:00.000Z","year":2018,"description":"CHANGE OUT 2-DOORS (SAME SIZE AND LOCATION)FOR RESIDENTIAL BUILDINGS.  DUAL GLAZING, LABELED AND CERTIFIED BY NATIONAL FENESTRATION RATING COUNCIL (NFRC), IS REQUIRED FOR DOORS AND WINDOWS REPLACED IN ALL RESIDENTIAL BUILDINGS, THREE STORIES OR LESS, PER SECTION 152(b) OF TITLE 24.","metadescription":"Bldg-Alter/Repair. Apartment. CHANGE OUT 2-DOORS (SAME SIZE AND LOCATION)FOR RESIDENTIAL BUILDINGS.  DUAL GLAZING, LABELED AND CERTIFIED BY NATIONAL FENESTRATION RATING COUNCIL (NFRC), IS REQUIRED FOR DOORS AND WINDOWS REPLACED IN ALL RESIDENTIAL BUILDINGS, THREE STORIES OR LESS, PER SECTION 152(b) OF TITLE 24.. Permit Finaled. 1644 W 206TH ST A&B","address":"1644 West 206Th Street, CA, Torrance, 90501, US","ct":"2920.00","ev":"N","apc":"Harbor","cpa":"Harbor Gateway","zone":"RD1.5-1","solar":"N","pin_nbr":"054B193   279","use_code":"5","geolocation":"POINT (-118.30832 33.84368)","status_date":"03/28/2018","permit_group":"Building","refresh_time":"06/10/2026","type_lat_lon":"ADDRESS","business_unit":"Express Permit"},"geometry":{"type":"Point","coordinates":[-118.30832,33.84368]}},{"type":"Feature","properties":{"date":"2018-03-09T00:00:00.000Z","year":2018,"description":"CHANGE OUT 1 WINDOW AND 2 DOORS (SAME SIZE AND LOCATION)  FOR RESIDENTIAL BUILDINGS, DUAL GLAZING, LABELED AND CERTIFIED BY NATIONAL FENESTRATION RATING COUNCIL (NFRC), IS REQUIRED FOR DOORS AND WINDOWS REPLACED IN ALL RESIDENTIAL BUILDINGS, THREE STORIES OR LESS, PER SECTION 152(b) OF TITLE24.","metadescription":"Bldg-Alter/Repair. Apartment. CHANGE OUT 1 WINDOW AND 2 DOORS (SAME SIZE AND LOCATION)  FOR RESIDENTIAL BUILDINGS, DUAL GLAZING, LABELED AND CERTIFIED BY NATIONAL FENESTRATION RATING COUNCIL (NFRC), IS REQUIRED FOR DOORS AND WINDOWS REPLACED IN ALL RESIDENTIAL BUILDINGS, THREE STORIES OR LESS, PER SECTION 152(b) OF TITLE24.. Permit Finaled. 1652 W 207TH ST A&B","address":"1652 West 207Th Street, CA, Torrance, 90501, US","ct":"2920.00","ev":"N","apc":"Harbor","cpa":"Harbor Gateway","zone":"RD1.5-1","solar":"N","pin_nbr":"054B193   342","use_code":"5","geolocation":"POINT (-118.30847 33.84276)","status_date":"04/11/2018","permit_group":"Building","refresh_time":"06/10/2026","type_lat_lon":"ADDRESS","business_unit":"Express Permit"},"geometry":{"type":"Point","coordinates":[-118.30847,33.84276]}},{"type":"Feature","properties":{"date":"2018-03-09T00:00:00.000Z","year":2018,"description":"CHANGE OUT 2-DOORS -SAME SIZE AND LOCATION FOR RESIDENTIAL BUILDINGS.  DUAL GLAZING, LABELED AND CERTIFIED BY NATIONAL FENESTRATION RATING COUNCIL (NFRC) IS REQUIRED FOR DOORS AND WINDOWS REPLACED IN ALL RESIDENTIAL BUILDINGS, THREE STORIES OR LESS, PER SECTION 152(b) OF TITLE 24. (1- IN UNIT 'A' AND 1 IN UNIT 'B')","metadescription":"Bldg-Alter/Repair. Apartment. CHANGE OUT 2-DOORS -SAME SIZE AND LOCATION FOR RESIDENTIAL BUILDINGS.  DUAL GLAZING, LABELED AND CERTIFIED BY NATIONAL FENESTRATION RATING COUNCIL (NFRC) IS REQUIRED FOR DOORS AND WINDOWS REPLACED IN ALL RESIDENTIAL BUILDINGS, THREE STORIES OR LESS, PER SECTION 152(b) OF TITLE 24. (1- IN UNIT 'A' AND 1 IN UNIT 'B'). Permit Finaled. 1644 W 206TH ST A&B","address":"1644 West 206Th Street, CA, Torrance, 90501, US","ct":"2920.00","ev":"N","apc":"Harbor","cpa":"Harbor Gateway","zone":"RD1.5-1","solar":"N","pin_nbr":"054B193   279","use_code":"5","geolocation":"POINT (-118.30832 33.84368)","status_date":"08/07/2018","permit_group":"Building","refresh_time":"06/10/2026","type_lat_lon":"ADDRESS","business_unit":"Express Permit"},"geometry":{"type":"Point","coordinates":[-118.30832,33.84368]}},{"type":"Feature","properties":{"date":"2017-10-03T00:00:00.000Z","year":2017,"description":"INTERIOR REMODEL OF EXISTING SFD TO REMOVE RELOCATE BATHROOM DOOR, REMOVE INTERIOR BEARING WALL AND REPLACE WITH (N) BEAM, COLUMNS AND PAD FOOTINGS PER ENGINEER DESIGN. ALL WORK ARE INTERIOR","metadescription":"Bldg-Alter/Repair. 1 or 2 Family Dwelling. INTERIOR REMODEL OF EXISTING SFD TO REMOVE RELOCATE BATHROOM DOOR, REMOVE INTERIOR BEARING WALL AND REPLACE WITH (N) BEAM, COLUMNS AND PAD FOOTINGS PER ENGINEER DESIGN. ALL WORK ARE INTERIOR. Permit Finaled. 1664 W 221ST ST","address":"1664 West 221St Street, CA, Torrance, 90501, US","ct":"2932.01","ev":"N","apc":"Harbor","cpa":"Harbor Gateway","zone":"R1-1","solar":"N","pin_nbr":"048B193   478","use_code":"1","geolocation":"POINT (-118.30865 33.82667)","status_date":"03/28/2018","permit_group":"Building","refresh_time":"06/10/2026","type_lat_lon":"ADDRESS","business_unit":"Plan Check at Counter"},"geometry":{"type":"Point","coordinates":[-118.30865,33.82667]}},{"type":"Feature","properties":{"date":"2017-07-17T00:00:00.000Z","year":2017,"description":"Kitchen/bathroom remodel for residential buildings (no structural changes). INCLUDE PLUMBING AND ELECTRICAL. (8)Window and (4)door change-out (same size & type) for residential buildings.  Dual glazing, labeled and certified by National Fenestration Rating Council (NFRC), is required for doors and windows replaced in all residential buildings, three stories or less, per Section 152(b) of Title 24.","metadescription":"Bldg-Alter/Repair. 1 or 2 Family Dwelling. Kitchen/bathroom remodel for residential buildings (no structural changes). INCLUDE PLUMBING AND ELECTRICAL. (8)Window and (4)door change-out (same size & type) for residential buildings.  Dual glazing, labeled and certified by National Fenestration Rating Council (NFRC), is required for doors and windows replaced in all residential buildings, three stories or less, per Section 152(b) of Title 24.. Permit Finaled. 1664 W 221ST ST","address":"1664 West 221St Street, CA, Torrance, 90501, US","ct":"2932.01","ev":"N","apc":"Harbor","cpa":"Harbor Gateway","zone":"R1-1","solar":"N","pin_nbr":"048B193   478","use_code":"1","geolocation":"POINT (-118.30865 33.82667)","status_date":"06/12/2018","permit_group":"Building","refresh_time":"06/10/2026","type_lat_lon":"ADDRESS","business_unit":"Express Permit"},"geometry":{"type":"Point","coordinates":[-118.30865,33.82667]}},{"type":"Feature","properties":{"date":"2017-01-23T00:00:00.000Z","year":2017,"description":"Kitchen/bathroom remodel for residential buildings (no structural changes).(10) Window  change-out (same size & type) for residential buildings.  Dual glazing, labeled and certified by National Fenestration Rating Council (NFRC), is required for doors and windows replaced in all residential buildings, three stories or less, per Section 152(b) of Title 24.","metadescription":"Bldg-Alter/Repair. Commercial. Kitchen/bathroom remodel for residential buildings (no structural changes).(10) Window  change-out (same size & type) for residential buildings.  Dual glazing, labeled and certified by National Fenestration Rating Council (NFRC), is required for doors and windows replaced in all residential buildings, three stories or less, per Section 152(b) of Title 24.. Permit Closed. 1563 W CARSON ST","address":"1557 West Carson Street, CA, Torrance, 90501, US","ct":"2932.01","ev":"N","apc":"Harbor","cpa":"Harbor Gateway","zone":"C2-1","solar":"N","pin_nbr":"051B193   890","use_code":"1","geolocation":"POINT (-118.30593 33.83166)","status_date":"07/26/2018","permit_group":"Building","refresh_time":"06/10/2026","type_lat_lon":"ADDRESS","business_unit":"Express Permit"},"geometry":{"type":"Point","coordinates":[-118.30593,33.83166]}},{"type":"Feature","properties":{"date":"2016-10-26T00:00:00.000Z","year":2016,"description":"CHANGE OUT  3 WINDOWS  (SAME SIZE & TYPE FOR RESIDENTIAL BUILDINGS ONLY) DUAL GLAZING, LABELED AND CERTIFIED BY NATIONAL FENESTRATION RATING COUNCIL (NFRC), IS REQUIRED FOR DOORS AND WINDOWS REPLACED IN ALL RESIDENTIAL BUILDINGS, THREE STORIES OR LESS, PER SECTION 152(B) OF TITLE 24.","metadescription":"Bldg-Alter/Repair. 1 or 2 Family Dwelling. CHANGE OUT  3 WINDOWS  (SAME SIZE & TYPE FOR RESIDENTIAL BUILDINGS ONLY) DUAL GLAZING, LABELED AND CERTIFIED BY NATIONAL FENESTRATION RATING COUNCIL (NFRC), IS REQUIRED FOR DOORS AND WINDOWS REPLACED IN ALL RESIDENTIAL BUILDINGS, THREE STORIES OR LESS, PER SECTION 152(B) OF TITLE 24.. Permit Finaled. 1547 W 218TH ST","address":"1547 West 218Th Street, CA, Torrance, 90501, US","ct":"2932.01","ev":"N","apc":"Harbor","cpa":"Harbor Gateway","zone":"R2-1","solar":"N","pin_nbr":"048B193    25","use_code":"1","geolocation":"POINT (-118.30537 33.83038)","status_date":"07/10/2020","permit_group":"Building","refresh_time":"06/10/2026","type_lat_lon":"ADDRESS","business_unit":"Express Permit"},"geometry":{"type":"Point","coordinates":[-118.30537,33.83038]}},{"type":"Feature","properties":{"date":"2016-10-21T00:00:00.000Z","year":2016,"description":"(3) Window and (1) door change-out (same size & type) for residential buildings.  Dual glazing, labeled and certified by National Fenestration Rating Council (NFRC), is required for doors and windows replaced in all residential buildings, three stories or less, per Section 152(b) of Title 24.","metadescription":"Bldg-Alter/Repair. 1 or 2 Family Dwelling. (3) Window and (1) door change-out (same size & type) for residential buildings.  Dual glazing, labeled and certified by National Fenestration Rating Council (NFRC), is required for doors and windows replaced in all residential buildings, three stories or less, per Section 152(b) of Title 24.. Permit Finaled. 1612 W 221ST ST","address":"1608 West 221St Street, CA, Torrance, 90501, US","ct":"2932.01","ev":"N","apc":"Harbor","cpa":"Harbor Gateway","zone":"R1-1","solar":"N","pin_nbr":"048B193   465","use_code":"1","geolocation":"POINT (-118.30694 33.82668)","status_date":"12/14/2016","permit_group":"Building","refresh_time":"06/10/2026","type_lat_lon":"ADDRESS","business_unit":"Express Permit"},"geometry":{"type":"Point","coordinates":[-118.30694,33.82668]}},{"type":"Feature","properties":{"date":"2016-03-08T00:00:00.000Z","year":2016,"description":"SUPPLEMENTAL PERMIT FOR PERMIT #16016-40000-04501 TO CHANGE OUT 4 WINDOWS  (SAME SIZE & TYPE FOR RESIDENTIAL BUILDINGS ONLY) DUAL GLAZING, LABELED AND CERTIFIED BY NATIONAL FENESTRATION RATING COUNCIL (NFRC), IS REQUIRED FOR DOORS AND WINDOWS REPLACED IN ALL RESIDENTIAL BUILDINGS, THREE STORIES OR LESS, PER SECTION 152(B) OF TITLE 24.","metadescription":"Bldg-Alter/Repair. 1 or 2 Family Dwelling. SUPPLEMENTAL PERMIT FOR PERMIT #16016-40000-04501 TO CHANGE OUT 4 WINDOWS  (SAME SIZE & TYPE FOR RESIDENTIAL BUILDINGS ONLY) DUAL GLAZING, LABELED AND CERTIFIED BY NATIONAL FENESTRATION RATING COUNCIL (NFRC), IS REQUIRED FOR DOORS AND WINDOWS REPLACED IN ALL RESIDENTIAL BUILDINGS, THREE STORIES OR LESS, PER SECTION 152(B) OF TITLE 24.. Permit Finaled. 1517 W 219TH ST","address":"1517 West 219Th Street, CA, Torrance, 90501, US","ct":"2932.01","ev":"N","apc":"Harbor","cpa":"Harbor Gateway","zone":"R2-1","solar":"N","pin_nbr":"048B193   138","use_code":"2","geolocation":"POINT (-118.30446 33.82924)","status_date":"05/19/2016","permit_group":"Building","refresh_time":"06/10/2026","type_lat_lon":"ADDRESS","business_unit":"Express Permit"},"geometry":{"type":"Point","coordinates":[-118.30446,33.82924]}},{"type":"Feature","properties":{"date":"2016-03-01T00:00:00.000Z","year":2016,"description":"CHANGE OUT 1 DOOR  (SAME SIZE & TYPE FOR RESIDENTIAL BUILDINGS ONLY) DUAL GLAZING, LABELED AND CERTIFIED BY NATIONAL FENESTRATION RATING COUNCIL (NFRC), IS REQUIRED FOR DOORS AND WINDOWS REPLACED IN ALL RESIDENTIAL BUILDINGS, THREE STORIES OR LESS, PER SECTION 152(B) OF TITLE 24. REPAIR/REPLACE EXISTING SIDING.(TERMITE DAMAGE) BATHROOM REMODEL (FOR RESIDENTIAL BUILDINGS; NO STRUCTURAL CHANGES). (REPLACING WOOD FLOORING). DRYWALL/ PLASTER PATCH AND PAINT.","metadescription":"Bldg-Alter/Repair. 1 or 2 Family Dwelling. CHANGE OUT 1 DOOR  (SAME SIZE & TYPE FOR RESIDENTIAL BUILDINGS ONLY) DUAL GLAZING, LABELED AND CERTIFIED BY NATIONAL FENESTRATION RATING COUNCIL (NFRC), IS REQUIRED FOR DOORS AND WINDOWS REPLACED IN ALL RESIDENTIAL BUILDINGS, THREE STORIES OR LESS, PER SECTION 152(B) OF TITLE 24. REPAIR/REPLACE EXISTING SIDING.(TERMITE DAMAGE) BATHROOM REMODEL (FOR RESIDENTIAL BUILDINGS; NO STRUCTURAL CHANGES). (REPLACING WOOD FLOORING). DRYWALL/ PLASTER PATCH AND PAINT.. Permit Finaled. 1517 W 219TH ST","address":"1517 West 219Th Street, CA, Torrance, 90501, US","ct":"2932.01","ev":"N","apc":"Harbor","cpa":"Harbor Gateway","zone":"R2-1","solar":"N","pin_nbr":"048B193   138","use_code":"2","geolocation":"POINT (-118.30446 33.82924)","status_date":"05/19/2016","permit_group":"Building","refresh_time":"06/10/2026","type_lat_lon":"ADDRESS","business_unit":"Express Permit"},"geometry":{"type":"Point","coordinates":[-118.30446,33.82924]}},{"type":"Feature","properties":{"date":"2015-06-30T00:00:00.000Z","year":2015,"description":"(14) Window change-out (same size & type) for residential buildings.  Dual glazing, labeled and certified by National Fenestration Rating Council (NFRC), is required for doors and windows replaced in all residential buildings, three stories or less, per Section 152(b) of Title 24.","metadescription":"Bldg-Alter/Repair. 1 or 2 Family Dwelling. (14) Window change-out (same size & type) for residential buildings.  Dual glazing, labeled and certified by National Fenestration Rating Council (NFRC), is required for doors and windows replaced in all residential buildings, three stories or less, per Section 152(b) of Title 24.. Permit Finaled. 1620 W 220TH ST","address":"1616 West 220Th Street, CA, Torrance, 90501, US","ct":"2932.01","ev":"N","apc":"Harbor","cpa":"Harbor Gateway","zone":"R2-1","solar":"N","pin_nbr":"048B193   343","use_code":"1","geolocation":"POINT (-118.30722 33.82784)","status_date":"12/24/2015","permit_group":"Building","refresh_time":"06/10/2026","type_lat_lon":"ADDRESS","business_unit":"Express Permit"},"geometry":{"type":"Point","coordinates":[-118.30722,33.82784]}},{"type":"Feature","properties":{"date":"2015-02-20T00:00:00.000Z","year":2015,"description":"Replace 1 door(s). Same size, location, number, type.","metadescription":"Bldg-Alter/Repair. 1 or 2 Family Dwelling. Replace 1 door(s). Same size, location, number, type.. Permit Finaled. 1652 W 221ST ST","address":"1648 West 221St Street, CA, Torrance, 90501, US","ct":"2932.01","ev":"N","apc":"Harbor","cpa":"Harbor Gateway","zone":"R1-1","solar":"N","pin_nbr":"048B193   475","use_code":"1","geolocation":"POINT (-118.30826 33.82668)","status_date":"02/08/2017","permit_group":"Building","refresh_time":"06/10/2026","type_lat_lon":"ADDRESS","business_unit":"Express Permit"},"geometry":{"type":"Point","coordinates":[-118.30826,33.82668]}},{"type":"Feature","properties":{"date":"2011-07-07T00:00:00.000Z","year":2011,"description":"CHANGE OUT 1 DOOR (SAME SIZE AND LOCATION).","metadescription":"Bldg-Alter/Repair. 1 or 2 Family Dwelling. CHANGE OUT 1 DOOR (SAME SIZE AND LOCATION).. Permit Finaled. 1501 W 220TH ST","address":"1501 West 220Th Street, CA, Torrance, 90501, US","ct":"2932.01","ev":"N","apc":"Harbor","cpa":"Harbor Gateway","zone":"R2-1","solar":"N","pin_nbr":"048B193   282","use_code":"2","geolocation":"POINT (-118.30396 33.8281)","status_date":"03/08/2012","permit_group":"Building","refresh_time":"06/10/2026","type_lat_lon":"ADDRESS","business_unit":"Express Permit"},"geometry":{"type":"Point","coordinates":[-118.30396,33.8281]}},{"type":"Feature","properties":{"date":"2011-04-05T00:00:00.000Z","year":2011,"description":"INTERIOR REMODEL; REPLACE DOORS & WINDOWS (ALL WORK PER ENG'R)  **** COMPLY WITH DEPARTMENT ORDER EFFECTIVE DATE 02/17/2011. PERMIT WILL EXPIRE 30 DAYS FROM ISSUANCE DATE ****","metadescription":"Bldg-Alter/Repair. 1 or 2 Family Dwelling. INTERIOR REMODEL; REPLACE DOORS & WINDOWS (ALL WORK PER ENG'R)  **** COMPLY WITH DEPARTMENT ORDER EFFECTIVE DATE 02/17/2011. PERMIT WILL EXPIRE 30 DAYS FROM ISSUANCE DATE ****. Permit Finaled. 1554 W 218TH ST","address":"1554 West 218Th Street, CA, Torrance, 90501, US","ct":"2932.01","ev":"N","apc":"Harbor","cpa":"Harbor Gateway","zone":"R2-1","solar":"N","pin_nbr":"048B193    96","use_code":"1","geolocation":"POINT (-118.30584 33.83016)","status_date":"05/12/2011","permit_group":"Building","refresh_time":"06/10/2026","type_lat_lon":"ADDRESS","business_unit":"Plan Check at Counter"},"geometry":{"type":"Point","coordinates":[-118.30584,33.83016]}},{"type":"Feature","properties":{"date":"2010-06-17T00:00:00.000Z","year":2010,"description":"Windows (11) change-out (same size & type) for residential buildings.  Dual glazing, labeled and certified by National Fenestration Rating Council (NFRC), is required for doors and windows replaced in all residential buildings, three stories or less, per Section 152(b) of Title 24.","metadescription":"Bldg-Alter/Repair. 1 or 2 Family Dwelling. Windows (11) change-out (same size & type) for residential buildings.  Dual glazing, labeled and certified by National Fenestration Rating Council (NFRC), is required for doors and windows replaced in all residential buildings, three stories or less, per Section 152(b) of Title 24.. Permit Finaled. 1517 W 219TH ST","address":"1517 West 219Th Street, CA, Torrance, 90501, US","ct":"2932.01","ev":"N","apc":"Harbor","cpa":"Harbor Gateway","zone":"R2-1","solar":"N","pin_nbr":"048B193   138","use_code":"1","geolocation":"POINT (-118.30446 33.82924)","status_date":"06/24/2010","permit_group":"Building","refresh_time":"06/10/2026","type_lat_lon":"ADDRESS","business_unit":"Express Permit"},"geometry":{"type":"Point","coordinates":[-118.30446,33.82924]}},{"type":"Feature","properties":{"date":"2010-05-10T00:00:00.000Z","year":2010,"description":"SUPPLEMENTAL TO PERMIT NO. 10016-40000-05025 TO CORRECT DESCRIPTION OF WORK TO THE FOLLOWING: CHANGE OUT 11 WINDOWS AND 2 DOORS  (SAME SIZE & TYPE FOR RESIDENTIAL BUILDINGS ONLY).*********NO FEE*********","metadescription":"Bldg-Alter/Repair. 1 or 2 Family Dwelling. SUPPLEMENTAL TO PERMIT NO. 10016-40000-05025 TO CORRECT DESCRIPTION OF WORK TO THE FOLLOWING: CHANGE OUT 11 WINDOWS AND 2 DOORS  (SAME SIZE & TYPE FOR RESIDENTIAL BUILDINGS ONLY).*********NO FEE*********. Permit Finaled. 1517 W 219TH ST","address":"1517 West 219Th Street, CA, Torrance, 90501, US","ct":"2932.01","ev":"N","apc":"Harbor","cpa":"Harbor Gateway","zone":"R2-1","solar":"N","pin_nbr":"048B193   138","use_code":"1","geolocation":"POINT (-118.30446 33.82924)","status_date":"07/13/2010","permit_group":"Building","refresh_time":"06/10/2026","type_lat_lon":"ADDRESS","business_unit":"Express Permit"},"geometry":{"type":"Point","coordinates":[-118.30446,33.82924]}},{"type":"Feature","properties":{"date":"2010-04-21T00:00:00.000Z","year":2010,"description":"Remodel dwelling;modify bathroom remove bathtub, replace tub with shower, install new patio door, convert bedroom into dining and create new bedroom  in living room area.\"no interior structural remodel\"","metadescription":"Bldg-Alter/Repair. 1 or 2 Family Dwelling. Remodel dwelling;modify bathroom remove bathtub, replace tub with shower, install new patio door, convert bedroom into dining and create new bedroom  in living room area.\"no interior structural remodel\". Permit Finaled. 1563 W 219TH ST","address":"1563 West 219Th Street, CA, Torrance, 90501, US","ct":"2932.01","ev":"N","apc":"Harbor","cpa":"Harbor Gateway","zone":"R2-1","solar":"N","pin_nbr":"048B193   168","use_code":"1","geolocation":"POINT (-118.30599 33.82924)","status_date":"08/11/2010","permit_group":"Building","refresh_time":"06/10/2026","type_lat_lon":"ADDRESS","business_unit":"Plan Check at Counter"},"geometry":{"type":"Point","coordinates":[-118.30599,33.82924]}},{"type":"Feature","properties":{"date":"2009-04-08T00:00:00.000Z","year":2009,"description":"Change out 3 Windows (same size and location).  Dual glazing, labeled and certified by National Fenestration Rating Council (NFRC), is required for doors and windows replaced in all residential buildings, three stories or less, per Section 152(b) of Title 24.","metadescription":"Bldg-Alter/Repair. 1 or 2 Family Dwelling. Change out 3 Windows (same size and location).  Dual glazing, labeled and certified by National Fenestration Rating Council (NFRC), is required for doors and windows replaced in all residential buildings, three stories or less, per Section 152(b) of Title 24.. Permit Expired. 1511 W 219TH ST","address":"1507 West 219Th Street, CA, Torrance, 90501, US","ct":"2932.01","ev":"N","apc":"Harbor","cpa":"Harbor Gateway","zone":"R2-1","solar":"N","pin_nbr":"048B193   137","use_code":"1","geolocation":"POINT (-118.30427 33.82924)","status_date":"03/16/2012","permit_group":"Building","refresh_time":"06/10/2026","type_lat_lon":"ADDRESS","business_unit":"Express Permit"},"geometry":{"type":"Point","coordinates":[-118.30427,33.82924]}},{"type":"Feature","properties":{"date":"2009-03-04T00:00:00.000Z","year":2009,"description":"close 2 windows and door, replace north window with a 5'x 6' 8\" slider  and 2'-8 \" door on north, replace east window with a 3'x 6', close second window","metadescription":"Bldg-Alter/Repair. 1 or 2 Family Dwelling. close 2 windows and door, replace north window with a 5'x 6' 8\" slider  and 2'-8 \" door on north, replace east window with a 3'x 6', close second window. Permit Finaled. 1511 W 219TH ST","address":"1507 West 219Th Street, CA, Torrance, 90501, US","ct":"2932.01","ev":"N","apc":"Harbor","cpa":"Harbor Gateway","zone":"R2-1","solar":"N","pin_nbr":"048B193   137","use_code":"1","geolocation":"POINT (-118.30427 33.82924)","status_date":"05/06/2009","permit_group":"Building","refresh_time":"06/10/2026","type_lat_lon":"ADDRESS","business_unit":"Plan Check at Counter"},"geometry":{"type":"Point","coordinates":[-118.30427,33.82924]}},{"type":"Feature","properties":{"date":"2007-12-14T00:00:00.000Z","year":2007,"description":"Re-roof 20 squares w/class 'A' or 'B' materials weighing less than 6 pounds per sq. ft.  Fiberglass or Asphalt Shingles (max. 2 overlays).  New stucco, Replace drywall (no new walls added).  Kitchen and Bathroom remodel (For residential buildings; no structural changes).  Combine with: Electrical & Plumbing.  Change out 6 Windows and 6 Doors (Same size & type for residential buildings only).","metadescription":"Bldg-Alter/Repair. 1 or 2 Family Dwelling. Re-roof 20 squares w/class 'A' or 'B' materials weighing less than 6 pounds per sq. ft.  Fiberglass or Asphalt Shingles (max. 2 overlays).  New stucco, Replace drywall (no new walls added).  Kitchen and Bathroom remodel (For residential buildings; no structural changes).  Combine with: Electrical & Plumbing.  Change out 6 Windows and 6 Doors (Same size & type for residential buildings only).. Permit Finaled. 1547 W 219TH ST","address":"1547 West 219Th Street, CA, Torrance, 90501, US","ct":"2932.01","ev":"N","apc":"Harbor","cpa":"Harbor Gateway","zone":"R2-1","solar":"N","pin_nbr":"048B193   145","use_code":"2","geolocation":"POINT (-118.30557 33.82924)","status_date":"12/19/2008","permit_group":"Building","refresh_time":"06/10/2026","type_lat_lon":"ADDRESS","business_unit":"Express Permit"},"geometry":{"type":"Point","coordinates":[-118.30557,33.82924]}},{"type":"Feature","properties":{"date":"2007-04-20T00:00:00.000Z","year":2007,"description":"INTERIOR REMODEL TO CONVERT (E) LIVING ROOM INTO FOUR BEDROOMS, WINDOWS/DOORS CHANGE OUT, ADD INTERIOR SHEAR WALL TO COMPLY WITH TYPE V SHEET.  ADD 10'x22' NEW ATTACHED PATIO COVER PER LA CITY STD. Comply with department order dated 04/16/07, permit will expire 30 days from issuance date.  ceis# 199541","metadescription":"Bldg-Addition. 1 or 2 Family Dwelling. INTERIOR REMODEL TO CONVERT (E) LIVING ROOM INTO FOUR BEDROOMS, WINDOWS/DOORS CHANGE OUT, ADD INTERIOR SHEAR WALL TO COMPLY WITH TYPE V SHEET.  ADD 10'x22' NEW ATTACHED PATIO COVER PER LA CITY STD. Comply with department order dated 04/16/07, permit will expire 30 days from issuance date.  ceis# 199541. CofO Issued. 21818 S HARVARD BLVD","address":"21820 Harvard Boulevard, CA, Torrance, 90501, US","ct":"2932.01","ev":"N","apc":"Harbor","cpa":"Harbor Gateway","zone":"R2-1","solar":"N","pin_nbr":"048B193   115","use_code":"1","geolocation":"POINT (-118.3063 33.8297)","status_date":"02/10/2009","construction":"Type V-N Construction","permit_group":"Building","refresh_time":"06/10/2026","type_lat_lon":"ADDRESS","business_unit":"Plan Check at Counter","square_footage":"220"},"geometry":{"type":"Point","coordinates":[-118.3063,33.8297]}},{"type":"Feature","properties":{"date":"2006-06-12T00:00:00.000Z","year":2006,"description":"REPLACE (5) WINDOWS.  (SAME SIZE AND LOC.) Dual glazing, labeled and certified by National Fenestration Rating Council (NFRC), is required for doors and windows replaced in all residential buildings, three stories or less, per Section 152(b) of Title 24.","metadescription":"Bldg-Alter/Repair. 1 or 2 Family Dwelling. REPLACE (5) WINDOWS.  (SAME SIZE AND LOC.) Dual glazing, labeled and certified by National Fenestration Rating Council (NFRC), is required for doors and windows replaced in all residential buildings, three stories or less, per Section 152(b) of Title 24.. Permit Finaled. 1620 W 221ST ST","address":"1620 West 221St Street, CA, Torrance, 90501, US","ct":"2932.01","ev":"N","apc":"Harbor","cpa":"Harbor Gateway","zone":"R1-1","solar":"N","pin_nbr":"048B193   467","use_code":"1","geolocation":"POINT (-118.3072 33.82668)","status_date":"07/21/2008","permit_group":"Building","refresh_time":"06/10/2026","type_lat_lon":"ADDRESS","business_unit":"Express Permit"},"geometry":{"type":"Point","coordinates":[-118.3072,33.82668]}},{"type":"Feature","properties":{"date":"2006-04-19T00:00:00.000Z","year":2006,"description":"Replace stucco on house.  Change windows in living room and kitchen (front of the house).  Dual glazing, labeled and certified by National Fenestration Rating Council (NFRC), is required for doors and windows replaced in all residential buildings, three stories or less, per Section 152(b) of Title 24.","metadescription":"Bldg-Alter/Repair. 1 or 2 Family Dwelling. Replace stucco on house.  Change windows in living room and kitchen (front of the house).  Dual glazing, labeled and certified by National Fenestration Rating Council (NFRC), is required for doors and windows replaced in all residential buildings, three stories or less, per Section 152(b) of Title 24.. Permit Finaled. 1650 W 215TH ST","address":"1646 West 215Th Street, CA, Torrance, 90501, US","ct":"2932.01","ev":"N","apc":"Harbor","cpa":"Harbor Gateway","zone":"R1-1","solar":"N","pin_nbr":"051B193   740","use_code":"1","geolocation":"POINT (-118.30822 33.83337)","status_date":"07/07/2006","permit_group":"Building","refresh_time":"06/10/2026","type_lat_lon":"ADDRESS","business_unit":"Express Permit"},"geometry":{"type":"Point","coordinates":[-118.30822,33.83337]}},{"type":"Feature","properties":{"date":"2006-03-03T00:00:00.000Z","year":2006,"description":"Replace existing window with new.  Dual glazing, labeled and certified by National Fenestration Rating Council (NFRC), is required for doors and windows replaced in all residential buildings, three stories or less, per Section 152(b) of Title 24.","metadescription":"Bldg-Alter/Repair. 1 or 2 Family Dwelling. Replace existing window with new.  Dual glazing, labeled and certified by National Fenestration Rating Council (NFRC), is required for doors and windows replaced in all residential buildings, three stories or less, per Section 152(b) of Title 24.. Permit Expired. 20704 S WESTERN AVE","address":"20706 South Western Avenue, CA, Torrance, 90501, US","ct":"2920.00","ev":"N","apc":"Harbor","cpa":"Harbor Gateway","zone":"RD1.5-1","solar":"N","pin_nbr":"054B193   344","use_code":"1","geolocation":"POINT (-118.30905 33.84265)","status_date":"08/18/2008","permit_group":"Building","refresh_time":"06/10/2026","type_lat_lon":"ADDRESS","business_unit":"Express Permit"},"geometry":{"type":"Point","coordinates":[-118.30905,33.84265]}},{"type":"Feature","properties":{"date":"2005-07-28T00:00:00.000Z","year":2005,"description":"provide new 3068 door to existing restroom.","metadescription":"Bldg-Alter/Repair. Commercial. provide new 3068 door to existing restroom.. Permit Finaled. 1654 W CARSON ST Building A","address":"1654 West Carson Street, CA, Torrance, 90501, US","ct":"2932.01","ev":"N","apc":"Harbor","cpa":"Harbor Gateway","zone":"C2-1","solar":"N","pin_nbr":"051B193   973","use_code":"17","geolocation":"POINT (-118.30838 33.83131)","status_date":"08/01/2005","permit_group":"Building","refresh_time":"06/10/2026","type_lat_lon":"ADDRESS","business_unit":"Plan Check at Counter"},"geometry":{"type":"Point","coordinates":[-118.30838,33.83131]}},{"type":"Feature","properties":{"date":"2005-06-01T00:00:00.000Z","year":2005,"description":"New 2-Car Garage With Work Shop (1/2 Bath w/ Door Swinging From Outside)  At Rear  Per Eng. Design.   Related Elec. & Plumb.","metadescription":"Bldg-New. 1 or 2 Family Dwelling. New 2-Car Garage With Work Shop (1/2 Bath w/ Door Swinging From Outside)  At Rear  Per Eng. Design.   Related Elec. & Plumb.. CofO Issued. 1627 W 216TH ST","address":"1623 West 216Th Street, CA, Torrance, 90501, US","ct":"2932.01","ev":"N","apc":"Harbor","cpa":"Harbor Gateway","zone":"R1-1","solar":"N","height":"14","pin_nbr":"051B193   783","use_code":"7","geolocation":"POINT (-118.30742 33.83261)","status_date":"08/11/2010","construction":"Type V-N Construction","permit_group":"Building","refresh_time":"06/10/2026","type_lat_lon":"ADDRESS","business_unit":"Plan Check at Counter","square_footage":"680"},"geometry":{"type":"Point","coordinates":[-118.30742,33.83261]}},{"type":"Feature","properties":{"date":"2003-11-06T00:00:00.000Z","year":2003,"description":"CHANGE OUT (8) WINDOWS & (4) DOORS, SAME SIZE/TYPE.  RE-DRYWALL AND INSULATION.  (COMPLY WITH DEPARTMENT ORDER DATED 10/10/03. PERMIT WILL EXPIRE 30 DAYS FROM ISSUANCE DATE.)   COLOR COAT STUCCO & PATCHING.","metadescription":"Bldg-Alter/Repair. 1 or 2 Family Dwelling. CHANGE OUT (8) WINDOWS & (4) DOORS, SAME SIZE/TYPE.  RE-DRYWALL AND INSULATION.  (COMPLY WITH DEPARTMENT ORDER DATED 10/10/03. PERMIT WILL EXPIRE 30 DAYS FROM ISSUANCE DATE.)   COLOR COAT STUCCO & PATCHING.. Permit Finaled. 1610 W 215TH ST","address":"1610 West 215Th Street, CA, Torrance, 90501, US","ct":"2932.01","ev":"N","apc":"Harbor","cpa":"Harbor Gateway","zone":"R1-1","solar":"N","pin_nbr":"051B193   729","use_code":"1","geolocation":"POINT (-118.30691 33.83337)","status_date":"05/25/2005","permit_group":"Building","refresh_time":"06/10/2026","type_lat_lon":"ADDRESS","business_unit":"Express Permit"},"geometry":{"type":"Point","coordinates":[-118.30691,33.83337]}},{"type":"Feature","properties":{"date":"2002-01-14T00:00:00.000Z","year":2002,"description":"REPLACE (1) DOOR (SAME SIZE).  INCLUDE ELECT & PLUMB","metadescription":"Bldg-Alter/Repair. 1 or 2 Family Dwelling. REPLACE (1) DOOR (SAME SIZE).  INCLUDE ELECT & PLUMB. Permit Expired. 1512-1514 W 219TH ST","address":"1508 West 219Th Street, CA, Torrance, 90501, US","ct":"2932.01","ev":"N","apc":"Harbor","zone":"R2-1","solar":"N","pin_nbr":"048B193   195","use_code":"2","geolocation":"POINT (-118.30441473 33.82879686)","status_date":"03/12/2007","permit_group":"Building","refresh_time":"06/10/2026","type_lat_lon":"PIN","business_unit":"Express Permit"},"geometry":{"type":"Point","coordinates":[-118.30441473,33.82879686]}},{"type":"Feature","properties":{"date":"2002-01-14T00:00:00.000Z","year":2002,"description":"REPLACE (1) DOOR (SAME SIZE).  INCLUDE ELECT & PLUMB","metadescription":"Bldg-Alter/Repair. 1 or 2 Family Dwelling. REPLACE (1) DOOR (SAME SIZE).  INCLUDE ELECT & PLUMB. Permit Finaled. 1518-1520 W 219TH ST","address":"1518 West 219Th Street, CA, Torrance, 90501, US","ct":"2932.01","ev":"N","apc":"Harbor","zone":"R2-1","solar":"N","pin_nbr":"048B193   195","use_code":"2","geolocation":"POINT (-118.30453 33.829)","status_date":"02/02/2006","permit_group":"Building","refresh_time":"06/10/2026","type_lat_lon":"ADDRESS","business_unit":"Express Permit"},"geometry":{"type":"Point","coordinates":[-118.30453,33.829]}},{"type":"Feature","properties":{"date":"2001-06-19T00:00:00.000Z","year":2001,"description":"Change out 10 windows at same location, aprox same size with (E). Fill in wall for fitting. Stucco 1 side of SFD. Type V. change kitchen door to 3068.","metadescription":"Bldg-Alter/Repair. 1 or 2 Family Dwelling. Change out 10 windows at same location, aprox same size with (E). Fill in wall for fitting. Stucco 1 side of SFD. Type V. change kitchen door to 3068.. Permit Finaled. 1503 W 220TH ST","address":"1503 West 220Th Street, CA, Torrance, 90501, US","ct":"2932.01","ev":"N","apc":"Harbor","zone":"R2-1","solar":"N","pin_nbr":"048B193   282","use_code":"1","geolocation":"POINT (-118.30404 33.82809)","status_date":"09/27/2001","permit_group":"Building","refresh_time":"06/10/2026","type_lat_lon":"ADDRESS","business_unit":"Express Permit"},"geometry":{"type":"Point","coordinates":[-118.30404,33.82809]}},{"type":"Feature","properties":{"date":"2000-08-08T00:00:00.000Z","year":2000,"description":"installaton of overdoor storage shelving","metadescription":"Bldg-Alter/Repair. Commercial. installaton of overdoor storage shelving. Permit Finaled. 19400 S WESTERN AVE #bldg B","address":"19400 S WESTERN AVE #bldg B","ct":"2920.00","ev":"N","apc":"Harbor","zone":"M3-1","solar":"N","pin_nbr":"057B193     2","use_code":"22","geolocation":"POINT (-118.30917 33.8552)","status_date":"01/28/2005","permit_group":"Building","refresh_time":"06/10/2026","type_lat_lon":"ADDRESS","business_unit":"Plan Check at Counter"},"geometry":{"type":"Point","coordinates":[-118.30917,33.8552]}},{"type":"Feature","properties":{"date":"1998-08-25T00:00:00.000Z","year":1998,"description":"RESTORE GARAGE DOOR AND RETURN GARAGE BACK TO ITS ORIGINAL USE AS A 2- CAR GARAGE.","metadescription":"Bldg-Alter/Repair. 1 or 2 Family Dwelling. RESTORE GARAGE DOOR AND RETURN GARAGE BACK TO ITS ORIGINAL USE AS A 2- CAR GARAGE.. Permit Closed. 21822 S HARVARD BLVD","address":"21822 Harvard Boulevard, CA, Torrance, 90501, US","ct":"2932.01","ev":"N","apc":"Harbor","solar":"N","pin_nbr":"048B193   169","use_code":"1","geolocation":"POINT (-118.3063 33.82956)","status_date":"12/07/1999","permit_group":"Building","refresh_time":"06/10/2026","type_lat_lon":"ADDRESS","business_unit":"Express Permit"},"geometry":{"type":"Point","coordinates":[-118.3063,33.82956]}},{"type":"Feature","properties":{"date":"1997-02-24T00:00:00.000Z","year":1997,"description":"stucco, replace 4 doors (same size) patch drywall","metadescription":"Bldg-Alter/Repair. Apartment. stucco, replace 4 doors (same size) patch drywall. Permit Finaled. 20624 S WESTERN AVE","address":"20624 1/2 South Western Avenue, CA, Torrance, 90501, US","ct":"2920.00","ev":"N","apc":"Harbor","solar":"N","pin_nbr":"054B193   316","use_code":"5","geolocation":"POINT (-118.30906 33.84306)","status_date":"08/31/2001","permit_group":"Building","refresh_time":"06/10/2026","type_lat_lon":"ADDRESS","business_unit":"Express Permit"},"geometry":{"type":"Point","coordinates":[-118.30906,33.84306]}}]}
