{"type":"FeatureCollection","features":[{"type":"Feature","properties":{"date":"2025-06-03T00:00:00.000Z","year":2025,"description":"Eplan. Demo Existing Garage by handwreck emthod. Fence and sewer cap require","metadescription":"Bldg-Demolition. 1 or 2 Family Dwelling. Eplan. Demo Existing Garage by handwreck emthod. Fence and sewer cap require. PC Info Complete. 1524 W 218TH ST 1524","address":"1516 West 218Th Street, CA, Torrance, 90501, US","ct":"2932.03","ev":"N","apc":"Harbor","cpa":"Harbor Gateway","zone":"R2-1","solar":"N","height":"0","pin_nbr":"048B193    88","use_code":"7","status_date":"06/10/2025","permit_group":"Building","refresh_time":"06/10/2026","type_lat_lon":"ADDRESS","business_unit":"Plan Check at Counter","square_footage":"0"},"geometry":{"type":"Point","coordinates":[-118.30462,33.83015]}},{"type":"Feature","properties":{"date":"2024-08-21T00:00:00.000Z","year":2024,"description":"DEMOLISH (E) SFD AND DETACHED GARAGE. SEWER CAP & PEDESTRIAN PROTECTION FENCE REQUIRED. CLEAR LOT.","metadescription":"Bldg-Demolition. 1 or 2 Family Dwelling. DEMOLISH (E) SFD AND DETACHED GARAGE. SEWER CAP & PEDESTRIAN PROTECTION FENCE REQUIRED. CLEAR LOT.. Permit Finaled. 1603 W 219TH ST","address":"1607 West 219Th Street, CA, Torrance, 90501, US","ct":"2932.01","ev":"N","apc":"Harbor","cpa":"Harbor Gateway","zone":"R3-1","solar":"N","pin_nbr":"048B193   167","use_code":"1","status_date":"03/13/2025","permit_group":"Building","refresh_time":"06/10/2026","type_lat_lon":"ADDRESS","business_unit":"Plan Check at Counter"},"geometry":{"type":"Point","coordinates":[-118.30673,33.82922]}},{"type":"Feature","properties":{"date":"2024-08-21T00:00:00.000Z","year":2024,"description":"DEMO (E) SINGLE FAMILY DWELLING DETACHED GARAGE/ STORAGE PER INFO BULLETIN. SEWER CAP AND PESEDTRIAN PROTECTION FENCE REQUIRED.","metadescription":"Bldg-Demolition. 1 or 2 Family Dwelling. DEMO (E) SINGLE FAMILY DWELLING DETACHED GARAGE/ STORAGE PER INFO BULLETIN. SEWER CAP AND PESEDTRIAN PROTECTION FENCE REQUIRED.. Permit Finaled. 21821 S HARVARD BLVD","address":"21821 Harvard Boulevard, CA, Torrance, 90501, US","ct":"2932.01","ev":"N","apc":"Harbor","cpa":"Harbor Gateway","zone":"R3-1","solar":"N","pin_nbr":"048B193   149","use_code":"1","status_date":"03/13/2025","permit_group":"Building","refresh_time":"06/10/2026","type_lat_lon":"ADDRESS","business_unit":"Plan Check at Counter","square_footage":"0"},"geometry":{"type":"Point","coordinates":[-118.30656,33.82954]}},{"type":"Feature","properties":{"date":"2023-11-16T00:00:00.000Z","year":2023,"description":"DEMOLITION OF SFD AND DETACHED GARAGE. CLEAR THE LOT. SEWER CAP AND PEDESTRIAN PROTECTION FENCE IS REQUIRED.","metadescription":"Bldg-Demolition. 1 or 2 Family Dwelling. DEMOLITION OF SFD AND DETACHED GARAGE. CLEAR THE LOT. SEWER CAP AND PEDESTRIAN PROTECTION FENCE IS REQUIRED.. Permit Finaled. 1625 W 227TH ST","address":"1629 West 227Th Street, CA, Torrance, 90501, US","ct":"2932.02","ev":"N","apc":"Harbor","cpa":"Harbor Gateway","zone":"RD1.5-1","solar":"N","pin_nbr":"045B193   205","use_code":"1","status_date":"07/22/2025","permit_group":"Building","refresh_time":"06/10/2026","type_lat_lon":"ADDRESS","business_unit":"Plan Check at Counter"},"geometry":{"type":"Point","coordinates":[-118.30734,33.82029]}},{"type":"Feature","properties":{"date":"2022-08-02T00:00:00.000Z","year":2022,"description":"DEMO (E) SFD. FENCE AND CLEAR LOT","metadescription":"Bldg-Demolition. 1 or 2 Family Dwelling. DEMO (E) SFD. FENCE AND CLEAR LOT. Permit Finaled. 1524 W 220TH ST","address":"1526 1/2 West 220Th Street, CA, Torrance, 90501, US","ct":"2932.01","ev":"N","apc":"Harbor","cpa":"Harbor Gateway","zone":"R2-1","solar":"N","pin_nbr":"048B193   322","use_code":"1","status_date":"10/08/2022","permit_group":"Building","refresh_time":"06/10/2026","type_lat_lon":"ADDRESS","business_unit":"Plan Check at Counter","square_footage":"0"},"geometry":{"type":"Point","coordinates":[-118.30472,33.82786]}},{"type":"Feature","properties":{"date":"2021-08-02T00:00:00.000Z","year":2021,"description":"DEMO OF SFD (BUILDING C)  AND DETACHED GARAGE (BUILDING B), CLEAR LOT, FENCE REQUIRED","metadescription":"Bldg-Demolition. 1 or 2 Family Dwelling. DEMO OF SFD (BUILDING C)  AND DETACHED GARAGE (BUILDING B), CLEAR LOT, FENCE REQUIRED. Corrections Issued. 1611 W 218TH ST","address":"1611 West 218Th Street, CA, Torrance, 90501, US","ct":"2932.01","ev":"N","apc":"Harbor","cpa":"Harbor Gateway","zone":"R3-1","solar":"N","pin_nbr":"048B193    31","use_code":"1","status_date":"08/09/2021","permit_group":"Building","refresh_time":"06/10/2026","type_lat_lon":"ADDRESS","business_unit":"Expanded Counter Plan Check"},"geometry":{"type":"Point","coordinates":[-118.30694,33.83037]}},{"type":"Feature","properties":{"date":"2021-08-02T00:00:00.000Z","year":2021,"description":"DEMO (E) DUPLEX (BUILDING C), CLEAR LOT, FENCE REQUIRED","metadescription":"Bldg-Demolition. 1 or 2 Family Dwelling. DEMO (E) DUPLEX (BUILDING C), CLEAR LOT, FENCE REQUIRED. Corrections Issued. 1611 W 218TH ST","address":"1611 West 218Th Street, CA, Torrance, 90501, US","ct":"2932.01","ev":"N","apc":"Harbor","cpa":"Harbor Gateway","zone":"R3-1","solar":"N","pin_nbr":"048B193    31","use_code":"2","status_date":"08/09/2021","permit_group":"Building","refresh_time":"06/10/2026","type_lat_lon":"ADDRESS","business_unit":"Expanded Counter Plan Check"},"geometry":{"type":"Point","coordinates":[-118.30694,33.83037]}},{"type":"Feature","properties":{"date":"2019-01-04T00:00:00.000Z","year":2019,"description":"DEMO OF SFD W/ ATT GARAGE TO CLEAR LOT. SEWER CAP AND PEDESTRIAN PROTECTION FENCE REQUIRED.","metadescription":"Bldg-Demolition. 1 or 2 Family Dwelling. DEMO OF SFD W/ ATT GARAGE TO CLEAR LOT. SEWER CAP AND PEDESTRIAN PROTECTION FENCE REQUIRED.. Permit Finaled. 1554 W 220TH ST","address":"1554 West 220Th Street, CA, Torrance, 90501, US","ct":"2932.01","ev":"N","apc":"Harbor","cpa":"Harbor Gateway","zone":"R2-1","solar":"N","pin_nbr":"048B193   330","use_code":"1","geolocation":"POINT (-118.30577 33.8278)","status_date":"02/26/2019","permit_group":"Building","refresh_time":"06/10/2026","type_lat_lon":"ADDRESS","business_unit":"Plan Check at Counter"},"geometry":{"type":"Point","coordinates":[-118.30577,33.8278]}},{"type":"Feature","properties":{"date":"2016-04-20T00:00:00.000Z","year":2016,"description":"NEW BLOCK FENCE, 155' LONG AND 6' HIGH  PER P/BC 2014-096.","metadescription":"Nonbldg-New. 1 or 2 Family Dwelling. NEW BLOCK FENCE, 155' LONG AND 6' HIGH  PER P/BC 2014-096.. Permit Closed. 1665 W 221ST ST","address":"22014 South Western Avenue, CA, Torrance, 90501, US","ct":"2932.01","ev":"N","apc":"Harbor","cpa":"Harbor Gateway","zone":"R1-1","solar":"N","pin_nbr":"048B193   413","use_code":"23","geolocation":"POINT (-118.30865 33.82689)","status_date":"10/30/2017","permit_group":"Building","refresh_time":"06/10/2026","type_lat_lon":"ADDRESS","business_unit":"Plan Check at Counter"},"geometry":{"type":"Point","coordinates":[-118.30865,33.82689]}},{"type":"Feature","properties":{"date":"2016-03-01T00:00:00.000Z","year":2016,"description":"DEMO PRIVATE GARAGE HAND WRECK MEATHOD,  NO SEWER CAP PERMIT , PEDESTRIAN PROTECTION FENCE REQUIRED.","metadescription":"Bldg-Demolition. 1 or 2 Family Dwelling. DEMO PRIVATE GARAGE HAND WRECK MEATHOD,  NO SEWER CAP PERMIT , PEDESTRIAN PROTECTION FENCE REQUIRED.. Permit Finaled. 1511 W 219TH ST","address":"1507 West 219Th Street, CA, Torrance, 90501, US","ct":"2932.01","ev":"N","apc":"Harbor","cpa":"Harbor Gateway","zone":"R2-1","solar":"N","pin_nbr":"048B193   137","use_code":"7","geolocation":"POINT (-118.30427 33.82924)","status_date":"07/08/2016","construction":"Type V-B Construction","permit_group":"Building","refresh_time":"06/10/2026","type_lat_lon":"ADDRESS","business_unit":"Plan Check at Counter"},"geometry":{"type":"Point","coordinates":[-118.30427,33.82924]}},{"type":"Feature","properties":{"date":"2016-02-16T00:00:00.000Z","year":2016,"description":"Demo existing detached garage that was demolished.  Sewer cap is not req'd, fence the lot.  DPI #16019-40000-00127.","metadescription":"Bldg-Demolition. 1 or 2 Family Dwelling. Demo existing detached garage that was demolished.  Sewer cap is not req'd, fence the lot.  DPI #16019-40000-00127.. Permit Finaled. 1566 W 220TH ST","address":"1566 West 220Th Street, CA, Torrance, 90501, US","ct":"2932.01","ev":"N","apc":"Harbor","cpa":"Harbor Gateway","zone":"R2-1","solar":"N","pin_nbr":"048B193   333","use_code":"7","geolocation":"POINT (-118.30616 33.82785)","status_date":"06/30/2016","permit_group":"Building","refresh_time":"06/10/2026","type_lat_lon":"ADDRESS","business_unit":"Plan Check at Counter","square_footage":"0"},"geometry":{"type":"Point","coordinates":[-118.30616,33.82785]}},{"type":"Feature","properties":{"date":"2014-11-21T00:00:00.000Z","year":2014,"description":"NEW SHARE BLOCK FENCE WALL, 37 FT LONG 6 FT HIGH PER P/BC 2014-096","metadescription":"Nonbldg-New. Apartment. NEW SHARE BLOCK FENCE WALL, 37 FT LONG 6 FT HIGH PER P/BC 2014-096. Permit Finaled. 1657 W 224TH ST","address":"1655 West 224Th Street, CA, Torrance, 90501, US","ct":"2932.02","ev":"N","apc":"Harbor","cpa":"Harbor Gateway","zone":"RD2-1","solar":"N","height":"6","pin_nbr":"048B193   791","use_code":"23","geolocation":"POINT (-118.30835 33.82343)","status_date":"02/24/2015","permit_group":"Building","refresh_time":"06/10/2026","type_lat_lon":"ADDRESS","business_unit":"Plan Check at Counter"},"geometry":{"type":"Point","coordinates":[-118.30835,33.82343]}},{"type":"Feature","properties":{"date":"2014-11-21T00:00:00.000Z","year":2014,"description":"NEW SHARE BLOCK FENCE WALL, 37 FT LONG 6 FT HIGH PER P/BC 2014-096","metadescription":"Nonbldg-New. 1 or 2 Family Dwelling. NEW SHARE BLOCK FENCE WALL, 37 FT LONG 6 FT HIGH PER P/BC 2014-096. Permit Finaled. 1661 W 224TH ST","address":"1661 West 224Th Street, CA, Torrance, 90501, US","ct":"2932.02","ev":"N","apc":"Harbor","cpa":"Harbor Gateway","zone":"R2-1","solar":"N","pin_nbr":"048B193   792","use_code":"23","geolocation":"POINT (-118.30857 33.82343)","status_date":"09/29/2016","permit_group":"Building","refresh_time":"06/10/2026","type_lat_lon":"ADDRESS","business_unit":"Plan Check at Counter"},"geometry":{"type":"Point","coordinates":[-118.30857,33.82343]}},{"type":"Feature","properties":{"date":"2013-05-01T00:00:00.000Z","year":2013,"description":"NEW CONCRETE MASONRY BLOCK WALL FENCE PER LA CITY STD DETAIL. MAX HEIGHT 6FT, TOTAL LENGTH 155 FT. (1 OF 2, TV=$14,880, BPV= $7,440).","metadescription":"Nonbldg-New. 1 or 2 Family Dwelling. NEW CONCRETE MASONRY BLOCK WALL FENCE PER LA CITY STD DETAIL. MAX HEIGHT 6FT, TOTAL LENGTH 155 FT. (1 OF 2, TV=$14,880, BPV= $7,440).. Permit Finaled. 1640 W 220TH ST","address":"1640 West 220Th Street, CA, Torrance, 90501, US","ct":"2932.01","ev":"N","apc":"Harbor","cpa":"Harbor Gateway","zone":"R2-1","solar":"N","height":"6","pin_nbr":"048B193   344","use_code":"23","geolocation":"POINT (-118.30787 33.82783)","status_date":"05/29/2013","permit_group":"Building","refresh_time":"06/10/2026","type_lat_lon":"ADDRESS","business_unit":"Plan Check at Counter"},"geometry":{"type":"Point","coordinates":[-118.30787,33.82783]}},{"type":"Feature","properties":{"date":"2013-05-01T00:00:00.000Z","year":2013,"description":"NEW CONCRETE MASONRY BLOCK WALL FENCE PER LA CITY STD DETAIL. MAX HEIGHT 6FT, TOTAL LENGTH 155 FT. (2 OF 2, TV=$14,880, BPV= $7,440).","metadescription":"Nonbldg-New. 1 or 2 Family Dwelling. NEW CONCRETE MASONRY BLOCK WALL FENCE PER LA CITY STD DETAIL. MAX HEIGHT 6FT, TOTAL LENGTH 155 FT. (2 OF 2, TV=$14,880, BPV= $7,440).. Permit Finaled. 1636 W 220TH ST","address":"1636 West 220Th Street, CA, Torrance, 90501, US","ct":"2932.01","ev":"N","apc":"Harbor","cpa":"Harbor Gateway","zone":"R2-1","solar":"N","height":"6","pin_nbr":"048B193   342","use_code":"23","geolocation":"POINT (-118.30775 33.82774)","status_date":"05/29/2013","permit_group":"Building","refresh_time":"06/10/2026","type_lat_lon":"ADDRESS","business_unit":"Plan Check at Counter"},"geometry":{"type":"Point","coordinates":[-118.30775,33.82774]}},{"type":"Feature","properties":{"date":"2009-02-13T00:00:00.000Z","year":2009,"description":"NEW CONCRETE MASONRY BLOCK WALL FENCE PER LA CITY STD DETAIL. MAX HEIGHT 6FT. TOTAL LENGTH 120 FEET.  (2 OF 2, TV = $7000, BP=$3500)","metadescription":"Nonbldg-New. 1 or 2 Family Dwelling. NEW CONCRETE MASONRY BLOCK WALL FENCE PER LA CITY STD DETAIL. MAX HEIGHT 6FT. TOTAL LENGTH 120 FEET.  (2 OF 2, TV = $7000, BP=$3500). Permit Finaled. 1644 W 220TH ST","address":"1644 West 220Th Street, CA, Torrance, 90501, US","ct":"2932.01","ev":"N","apc":"Harbor","cpa":"Harbor Gateway","zone":"R2-1","solar":"N","pin_nbr":"048B193   345","use_code":"23","geolocation":"POINT (-118.30801 33.82783)","status_date":"03/11/2009","permit_group":"Building","refresh_time":"06/10/2026","type_lat_lon":"ADDRESS","business_unit":"Plan Check at Counter"},"geometry":{"type":"Point","coordinates":[-118.30801,33.82783]}},{"type":"Feature","properties":{"date":"2009-02-13T00:00:00.000Z","year":2009,"description":"NEW CONCRETE MASONRY BLOCK WALL FENCE PER LA CITY STD DETAIL. MAX HEIGHT 6FT. TOTAL LENGTH 120 FEET. (1 OF 2, TV = $7000, BP=$3500).","metadescription":"Nonbldg-New. 1 or 2 Family Dwelling. NEW CONCRETE MASONRY BLOCK WALL FENCE PER LA CITY STD DETAIL. MAX HEIGHT 6FT. TOTAL LENGTH 120 FEET. (1 OF 2, TV = $7000, BP=$3500).. Permit Finaled. 1640 W 220TH ST","address":"1640 West 220Th Street, CA, Torrance, 90501, US","ct":"2932.01","ev":"N","apc":"Harbor","cpa":"Harbor Gateway","zone":"R2-1","solar":"N","pin_nbr":"048B193   344","use_code":"23","geolocation":"POINT (-118.30787 33.82783)","status_date":"03/11/2009","permit_group":"Building","refresh_time":"06/10/2026","type_lat_lon":"ADDRESS","business_unit":"Plan Check at Counter"},"geometry":{"type":"Point","coordinates":[-118.30787,33.82783]}},{"type":"Feature","properties":{"date":"2007-05-11T00:00:00.000Z","year":2007,"description":"6 ft high concrete block wall fence.  Approx. 128lf.  Fence stops at house line.","metadescription":"Nonbldg-New. 1 or 2 Family Dwelling. 6 ft high concrete block wall fence.  Approx. 128lf.  Fence stops at house line.. Permit Finaled. 1610 W 215TH ST","address":"1610 West 215Th Street, CA, Torrance, 90501, US","ct":"2932.01","ev":"N","apc":"Harbor","cpa":"Harbor Gateway","zone":"R1-1","solar":"N","pin_nbr":"051B193   729","use_code":"23","geolocation":"POINT (-118.30691 33.83337)","status_date":"05/29/2007","permit_group":"Building","refresh_time":"06/10/2026","type_lat_lon":"ADDRESS","business_unit":"Plan Check at Counter"},"geometry":{"type":"Point","coordinates":[-118.30691,33.83337]}},{"type":"Feature","properties":{"date":"2006-07-26T00:00:00.000Z","year":2006,"description":"NEW CMU FENCE FOR 73 FEET PER dEPARTMENT std. MAX 6 FT IN HEIGHT.","metadescription":"Nonbldg-New. 1 or 2 Family Dwelling. NEW CMU FENCE FOR 73 FEET PER dEPARTMENT std. MAX 6 FT IN HEIGHT.. Permit Finaled. 1527 W 219TH ST","address":"1529 West 219Th Street, CA, Torrance, 90501, US","ct":"2932.01","ev":"N","apc":"Harbor","cpa":"Harbor Gateway","zone":"R2-1","solar":"N","pin_nbr":"048B193   140","use_code":"23","geolocation":"POINT (-118.30483 33.82926)","status_date":"09/15/2006","permit_group":"Building","refresh_time":"06/10/2026","type_lat_lon":"ADDRESS","business_unit":"Plan Check at Counter"},"geometry":{"type":"Point","coordinates":[-118.30483,33.82926]}},{"type":"Feature","properties":{"date":"2005-08-29T00:00:00.000Z","year":2005,"description":"new cmu block fence per Department STD. 168 ft long, 6 ft max.","metadescription":"Nonbldg-New. 1 or 2 Family Dwelling. new cmu block fence per Department STD. 168 ft long, 6 ft max.. Permit Finaled. 1606 W 219TH ST","address":"1602 West 219Th Street, CA, Torrance, 90501, US","ct":"2932.01","ev":"N","apc":"Harbor","cpa":"Harbor Gateway","zone":"RD1.5-1","solar":"N","pin_nbr":"048B193   207","use_code":"23","geolocation":"POINT (-118.30669 33.82898)","status_date":"02/02/2007","permit_group":"Building","refresh_time":"06/10/2026","type_lat_lon":"ADDRESS","business_unit":"Plan Check at Counter"},"geometry":{"type":"Point","coordinates":[-118.30669,33.82898]}},{"type":"Feature","properties":{"date":"2004-10-21T00:00:00.000Z","year":2004,"description":"new 6 ft high cmu fence for 138 ft per Department STD.","metadescription":"Nonbldg-New. 1 or 2 Family Dwelling. new 6 ft high cmu fence for 138 ft per Department STD.. Permit Expired. 21945 S HARVARD BLVD","address":"21945 South Harvard Boulevard, CA, Torrance, 90501, US","ct":"2932.01","ev":"N","apc":"Harbor","cpa":"Harbor Gateway","zone":"R2-1","solar":"N","pin_nbr":"048B193   288","use_code":"23","geolocation":"POINT (-118.30664 33.82824)","status_date":"06/09/2008","permit_group":"Building","refresh_time":"06/10/2026","type_lat_lon":"ADDRESS","business_unit":"Plan Check at Counter"},"geometry":{"type":"Point","coordinates":[-118.30664,33.82824]}},{"type":"Feature","properties":{"date":"2004-05-05T00:00:00.000Z","year":2004,"description":"new block wall fence per Department STD.  155 ft in length","metadescription":"Nonbldg-New. 1 or 2 Family Dwelling. new block wall fence per Department STD.  155 ft in length. Permit Finaled. 1628 W 227TH ST","address":"1628 West 227Th Street, CA, Torrance, 90501, US","ct":"2932.02","ev":"N","apc":"Harbor","cpa":"Harbor Gateway","zone":"R3-1","solar":"N","pin_nbr":"045B193   267","use_code":"23","geolocation":"POINT (-118.30739 33.82007)","status_date":"05/24/2004","permit_group":"Building","refresh_time":"06/10/2026","type_lat_lon":"ADDRESS","business_unit":"Plan Check at Counter"},"geometry":{"type":"Point","coordinates":[-118.30739,33.82007]}},{"type":"Feature","properties":{"date":"2004-04-12T00:00:00.000Z","year":2004,"description":"new cmu fence per Department STD. 235 ft long","metadescription":"Nonbldg-New. 1 or 2 Family Dwelling. new cmu fence per Department STD. 235 ft long. Permit Finaled. 1638 W 227TH ST","address":"1638 West 227Th Street, CA, Torrance, 90501, US","ct":"2932.02","ev":"N","apc":"Harbor","cpa":"Harbor Gateway","zone":"R3-1","solar":"N","pin_nbr":"045B193   265","use_code":"23","geolocation":"POINT (-118.30773 33.82007)","status_date":"09/30/2004","permit_group":"Building","refresh_time":"06/10/2026","type_lat_lon":"ADDRESS","business_unit":"Plan Check at Counter"},"geometry":{"type":"Point","coordinates":[-118.30773,33.82007]}},{"type":"Feature","properties":{"date":"2004-04-12T00:00:00.000Z","year":2004,"description":"new cmu fence per Department STD. 40 ft.","metadescription":"Nonbldg-New. Apartment. new cmu fence per Department STD. 40 ft.. Permit Finaled. 1640 W 227TH ST","address":"1-4, 1640 West 227Th Street, CA, Torrance, 90501, US","ct":"2932.02","ev":"N","apc":"Harbor","cpa":"Harbor Gateway","zone":"R3-1","solar":"N","pin_nbr":"045B193   264","use_code":"23","geolocation":"POINT (-118.30785 33.82001)","status_date":"05/05/2005","permit_group":"Building","refresh_time":"06/10/2026","type_lat_lon":"ADDRESS","business_unit":"Plan Check at Counter"},"geometry":{"type":"Point","coordinates":[-118.30785,33.82001]}},{"type":"Feature","properties":{"date":"2003-08-19T00:00:00.000Z","year":2003,"description":"new cmu fence wall, max. 6 ft in height per Department' S Std. permit is good for 30 days.","metadescription":"Nonbldg-New. 1 or 2 Family Dwelling. new cmu fence wall, max. 6 ft in height per Department' S Std. permit is good for 30 days.. Permit Finaled. 1541 W 216TH ST","address":"1541 West 216Th Street, CA, Torrance, 90501, US","ct":"2932.01","ev":"N","apc":"Harbor","cpa":"Harbor Gateway","zone":"R1-1","solar":"N","pin_nbr":"051B193   769","use_code":"23","geolocation":"POINT (-118.30528 33.83262)","status_date":"11/23/2004","permit_group":"Building","refresh_time":"06/10/2026","type_lat_lon":"ADDRESS","business_unit":"Plan Check at Counter"},"geometry":{"type":"Point","coordinates":[-118.30528,33.83262]}},{"type":"Feature","properties":{"date":"2003-04-02T00:00:00.000Z","year":2003,"description":"155 ft long 6 ft hi cmu fence per Department Std.","metadescription":"Nonbldg-New. 1 or 2 Family Dwelling. 155 ft long 6 ft hi cmu fence per Department Std.. Permit Finaled. 1521 W 220TH ST","address":"1521 West 220Th Street, CA, Torrance, 90501, US","ct":"2932.01","ev":"N","apc":"Harbor","zone":"R2-1","solar":"N","pin_nbr":"048B193   253","use_code":"23","geolocation":"POINT (-118.30459 33.82809)","status_date":"12/22/2003","permit_group":"Building","refresh_time":"06/10/2026","type_lat_lon":"ADDRESS","business_unit":"Plan Check at Counter"},"geometry":{"type":"Point","coordinates":[-118.30459,33.82809]}}]}
