{"type":"FeatureCollection","features":[{"type":"Feature","properties":{"date":"2015-06-09T00:00:00.000Z","year":2015,"description":"NEW 2-STORY 48'-6\" x 32'-0\" DUPLEX W/ATT 2-CAR GARAGE. \"FIRE SPRINKLER REQUIRED\". NFPA 13D.","metadescription":"Bldg-New. 1 or 2 Family Dwelling. NEW 2-STORY 48'-6\" x 32'-0\" DUPLEX W/ATT 2-CAR GARAGE. \"FIRE SPRINKLER REQUIRED\". NFPA 13D.. CofO Issued. 1659 1/2 W 224TH ST","address":"1659 1/2 W 224TH ST","ct":"2932.02","ev":"N","apc":"Harbor","cpa":"Harbor Gateway","zone":"R2-1","solar":"N","height":"21","pin_nbr":"048B193   792","use_code":"2","geolocation":"POINT (-118.30853896 33.82379131)","status_date":"10/19/2016","construction":"Type V-B Construction","permit_group":"Building","refresh_time":"06/10/2026","type_lat_lon":"BUILDING","business_unit":"Regular Plan Check","square_footage":"2608"},"geometry":{"type":"Point","coordinates":[-118.30853896,33.82379131]}}]}
