{"type":"FeatureCollection","features":[{"type":"Feature","properties":{"date":"2025-04-02T00:00:00.000Z","year":2025,"description":"SUPPLEMENTAL TO 24016-10000-37525 TO REVISE FOUNDATION FROM SLAB ON GRADE TO RAISED FOUNDATION","metadescription":"Bldg-Alter/Repair. 1 or 2 Family Dwelling. SUPPLEMENTAL TO 24016-10000-37525 TO REVISE FOUNDATION FROM SLAB ON GRADE TO RAISED FOUNDATION. Permit Finaled. 1632 W 221ST ST","address":"1632 West 221St Street, CA, Torrance, 90501, US","ct":"2932.04","ev":"N","apc":"Harbor","cpa":"Harbor Gateway","zone":"R1-1","solar":"N","pin_nbr":"048B193   470","use_code":"1","status_date":"04/03/2026","permit_group":"Building","refresh_time":"06/10/2026","type_lat_lon":"ADDRESS","business_unit":"Regular Plan Check"},"geometry":{"type":"Point","coordinates":[-118.3076,33.82668]}},{"type":"Feature","properties":{"date":"2019-05-20T00:00:00.000Z","year":2019,"description":"ADDITION AND REMODEL TO (E) SFD. NEW RAISED FOUNDATION FOR REMODEL AREA. ALL WORK PER WFPP.","metadescription":"Bldg-Addition. 1 or 2 Family Dwelling. ADDITION AND REMODEL TO (E) SFD. NEW RAISED FOUNDATION FOR REMODEL AREA. ALL WORK PER WFPP.. Issued. 1566 W 216TH ST","address":"1566 West 216Th Street, CA, Torrance, 90501, US","ct":"2932.01","ev":"N","apc":"Harbor","cpa":"Harbor Gateway","zone":"R1-1","solar":"N","pin_nbr":"051B193   836","use_code":"1","geolocation":"POINT (-118.3061165 33.83228401)","status_date":"05/20/2019","construction":"Type V-B Construction","permit_group":"Building","refresh_time":"06/10/2026","type_lat_lon":"BUILDING","business_unit":"Expanded Counter Plan Check","square_footage":"36"},"geometry":{"type":"Point","coordinates":[-118.3061165,33.83228401]}},{"type":"Feature","properties":{"date":"2016-02-08T00:00:00.000Z","year":2016,"description":"Add sill plate anchors bolts and cripple wall plywood per L.A. City Std. Plan #1; no foundation replacement (EQ hazard reduction per Chapter 92).","metadescription":"Bldg-Alter/Repair. 1 or 2 Family Dwelling. Add sill plate anchors bolts and cripple wall plywood per L.A. City Std. Plan #1; no foundation replacement (EQ hazard reduction per Chapter 92).. Permit Finaled. 1544 W 216TH ST","address":"1544 West 216Th Street, CA, Torrance, 90501, US","ct":"2932.01","ev":"N","apc":"Harbor","cpa":"Harbor Gateway","zone":"R1-1","solar":"N","pin_nbr":"051B193   831","use_code":"1","geolocation":"POINT (-118.30541 33.8324)","status_date":"03/03/2016","permit_group":"Building","refresh_time":"06/10/2026","type_lat_lon":"ADDRESS","business_unit":"Express Permit"},"geometry":{"type":"Point","coordinates":[-118.30541,33.8324]}},{"type":"Feature","properties":{"date":"2015-10-05T00:00:00.000Z","year":2015,"description":"Add sill plate anchors bolts and cripple wall plywood per L.A. City Std. Plan #1; no foundation replacement (EQ hazard reduction per Chapter 92).","metadescription":"Bldg-Alter/Repair. 1 or 2 Family Dwelling. Add sill plate anchors bolts and cripple wall plywood per L.A. City Std. Plan #1; no foundation replacement (EQ hazard reduction per Chapter 92).. Permit Finaled. 1664 W 222ND ST","address":"1664 West 222Nd Street, CA, Torrance, 90501, US","ct":"2932.02","ev":"N","apc":"Harbor","cpa":"Harbor Gateway","zone":"R1-1","solar":"N","pin_nbr":"048B193   604","use_code":"1","geolocation":"POINT (-118.30864 33.82552)","status_date":"10/09/2015","permit_group":"Building","refresh_time":"06/10/2026","type_lat_lon":"ADDRESS","business_unit":"Express Permit"},"geometry":{"type":"Point","coordinates":[-118.30864,33.82552]}},{"type":"Feature","properties":{"date":"2013-03-29T00:00:00.000Z","year":2013,"description":"Add sill plate anchors bolts and cripple wall plywood per L.A. City Std. Plan #1; no foundation replacement (EQ hazard reduction per Chapter 92).","metadescription":"Bldg-Alter/Repair. 1 or 2 Family Dwelling. Add sill plate anchors bolts and cripple wall plywood per L.A. City Std. Plan #1; no foundation replacement (EQ hazard reduction per Chapter 92).. Permit Expired. 1552 W 221ST ST","address":"1546 West 221St Street, CA, Torrance, 90501, US","ct":"2932.01","ev":"N","apc":"Harbor","cpa":"Harbor Gateway","zone":"R1-1","solar":"N","pin_nbr":"048B193   457","use_code":"1","geolocation":"POINT (-118.30563 33.8267)","status_date":"04/27/2015","permit_group":"Building","refresh_time":"06/10/2026","type_lat_lon":"ADDRESS","business_unit":"Express Permit"},"geometry":{"type":"Point","coordinates":[-118.30563,33.8267]}},{"type":"Feature","properties":{"date":"2012-04-11T00:00:00.000Z","year":2012,"description":"REPAIR  CONC. FOOTING  DUE TO DAMAGE MADE BY PLUMBING WORK;  MINOR FOUNDATION REPAIR LOCATED @ SOUTH/EASTERLY PORTION OF EXTERIOR FOOTING.  WORK IS TO COMPLY WITH PLUMBING INSPECTORS CORRECTION NOTICE.","metadescription":"Bldg-Alter/Repair. Commercial. REPAIR  CONC. FOOTING  DUE TO DAMAGE MADE BY PLUMBING WORK;  MINOR FOUNDATION REPAIR LOCATED @ SOUTH/EASTERLY PORTION OF EXTERIOR FOOTING.  WORK IS TO COMPLY WITH PLUMBING INSPECTORS CORRECTION NOTICE.. Permit Finaled. 1658 W CARSON ST A","address":"1658 West Carson Street, CA, Torrance, 90501, US","ct":"2932.01","ev":"N","apc":"Harbor","cpa":"Harbor Gateway","zone":"C2-1","solar":"N","pin_nbr":"051B193   976","use_code":"17","geolocation":"POINT (-118.30868 33.8313)","status_date":"05/29/2012","permit_group":"Building","refresh_time":"06/10/2026","type_lat_lon":"ADDRESS","business_unit":"Plan Check at Counter"},"geometry":{"type":"Point","coordinates":[-118.30868,33.8313]}},{"type":"Feature","properties":{"date":"2007-01-17T00:00:00.000Z","year":2007,"description":"REMEDIAL REPAIR OF FOUNDATION AS FOLLOWS: UNDERPIN OF EXISTING FOUNDATION AT THE SOUTH WEST CORNER OF BUILDING ADDING CHANCE ANCHORS PER GEOTECH REPORT RECOMMENDATIONS.","metadescription":"Bldg-Alter/Repair. Commercial. REMEDIAL REPAIR OF FOUNDATION AS FOLLOWS: UNDERPIN OF EXISTING FOUNDATION AT THE SOUTH WEST CORNER OF BUILDING ADDING CHANCE ANCHORS PER GEOTECH REPORT RECOMMENDATIONS.. Permit Finaled. 20200 S WESTERN AVE","address":"20200 South Western Avenue, CA, Torrance, 90501, US","ct":"2920.00","ev":"N","apc":"Harbor","cpa":"Harbor Gateway","zone":"M3-1","solar":"N","pin_nbr":"054B193   700","use_code":"22","geolocation":"POINT (-118.30905 33.84769)","status_date":"09/14/2007","permit_group":"Building","refresh_time":"06/10/2026","type_lat_lon":"ADDRESS","business_unit":"Regular Plan Check"},"geometry":{"type":"Point","coordinates":[-118.30905,33.84769]}},{"type":"Feature","properties":{"date":"2004-12-09T00:00:00.000Z","year":2004,"description":"REVISION TO PERMIT #04014-70000-11046 TO REVISE FOUNDATION PLAN , REFRAME ROOF OVER (E) GARAGE (9'6\" X 20\") AND ADD 17'9\"  X 6' ADDITION CONSISTING OF GARAGE EXTENSION AND NEW STORAGE ROOM W/ EXTERIOR ACCESS.  CONSTRUCTION PER TYPE V.  RELATED ELEC.","metadescription":"Bldg-Addition. 1 or 2 Family Dwelling. REVISION TO PERMIT #04014-70000-11046 TO REVISE FOUNDATION PLAN , REFRAME ROOF OVER (E) GARAGE (9'6\" X 20\") AND ADD 17'9\"  X 6' ADDITION CONSISTING OF GARAGE EXTENSION AND NEW STORAGE ROOM W/ EXTERIOR ACCESS.  CONSTRUCTION PER TYPE V.  RELATED ELEC.. CofO Issued. 1562 W 216TH ST","address":"1558 West 216Th Street, CA, Torrance, 90501, US","ct":"2932.01","ev":"N","apc":"Harbor","cpa":"Harbor Gateway","zone":"R1-1","solar":"N","pin_nbr":"054B193   551","use_code":"1","geolocation":"POINT (-118.30594 33.8324)","status_date":"06/13/2008","construction":"Type V-N Construction","permit_group":"Building","refresh_time":"06/10/2026","type_lat_lon":"ADDRESS","business_unit":"Plan Check at Counter","square_footage":"106.5"},"geometry":{"type":"Point","coordinates":[-118.30594,33.8324]}}]}
