{"type":"FeatureCollection","features":[{"type":"Feature","properties":{"date":"2024-08-22T00:00:00.000Z","year":2024,"description":"GRADING FOR (N) RETAINING WALL AND REPAIR UNDER 24020-10000-00777**COMPLY WITH DEPARTMENT ORDER effective date 04/09/2024. PERMIT WILL EXPIRE 30 DAYS FROM ISSUANCE DATE","metadescription":"Grading. Commercial. GRADING FOR (N) RETAINING WALL AND REPAIR UNDER 24020-10000-00777**COMPLY WITH DEPARTMENT ORDER effective date 04/09/2024. PERMIT WILL EXPIRE 30 DAYS FROM ISSUANCE DATE. Issued. 1580 W FRANCISCO ST","address":"1560 Francisco Street, CA, Torrance, 90501, US","ct":"2920.01","ev":"N","apc":"Harbor","cpa":"Harbor Gateway","zone":"M3-1","solar":"N","pin_nbr":"057B193    31","use_code":"60","status_date":"08/22/2024","permit_group":"Building","refresh_time":"06/10/2026","type_lat_lon":"ADDRESS","business_unit":"Expanded Counter Plan Check"},"geometry":{"type":"Point","coordinates":[-118.30699,33.8493]}},{"type":"Feature","properties":{"date":"2024-01-02T00:00:00.000Z","year":2024,"description":"*eplan* Attn: Quan Nghiem.  Grading permit for the new 4 story 21 unit apartment building and 1 accessory dwelling unit per LAMC 12.22A.33(c) and (e) with 1st floor parking.","metadescription":"Grading. Apartment. *eplan* Attn: Quan Nghiem.  Grading permit for the new 4 story 21 unit apartment building and 1 accessory dwelling unit per LAMC 12.22A.33(c) and (e) with 1st floor parking.. PC Info Complete. 21821 S HARVARD BLVD","address":"21821 Harvard Boulevard, CA, Torrance, 90501, US","ct":"2932.03","ev":"N","apc":"Harbor","cpa":"Harbor Gateway","zone":"R3-1","solar":"N","pin_nbr":"048B193   167","use_code":"60","status_date":"02/29/2024","permit_group":"Building","refresh_time":"06/10/2026","type_lat_lon":"ADDRESS","business_unit":"Regular Plan Check"},"geometry":{"type":"Point","coordinates":[-118.30656,33.82954]}},{"type":"Feature","properties":{"date":"2020-09-24T00:00:00.000Z","year":2020,"description":"GRADING PLAN CHECK2 OF 2","metadescription":"Grading. Apartment. GRADING PLAN CHECK2 OF 2. Verifications in Progress. 1611 W 218TH ST","address":"1611 West 218Th Street, CA, Torrance, 90501, US","ct":"2932.01","ev":"N","apc":"Harbor","cpa":"Harbor Gateway","zone":"R3-1","solar":"N","pin_nbr":"048B193    31","status_date":"04/05/2021","permit_group":"Building","refresh_time":"06/10/2026","type_lat_lon":"ADDRESS","business_unit":"Regular Plan Check"},"geometry":{"type":"Point","coordinates":[-118.30694,33.83037]}},{"type":"Feature","properties":{"date":"2015-12-04T00:00:00.000Z","year":2015,"description":"INCREASE GRADE 12\" MAXIMUM FOR SITE DRAINAGE.","metadescription":"Grading. 1 or 2 Family Dwelling. INCREASE GRADE 12\" MAXIMUM FOR SITE DRAINAGE.. Permit Finaled. 1659-1661 W 224TH ST","address":"1661 West 224Th Street, CA, Torrance, 90501, US","ct":"2932.02","ev":"N","apc":"Harbor","cpa":"Harbor Gateway","zone":"R2-1","solar":"N","pin_nbr":"048B193   792","use_code":"60","geolocation":"POINT (-118.30848 33.82343)","status_date":"09/29/2016","permit_group":"Building","refresh_time":"06/10/2026","type_lat_lon":"ADDRESS","business_unit":"Plan Check at Counter"},"geometry":{"type":"Point","coordinates":[-118.30848,33.82343]}},{"type":"Feature","properties":{"date":"2011-09-29T00:00:00.000Z","year":2011,"description":"GRADING PERMIT FOR CONSTRUCTION OF ONE WAREHOUSE, TRUCK YARD AND PARKING LOT.  18,525 C.Y.","metadescription":"Grading. Commercial. GRADING PERMIT FOR CONSTRUCTION OF ONE WAREHOUSE, TRUCK YARD AND PARKING LOT.  18,525 C.Y.. Permit Finaled. 20000 S WESTERN AVE","address":"20000 South Western Avenue, CA, Torrance, 90501, US","ct":"2920.00","ev":"N","apc":"Harbor","cpa":"Harbor Gateway","zone":"M3-1","solar":"N","pin_nbr":"057B193     4","use_code":"60","geolocation":"POINT (-118.30908 33.85008)","status_date":"10/02/2012","permit_group":"Building","refresh_time":"06/10/2026","type_lat_lon":"ADDRESS","business_unit":"Regular Plan Check"},"geometry":{"type":"Point","coordinates":[-118.30908,33.85008]}},{"type":"Feature","properties":{"date":"2006-08-01T00:00:00.000Z","year":2006,"description":"GRADING PERMIT FOR REMOVAL AND RECOMPACTION PER SOIL REPORT.","metadescription":"Grading. 1 or 2 Family Dwelling. GRADING PERMIT FOR REMOVAL AND RECOMPACTION PER SOIL REPORT.. Permit Finaled. 1652 W PLAZA DEL AMO","address":"1652 West Plaza Del Amo, CA, Torrance, 90501, US","ct":"2932.02","ev":"N","apc":"Harbor","cpa":"Harbor Gateway","zone":"RD1.5-1","solar":"N","pin_nbr":"045B193    65","use_code":"60","geolocation":"POINT (-118.30818 33.8223)","status_date":"12/10/2007","permit_group":"Building","refresh_time":"06/10/2026","type_lat_lon":"ADDRESS","business_unit":"Regular Plan Check"},"geometry":{"type":"Point","coordinates":[-118.30818,33.8223]}},{"type":"Feature","properties":{"date":"2004-08-19T00:00:00.000Z","year":2004,"description":"site preparation: remove and recompation.","metadescription":"Grading. Apartment. site preparation: remove and recompation.. Permit Finaled. 1636 W 227TH ST","address":"1636 West 227Th Street, CA, Torrance, 90501, US","ct":"2932.02","ev":"N","apc":"Harbor","cpa":"Harbor Gateway","zone":"R3-1","solar":"N","pin_nbr":"045B193   265","use_code":"60","geolocation":"POINT (-118.30766 33.82007)","status_date":"04/13/2005","permit_group":"Building","refresh_time":"06/10/2026","type_lat_lon":"ADDRESS","business_unit":"Plan Check at Counter"},"geometry":{"type":"Point","coordinates":[-118.30766,33.82007]}},{"type":"Feature","properties":{"date":"2004-06-30T00:00:00.000Z","year":2004,"description":"SITE PREPARATION TO CLEAR LOTS. REMOVE AND RECOMPACT FOR BUILDING SITE OF 4-UNITS APARTMENT.","metadescription":"Grading. Apartment. SITE PREPARATION TO CLEAR LOTS. REMOVE AND RECOMPACT FOR BUILDING SITE OF 4-UNITS APARTMENT.. Permit Finaled. 1640 W 227TH ST","address":"1-4, 1640 West 227Th Street, CA, Torrance, 90501, US","ct":"2932.02","ev":"N","apc":"Harbor","cpa":"Harbor Gateway","zone":"R3-1","solar":"N","pin_nbr":"045B193   264","use_code":"60","geolocation":"POINT (-118.30785 33.82001)","status_date":"04/13/2005","permit_group":"Building","refresh_time":"06/10/2026","type_lat_lon":"ADDRESS","business_unit":"Plan Check at Counter"},"geometry":{"type":"Point","coordinates":[-118.30785,33.82001]}},{"type":"Feature","properties":{"date":"1999-11-15T00:00:00.000Z","year":1999,"description":"EXCAVATE 3' BACKFILL FOR PIPING INSTALLATION.","metadescription":"Grading. Commercial. EXCAVATE 3' BACKFILL FOR PIPING INSTALLATION.. Permit Finaled. 1605 W CARSON ST","address":"1605 West Carson Street, CA, Torrance, 90501, US","ct":"2932.01","ev":"N","apc":"Harbor","zone":"[Q]C2-1","solar":"N","pin_nbr":"051B193   911","use_code":"60","geolocation":"POINT (-118.30675 33.83165)","status_date":"12/27/2000","permit_group":"Building","refresh_time":"06/10/2026","type_lat_lon":"ADDRESS","business_unit":"Express Permit"},"geometry":{"type":"Point","coordinates":[-118.30675,33.83165]}}]}
