{"type":"FeatureCollection","features":[{"type":"Feature","properties":{"date":"2018-11-29T00:00:00.000Z","year":2018,"description":"One story, irregular-shaped ground floor addition (31' x 24'-3\", 589 SF total) to the front of an existing SFD to create (N) Bedroom, bathroom, living room, and covered porch (13'-3\" x 3') and interior remodel of (E) SFD.","metadescription":"Bldg-Addition. 1 or 2 Family Dwelling. One story, irregular-shaped ground floor addition (31' x 24'-3\", 589 SF total) to the front of an existing SFD to create (N) Bedroom, bathroom, living room, and covered porch (13'-3\" x 3') and interior remodel of (E) SFD.. CofO Issued. 1660 W 223RD ST","address":"1660 W 223RD ST","ct":"2932.02","ev":"N","apc":"Harbor","cpa":"Harbor Gateway","zone":"R1-1","solar":"N","pin_nbr":"048B193   733","use_code":"1","geolocation":"POINT (-118.3085637 33.82418081)","status_date":"03/12/2020","construction":"Type V-B Construction","permit_group":"Building","refresh_time":"06/10/2026","type_lat_lon":"BUILDING","business_unit":"Plan Check at Counter","square_footage":"1828"},"geometry":{"type":"Point","coordinates":[-118.3085637,33.82418081]}}]}
