{"type":"FeatureCollection","features":[{"type":"Feature","properties":{"date":"2006-06-27T00:00:00.000Z","year":2006,"description":"DRYWALL AND PAINT (NON STRUCTURAL)","metadescription":"Bldg-Alter/Repair. Apartment. DRYWALL AND PAINT (NON STRUCTURAL). Permit Expired. 22610 S WESTERN AVE","address":"22610 S WESTERN AVE","ct":"2932.02","ev":"N","apc":"Harbor","cpa":"Harbor Gateway","zone":"[Q]C2-1","solar":"N","pin_nbr":"045B193   139","use_code":"5","geolocation":"POINT (-118.3087 33.82108)","status_date":"10/27/2008","permit_group":"Building","refresh_time":"06/10/2026","type_lat_lon":"ADDRESS","business_unit":"Express Permit"},"geometry":{"type":"Point","coordinates":[-118.3087,33.82108]}},{"type":"Feature","properties":{"date":"1999-10-21T00:00:00.000Z","year":1999,"description":"INTERIOR REMODEL (NON-STRUCTURAL)","metadescription":"Bldg-Alter/Repair. Commercial. INTERIOR REMODEL (NON-STRUCTURAL). Permit Finaled. 19200 S WESTERN AVE","address":"19200 S WESTERN AVE","ct":"2920.00","ev":"N","apc":"Harbor","zone":"M3-1","solar":"N","pin_nbr":"057B193     2","use_code":"22","geolocation":"POINT (-118.30917 33.85755)","status_date":"01/28/2005","permit_group":"Building","refresh_time":"06/10/2026","type_lat_lon":"ADDRESS","business_unit":"Plan Check at Counter"},"geometry":{"type":"Point","coordinates":[-118.30917,33.85755]}}]}
