{"type":"FeatureCollection","features":[{"type":"Feature","properties":{"date":"2024-10-22T00:00:00.000Z","year":2024,"description":"REMOVE AND INFILL (E) WINDOW","metadescription":"Bldg-Alter/Repair. 1 or 2 Family Dwelling. REMOVE AND INFILL (E) WINDOW. Permit Finaled. 1651 W 204TH ST","address":"1651 West 204Th Street, CA, Torrance, 90501, US","ct":"2920.01","ev":"N","apc":"Harbor","cpa":"Harbor Gateway","zone":"RD1.5-1","solar":"N","pin_nbr":"054B193   113","use_code":"2","status_date":"05/07/2026","permit_group":"Building","refresh_time":"06/10/2026","type_lat_lon":"ADDRESS","business_unit":"Plan Check at Counter"},"geometry":{"type":"Point","coordinates":[-118.30839,33.84578]}},{"type":"Feature","properties":{"date":"2019-12-17T00:00:00.000Z","year":2019,"description":"Replace 10 window(s). Same size, location, number, type.","metadescription":"Bldg-Alter/Repair. 1 or 2 Family Dwelling. Replace 10 window(s). Same size, location, number, type.. Permit Finaled. 1545 W 216TH ST","address":"1541 West 216Th Street, CA, Torrance, 90501, US","ct":"2932.01","ev":"N","apc":"Harbor","cpa":"Harbor Gateway","zone":"R1-1","solar":"N","pin_nbr":"051B193   770","use_code":"1","geolocation":"POINT (-118.30541 33.83262)","status_date":"02/24/2020","permit_group":"Building","refresh_time":"06/10/2026","type_lat_lon":"ADDRESS","business_unit":"Express Permit"},"geometry":{"type":"Point","coordinates":[-118.30541,33.83262]}},{"type":"Feature","properties":{"date":"2019-09-16T00:00:00.000Z","year":2019,"description":"(10) Window change-out (same size & type) for residential buildings.  Dual glazing, labeled and certified by National Fenestration Rating Council (NFRC), is required for doors and windows replaced in all residential buildings, three stories or less, per Section 150.2(b) 1B of Title 24.","metadescription":"Bldg-Alter/Repair. Apartment. (10) Window change-out (same size & type) for residential buildings.  Dual glazing, labeled and certified by National Fenestration Rating Council (NFRC), is required for doors and windows replaced in all residential buildings, three stories or less, per Section 150.2(b) 1B of Title 24.. Permit Expired. 1650 W 226TH ST","address":"1642 West 226Th Street, CA, Torrance, 90501, US","ct":"2932.02","ev":"N","apc":"Harbor","cpa":"Harbor Gateway","zone":"RD1.5-1","solar":"N","pin_nbr":"045B193   143","use_code":"5","geolocation":"POINT (-118.30813 33.82122)","status_date":"12/15/2025","permit_group":"Building","refresh_time":"06/10/2026","type_lat_lon":"ADDRESS","business_unit":"Express Permit"},"geometry":{"type":"Point","coordinates":[-118.30813,33.82122]}},{"type":"Feature","properties":{"date":"2019-07-24T00:00:00.000Z","year":2019,"description":"15 windows change-out (same size & type) for residential buildings.  Dual glazing, labeled and certified by national fenestration rating council (NFRC), is required for doors and windows replaced in all residential buildings, three stories or less, per section 150.2 (b) 1b of title 24.","metadescription":"Bldg-Alter/Repair. 1 or 2 Family Dwelling. 15 windows change-out (same size & type) for residential buildings.  Dual glazing, labeled and certified by national fenestration rating council (NFRC), is required for doors and windows replaced in all residential buildings, three stories or less, per section 150.2 (b) 1b of title 24.. Permit Finaled. 1558 W 219TH ST","address":"1554 West 219Th Street, CA, Torrance, 90501, US","ct":"2932.01","ev":"N","apc":"Harbor","cpa":"Harbor Gateway","zone":"R2-1","solar":"N","pin_nbr":"048B193   203","use_code":"1","geolocation":"POINT (-118.30582 33.82901)","status_date":"07/29/2019","permit_group":"Building","refresh_time":"06/10/2026","type_lat_lon":"ADDRESS","business_unit":"Express Permit"},"geometry":{"type":"Point","coordinates":[-118.30582,33.82901]}},{"type":"Feature","properties":{"date":"2019-07-01T00:00:00.000Z","year":2019,"description":"WINDOW (2) AND DOOR(1) CHANGE OUT(SAME SIZE&TYPE)FOR RESIDENTIAL BUILDINGS.  DUAL GLAZING, LABELED AND CERTIFIED BY NATIONAL FENESTRATION RATING COUNCIL (NFRC), IS REQUIRED FOR DOORS AND WINDOWS REPLACED IN ALL RESIDENTIAL BUILDINGS, THREE STORIES OR LESS, PER SECTION 150.2(b)1B","metadescription":"Bldg-Alter/Repair. Apartment. WINDOW (2) AND DOOR(1) CHANGE OUT(SAME SIZE&TYPE)FOR RESIDENTIAL BUILDINGS.  DUAL GLAZING, LABELED AND CERTIFIED BY NATIONAL FENESTRATION RATING COUNCIL (NFRC), IS REQUIRED FOR DOORS AND WINDOWS REPLACED IN ALL RESIDENTIAL BUILDINGS, THREE STORIES OR LESS, PER SECTION 150.2(b)1B. Permit Finaled. 1667 W 204TH ST #1","address":"1667 West 204Th Street, CA, Torrance, 90501, US","ct":"2920.00","ev":"N","apc":"Harbor","cpa":"Harbor Gateway","zone":"RD1.5-1","solar":"N","pin_nbr":"054B193   122","use_code":"5","geolocation":"POINT (-118.30897 33.84577)","status_date":"07/10/2019","permit_group":"Building","refresh_time":"06/10/2026","type_lat_lon":"ADDRESS","business_unit":"Express Permit"},"geometry":{"type":"Point","coordinates":[-118.30897,33.84577]}},{"type":"Feature","properties":{"date":"2018-11-02T00:00:00.000Z","year":2018,"description":"Window change out (same size and location).","metadescription":"Bldg-Alter/Repair. 1 or 2 Family Dwelling. Window change out (same size and location).. Permit Finaled. 1524 W 218TH ST","address":"1516 West 218Th Street, CA, Torrance, 90501, US","ct":"2932.01","ev":"N","apc":"Harbor","cpa":"Harbor Gateway","zone":"R2-1","solar":"N","pin_nbr":"048B193    88","use_code":"1","geolocation":"POINT (-118.30462 33.83015)","status_date":"12/06/2018","permit_group":"Building","refresh_time":"06/10/2026","type_lat_lon":"ADDRESS","business_unit":"Express Permit"},"geometry":{"type":"Point","coordinates":[-118.30462,33.83015]}},{"type":"Feature","properties":{"date":"2018-07-13T00:00:00.000Z","year":2018,"description":"(5) Window change-out (same size & type) for residential buildings. Dual glazing, labeled and certified by National Fenestration Rating Council (NFRC), is required for doors and windows replaced in all residential buildings, three stories or less, per Section 150.2(b) 1B of Title 24.","metadescription":"Bldg-Alter/Repair. Apartment. (5) Window change-out (same size & type) for residential buildings. Dual glazing, labeled and certified by National Fenestration Rating Council (NFRC), is required for doors and windows replaced in all residential buildings, three stories or less, per Section 150.2(b) 1B of Title 24.. Permit Finaled. 20620 S WESTERN AVE","address":"20618 1/2 South Western Avenue, CA, Torrance, 90501, US","ct":"2920.00","ev":"N","apc":"Harbor","cpa":"Harbor Gateway","zone":"RD1.5-1","solar":"N","pin_nbr":"054B193   314","use_code":"5","geolocation":"POINT (-118.30899 33.84317)","status_date":"08/09/2018","permit_group":"Building","refresh_time":"06/10/2026","type_lat_lon":"ADDRESS","business_unit":"Express Permit"},"geometry":{"type":"Point","coordinates":[-118.30899,33.84317]}},{"type":"Feature","properties":{"date":"2018-03-09T00:00:00.000Z","year":2018,"description":"CHANGE OUT 2-DOORS (SAME SIZE AND LOCATION)FOR RESIDENTIAL BUILDINGS.  DUAL GLAZING, LABELED AND CERTIFIED BY NATIONAL FENESTRATION RATING COUNCIL (NFRC), IS REQUIRED FOR DOORS AND WINDOWS REPLACED IN ALL RESIDENTIAL BUILDINGS, THREE STORIES OR LESS, PER SECTION 152(b) OF TITLE 24.","metadescription":"Bldg-Alter/Repair. Apartment. CHANGE OUT 2-DOORS (SAME SIZE AND LOCATION)FOR RESIDENTIAL BUILDINGS.  DUAL GLAZING, LABELED AND CERTIFIED BY NATIONAL FENESTRATION RATING COUNCIL (NFRC), IS REQUIRED FOR DOORS AND WINDOWS REPLACED IN ALL RESIDENTIAL BUILDINGS, THREE STORIES OR LESS, PER SECTION 152(b) OF TITLE 24.. Permit Finaled. 1644 W 206TH ST A&B","address":"1644 West 206Th Street, CA, Torrance, 90501, US","ct":"2920.00","ev":"N","apc":"Harbor","cpa":"Harbor Gateway","zone":"RD1.5-1","solar":"N","pin_nbr":"054B193   279","use_code":"5","geolocation":"POINT (-118.30832 33.84368)","status_date":"03/28/2018","permit_group":"Building","refresh_time":"06/10/2026","type_lat_lon":"ADDRESS","business_unit":"Express Permit"},"geometry":{"type":"Point","coordinates":[-118.30832,33.84368]}},{"type":"Feature","properties":{"date":"2018-03-09T00:00:00.000Z","year":2018,"description":"CHANGE OUT 1 WINDOW AND 2 DOORS (SAME SIZE AND LOCATION)  FOR RESIDENTIAL BUILDINGS, DUAL GLAZING, LABELED AND CERTIFIED BY NATIONAL FENESTRATION RATING COUNCIL (NFRC), IS REQUIRED FOR DOORS AND WINDOWS REPLACED IN ALL RESIDENTIAL BUILDINGS, THREE STORIES OR LESS, PER SECTION 152(b) OF TITLE24.","metadescription":"Bldg-Alter/Repair. Apartment. CHANGE OUT 1 WINDOW AND 2 DOORS (SAME SIZE AND LOCATION)  FOR RESIDENTIAL BUILDINGS, DUAL GLAZING, LABELED AND CERTIFIED BY NATIONAL FENESTRATION RATING COUNCIL (NFRC), IS REQUIRED FOR DOORS AND WINDOWS REPLACED IN ALL RESIDENTIAL BUILDINGS, THREE STORIES OR LESS, PER SECTION 152(b) OF TITLE24.. Permit Finaled. 1652 W 207TH ST A&B","address":"1652 West 207Th Street, CA, Torrance, 90501, US","ct":"2920.00","ev":"N","apc":"Harbor","cpa":"Harbor Gateway","zone":"RD1.5-1","solar":"N","pin_nbr":"054B193   342","use_code":"5","geolocation":"POINT (-118.30847 33.84276)","status_date":"04/11/2018","permit_group":"Building","refresh_time":"06/10/2026","type_lat_lon":"ADDRESS","business_unit":"Express Permit"},"geometry":{"type":"Point","coordinates":[-118.30847,33.84276]}},{"type":"Feature","properties":{"date":"2018-03-09T00:00:00.000Z","year":2018,"description":"CHANGE OUT 2-DOORS -SAME SIZE AND LOCATION FOR RESIDENTIAL BUILDINGS.  DUAL GLAZING, LABELED AND CERTIFIED BY NATIONAL FENESTRATION RATING COUNCIL (NFRC) IS REQUIRED FOR DOORS AND WINDOWS REPLACED IN ALL RESIDENTIAL BUILDINGS, THREE STORIES OR LESS, PER SECTION 152(b) OF TITLE 24. (1- IN UNIT 'A' AND 1 IN UNIT 'B')","metadescription":"Bldg-Alter/Repair. Apartment. CHANGE OUT 2-DOORS -SAME SIZE AND LOCATION FOR RESIDENTIAL BUILDINGS.  DUAL GLAZING, LABELED AND CERTIFIED BY NATIONAL FENESTRATION RATING COUNCIL (NFRC) IS REQUIRED FOR DOORS AND WINDOWS REPLACED IN ALL RESIDENTIAL BUILDINGS, THREE STORIES OR LESS, PER SECTION 152(b) OF TITLE 24. (1- IN UNIT 'A' AND 1 IN UNIT 'B'). Permit Finaled. 1644 W 206TH ST A&B","address":"1644 West 206Th Street, CA, Torrance, 90501, US","ct":"2920.00","ev":"N","apc":"Harbor","cpa":"Harbor Gateway","zone":"RD1.5-1","solar":"N","pin_nbr":"054B193   279","use_code":"5","geolocation":"POINT (-118.30832 33.84368)","status_date":"08/07/2018","permit_group":"Building","refresh_time":"06/10/2026","type_lat_lon":"ADDRESS","business_unit":"Express Permit"},"geometry":{"type":"Point","coordinates":[-118.30832,33.84368]}},{"type":"Feature","properties":{"date":"2017-09-21T00:00:00.000Z","year":2017,"description":"Supplemental to 16014-30001-00680 to revise window schedule and t-24 report.  Correct bldg height to 15'-3\" reflect grade conditions.  Structural changes per engineers specifications to roof sheathing and new detail changes along with new beam.  Minor changes to floor plan to for relocation of closets.  **no plot plan requird**","metadescription":"Bldg-Alter/Repair. 1 or 2 Family Dwelling. Supplemental to 16014-30001-00680 to revise window schedule and t-24 report.  Correct bldg height to 15'-3\" reflect grade conditions.  Structural changes per engineers specifications to roof sheathing and new detail changes along with new beam.  Minor changes to floor plan to for relocation of closets.  **no plot plan requird**. Permit Expired. 1556 W 221ST ST","address":"1556 West 221St Street, CA, Torrance, 90501, US","ct":"2932.01","ev":"N","apc":"Harbor","cpa":"Harbor Gateway","zone":"R1-1","solar":"N","height":"15.25","pin_nbr":"048B193   458","use_code":"1","geolocation":"POINT (-118.30581092 33.82661189)","status_date":"10/06/2024","permit_group":"Building","refresh_time":"06/10/2026","type_lat_lon":"BUILDING","business_unit":"Plan Check at Counter"},"geometry":{"type":"Point","coordinates":[-118.30581092,33.82661189]}},{"type":"Feature","properties":{"date":"2017-07-17T00:00:00.000Z","year":2017,"description":"Kitchen/bathroom remodel for residential buildings (no structural changes). INCLUDE PLUMBING AND ELECTRICAL. (8)Window and (4)door change-out (same size & type) for residential buildings.  Dual glazing, labeled and certified by National Fenestration Rating Council (NFRC), is required for doors and windows replaced in all residential buildings, three stories or less, per Section 152(b) of Title 24.","metadescription":"Bldg-Alter/Repair. 1 or 2 Family Dwelling. Kitchen/bathroom remodel for residential buildings (no structural changes). INCLUDE PLUMBING AND ELECTRICAL. (8)Window and (4)door change-out (same size & type) for residential buildings.  Dual glazing, labeled and certified by National Fenestration Rating Council (NFRC), is required for doors and windows replaced in all residential buildings, three stories or less, per Section 152(b) of Title 24.. Permit Finaled. 1664 W 221ST ST","address":"1664 West 221St Street, CA, Torrance, 90501, US","ct":"2932.01","ev":"N","apc":"Harbor","cpa":"Harbor Gateway","zone":"R1-1","solar":"N","pin_nbr":"048B193   478","use_code":"1","geolocation":"POINT (-118.30865 33.82667)","status_date":"06/12/2018","permit_group":"Building","refresh_time":"06/10/2026","type_lat_lon":"ADDRESS","business_unit":"Express Permit"},"geometry":{"type":"Point","coordinates":[-118.30865,33.82667]}},{"type":"Feature","properties":{"date":"2017-04-05T00:00:00.000Z","year":2017,"description":"8 Window change-out (same size & type) for residential buildings.","metadescription":"Bldg-Alter/Repair. 1 or 2 Family Dwelling. 8 Window change-out (same size & type) for residential buildings.. Permit Expired. 1518 W 219TH ST","address":"1518 West 219Th Street, CA, Torrance, 90501, US","ct":"2932.01","ev":"N","apc":"Harbor","cpa":"Harbor Gateway","zone":"R2-1","solar":"N","pin_nbr":"048B193   195","use_code":"1","geolocation":"POINT (-118.30453 33.829)","status_date":"03/22/2024","permit_group":"Building","refresh_time":"06/10/2026","type_lat_lon":"ADDRESS","business_unit":"Express Permit"},"geometry":{"type":"Point","coordinates":[-118.30453,33.829]}},{"type":"Feature","properties":{"date":"2017-01-23T00:00:00.000Z","year":2017,"description":"Kitchen/bathroom remodel for residential buildings (no structural changes).(10) Window  change-out (same size & type) for residential buildings.  Dual glazing, labeled and certified by National Fenestration Rating Council (NFRC), is required for doors and windows replaced in all residential buildings, three stories or less, per Section 152(b) of Title 24.","metadescription":"Bldg-Alter/Repair. Commercial. Kitchen/bathroom remodel for residential buildings (no structural changes).(10) Window  change-out (same size & type) for residential buildings.  Dual glazing, labeled and certified by National Fenestration Rating Council (NFRC), is required for doors and windows replaced in all residential buildings, three stories or less, per Section 152(b) of Title 24.. Permit Closed. 1563 W CARSON ST","address":"1557 West Carson Street, CA, Torrance, 90501, US","ct":"2932.01","ev":"N","apc":"Harbor","cpa":"Harbor Gateway","zone":"C2-1","solar":"N","pin_nbr":"051B193   890","use_code":"1","geolocation":"POINT (-118.30593 33.83166)","status_date":"07/26/2018","permit_group":"Building","refresh_time":"06/10/2026","type_lat_lon":"ADDRESS","business_unit":"Express Permit"},"geometry":{"type":"Point","coordinates":[-118.30593,33.83166]}},{"type":"Feature","properties":{"date":"2016-12-05T00:00:00.000Z","year":2016,"description":"Supplemental to 15010-10000-04240 to add six 1'x6' fixed windows on the 2nd floor by interior stairs.","metadescription":"Bldg-Alter/Repair. 1 or 2 Family Dwelling. Supplemental to 15010-10000-04240 to add six 1'x6' fixed windows on the 2nd floor by interior stairs.. Permit Finaled. 1661 W 221ST ST","address":"1661 West 221St Street, CA, Torrance, 90501, US","ct":"2932.01","ev":"N","apc":"Harbor","cpa":"Harbor Gateway","zone":"R1-1","solar":"N","pin_nbr":"048B193   412","use_code":"1","geolocation":"POINT (-118.30857775 33.82702907)","status_date":"12/09/2016","permit_group":"Building","refresh_time":"06/10/2026","type_lat_lon":"BUILDING","business_unit":"Plan Check at Counter"},"geometry":{"type":"Point","coordinates":[-118.30857775,33.82702907]}},{"type":"Feature","properties":{"date":"2016-10-26T00:00:00.000Z","year":2016,"description":"CHANGE OUT  3 WINDOWS  (SAME SIZE & TYPE FOR RESIDENTIAL BUILDINGS ONLY) DUAL GLAZING, LABELED AND CERTIFIED BY NATIONAL FENESTRATION RATING COUNCIL (NFRC), IS REQUIRED FOR DOORS AND WINDOWS REPLACED IN ALL RESIDENTIAL BUILDINGS, THREE STORIES OR LESS, PER SECTION 152(B) OF TITLE 24.","metadescription":"Bldg-Alter/Repair. 1 or 2 Family Dwelling. CHANGE OUT  3 WINDOWS  (SAME SIZE & TYPE FOR RESIDENTIAL BUILDINGS ONLY) DUAL GLAZING, LABELED AND CERTIFIED BY NATIONAL FENESTRATION RATING COUNCIL (NFRC), IS REQUIRED FOR DOORS AND WINDOWS REPLACED IN ALL RESIDENTIAL BUILDINGS, THREE STORIES OR LESS, PER SECTION 152(B) OF TITLE 24.. Permit Finaled. 1547 W 218TH ST","address":"1547 West 218Th Street, CA, Torrance, 90501, US","ct":"2932.01","ev":"N","apc":"Harbor","cpa":"Harbor Gateway","zone":"R2-1","solar":"N","pin_nbr":"048B193    25","use_code":"1","geolocation":"POINT (-118.30537 33.83038)","status_date":"07/10/2020","permit_group":"Building","refresh_time":"06/10/2026","type_lat_lon":"ADDRESS","business_unit":"Express Permit"},"geometry":{"type":"Point","coordinates":[-118.30537,33.83038]}},{"type":"Feature","properties":{"date":"2016-10-21T00:00:00.000Z","year":2016,"description":"(3) Window and (1) door change-out (same size & type) for residential buildings.  Dual glazing, labeled and certified by National Fenestration Rating Council (NFRC), is required for doors and windows replaced in all residential buildings, three stories or less, per Section 152(b) of Title 24.","metadescription":"Bldg-Alter/Repair. 1 or 2 Family Dwelling. (3) Window and (1) door change-out (same size & type) for residential buildings.  Dual glazing, labeled and certified by National Fenestration Rating Council (NFRC), is required for doors and windows replaced in all residential buildings, three stories or less, per Section 152(b) of Title 24.. Permit Finaled. 1612 W 221ST ST","address":"1608 West 221St Street, CA, Torrance, 90501, US","ct":"2932.01","ev":"N","apc":"Harbor","cpa":"Harbor Gateway","zone":"R1-1","solar":"N","pin_nbr":"048B193   465","use_code":"1","geolocation":"POINT (-118.30694 33.82668)","status_date":"12/14/2016","permit_group":"Building","refresh_time":"06/10/2026","type_lat_lon":"ADDRESS","business_unit":"Express Permit"},"geometry":{"type":"Point","coordinates":[-118.30694,33.82668]}},{"type":"Feature","properties":{"date":"2016-03-08T00:00:00.000Z","year":2016,"description":"SUPPLEMENTAL PERMIT FOR PERMIT #16016-40000-04501 TO CHANGE OUT 4 WINDOWS  (SAME SIZE & TYPE FOR RESIDENTIAL BUILDINGS ONLY) DUAL GLAZING, LABELED AND CERTIFIED BY NATIONAL FENESTRATION RATING COUNCIL (NFRC), IS REQUIRED FOR DOORS AND WINDOWS REPLACED IN ALL RESIDENTIAL BUILDINGS, THREE STORIES OR LESS, PER SECTION 152(B) OF TITLE 24.","metadescription":"Bldg-Alter/Repair. 1 or 2 Family Dwelling. SUPPLEMENTAL PERMIT FOR PERMIT #16016-40000-04501 TO CHANGE OUT 4 WINDOWS  (SAME SIZE & TYPE FOR RESIDENTIAL BUILDINGS ONLY) DUAL GLAZING, LABELED AND CERTIFIED BY NATIONAL FENESTRATION RATING COUNCIL (NFRC), IS REQUIRED FOR DOORS AND WINDOWS REPLACED IN ALL RESIDENTIAL BUILDINGS, THREE STORIES OR LESS, PER SECTION 152(B) OF TITLE 24.. Permit Finaled. 1517 W 219TH ST","address":"1517 West 219Th Street, CA, Torrance, 90501, US","ct":"2932.01","ev":"N","apc":"Harbor","cpa":"Harbor Gateway","zone":"R2-1","solar":"N","pin_nbr":"048B193   138","use_code":"2","geolocation":"POINT (-118.30446 33.82924)","status_date":"05/19/2016","permit_group":"Building","refresh_time":"06/10/2026","type_lat_lon":"ADDRESS","business_unit":"Express Permit"},"geometry":{"type":"Point","coordinates":[-118.30446,33.82924]}},{"type":"Feature","properties":{"date":"2016-03-01T00:00:00.000Z","year":2016,"description":"CHANGE OUT 1 DOOR  (SAME SIZE & TYPE FOR RESIDENTIAL BUILDINGS ONLY) DUAL GLAZING, LABELED AND CERTIFIED BY NATIONAL FENESTRATION RATING COUNCIL (NFRC), IS REQUIRED FOR DOORS AND WINDOWS REPLACED IN ALL RESIDENTIAL BUILDINGS, THREE STORIES OR LESS, PER SECTION 152(B) OF TITLE 24. REPAIR/REPLACE EXISTING SIDING.(TERMITE DAMAGE) BATHROOM REMODEL (FOR RESIDENTIAL BUILDINGS; NO STRUCTURAL CHANGES). (REPLACING WOOD FLOORING). DRYWALL/ PLASTER PATCH AND PAINT.","metadescription":"Bldg-Alter/Repair. 1 or 2 Family Dwelling. CHANGE OUT 1 DOOR  (SAME SIZE & TYPE FOR RESIDENTIAL BUILDINGS ONLY) DUAL GLAZING, LABELED AND CERTIFIED BY NATIONAL FENESTRATION RATING COUNCIL (NFRC), IS REQUIRED FOR DOORS AND WINDOWS REPLACED IN ALL RESIDENTIAL BUILDINGS, THREE STORIES OR LESS, PER SECTION 152(B) OF TITLE 24. REPAIR/REPLACE EXISTING SIDING.(TERMITE DAMAGE) BATHROOM REMODEL (FOR RESIDENTIAL BUILDINGS; NO STRUCTURAL CHANGES). (REPLACING WOOD FLOORING). DRYWALL/ PLASTER PATCH AND PAINT.. Permit Finaled. 1517 W 219TH ST","address":"1517 West 219Th Street, CA, Torrance, 90501, US","ct":"2932.01","ev":"N","apc":"Harbor","cpa":"Harbor Gateway","zone":"R2-1","solar":"N","pin_nbr":"048B193   138","use_code":"2","geolocation":"POINT (-118.30446 33.82924)","status_date":"05/19/2016","permit_group":"Building","refresh_time":"06/10/2026","type_lat_lon":"ADDRESS","business_unit":"Express Permit"},"geometry":{"type":"Point","coordinates":[-118.30446,33.82924]}},{"type":"Feature","properties":{"date":"2015-06-30T00:00:00.000Z","year":2015,"description":"(14) Window change-out (same size & type) for residential buildings.  Dual glazing, labeled and certified by National Fenestration Rating Council (NFRC), is required for doors and windows replaced in all residential buildings, three stories or less, per Section 152(b) of Title 24.","metadescription":"Bldg-Alter/Repair. 1 or 2 Family Dwelling. (14) Window change-out (same size & type) for residential buildings.  Dual glazing, labeled and certified by National Fenestration Rating Council (NFRC), is required for doors and windows replaced in all residential buildings, three stories or less, per Section 152(b) of Title 24.. Permit Finaled. 1620 W 220TH ST","address":"1616 West 220Th Street, CA, Torrance, 90501, US","ct":"2932.01","ev":"N","apc":"Harbor","cpa":"Harbor Gateway","zone":"R2-1","solar":"N","pin_nbr":"048B193   343","use_code":"1","geolocation":"POINT (-118.30722 33.82784)","status_date":"12/24/2015","permit_group":"Building","refresh_time":"06/10/2026","type_lat_lon":"ADDRESS","business_unit":"Express Permit"},"geometry":{"type":"Point","coordinates":[-118.30722,33.82784]}},{"type":"Feature","properties":{"date":"2015-01-20T00:00:00.000Z","year":2015,"description":"CHANGE OUT 1 WINDOW (SAME SIZE & TYPE FOR RESIDENTIAL BUILDINGS ONLY).","metadescription":"Bldg-Alter/Repair. Apartment. CHANGE OUT 1 WINDOW (SAME SIZE & TYPE FOR RESIDENTIAL BUILDINGS ONLY).. Permit Finaled. 1637 W 226TH ST","address":"1641 West 226Th Street, CA, Torrance, 90501, US","ct":"2932.02","ev":"N","apc":"Harbor","cpa":"Harbor Gateway","zone":"RD1.5-1","solar":"N","pin_nbr":"045B193   113","use_code":"5","geolocation":"POINT (-118.30772 33.82145)","status_date":"04/01/2015","permit_group":"Building","refresh_time":"06/10/2026","type_lat_lon":"ADDRESS","business_unit":"Express Permit"},"geometry":{"type":"Point","coordinates":[-118.30772,33.82145]}},{"type":"Feature","properties":{"date":"2013-12-26T00:00:00.000Z","year":2013,"description":"Interior remodel, replace (E) windows, (same size and location), replace comp. shingles (30) yr.   Related Electrical and Plumbing Included.  **********INVESTIGATION FEE INCLUDED*************","metadescription":"Bldg-Alter/Repair. 1 or 2 Family Dwelling. Interior remodel, replace (E) windows, (same size and location), replace comp. shingles (30) yr.   Related Electrical and Plumbing Included.  **********INVESTIGATION FEE INCLUDED*************. Permit Finaled. 1660 W 223RD ST","address":"1656 West 223Rd Street, CA, Torrance, 90501, US","ct":"2932.02","ev":"N","apc":"Harbor","cpa":"Harbor Gateway","zone":"R1-1","solar":"N","pin_nbr":"048B193   733","use_code":"1","geolocation":"POINT (-118.30849 33.8243)","status_date":"02/13/2014","permit_group":"Building","refresh_time":"06/10/2026","type_lat_lon":"ADDRESS","business_unit":"Express Permit"},"geometry":{"type":"Point","coordinates":[-118.30849,33.8243]}},{"type":"Feature","properties":{"date":"2013-10-18T00:00:00.000Z","year":2013,"description":"CHANGE OUT 2 WINDOWS (SAME SIZE & TYPE FOR RESIDENTIAL BUILDINGS ONLY).","metadescription":"Bldg-Alter/Repair. 1 or 2 Family Dwelling. CHANGE OUT 2 WINDOWS (SAME SIZE & TYPE FOR RESIDENTIAL BUILDINGS ONLY).. Permit Finaled. 1653 W 204TH ST","address":"1653 West 204Th Street, CA, Torrance, 90501, US","ct":"2920.00","ev":"N","apc":"Harbor","cpa":"Harbor Gateway","zone":"RD1.5-1","solar":"N","pin_nbr":"054B193   113","use_code":"2","geolocation":"POINT (-118.30842 33.84578)","status_date":"11/13/2015","permit_group":"Building","refresh_time":"06/10/2026","type_lat_lon":"ADDRESS","business_unit":"Express Permit"},"geometry":{"type":"Point","coordinates":[-118.30842,33.84578]}},{"type":"Feature","properties":{"date":"2013-08-23T00:00:00.000Z","year":2013,"description":"CHANGE OUT 3 WINDOWS (SAME SIZE & TYPE FOR RESIDENTIAL BUILDINGS ONLY).","metadescription":"Bldg-Alter/Repair. 1 or 2 Family Dwelling. CHANGE OUT 3 WINDOWS (SAME SIZE & TYPE FOR RESIDENTIAL BUILDINGS ONLY).. Permit Expired. 1547 W 218TH ST","address":"1547 West 218Th Street, CA, Torrance, 90501, US","ct":"2932.01","ev":"N","apc":"Harbor","cpa":"Harbor Gateway","zone":"R2-1","solar":"N","pin_nbr":"048B193    25","use_code":"1","geolocation":"POINT (-118.30537 33.83038)","status_date":"09/17/2015","permit_group":"Building","refresh_time":"06/10/2026","type_lat_lon":"ADDRESS","business_unit":"Express Permit"},"geometry":{"type":"Point","coordinates":[-118.30537,33.83038]}},{"type":"Feature","properties":{"date":"2013-01-15T00:00:00.000Z","year":2013,"description":"CHANGE OUT 6 WINDOWS (SAME SIZE AND TYPE FOR RESIDENTIAL BUILDINGS ONLY) AND RE-STUCCO AROUND WINDOWS.  (IN UNITS 1&2)","metadescription":"Bldg-Alter/Repair. Apartment. CHANGE OUT 6 WINDOWS (SAME SIZE AND TYPE FOR RESIDENTIAL BUILDINGS ONLY) AND RE-STUCCO AROUND WINDOWS.  (IN UNITS 1&2). Permit Finaled. 1635 W 206TH ST","address":"1635 West 206Th Street, CA, Torrance, 90501, US","ct":"2920.00","ev":"N","apc":"Harbor","cpa":"Harbor Gateway","zone":"RD1.5-1","solar":"N","pin_nbr":"054B193   246","use_code":"5","geolocation":"POINT (-118.30783 33.84392)","status_date":"03/11/2013","permit_group":"Building","refresh_time":"06/10/2026","type_lat_lon":"ADDRESS","business_unit":"Express Permit"},"geometry":{"type":"Point","coordinates":[-118.30783,33.84392]}},{"type":"Feature","properties":{"date":"2012-07-09T00:00:00.000Z","year":2012,"description":"CHANGE OUT 4 WINDOWS (SAME SIZE & TYPE FOR RESIDENTIAL BUILDINGS ONLY).","metadescription":"Bldg-Alter/Repair. 1 or 2 Family Dwelling. CHANGE OUT 4 WINDOWS (SAME SIZE & TYPE FOR RESIDENTIAL BUILDINGS ONLY).. Permit Finaled. 1564 W 219TH ST","address":"1564 West 219Th Street, CA, Torrance, 90501, US","ct":"2932.01","ev":"N","apc":"Harbor","cpa":"Harbor Gateway","zone":"R2-1","solar":"N","pin_nbr":"048B193   204","use_code":"1","geolocation":"POINT (-118.30611 33.829)","status_date":"01/02/2015","permit_group":"Building","refresh_time":"06/10/2026","type_lat_lon":"ADDRESS","business_unit":"Express Permit"},"geometry":{"type":"Point","coordinates":[-118.30611,33.829]}},{"type":"Feature","properties":{"date":"2011-09-23T00:00:00.000Z","year":2011,"description":"REFRAME ROOF OVER (E) SFD. ADD NEW COVERD PORCH  (5ft x 20.5ft) AND PATIO(4ft x 24.33ft). REPLACE ALL WINDOWS AND INSTALL 2 NEW WINDOWS IN NEW OPENING. INTERIOR REMODEL (KITCHEN, DINING AND LIVING ROOM).","metadescription":"Bldg-Addition. 1 or 2 Family Dwelling. REFRAME ROOF OVER (E) SFD. ADD NEW COVERD PORCH  (5ft x 20.5ft) AND PATIO(4ft x 24.33ft). REPLACE ALL WINDOWS AND INSTALL 2 NEW WINDOWS IN NEW OPENING. INTERIOR REMODEL (KITCHEN, DINING AND LIVING ROOM).. CofO Issued. 1640 W 222ND ST","address":"1640 West 222Nd Street, CA, Torrance, 90501, US","ct":"2932.02","ev":"N","apc":"Harbor","cpa":"Harbor Gateway","zone":"R1-1","solar":"N","height":"16","pin_nbr":"048B193   598","use_code":"1","geolocation":"POINT (-118.30789755 33.82537107)","status_date":"10/30/2024","construction":"Type V-B Construction","permit_group":"Building","refresh_time":"06/10/2026","type_lat_lon":"BUILDING","business_unit":"Regular Plan Check","square_footage":"1820"},"geometry":{"type":"Point","coordinates":[-118.30789755,33.82537107]}},{"type":"Feature","properties":{"date":"2011-08-26T00:00:00.000Z","year":2011,"description":"REPLACE 8 WINDOWS SAME SIZE/SAME LOCATION","metadescription":"Bldg-Alter/Repair. 1 or 2 Family Dwelling. REPLACE 8 WINDOWS SAME SIZE/SAME LOCATION. Permit Finaled. 1636 W 220TH ST","address":"1636 West 220Th Street, CA, Torrance, 90501, US","ct":"2932.01","ev":"N","apc":"Harbor","cpa":"Harbor Gateway","zone":"R2-1","solar":"N","pin_nbr":"048B193   342","use_code":"1","geolocation":"POINT (-118.30775 33.82774)","status_date":"08/30/2011","permit_group":"Building","refresh_time":"06/10/2026","type_lat_lon":"ADDRESS","business_unit":"Express Permit"},"geometry":{"type":"Point","coordinates":[-118.30775,33.82774]}},{"type":"Feature","properties":{"date":"2011-07-15T00:00:00.000Z","year":2011,"description":"CHANGE OUT 3 WINDOWS ON GARAGE (SAME SIZE AND LOCATION).","metadescription":"Bldg-Alter/Repair. 1 or 2 Family Dwelling. CHANGE OUT 3 WINDOWS ON GARAGE (SAME SIZE AND LOCATION).. Permit Finaled. 1636 W 220TH ST","address":"1636 West 220Th Street, CA, Torrance, 90501, US","ct":"2932.01","ev":"N","apc":"Harbor","cpa":"Harbor Gateway","zone":"R2-1","solar":"N","pin_nbr":"048B193   342","use_code":"7","geolocation":"POINT (-118.30775 33.82774)","status_date":"08/30/2011","permit_group":"Building","refresh_time":"06/10/2026","type_lat_lon":"ADDRESS","business_unit":"Express Permit"},"geometry":{"type":"Point","coordinates":[-118.30775,33.82774]}},{"type":"Feature","properties":{"date":"2011-07-06T00:00:00.000Z","year":2011,"description":"CHANGE 12 WINDOWS SAME SIZE AND LOCATION. CHANGE SIZES OF 2 ADDITIONAL WINDOWS. TOTAL 14 WINDOWS SFD AND DETACHED GARAGE.","metadescription":"Bldg-Alter/Repair. 1 or 2 Family Dwelling. CHANGE 12 WINDOWS SAME SIZE AND LOCATION. CHANGE SIZES OF 2 ADDITIONAL WINDOWS. TOTAL 14 WINDOWS SFD AND DETACHED GARAGE.. Issued. 1640 W 221ST ST","address":"1640 West 221St Street, CA, Torrance, 90501, US","ct":"2932.01","ev":"N","apc":"Harbor","cpa":"Harbor Gateway","zone":"R1-1","solar":"N","pin_nbr":"048B193   472","use_code":"1","geolocation":"POINT (-118.30786 33.82668)","status_date":"07/06/2011","permit_group":"Building","refresh_time":"06/10/2026","type_lat_lon":"ADDRESS","business_unit":"Plan Check at Counter"},"geometry":{"type":"Point","coordinates":[-118.30786,33.82668]}},{"type":"Feature","properties":{"date":"2011-04-05T00:00:00.000Z","year":2011,"description":"INTERIOR REMODEL; REPLACE DOORS & WINDOWS (ALL WORK PER ENG'R)  **** COMPLY WITH DEPARTMENT ORDER EFFECTIVE DATE 02/17/2011. PERMIT WILL EXPIRE 30 DAYS FROM ISSUANCE DATE ****","metadescription":"Bldg-Alter/Repair. 1 or 2 Family Dwelling. INTERIOR REMODEL; REPLACE DOORS & WINDOWS (ALL WORK PER ENG'R)  **** COMPLY WITH DEPARTMENT ORDER EFFECTIVE DATE 02/17/2011. PERMIT WILL EXPIRE 30 DAYS FROM ISSUANCE DATE ****. Permit Finaled. 1554 W 218TH ST","address":"1554 West 218Th Street, CA, Torrance, 90501, US","ct":"2932.01","ev":"N","apc":"Harbor","cpa":"Harbor Gateway","zone":"R2-1","solar":"N","pin_nbr":"048B193    96","use_code":"1","geolocation":"POINT (-118.30584 33.83016)","status_date":"05/12/2011","permit_group":"Building","refresh_time":"06/10/2026","type_lat_lon":"ADDRESS","business_unit":"Plan Check at Counter"},"geometry":{"type":"Point","coordinates":[-118.30584,33.83016]}},{"type":"Feature","properties":{"date":"2010-08-26T00:00:00.000Z","year":2010,"description":"FILL (E) WINDOW OPENING AT REAR OF (E) DETACHED GARAGE","metadescription":"Bldg-Alter/Repair. 1 or 2 Family Dwelling. FILL (E) WINDOW OPENING AT REAR OF (E) DETACHED GARAGE. Permit Finaled. 1512-1514 W 219TH ST","address":"1512 West 219Th Street, CA, Torrance, 90501, US","ct":"2932.01","ev":"N","apc":"Harbor","cpa":"Harbor Gateway","zone":"R2-1","solar":"N","pin_nbr":"048B193   195","use_code":"7","geolocation":"POINT (-118.30428 33.829)","status_date":"10/15/2010","permit_group":"Building","refresh_time":"06/10/2026","type_lat_lon":"ADDRESS","business_unit":"Plan Check at Counter"},"geometry":{"type":"Point","coordinates":[-118.30428,33.829]}},{"type":"Feature","properties":{"date":"2010-07-01T00:00:00.000Z","year":2010,"description":"CHANGE OUT 7 WINDOWS  (SAME SIZE & TYPE FOR RESIDENTIAL BUILDINGS ONLY).  INVESTIGATION FEE PAID ON THIS PERMIT.","metadescription":"Bldg-Alter/Repair. 1 or 2 Family Dwelling. CHANGE OUT 7 WINDOWS  (SAME SIZE & TYPE FOR RESIDENTIAL BUILDINGS ONLY).  INVESTIGATION FEE PAID ON THIS PERMIT.. Permit Finaled. 21924 S HARVARD BLVD","address":"21924 Harvard Boulevard, CA, Torrance, 90501, US","ct":"2932.01","ev":"N","apc":"Harbor","cpa":"Harbor Gateway","zone":"R2-1","solar":"N","pin_nbr":"048B193   261","use_code":"1","geolocation":"POINT (-118.30627 33.82843)","status_date":"03/24/2011","permit_group":"Building","refresh_time":"06/10/2026","type_lat_lon":"ADDRESS","business_unit":"Express Permit"},"geometry":{"type":"Point","coordinates":[-118.30627,33.82843]}},{"type":"Feature","properties":{"date":"2010-06-17T00:00:00.000Z","year":2010,"description":"Windows (11) change-out (same size & type) for residential buildings.  Dual glazing, labeled and certified by National Fenestration Rating Council (NFRC), is required for doors and windows replaced in all residential buildings, three stories or less, per Section 152(b) of Title 24.","metadescription":"Bldg-Alter/Repair. 1 or 2 Family Dwelling. Windows (11) change-out (same size & type) for residential buildings.  Dual glazing, labeled and certified by National Fenestration Rating Council (NFRC), is required for doors and windows replaced in all residential buildings, three stories or less, per Section 152(b) of Title 24.. Permit Finaled. 1517 W 219TH ST","address":"1517 West 219Th Street, CA, Torrance, 90501, US","ct":"2932.01","ev":"N","apc":"Harbor","cpa":"Harbor Gateway","zone":"R2-1","solar":"N","pin_nbr":"048B193   138","use_code":"1","geolocation":"POINT (-118.30446 33.82924)","status_date":"06/24/2010","permit_group":"Building","refresh_time":"06/10/2026","type_lat_lon":"ADDRESS","business_unit":"Express Permit"},"geometry":{"type":"Point","coordinates":[-118.30446,33.82924]}},{"type":"Feature","properties":{"date":"2010-05-10T00:00:00.000Z","year":2010,"description":"SUPPLEMENTAL TO PERMIT NO. 10016-40000-05025 TO CORRECT DESCRIPTION OF WORK TO THE FOLLOWING: CHANGE OUT 11 WINDOWS AND 2 DOORS  (SAME SIZE & TYPE FOR RESIDENTIAL BUILDINGS ONLY).*********NO FEE*********","metadescription":"Bldg-Alter/Repair. 1 or 2 Family Dwelling. SUPPLEMENTAL TO PERMIT NO. 10016-40000-05025 TO CORRECT DESCRIPTION OF WORK TO THE FOLLOWING: CHANGE OUT 11 WINDOWS AND 2 DOORS  (SAME SIZE & TYPE FOR RESIDENTIAL BUILDINGS ONLY).*********NO FEE*********. Permit Finaled. 1517 W 219TH ST","address":"1517 West 219Th Street, CA, Torrance, 90501, US","ct":"2932.01","ev":"N","apc":"Harbor","cpa":"Harbor Gateway","zone":"R2-1","solar":"N","pin_nbr":"048B193   138","use_code":"1","geolocation":"POINT (-118.30446 33.82924)","status_date":"07/13/2010","permit_group":"Building","refresh_time":"06/10/2026","type_lat_lon":"ADDRESS","business_unit":"Express Permit"},"geometry":{"type":"Point","coordinates":[-118.30446,33.82924]}},{"type":"Feature","properties":{"date":"2010-02-03T00:00:00.000Z","year":2010,"description":"(8) Windows change-out (same size & type) for residential buildings.  Dual glazing, labeled and certified by National Fenestration Rating Council (NFRC), is required for windows replaced in all residential buildings, three stories or less, per Section 152(b) of Title 24.","metadescription":"Bldg-Alter/Repair. 1 or 2 Family Dwelling. (8) Windows change-out (same size & type) for residential buildings.  Dual glazing, labeled and certified by National Fenestration Rating Council (NFRC), is required for windows replaced in all residential buildings, three stories or less, per Section 152(b) of Title 24.. Permit Finaled. 1645 W 221ST ST","address":"1645 West 221St Street, CA, Torrance, 90501, US","ct":"2932.01","ev":"N","apc":"Harbor","cpa":"Harbor Gateway","zone":"R1-1","solar":"N","pin_nbr":"048B193   408","use_code":"1","geolocation":"POINT (-118.30799 33.8269)","status_date":"08/01/2012","permit_group":"Building","refresh_time":"06/10/2026","type_lat_lon":"ADDRESS","business_unit":"Express Permit"},"geometry":{"type":"Point","coordinates":[-118.30799,33.8269]}},{"type":"Feature","properties":{"date":"2009-04-08T00:00:00.000Z","year":2009,"description":"Change out 3 Windows (same size and location).  Dual glazing, labeled and certified by National Fenestration Rating Council (NFRC), is required for doors and windows replaced in all residential buildings, three stories or less, per Section 152(b) of Title 24.","metadescription":"Bldg-Alter/Repair. 1 or 2 Family Dwelling. Change out 3 Windows (same size and location).  Dual glazing, labeled and certified by National Fenestration Rating Council (NFRC), is required for doors and windows replaced in all residential buildings, three stories or less, per Section 152(b) of Title 24.. Permit Expired. 1511 W 219TH ST","address":"1507 West 219Th Street, CA, Torrance, 90501, US","ct":"2932.01","ev":"N","apc":"Harbor","cpa":"Harbor Gateway","zone":"R2-1","solar":"N","pin_nbr":"048B193   137","use_code":"1","geolocation":"POINT (-118.30427 33.82924)","status_date":"03/16/2012","permit_group":"Building","refresh_time":"06/10/2026","type_lat_lon":"ADDRESS","business_unit":"Express Permit"},"geometry":{"type":"Point","coordinates":[-118.30427,33.82924]}},{"type":"Feature","properties":{"date":"2009-03-10T00:00:00.000Z","year":2009,"description":"replace 7 exst windows, same size,  reduce  8'x 8' to 6' x 4' and enlarge 3'-10\" x 3'-10\" to 6'x 3'window","metadescription":"Bldg-Alter/Repair. 1 or 2 Family Dwelling. replace 7 exst windows, same size,  reduce  8'x 8' to 6' x 4' and enlarge 3'-10\" x 3'-10\" to 6'x 3'window. Permit Finaled. 1628 W 221ST ST","address":"1624 West 221St Street, CA, Torrance, 90501, US","ct":"2932.01","ev":"N","apc":"Harbor","cpa":"Harbor Gateway","zone":"R1-1","solar":"N","pin_nbr":"048B193   469","use_code":"1","geolocation":"POINT (-118.30747 33.82668)","status_date":"05/08/2009","permit_group":"Building","refresh_time":"06/10/2026","type_lat_lon":"ADDRESS","business_unit":"Plan Check at Counter"},"geometry":{"type":"Point","coordinates":[-118.30747,33.82668]}},{"type":"Feature","properties":{"date":"2009-03-04T00:00:00.000Z","year":2009,"description":"close 2 windows and door, replace north window with a 5'x 6' 8\" slider  and 2'-8 \" door on north, replace east window with a 3'x 6', close second window","metadescription":"Bldg-Alter/Repair. 1 or 2 Family Dwelling. close 2 windows and door, replace north window with a 5'x 6' 8\" slider  and 2'-8 \" door on north, replace east window with a 3'x 6', close second window. Permit Finaled. 1511 W 219TH ST","address":"1507 West 219Th Street, CA, Torrance, 90501, US","ct":"2932.01","ev":"N","apc":"Harbor","cpa":"Harbor Gateway","zone":"R2-1","solar":"N","pin_nbr":"048B193   137","use_code":"1","geolocation":"POINT (-118.30427 33.82924)","status_date":"05/06/2009","permit_group":"Building","refresh_time":"06/10/2026","type_lat_lon":"ADDRESS","business_unit":"Plan Check at Counter"},"geometry":{"type":"Point","coordinates":[-118.30427,33.82924]}},{"type":"Feature","properties":{"date":"2008-09-30T00:00:00.000Z","year":2008,"description":"kitchen remodel, add opening to non bearing partition wall in kitchen and living room, replace ext windows with same size, replace panelling with drywall  in living room. Note: \"COMPLY WITH DEPARTMENT ORDER effective date11/08/2007. PERMIT WILL EXPIRE 30 DAYS FROM ISSUANCE DATE\".","metadescription":"Bldg-Alter/Repair. 1 or 2 Family Dwelling. kitchen remodel, add opening to non bearing partition wall in kitchen and living room, replace ext windows with same size, replace panelling with drywall  in living room. Note: \"COMPLY WITH DEPARTMENT ORDER effective date11/08/2007. PERMIT WILL EXPIRE 30 DAYS FROM ISSUANCE DATE\".. Permit Finaled. 1600 W 216TH ST","address":"1600 West 216Th Street, CA, Torrance, 90501, US","ct":"2932.01","ev":"N","apc":"Harbor","cpa":"Harbor Gateway","zone":"R1-1","solar":"N","pin_nbr":"051B193   839","use_code":"1","geolocation":"POINT (-118.30668 33.83237)","status_date":"10/24/2017","permit_group":"Building","refresh_time":"06/10/2026","type_lat_lon":"ADDRESS","business_unit":"Plan Check at Counter"},"geometry":{"type":"Point","coordinates":[-118.30668,33.83237]}},{"type":"Feature","properties":{"date":"2008-06-18T00:00:00.000Z","year":2008,"description":"CHANGE WINDOWS SAME SIZE SAME LOCATION","metadescription":"Bldg-Alter/Repair. 1 or 2 Family Dwelling. CHANGE WINDOWS SAME SIZE SAME LOCATION. Permit Finaled. 1533 W 216TH ST","address":"1533 West 216Th Street, CA, Torrance, 90501, US","ct":"2932.01","ev":"N","apc":"Harbor","cpa":"Harbor Gateway","zone":"R1-1","solar":"N","pin_nbr":"051B193   767","use_code":"1","geolocation":"POINT (-118.30502 33.83263)","status_date":"11/06/2008","permit_group":"Building","refresh_time":"06/10/2026","type_lat_lon":"ADDRESS","business_unit":"Express Permit"},"geometry":{"type":"Point","coordinates":[-118.30502,33.83263]}},{"type":"Feature","properties":{"date":"2007-12-14T00:00:00.000Z","year":2007,"description":"Re-roof 20 squares w/class 'A' or 'B' materials weighing less than 6 pounds per sq. ft.  Fiberglass or Asphalt Shingles (max. 2 overlays).  New stucco, Replace drywall (no new walls added).  Kitchen and Bathroom remodel (For residential buildings; no structural changes).  Combine with: Electrical & Plumbing.  Change out 6 Windows and 6 Doors (Same size & type for residential buildings only).","metadescription":"Bldg-Alter/Repair. 1 or 2 Family Dwelling. Re-roof 20 squares w/class 'A' or 'B' materials weighing less than 6 pounds per sq. ft.  Fiberglass or Asphalt Shingles (max. 2 overlays).  New stucco, Replace drywall (no new walls added).  Kitchen and Bathroom remodel (For residential buildings; no structural changes).  Combine with: Electrical & Plumbing.  Change out 6 Windows and 6 Doors (Same size & type for residential buildings only).. Permit Finaled. 1547 W 219TH ST","address":"1547 West 219Th Street, CA, Torrance, 90501, US","ct":"2932.01","ev":"N","apc":"Harbor","cpa":"Harbor Gateway","zone":"R2-1","solar":"N","pin_nbr":"048B193   145","use_code":"2","geolocation":"POINT (-118.30557 33.82924)","status_date":"12/19/2008","permit_group":"Building","refresh_time":"06/10/2026","type_lat_lon":"ADDRESS","business_unit":"Express Permit"},"geometry":{"type":"Point","coordinates":[-118.30557,33.82924]}},{"type":"Feature","properties":{"date":"2007-04-20T00:00:00.000Z","year":2007,"description":"INTERIOR REMODEL TO CONVERT (E) LIVING ROOM INTO FOUR BEDROOMS, WINDOWS/DOORS CHANGE OUT, ADD INTERIOR SHEAR WALL TO COMPLY WITH TYPE V SHEET.  ADD 10'x22' NEW ATTACHED PATIO COVER PER LA CITY STD. Comply with department order dated 04/16/07, permit will expire 30 days from issuance date.  ceis# 199541","metadescription":"Bldg-Addition. 1 or 2 Family Dwelling. INTERIOR REMODEL TO CONVERT (E) LIVING ROOM INTO FOUR BEDROOMS, WINDOWS/DOORS CHANGE OUT, ADD INTERIOR SHEAR WALL TO COMPLY WITH TYPE V SHEET.  ADD 10'x22' NEW ATTACHED PATIO COVER PER LA CITY STD. Comply with department order dated 04/16/07, permit will expire 30 days from issuance date.  ceis# 199541. CofO Issued. 21818 S HARVARD BLVD","address":"21820 Harvard Boulevard, CA, Torrance, 90501, US","ct":"2932.01","ev":"N","apc":"Harbor","cpa":"Harbor Gateway","zone":"R2-1","solar":"N","pin_nbr":"048B193   115","use_code":"1","geolocation":"POINT (-118.3063 33.8297)","status_date":"02/10/2009","construction":"Type V-N Construction","permit_group":"Building","refresh_time":"06/10/2026","type_lat_lon":"ADDRESS","business_unit":"Plan Check at Counter","square_footage":"220"},"geometry":{"type":"Point","coordinates":[-118.3063,33.8297]}},{"type":"Feature","properties":{"date":"2006-06-12T00:00:00.000Z","year":2006,"description":"REPLACE (5) WINDOWS.  (SAME SIZE AND LOC.) Dual glazing, labeled and certified by National Fenestration Rating Council (NFRC), is required for doors and windows replaced in all residential buildings, three stories or less, per Section 152(b) of Title 24.","metadescription":"Bldg-Alter/Repair. 1 or 2 Family Dwelling. REPLACE (5) WINDOWS.  (SAME SIZE AND LOC.) Dual glazing, labeled and certified by National Fenestration Rating Council (NFRC), is required for doors and windows replaced in all residential buildings, three stories or less, per Section 152(b) of Title 24.. Permit Finaled. 1620 W 221ST ST","address":"1620 West 221St Street, CA, Torrance, 90501, US","ct":"2932.01","ev":"N","apc":"Harbor","cpa":"Harbor Gateway","zone":"R1-1","solar":"N","pin_nbr":"048B193   467","use_code":"1","geolocation":"POINT (-118.3072 33.82668)","status_date":"07/21/2008","permit_group":"Building","refresh_time":"06/10/2026","type_lat_lon":"ADDRESS","business_unit":"Express Permit"},"geometry":{"type":"Point","coordinates":[-118.3072,33.82668]}},{"type":"Feature","properties":{"date":"2006-05-24T00:00:00.000Z","year":2006,"description":"SUPPLEMENTAL TO 06016-40000-07252 TO INCLUDE CHANGE OUT OF A KITCHENWINDOW(SAME SIZE/SAME LOCATION)","metadescription":"Bldg-Alter/Repair. 1 or 2 Family Dwelling. SUPPLEMENTAL TO 06016-40000-07252 TO INCLUDE CHANGE OUT OF A KITCHENWINDOW(SAME SIZE/SAME LOCATION). Permit Finaled. 1650 W 215TH ST","address":"1646 West 215Th Street, CA, Torrance, 90501, US","ct":"2932.01","ev":"N","apc":"Harbor","cpa":"Harbor Gateway","zone":"R1-1","solar":"N","pin_nbr":"051B193   740","use_code":"1","geolocation":"POINT (-118.30822 33.83337)","status_date":"01/06/2009","permit_group":"Building","refresh_time":"06/10/2026","type_lat_lon":"ADDRESS","business_unit":"Express Permit"},"geometry":{"type":"Point","coordinates":[-118.30822,33.83337]}},{"type":"Feature","properties":{"date":"2006-04-19T00:00:00.000Z","year":2006,"description":"Replace stucco on house.  Change windows in living room and kitchen (front of the house).  Dual glazing, labeled and certified by National Fenestration Rating Council (NFRC), is required for doors and windows replaced in all residential buildings, three stories or less, per Section 152(b) of Title 24.","metadescription":"Bldg-Alter/Repair. 1 or 2 Family Dwelling. Replace stucco on house.  Change windows in living room and kitchen (front of the house).  Dual glazing, labeled and certified by National Fenestration Rating Council (NFRC), is required for doors and windows replaced in all residential buildings, three stories or less, per Section 152(b) of Title 24.. Permit Finaled. 1650 W 215TH ST","address":"1646 West 215Th Street, CA, Torrance, 90501, US","ct":"2932.01","ev":"N","apc":"Harbor","cpa":"Harbor Gateway","zone":"R1-1","solar":"N","pin_nbr":"051B193   740","use_code":"1","geolocation":"POINT (-118.30822 33.83337)","status_date":"07/07/2006","permit_group":"Building","refresh_time":"06/10/2026","type_lat_lon":"ADDRESS","business_unit":"Express Permit"},"geometry":{"type":"Point","coordinates":[-118.30822,33.83337]}},{"type":"Feature","properties":{"date":"2006-03-15T00:00:00.000Z","year":2006,"description":"REPLACE DRY-ROTTED FRONT PORCH POST, RE-STUCCO AND CHANGE-OUT WINDOWS THROUGHOUT (SAME SIZE & LOCATION) TO (E) SFD.  \"COMPLY WITH DEPT ORDER.  PERMIT WILL EXPIRE 30 DAYS FROM ISSUANCE\"","metadescription":"Bldg-Alter/Repair. 1 or 2 Family Dwelling. REPLACE DRY-ROTTED FRONT PORCH POST, RE-STUCCO AND CHANGE-OUT WINDOWS THROUGHOUT (SAME SIZE & LOCATION) TO (E) SFD.  \"COMPLY WITH DEPT ORDER.  PERMIT WILL EXPIRE 30 DAYS FROM ISSUANCE\". Permit Finaled. 1658 W 215TH ST","address":"1656 West 215Th Street, CA, Torrance, 90501, US","ct":"2932.01","ev":"N","apc":"Harbor","cpa":"Harbor Gateway","zone":"R1-1","solar":"N","pin_nbr":"051B193   742","use_code":"1","geolocation":"POINT (-118.30849 33.83336)","status_date":"03/31/2006","permit_group":"Building","refresh_time":"06/10/2026","type_lat_lon":"ADDRESS","business_unit":"Express Permit"},"geometry":{"type":"Point","coordinates":[-118.30849,33.83336]}},{"type":"Feature","properties":{"date":"2006-03-03T00:00:00.000Z","year":2006,"description":"Replace existing window with new.  Dual glazing, labeled and certified by National Fenestration Rating Council (NFRC), is required for doors and windows replaced in all residential buildings, three stories or less, per Section 152(b) of Title 24.","metadescription":"Bldg-Alter/Repair. 1 or 2 Family Dwelling. Replace existing window with new.  Dual glazing, labeled and certified by National Fenestration Rating Council (NFRC), is required for doors and windows replaced in all residential buildings, three stories or less, per Section 152(b) of Title 24.. Permit Expired. 20704 S WESTERN AVE","address":"20706 South Western Avenue, CA, Torrance, 90501, US","ct":"2920.00","ev":"N","apc":"Harbor","cpa":"Harbor Gateway","zone":"RD1.5-1","solar":"N","pin_nbr":"054B193   344","use_code":"1","geolocation":"POINT (-118.30905 33.84265)","status_date":"08/18/2008","permit_group":"Building","refresh_time":"06/10/2026","type_lat_lon":"ADDRESS","business_unit":"Express Permit"},"geometry":{"type":"Point","coordinates":[-118.30905,33.84265]}},{"type":"Feature","properties":{"date":"2005-10-24T00:00:00.000Z","year":2005,"description":"CHANGE WINDOWS SAME SIZE SAME LOCATION","metadescription":"Bldg-Alter/Repair. 1 or 2 Family Dwelling. CHANGE WINDOWS SAME SIZE SAME LOCATION. Permit Expired. 1533 W 216TH ST","address":"1533 West 216Th Street, CA, Torrance, 90501, US","ct":"2932.01","ev":"N","apc":"Harbor","cpa":"Harbor Gateway","zone":"R1-1","solar":"N","pin_nbr":"051B193   767","use_code":"1","geolocation":"POINT (-118.30502 33.83263)","status_date":"12/03/2007","permit_group":"Building","refresh_time":"06/10/2026","type_lat_lon":"ADDRESS","business_unit":"Express Permit"},"geometry":{"type":"Point","coordinates":[-118.30502,33.83263]}},{"type":"Feature","properties":{"date":"2005-07-22T00:00:00.000Z","year":2005,"description":"CHANGE WINDOWS","metadescription":"Bldg-Alter/Repair. 1 or 2 Family Dwelling. CHANGE WINDOWS. Permit Finaled. 1650 W 216TH ST","address":"1650 West 216Th Street, CA, Torrance, 90501, US","ct":"2932.01","ev":"N","apc":"Harbor","cpa":"Harbor Gateway","zone":"R1-1","solar":"N","pin_nbr":"051B193   851","use_code":"1","geolocation":"POINT (-118.30822 33.83237)","status_date":"04/20/2007","permit_group":"Building","refresh_time":"06/10/2026","type_lat_lon":"ADDRESS","business_unit":"Express Permit"},"geometry":{"type":"Point","coordinates":[-118.30822,33.83237]}},{"type":"Feature","properties":{"date":"2005-07-13T00:00:00.000Z","year":2005,"description":"REPLACE 1 KITCHEN WINDOW SUPPLEMENTAL TO PERMIT NO. 05016-40000-13197.","metadescription":"Bldg-Alter/Repair. 1 or 2 Family Dwelling. REPLACE 1 KITCHEN WINDOW SUPPLEMENTAL TO PERMIT NO. 05016-40000-13197.. Permit Finaled. 1634 W 220TH ST","address":"1634 West 220Th Street, CA, Torrance, 90501, US","ct":"2932.01","ev":"N","apc":"Harbor","cpa":"Harbor Gateway","zone":"R2-1","solar":"N","pin_nbr":"048B193   341","use_code":"1","geolocation":"POINT (-118.3077 33.82783)","status_date":"02/15/2006","permit_group":"Building","refresh_time":"06/10/2026","type_lat_lon":"ADDRESS","business_unit":"Express Permit"},"geometry":{"type":"Point","coordinates":[-118.3077,33.82783]}},{"type":"Feature","properties":{"date":"2005-07-01T00:00:00.000Z","year":2005,"description":"REPLACE 4-WINDOWS(3 IN LIVING ROOM LARGER SAME LOCATION)AND 1 IN BEDROOMSAME SIZE/SAME LOCATION","metadescription":"Bldg-Alter/Repair. 1 or 2 Family Dwelling. REPLACE 4-WINDOWS(3 IN LIVING ROOM LARGER SAME LOCATION)AND 1 IN BEDROOMSAME SIZE/SAME LOCATION. Permit Finaled. 1634 W 220TH ST","address":"1634 West 220Th Street, CA, Torrance, 90501, US","ct":"2932.01","ev":"N","apc":"Harbor","cpa":"Harbor Gateway","zone":"R2-1","solar":"N","pin_nbr":"048B193   341","use_code":"1","geolocation":"POINT (-118.3077 33.82783)","status_date":"02/15/2006","permit_group":"Building","refresh_time":"06/10/2026","type_lat_lon":"ADDRESS","business_unit":"Express Permit"},"geometry":{"type":"Point","coordinates":[-118.3077,33.82783]}},{"type":"Feature","properties":{"date":"2004-07-09T00:00:00.000Z","year":2004,"description":"PROPOSE  1-STORY ADDITION (19 S.F.) & PARTIAL REMODEL EXIST'G 1-STORY RESIDENCE:  Replace Exterior Windows,  Add Shear Walls,  Remove Exist'g Skylights,  &  Upgrade Partial Interiors.   Work Per City Std. Type V Sheet.   Related Elec.","metadescription":"Bldg-Alter/Repair. 1 or 2 Family Dwelling. PROPOSE  1-STORY ADDITION (19 S.F.) & PARTIAL REMODEL EXIST'G 1-STORY RESIDENCE:  Replace Exterior Windows,  Add Shear Walls,  Remove Exist'g Skylights,  &  Upgrade Partial Interiors.   Work Per City Std. Type V Sheet.   Related Elec.. Issued. 1650 W 215TH ST","address":"1646 West 215Th Street, CA, Torrance, 90501, US","ct":"2932.01","ev":"N","apc":"Harbor","cpa":"Harbor Gateway","zone":"R1-1","solar":"N","pin_nbr":"051B193   740","use_code":"1","geolocation":"POINT (-118.30822 33.83337)","status_date":"07/09/2004","permit_group":"Building","refresh_time":"06/10/2026","type_lat_lon":"ADDRESS","business_unit":"Plan Check at Counter"},"geometry":{"type":"Point","coordinates":[-118.30822,33.83337]}},{"type":"Feature","properties":{"date":"2004-01-20T00:00:00.000Z","year":2004,"description":"REPLACE 9WINDOWS SAME SIZE/SAME LOCATION","metadescription":"Bldg-Alter/Repair. 1 or 2 Family Dwelling. REPLACE 9WINDOWS SAME SIZE/SAME LOCATION. Permit Finaled. 1635 W 220TH ST","address":"1635 West 220Th Street, CA, Torrance, 90501, US","ct":"2932.01","ev":"N","apc":"Harbor","cpa":"Harbor Gateway","zone":"R2-1","solar":"N","pin_nbr":"048B193   278","use_code":"1","geolocation":"POINT (-118.30766 33.82805)","status_date":"01/27/2004","permit_group":"Building","refresh_time":"06/10/2026","type_lat_lon":"ADDRESS","business_unit":"Express Permit"},"geometry":{"type":"Point","coordinates":[-118.30766,33.82805]}},{"type":"Feature","properties":{"date":"2003-11-06T00:00:00.000Z","year":2003,"description":"CHANGE OUT (8) WINDOWS & (4) DOORS, SAME SIZE/TYPE.  RE-DRYWALL AND INSULATION.  (COMPLY WITH DEPARTMENT ORDER DATED 10/10/03. PERMIT WILL EXPIRE 30 DAYS FROM ISSUANCE DATE.)   COLOR COAT STUCCO & PATCHING.","metadescription":"Bldg-Alter/Repair. 1 or 2 Family Dwelling. CHANGE OUT (8) WINDOWS & (4) DOORS, SAME SIZE/TYPE.  RE-DRYWALL AND INSULATION.  (COMPLY WITH DEPARTMENT ORDER DATED 10/10/03. PERMIT WILL EXPIRE 30 DAYS FROM ISSUANCE DATE.)   COLOR COAT STUCCO & PATCHING.. Permit Finaled. 1610 W 215TH ST","address":"1610 West 215Th Street, CA, Torrance, 90501, US","ct":"2932.01","ev":"N","apc":"Harbor","cpa":"Harbor Gateway","zone":"R1-1","solar":"N","pin_nbr":"051B193   729","use_code":"1","geolocation":"POINT (-118.30691 33.83337)","status_date":"05/25/2005","permit_group":"Building","refresh_time":"06/10/2026","type_lat_lon":"ADDRESS","business_unit":"Express Permit"},"geometry":{"type":"Point","coordinates":[-118.30691,33.83337]}},{"type":"Feature","properties":{"date":"2003-07-01T00:00:00.000Z","year":2003,"description":"REPLACE (14) WINDOWS IN SFD & (2) IN ATTACHED GARAGE.  SAMESIZE, TYPE & LOCATION.","metadescription":"Bldg-Alter/Repair. 1 or 2 Family Dwelling. REPLACE (14) WINDOWS IN SFD & (2) IN ATTACHED GARAGE.  SAMESIZE, TYPE & LOCATION.. Permit Finaled. 22114 S HARVARD BLVD","address":"22114 Harvard Boulevard, CA, Torrance, 90501, US","ct":"2932.01","ev":"N","apc":"Harbor","cpa":"Harbor Gateway","zone":"R1-1","solar":"N","pin_nbr":"048B193   485","use_code":"1","geolocation":"POINT (-118.30626 33.82641)","status_date":"11/06/2003","permit_group":"Building","refresh_time":"06/10/2026","type_lat_lon":"ADDRESS","business_unit":"Express Permit"},"geometry":{"type":"Point","coordinates":[-118.30626,33.82641]}},{"type":"Feature","properties":{"date":"2003-06-20T00:00:00.000Z","year":2003,"description":"Repair & renovate an existing fire-damaged roof framing(restore to its original condition), install new windows at existing two bedrooms and a bathroom.  Work includes new paint, new roof, and smoke detectors.","metadescription":"Bldg-Alter/Repair. 1 or 2 Family Dwelling. Repair & renovate an existing fire-damaged roof framing(restore to its original condition), install new windows at existing two bedrooms and a bathroom.  Work includes new paint, new roof, and smoke detectors.. Permit Finaled. 1652 W 220TH ST","address":"1652 West 220Th Street, CA, Torrance, 90501, US","ct":"2932.01","ev":"N","apc":"Harbor","cpa":"Harbor Gateway","zone":"R2-1","solar":"N","pin_nbr":"048B193   347","use_code":"1","geolocation":"POINT (-118.30827 33.82783)","status_date":"09/02/2003","permit_group":"Building","refresh_time":"06/10/2026","type_lat_lon":"ADDRESS","business_unit":"Plan Check at Counter"},"geometry":{"type":"Point","coordinates":[-118.30827,33.82783]}},{"type":"Feature","properties":{"date":"2003-04-17T00:00:00.000Z","year":2003,"description":"WINDOW CHANGE OUT: (4)SAME SIZE AND LOCATION; (1) SAME LOCATION BUT SMALLER IN WIDTH.","metadescription":"Bldg-Alter/Repair. 1 or 2 Family Dwelling. WINDOW CHANGE OUT: (4)SAME SIZE AND LOCATION; (1) SAME LOCATION BUT SMALLER IN WIDTH.. Permit Finaled. 1610 1/2 W 218TH ST","address":"1608 1/2 West 218Th Street, CA, Torrance, 90501, US","ct":"2932.01","ev":"N","apc":"Harbor","zone":"R3-1","solar":"N","pin_nbr":"048B193   101","use_code":"1","geolocation":"POINT (-118.30704 33.83006)","status_date":"06/26/2003","permit_group":"Building","refresh_time":"06/10/2026","type_lat_lon":"ADDRESS","business_unit":"Plan Check at Counter"},"geometry":{"type":"Point","coordinates":[-118.30704,33.83006]}},{"type":"Feature","properties":{"date":"2003-04-04T00:00:00.000Z","year":2003,"description":"REPLACE (6) WINDOWS SAME SIZE, TYPE & LOCATION","metadescription":"Bldg-Alter/Repair. 1 or 2 Family Dwelling. REPLACE (6) WINDOWS SAME SIZE, TYPE & LOCATION. Permit Finaled. 1644 W 219TH ST","address":"1640 West 219Th Street, CA, Torrance, 90501, US","ct":"2932.01","ev":"N","apc":"Harbor","zone":"RD1.5-1","solar":"N","pin_nbr":"048B193   215","use_code":"1","geolocation":"POINT (-118.30792 33.82899)","status_date":"01/24/2005","permit_group":"Building","refresh_time":"06/10/2026","type_lat_lon":"ADDRESS","business_unit":"Express Permit"},"geometry":{"type":"Point","coordinates":[-118.30792,33.82899]}},{"type":"Feature","properties":{"date":"2003-02-14T00:00:00.000Z","year":2003,"description":"Reduce size of window in living room and bedroom (total 3 windows). (PCIS RECOVERY VERSION OF PERMIT ISSUED ON 2/14/03, PERMIT 03SP 38690)","metadescription":"Bldg-Alter/Repair. 1 or 2 Family Dwelling. Reduce size of window in living room and bedroom (total 3 windows). (PCIS RECOVERY VERSION OF PERMIT ISSUED ON 2/14/03, PERMIT 03SP 38690). Permit Finaled. 1647 W 227TH ST","address":"1647 West 227Th Street, CA, Torrance, 90501, US","ct":"2932.02","ev":"N","apc":"Harbor","zone":"RD1.5-1","solar":"N","pin_nbr":"045B193   200","use_code":"1","geolocation":"POINT (-118.308 33.82029)","status_date":"02/21/2003","permit_group":"Building","refresh_time":"06/10/2026","type_lat_lon":"ADDRESS","business_unit":"Plan Check at Counter"},"geometry":{"type":"Point","coordinates":[-118.308,33.82029]}},{"type":"Feature","properties":{"date":"2002-08-22T00:00:00.000Z","year":2002,"description":"REPLACE (10) WINDOWS.  SAME SIZE, TYPE & LOCATION","metadescription":"Bldg-Alter/Repair. 1 or 2 Family Dwelling. REPLACE (10) WINDOWS.  SAME SIZE, TYPE & LOCATION. Permit Expired. 1568 W 218TH ST","address":"1568 West 218Th Street, CA, Torrance, 90501, US","ct":"2932.01","ev":"N","apc":"Harbor","zone":"R2-1","solar":"N","pin_nbr":"048B193    98","use_code":"1","geolocation":"POINT (-118.3062 33.83015)","status_date":"03/19/2007","permit_group":"Building","refresh_time":"06/10/2026","type_lat_lon":"ADDRESS","business_unit":"Express Permit"},"geometry":{"type":"Point","coordinates":[-118.3062,33.83015]}},{"type":"Feature","properties":{"date":"2002-07-22T00:00:00.000Z","year":2002,"description":"WINDOW CHANGE OUT: (10) WINDOWS WITH SAME LOCATION AND SIZE; (3) WINDOWS WERE REMOVED AMD OPENINGS CLOSED; (1) NEW WINDOW; RESTUCCO ENTIRE EXT. HOUSE.","metadescription":"Bldg-Alter/Repair. 1 or 2 Family Dwelling. WINDOW CHANGE OUT: (10) WINDOWS WITH SAME LOCATION AND SIZE; (3) WINDOWS WERE REMOVED AMD OPENINGS CLOSED; (1) NEW WINDOW; RESTUCCO ENTIRE EXT. HOUSE.. Permit Finaled. 1643 W 215TH ST","address":"1643 West 215Th Street, CA, Torrance, 90501, US","ct":"2932.01","ev":"N","apc":"Harbor","zone":"R1-1","solar":"N","pin_nbr":"051B193   685","use_code":"1","geolocation":"POINT (-118.30796 33.83359)","status_date":"04/09/2008","permit_group":"Building","refresh_time":"06/10/2026","type_lat_lon":"ADDRESS","business_unit":"Plan Check at Counter"},"geometry":{"type":"Point","coordinates":[-118.30796,33.83359]}},{"type":"Feature","properties":{"date":"2002-06-07T00:00:00.000Z","year":2002,"description":"Restucco front portion of house, and stucco whole house. Replace 5 windows with same size at the same location, new electrical panel 200amp.","metadescription":"Bldg-Alter/Repair. 1 or 2 Family Dwelling. Restucco front portion of house, and stucco whole house. Replace 5 windows with same size at the same location, new electrical panel 200amp.. Permit Finaled. 1627 W 216TH ST","address":"1623 West 216Th Street, CA, Torrance, 90501, US","ct":"2932.01","ev":"N","apc":"Harbor","zone":"R1-1","solar":"N","pin_nbr":"051B193   783","use_code":"1","geolocation":"POINT (-118.30742 33.83261)","status_date":"12/10/2002","permit_group":"Building","refresh_time":"06/10/2026","type_lat_lon":"ADDRESS","business_unit":"Express Permit"},"geometry":{"type":"Point","coordinates":[-118.30742,33.83261]}},{"type":"Feature","properties":{"date":"2002-03-20T00:00:00.000Z","year":2002,"description":"retrofit 13-windows(same size and same location)","metadescription":"Bldg-Alter/Repair. 1 or 2 Family Dwelling. retrofit 13-windows(same size and same location). Permit Finaled. 1565 W 219TH ST","address":"1563 West 219Th Street, CA, Torrance, 90501, US","ct":"2932.01","ev":"N","apc":"Harbor","zone":"R2-1","solar":"N","pin_nbr":"048B193   169","use_code":"1","geolocation":"POINT (-118.30617 33.82925)","status_date":"05/30/2002","permit_group":"Building","refresh_time":"06/10/2026","type_lat_lon":"ADDRESS","business_unit":"Express Permit"},"geometry":{"type":"Point","coordinates":[-118.30617,33.82925]}},{"type":"Feature","properties":{"date":"2002-02-26T00:00:00.000Z","year":2002,"description":"CHANGE OUT WINDOWS AND TOP REAL.NO STRUCTURAL WORK OR INTERIOR REMODELING.","metadescription":"Bldg-Alter/Repair. Apartment. CHANGE OUT WINDOWS AND TOP REAL.NO STRUCTURAL WORK OR INTERIOR REMODELING.. Permit Finaled. 1632 W 206TH ST","address":"1632 West 206Th Street, CA, Torrance, 90501, US","ct":"2920.00","ev":"N","apc":"Harbor","zone":"RD1.5-1","solar":"N","pin_nbr":"054B193   276","use_code":"1","geolocation":"POINT (-118.30776 33.84364)","status_date":"02/03/2005","permit_group":"Building","refresh_time":"06/10/2026","type_lat_lon":"ADDRESS","business_unit":"Plan Check at Counter"},"geometry":{"type":"Point","coordinates":[-118.30776,33.84364]}},{"type":"Feature","properties":{"date":"2002-02-26T00:00:00.000Z","year":2002,"description":"CHANGE OUT WINDOWS AND TOP REAL.NO STRUCTURAL WORK OR INTERIOR REMODELING.","metadescription":"Bldg-Alter/Repair. Apartment. CHANGE OUT WINDOWS AND TOP REAL.NO STRUCTURAL WORK OR INTERIOR REMODELING.. Permit Finaled. 1630 W 206TH ST","address":"1630 West 206Th Street, CA, Torrance, 90501, US","ct":"2920.00","ev":"N","apc":"Harbor","zone":"RD1.5-1","solar":"N","pin_nbr":"054B193   276","use_code":"1","geolocation":"POINT (-118.30782 33.8437)","status_date":"02/03/2005","permit_group":"Building","refresh_time":"06/10/2026","type_lat_lon":"ADDRESS","business_unit":"Plan Check at Counter"},"geometry":{"type":"Point","coordinates":[-118.30782,33.8437]}},{"type":"Feature","properties":{"date":"2002-02-13T00:00:00.000Z","year":2002,"description":"Chageout 14 windows.  Lower sills for 2 windows (out of total of 14 windows) lowered by 22 inches.","metadescription":"Bldg-Alter/Repair. 1 or 2 Family Dwelling. Chageout 14 windows.  Lower sills for 2 windows (out of total of 14 windows) lowered by 22 inches.. Permit Finaled. 1565 W 219TH ST","address":"1563 West 219Th Street, CA, Torrance, 90501, US","ct":"2932.01","ev":"N","apc":"Harbor","zone":"R2-1","solar":"N","pin_nbr":"048B193   169","use_code":"1","geolocation":"POINT (-118.30617 33.82925)","status_date":"05/30/2002","permit_group":"Building","refresh_time":"06/10/2026","type_lat_lon":"ADDRESS","business_unit":"Plan Check at Counter"},"geometry":{"type":"Point","coordinates":[-118.30617,33.82925]}},{"type":"Feature","properties":{"date":"2001-10-24T00:00:00.000Z","year":2001,"description":"change out 7-windows(same size), new cabinets in kit., and include plmb. bathrm. remodel","metadescription":"Bldg-Alter/Repair. 1 or 2 Family Dwelling. change out 7-windows(same size), new cabinets in kit., and include plmb. bathrm. remodel. Permit Finaled. 1603 W 218TH ST","address":"1603 West 218Th Street, CA, Torrance, 90501, US","ct":"2932.01","ev":"N","apc":"Harbor","zone":"R3-1","solar":"N","pin_nbr":"048B193    62","use_code":"1","geolocation":"POINT (-118.3067 33.83037)","status_date":"05/17/2005","permit_group":"Building","refresh_time":"06/10/2026","type_lat_lon":"ADDRESS","business_unit":"Express Permit"},"geometry":{"type":"Point","coordinates":[-118.3067,33.83037]}},{"type":"Feature","properties":{"date":"2001-08-09T00:00:00.000Z","year":2001,"description":"remove and replace (7) windows, same location and size. window off liv ing room is a bay window. 2ft out from building line. prevailing set b ack is 32.45', actual setback is 39'.","metadescription":"Bldg-Alter/Repair. 1 or 2 Family Dwelling. remove and replace (7) windows, same location and size. window off liv ing room is a bay window. 2ft out from building line. prevailing set b ack is 32.45', actual setback is 39'.. Permit Finaled. 1562 W 220TH ST","address":"1558 West 220Th Street, CA, Torrance, 90501, US","ct":"2932.01","ev":"N","apc":"Harbor","zone":"R2-1","solar":"N","pin_nbr":"048B193   332","use_code":"1","geolocation":"POINT (-118.30603 33.82785)","status_date":"10/12/2001","permit_group":"Building","refresh_time":"06/10/2026","type_lat_lon":"ADDRESS","business_unit":"Plan Check at Counter"},"geometry":{"type":"Point","coordinates":[-118.30603,33.82785]}},{"type":"Feature","properties":{"date":"2001-06-19T00:00:00.000Z","year":2001,"description":"Change out 10 windows at same location, aprox same size with (E). Fill in wall for fitting. Stucco 1 side of SFD. Type V. change kitchen door to 3068.","metadescription":"Bldg-Alter/Repair. 1 or 2 Family Dwelling. Change out 10 windows at same location, aprox same size with (E). Fill in wall for fitting. Stucco 1 side of SFD. Type V. change kitchen door to 3068.. Permit Finaled. 1503 W 220TH ST","address":"1503 West 220Th Street, CA, Torrance, 90501, US","ct":"2932.01","ev":"N","apc":"Harbor","zone":"R2-1","solar":"N","pin_nbr":"048B193   282","use_code":"1","geolocation":"POINT (-118.30404 33.82809)","status_date":"09/27/2001","permit_group":"Building","refresh_time":"06/10/2026","type_lat_lon":"ADDRESS","business_unit":"Express Permit"},"geometry":{"type":"Point","coordinates":[-118.30404,33.82809]}},{"type":"Feature","properties":{"date":"2001-05-15T00:00:00.000Z","year":2001,"description":"REPLACE 8 WINDOWS SAME SIZE & LOCATION, RE-ROOF WITH SHINGLES, 1200 SQ. FEET.","metadescription":"Bldg-Alter/Repair. 1 or 2 Family Dwelling. REPLACE 8 WINDOWS SAME SIZE & LOCATION, RE-ROOF WITH SHINGLES, 1200 SQ. FEET.. Permit Expired. 1642 W 215TH ST","address":"1638 West 215Th Street, CA, Torrance, 90501, US","ct":"2932.01","ev":"N","apc":"Harbor","zone":"R1-1","solar":"N","pin_nbr":"051B193   738","use_code":"1","geolocation":"POINT (-118.30796 33.83337)","status_date":"03/12/2007","permit_group":"Building","refresh_time":"06/10/2026","type_lat_lon":"ADDRESS","business_unit":"Express Permit"},"geometry":{"type":"Point","coordinates":[-118.30796,33.83337]}},{"type":"Feature","properties":{"date":"2001-04-23T00:00:00.000Z","year":2001,"description":"1'-6\" X 23'-0\" WALL SIGN AND SEVEN 1'X2' WINDOW SIGNS (NON-ILLUMINATED).","metadescription":"Sign. Onsite. 1'-6\" X 23'-0\" WALL SIGN AND SEVEN 1'X2' WINDOW SIGNS (NON-ILLUMINATED).. Permit Finaled. 1644 W CARSON ST D","address":"1644 West Carson Street, CA, Torrance, 90501, US","ct":"2932.01","ev":"N","apc":"Harbor","zone":"C2-1","solar":"N","pin_nbr":"051B193   972","use_code":"19","geolocation":"POINT (-118.30789 33.83131)","status_date":"09/21/2001","permit_group":"Building","refresh_time":"06/10/2026","type_lat_lon":"ADDRESS","business_unit":"Plan Check at Counter"},"geometry":{"type":"Point","coordinates":[-118.30789,33.83131]}},{"type":"Feature","properties":{"date":"2001-03-27T00:00:00.000Z","year":2001,"description":"1 ILLUMINTED WALL SIGN FLORESCENT CABINET 10' X 4' AND 1 NON-ILLUM. WINDOW SIGN","metadescription":"Sign. Onsite. 1 ILLUMINTED WALL SIGN FLORESCENT CABINET 10' X 4' AND 1 NON-ILLUM. WINDOW SIGN. Permit Finaled. 19600 S WESTERN AVE","address":"19600 South Western Avenue, CA, Torrance, 90501, US","ct":"2920.00","ev":"N","apc":"Harbor","zone":"M3-1","solar":"N","pin_nbr":"057B193     2","use_code":"19","geolocation":"POINT (-118.30916 33.85318)","status_date":"02/19/2002","permit_group":"Building","refresh_time":"06/10/2026","type_lat_lon":"ADDRESS","business_unit":"Plan Check at Counter"},"geometry":{"type":"Point","coordinates":[-118.30916,33.85318]}},{"type":"Feature","properties":{"date":"2000-09-19T00:00:00.000Z","year":2000,"description":"CHANGE OUT 8 WINDOWS (SAME SIZE, TYPE) NO STRUCTURAL CHANGE. VALUATION TO BE VERIFIED BY FIELD INSPECTOR.","metadescription":"Bldg-Alter/Repair. 1 or 2 Family Dwelling. CHANGE OUT 8 WINDOWS (SAME SIZE, TYPE) NO STRUCTURAL CHANGE. VALUATION TO BE VERIFIED BY FIELD INSPECTOR.. Permit Finaled. 1567 W 221ST ST","address":"1567 West 221St Street, CA, Torrance, 90501, US","ct":"2932.01","ev":"N","apc":"Harbor","zone":"R1-1","solar":"N","pin_nbr":"048B193   422","use_code":"1","geolocation":"POINT (-118.30615 33.82691)","status_date":"02/22/2006","permit_group":"Building","refresh_time":"06/10/2026","type_lat_lon":"ADDRESS","business_unit":"Express Permit"},"geometry":{"type":"Point","coordinates":[-118.30615,33.82691]}},{"type":"Feature","properties":{"date":"2000-04-03T00:00:00.000Z","year":2000,"description":"WINDOW CHANGE OUT: (10) WINDOWS WITH SAME LOCATION AND SIZE; (3) WINDOWS WERE REMOVED AMD OPENINGS CLOSED; (1) NEW WINDOW; RESTUCCO ENTIRE EXT. HOUSE.","metadescription":"Bldg-Alter/Repair. 1 or 2 Family Dwelling. WINDOW CHANGE OUT: (10) WINDOWS WITH SAME LOCATION AND SIZE; (3) WINDOWS WERE REMOVED AMD OPENINGS CLOSED; (1) NEW WINDOW; RESTUCCO ENTIRE EXT. HOUSE.. Permit Finaled. 1643 W 215TH ST","address":"1643 West 215Th Street, CA, Torrance, 90501, US","ct":"2932.01","ev":"N","apc":"Harbor","zone":"R1-1","solar":"N","pin_nbr":"051B193   685","use_code":"1","geolocation":"POINT (-118.30796 33.83359)","status_date":"03/05/2008","permit_group":"Building","refresh_time":"06/10/2026","type_lat_lon":"ADDRESS","business_unit":"Plan Check at Counter"},"geometry":{"type":"Point","coordinates":[-118.30796,33.83359]}},{"type":"Feature","properties":{"date":"2000-02-07T00:00:00.000Z","year":2000,"description":"replace 17-windows(same size)","metadescription":"Bldg-Alter/Repair. 1 or 2 Family Dwelling. replace 17-windows(same size). Permit Finaled. 1654 W 216TH ST","address":"1654 West 216Th Street, CA, Torrance, 90501, US","ct":"2932.01","ev":"N","apc":"Harbor","zone":"R1-1","solar":"N","pin_nbr":"051B193   852","use_code":"1","geolocation":"POINT (-118.30834 33.83237)","status_date":"04/17/2001","permit_group":"Building","refresh_time":"06/10/2026","type_lat_lon":"ADDRESS","business_unit":"Express Permit"},"geometry":{"type":"Point","coordinates":[-118.30834,33.83237]}},{"type":"Feature","properties":{"date":"1999-12-13T00:00:00.000Z","year":1999,"description":"supplemental to 99014 40000 06706 replacing (4) windows, (same size)","metadescription":"Bldg-Alter/Repair. 1 or 2 Family Dwelling. supplemental to 99014 40000 06706 replacing (4) windows, (same size). Permit Finaled. 1669 W 215TH ST","address":"1669 West 215Th Street, CA, Torrance, 90501, US","ct":"2932.01","ev":"N","apc":"Harbor","zone":"R1-1","solar":"N","pin_nbr":"051B193   693","use_code":"1","geolocation":"POINT (-118.30879 33.83359)","status_date":"04/04/2000","permit_group":"Building","refresh_time":"06/10/2026","type_lat_lon":"ADDRESS","business_unit":"Express Permit"},"geometry":{"type":"Point","coordinates":[-118.30879,33.83359]}},{"type":"Feature","properties":{"date":"1999-11-09T00:00:00.000Z","year":1999,"description":"CHANGE OUT 2 WINDOWS SAME SIZE, LOCATION AND TYPE","metadescription":"Bldg-Alter/Repair. 1 or 2 Family Dwelling. CHANGE OUT 2 WINDOWS SAME SIZE, LOCATION AND TYPE. Permit Finaled. 1612 W 221ST ST","address":"1608 West 221St Street, CA, Torrance, 90501, US","ct":"2932.01","ev":"N","apc":"Harbor","zone":"R1-1","solar":"N","pin_nbr":"048B193   465","use_code":"1","geolocation":"POINT (-118.30694 33.82668)","status_date":"11/08/2001","permit_group":"Building","refresh_time":"06/10/2026","type_lat_lon":"ADDRESS","business_unit":"Express Permit"},"geometry":{"type":"Point","coordinates":[-118.30694,33.82668]}},{"type":"Feature","properties":{"date":"1998-02-02T00:00:00.000Z","year":1998,"description":"CHANGEOUT OF 3 WINDOWS IN SFD","metadescription":"Bldg-Alter/Repair. 1 or 2 Family Dwelling. CHANGEOUT OF 3 WINDOWS IN SFD. Permit Closed. 1612 W 221ST ST","address":"1608 West 221St Street, CA, Torrance, 90501, US","ct":"2932.01","ev":"N","apc":"Harbor","solar":"N","pin_nbr":"048B193   465","use_code":"1","geolocation":"POINT (-118.30694 33.82668)","status_date":"12/17/1999","permit_group":"Building","refresh_time":"06/10/2026","type_lat_lon":"ADDRESS","business_unit":"Express Permit"},"geometry":{"type":"Point","coordinates":[-118.30694,33.82668]}}]}
