{"type":"FeatureCollection","features":[{"type":"Feature","properties":{"date":"2018-01-22T00:00:00.000Z","year":2018,"description":"Reroof with 18 sqrs COMP SHINGLE roofing. Existing solid sheathing.Re-roof with Class A or B material weighing less than 6 pounds per sq. ft. For residential roof replacement > 50% of the total roof area, apply Cool Roof Product labeled and certified by Cool Roof Rating Council (CRRC). Cool Roof may be required for non-residential buildings per Title 24, Part 6, Section 149(b).","metadescription":"Bldg-Alter/Repair. 1 or 2 Family Dwelling. Reroof with 18 sqrs COMP SHINGLE roofing. Existing solid sheathing.Re-roof with Class A or B material weighing less than 6 pounds per sq. ft. For residential roof replacement > 50% of the total roof area, apply Cool Roof Product labeled and certified by Cool Roof Rating Council (CRRC). Cool Roof may be required for non-residential buildings per Title 24, Part 6, Section 149(b).. Permit Finaled. 7719 S MIDFIELD AVE","address":"7723 Midfield Avenue, CA, Los Angeles, 90045, US","ct":"2771.00","ev":"N","apc":"West Los Angeles","cpa":"Westchester - Playa del Rey","zone":"R1-1","solar":"N","pin_nbr":"099B173   450","use_code":"1","geolocation":"POINT (-118.37234 33.96652)","status_date":"01/30/2018","permit_group":"Building","refresh_time":"06/10/2026","type_lat_lon":"ADDRESS","business_unit":"Express Permit"},"geometry":{"type":"Point","coordinates":[-118.37234,33.96652]}},{"type":"Feature","properties":{"date":"2013-09-04T00:00:00.000Z","year":2013,"description":"Re-roof with Class A or B material weighing less than 6 pound per sq. ft. Termite damage/ dry rot repair less than 10% of replacement cost of building (FASCIA BOARD).","metadescription":"Bldg-Alter/Repair. 1 or 2 Family Dwelling. Re-roof with Class A or B material weighing less than 6 pound per sq. ft. Termite damage/ dry rot repair less than 10% of replacement cost of building (FASCIA BOARD).. Permit Finaled. 7742 S MIDFIELD AVE","address":"7742 Midfield Avenue, CA, Los Angeles, 90045, US","ct":"2771.00","ev":"N","apc":"West Los Angeles","cpa":"Westchester - Playa del Rey","zone":"R1-1","solar":"N","pin_nbr":"099B173   509","use_code":"1","geolocation":"POINT (-118.37188 33.96595)","status_date":"09/30/2013","permit_group":"Building","refresh_time":"06/10/2026","type_lat_lon":"ADDRESS","business_unit":"Express Permit"},"geometry":{"type":"Point","coordinates":[-118.37188,33.96595]}},{"type":"Feature","properties":{"date":"2013-07-08T00:00:00.000Z","year":2013,"description":"Change out (10) windows same size and location          Dual glazing, labeled and certified by National Fenestration Rating Council (NFRC), is required for doors and windows replaced in all residential buildings, three stories or less, per Section 152(b) of Title 24.","metadescription":"Bldg-Alter/Repair. 1 or 2 Family Dwelling. Change out (10) windows same size and location          Dual glazing, labeled and certified by National Fenestration Rating Council (NFRC), is required for doors and windows replaced in all residential buildings, three stories or less, per Section 152(b) of Title 24.. Permit Finaled. 7722 S MIDFIELD AVE","address":"7722 Midfield Avenue, CA, Los Angeles, 90045, US","ct":"2771.00","ev":"N","apc":"West Los Angeles","cpa":"Westchester - Playa del Rey","zone":"R1-1","solar":"N","pin_nbr":"099B173   438","use_code":"1","geolocation":"POINT (-118.37208 33.96652)","status_date":"03/03/2014","permit_group":"Building","refresh_time":"06/10/2026","type_lat_lon":"ADDRESS","business_unit":"Express Permit"},"geometry":{"type":"Point","coordinates":[-118.37208,33.96652]}},{"type":"Feature","properties":{"date":"2008-08-06T00:00:00.000Z","year":2008,"description":"Add sill plate anchor bolts per LA City Standard Plan#1; no foundationreplacement (Earthquake hazard reduction per Chapter 92 of the Los Angeles Building Code).(Houses, residential buildings up to 3 stories and up to 4 units).Valuation to be verified by field inspector.","metadescription":"Bldg-Alter/Repair. 1 or 2 Family Dwelling. Add sill plate anchor bolts per LA City Standard Plan#1; no foundationreplacement (Earthquake hazard reduction per Chapter 92 of the Los Angeles Building Code).(Houses, residential buildings up to 3 stories and up to 4 units).Valuation to be verified by field inspector.. Permit Finaled. 7732 S MIDFIELD AVE","address":"7736 Midfield Avenue, CA, Los Angeles, 90045, US","ct":"2771.00","ev":"N","apc":"West Los Angeles","cpa":"Westchester - Playa del Rey","zone":"R1-1","solar":"N","pin_nbr":"099B173   476","use_code":"1","geolocation":"POINT (-118.37197 33.96624)","status_date":"01/09/2009","permit_group":"Building","refresh_time":"06/10/2026","type_lat_lon":"ADDRESS","business_unit":"Express Permit"},"geometry":{"type":"Point","coordinates":[-118.37197,33.96624]}},{"type":"Feature","properties":{"date":"2006-10-24T00:00:00.000Z","year":2006,"description":"Termite damage/ dry rot repair less than 10% of replacement cost of building (BATHROOM FLOOR).  REPAIR DRYWALL THROUGHOUT HOME.","metadescription":"Bldg-Alter/Repair. 1 or 2 Family Dwelling. Termite damage/ dry rot repair less than 10% of replacement cost of building (BATHROOM FLOOR).  REPAIR DRYWALL THROUGHOUT HOME.. Permit Finaled. 7732 S MIDFIELD AVE","address":"7736 Midfield Avenue, CA, Los Angeles, 90045, US","ct":"2771.00","ev":"N","apc":"West Los Angeles","cpa":"Westchester - Playa del Rey","zone":"R1-1","solar":"N","pin_nbr":"099B173   476","use_code":"1","geolocation":"POINT (-118.37197 33.96624)","status_date":"11/16/2006","permit_group":"Building","refresh_time":"06/10/2026","type_lat_lon":"ADDRESS","business_unit":"Express Permit"},"geometry":{"type":"Point","coordinates":[-118.37197,33.96624]}},{"type":"Feature","properties":{"date":"2004-06-10T00:00:00.000Z","year":2004,"description":"497 sqft (24'-3\"X20'-7\") addition to rear portion of 1 story SFD.  Construction per Type V Sheet.","metadescription":"Bldg-Addition. 1 or 2 Family Dwelling. 497 sqft (24'-3\"X20'-7\") addition to rear portion of 1 story SFD.  Construction per Type V Sheet.. CofO Issued. 7726 S MIDFIELD AVE","address":"7726 Midfield Avenue, CA, Los Angeles, 90045, US","ct":"2771.00","ev":"N","apc":"West Los Angeles","cpa":"Westchester - Playa del Rey","zone":"R1-1","solar":"N","pin_nbr":"099B173   456","use_code":"1","geolocation":"POINT (-118.37202 33.96638)","status_date":"07/31/2006","construction":"Type V-N Construction","permit_group":"Building","refresh_time":"06/10/2026","type_lat_lon":"ADDRESS","business_unit":"Plan Check at Counter","square_footage":"497"},"geometry":{"type":"Point","coordinates":[-118.37202,33.96638]}}]}
