{"type":"FeatureCollection","features":[{"type":"Feature","properties":{"date":"2026-03-13T00:00:00.000Z","year":2026,"description":"BACKFILL THE (E) POOL - SHELL TO REMAIN","metadescription":"Grading. 1 or 2 Family Dwelling. BACKFILL THE (E) POOL - SHELL TO REMAIN. Permit Finaled. 5406 W 82ND ST","address":"5400 West 82Nd Street, CA, Los Angeles, 90045, US","ct":"2771.00","ev":"N","apc":"West Los Angeles","cpa":"Westchester - Playa del Rey","zone":"R1-1","solar":"N","pin_nbr":"099B173   766","use_code":"70","status_date":"04/29/2026","permit_group":"Building","refresh_time":"06/10/2026","type_lat_lon":"ADDRESS","business_unit":"Plan Check at Counter"},"geometry":{"type":"Point","coordinates":[-118.37385,33.96389]}},{"type":"Feature","properties":{"date":"2024-10-21T00:00:00.000Z","year":2024,"description":"SUPPLEMENTAL TO 24047-10000-01386 TO REVISE POOL SIZE.","metadescription":"Swimming-Pool/Spa. 1 or 2 Family Dwelling. SUPPLEMENTAL TO 24047-10000-01386 TO REVISE POOL SIZE.. Permit Finaled. 3119 W 78TH PL","address":"3115 West 78Th Place, CA, Los Angeles, 90043, US","ct":"2352.02","ev":"N","apc":"South Los Angeles","cpa":"West Adams - Baldwin Hills - Leimert","zone":"R1-1","solar":"N","pin_nbr":"099B185   271","use_code":"20","status_date":"12/10/2024","permit_group":"Building","refresh_time":"06/10/2026","type_lat_lon":"ADDRESS","business_unit":"Plan Check at Counter"},"geometry":{"type":"Point","coordinates":[-118.32722,33.96828]}},{"type":"Feature","properties":{"date":"2024-10-08T00:00:00.000Z","year":2024,"description":"NEW POOL PER CITY STD PLAN AND ENGINEER DETAIL","metadescription":"Swimming-Pool/Spa. 1 or 2 Family Dwelling. NEW POOL PER CITY STD PLAN AND ENGINEER DETAIL. CofO Issued. 3119 W 78TH PL","address":"3115 West 78Th Place, CA, Los Angeles, 90043, US","ct":"2352.02","ev":"N","apc":"South Los Angeles","cpa":"West Adams - Baldwin Hills - Leimert","zone":"R1-1","solar":"N","pin_nbr":"099B185   271","use_code":"20","status_date":"12/10/2024","permit_group":"Building","refresh_time":"06/10/2026","type_lat_lon":"ADDRESS","business_unit":"Plan Check at Counter"},"geometry":{"type":"Point","coordinates":[-118.32722,33.96828]}},{"type":"Feature","properties":{"date":"2023-05-25T00:00:00.000Z","year":2023,"description":"Grading for new pool and spa","metadescription":"Grading. 1 or 2 Family Dwelling. Grading for new pool and spa. Permit Finaled. 5413 W 76TH ST","address":"5413 West 76Th Street, CA, Los Angeles, 90045, US","ct":"2771.00","ev":"N","apc":"West Los Angeles","cpa":"Westchester - Playa del Rey","zone":"R1-1","solar":"N","pin_nbr":"099B173   295","use_code":"70","status_date":"09/27/2023","permit_group":"Building","refresh_time":"06/10/2026","type_lat_lon":"ADDRESS","business_unit":"Plan Check at Counter"},"geometry":{"type":"Point","coordinates":[-118.37452,33.96815]}},{"type":"Feature","properties":{"date":"2023-05-25T00:00:00.000Z","year":2023,"description":"(N)  28' X 12' swimming pool and 6x6 spa per Standard Plan #268","metadescription":"Swimming-Pool/Spa. 1 or 2 Family Dwelling. (N)  28' X 12' swimming pool and 6x6 spa per Standard Plan #268. CofO Issued. 5413 W 76TH ST","address":"5413 West 76Th Street, CA, Los Angeles, 90045, US","ct":"2771.00","ev":"N","apc":"West Los Angeles","cpa":"Westchester - Playa del Rey","zone":"R1-1","solar":"N","pin_nbr":"099B173   295","use_code":"20","status_date":"10/07/2023","permit_group":"Building","refresh_time":"06/10/2026","type_lat_lon":"ADDRESS","business_unit":"Plan Check at Counter"},"geometry":{"type":"Point","coordinates":[-118.37452,33.96815]}},{"type":"Feature","properties":{"date":"2022-08-26T00:00:00.000Z","year":2022,"description":"NEW 8'-11\" x 20'-4\" FIBERGLASS POOL PER EVALUATION REPORT #298.","metadescription":"Swimming-Pool/Spa. 1 or 2 Family Dwelling. NEW 8'-11\" x 20'-4\" FIBERGLASS POOL PER EVALUATION REPORT #298.. CofO Issued. 3701 W 63RD ST","address":"3701 West 63Rd Street, CA, Los Angeles, 90043, US","ct":"2349.02","ev":"N","apc":"South Los Angeles","cpa":"West Adams - Baldwin Hills - Leimert","zone":"R1-1","solar":"N","pin_nbr":"105B185   827","use_code":"20","status_date":"08/09/2023","permit_group":"Building","refresh_time":"06/10/2026","type_lat_lon":"ADDRESS","business_unit":"Expanded Counter Plan Check"},"geometry":{"type":"Point","coordinates":[-118.33796,33.98277]}},{"type":"Feature","properties":{"date":"2022-06-02T00:00:00.000Z","year":2022,"description":"NEW IRREGULAR SHAPED 11'-0\" x 22'-0\" POOL AND 9'-0\" x 10'-0\"SPA PER ICC ESR-2014","metadescription":"Swimming-Pool/Spa. 1 or 2 Family Dwelling. NEW IRREGULAR SHAPED 11'-0\" x 22'-0\" POOL AND 9'-0\" x 10'-0\"SPA PER ICC ESR-2014. Issued. 9221 S HAAS AVE","address":"9221 Haas Avenue, CA, Los Angeles, 90047, US","ct":"2380.00","ev":"N","apc":"South Los Angeles","cpa":"South Los Angeles","zone":"R1-1","solar":"N","pin_nbr":"094-5A191 203","use_code":"20","status_date":"06/02/2022","permit_group":"Building","refresh_time":"06/10/2026","type_lat_lon":"ADDRESS","business_unit":"Plan Check at Counter"},"geometry":{"type":"Point","coordinates":[-118.31691,33.95202]}},{"type":"Feature","properties":{"date":"2021-12-14T00:00:00.000Z","year":2021,"description":"Install new pool and spa at rear of existing house","metadescription":"Swimming-Pool/Spa. 1 or 2 Family Dwelling. Install new pool and spa at rear of existing house. Corrections Issued. 9221 S HAAS AVE","address":"9221 Haas Avenue, CA, Los Angeles, 90047, US","ct":"2380.00","ev":"N","apc":"South Los Angeles","cpa":"South Los Angeles","zone":"R1-1","solar":"N","pin_nbr":"094-5A191 203","use_code":"20","status_date":"12/17/2021","permit_group":"Building","refresh_time":"06/10/2026","type_lat_lon":"ADDRESS","business_unit":"Plan Check at Counter"},"geometry":{"type":"Point","coordinates":[-118.31691,33.95202]}},{"type":"Feature","properties":{"date":"2021-07-07T00:00:00.000Z","year":2021,"description":"(N) 17' X 32' POOL AND 7'X7' SPA PER STANDARD PLAN #268","metadescription":"Swimming-Pool/Spa. 1 or 2 Family Dwelling. (N) 17' X 32' POOL AND 7'X7' SPA PER STANDARD PLAN #268. Issued. 3441 W 79TH ST","address":"3437 West 79Th Street, CA, Los Angeles, 90043, US","ct":"2352.02","ev":"N","apc":"South Los Angeles","cpa":"West Adams - Baldwin Hills - Leimert","zone":"R1-1","solar":"N","pin_nbr":"099B185   414","use_code":"20","status_date":"07/07/2021","permit_group":"Building","refresh_time":"06/10/2026","type_lat_lon":"ADDRESS","business_unit":"Plan Check at Counter"},"geometry":{"type":"Point","coordinates":[-118.33235,33.96736]}},{"type":"Feature","properties":{"date":"2019-08-01T00:00:00.000Z","year":2019,"description":"GRADING TO BACKFILL POOL  210 CY . UNCERTIFIED FILL.","metadescription":"Grading. Apartment. GRADING TO BACKFILL POOL  210 CY . UNCERTIFIED FILL.. Permit Finaled. 7225 S LA CIENEGA BLVD 1-9","address":"1-9, 7225 South La Cienega Boulevard, CA, Los Angeles, 90045, US","ct":"2761.00","ev":"N","apc":"West Los Angeles","cpa":"Westchester - Playa del Rey","zone":"RD1.5-1","solar":"N","pin_nbr":"099B173   168","use_code":"60","geolocation":"POINT (-118.37043 33.9697)","status_date":"08/16/2019","permit_group":"Building","refresh_time":"06/10/2026","type_lat_lon":"ADDRESS","business_unit":"Plan Check at Counter"},"geometry":{"type":"Point","coordinates":[-118.37043,33.9697]}},{"type":"Feature","properties":{"date":"2019-05-23T00:00:00.000Z","year":2019,"description":"NEW 12'0\" X 6'0\" SPA  SUPPORTED ON (E)  GRADE BEAM AND PILES  FOUNDATION SYSTEM..","metadescription":"Swimming-Pool/Spa. Apartment. NEW 12'0\" X 6'0\" SPA  SUPPORTED ON (E)  GRADE BEAM AND PILES  FOUNDATION SYSTEM... CofO Issued. 6944 S KNOWLTON PL 1-36","address":"1-36, 6944 Knowlton Place, CA, Los Angeles, 90045, US","ct":"2761.00","ev":"N","apc":"West Los Angeles","cpa":"Westchester - Playa del Rey","zone":"R3-1","solar":"N","pin_nbr":"102B173   375","use_code":"4","geolocation":"POINT (-118.37115 33.97371)","status_date":"01/04/2021","permit_group":"Building","refresh_time":"06/10/2026","type_lat_lon":"ADDRESS","business_unit":"Regular Plan Check"},"geometry":{"type":"Point","coordinates":[-118.37115,33.97371]}},{"type":"Feature","properties":{"date":"2019-05-23T00:00:00.000Z","year":2019,"description":"SITE GRADING FOR NEW SPA   AND BACKFILL (E) POOL.","metadescription":"Grading. Apartment. SITE GRADING FOR NEW SPA   AND BACKFILL (E) POOL.. Permit Finaled. 6944 S KNOWLTON PL 1-36","address":"1-36, 6944 Knowlton Place, CA, Los Angeles, 90045, US","ct":"2761.00","ev":"N","apc":"West Los Angeles","cpa":"Westchester - Playa del Rey","zone":"R3-1","solar":"N","pin_nbr":"102B173   375","use_code":"70","geolocation":"POINT (-118.37115 33.97371)","status_date":"12/21/2020","permit_group":"Building","refresh_time":"06/10/2026","type_lat_lon":"ADDRESS","business_unit":"Regular Plan Check"},"geometry":{"type":"Point","coordinates":[-118.37115,33.97371]}},{"type":"Feature","properties":{"date":"2018-09-04T00:00:00.000Z","year":2018,"description":"GRADING - BACKFILL POOL, (pool shell to remove)","metadescription":"Grading. 1 or 2 Family Dwelling. GRADING - BACKFILL POOL, (pool shell to remove). Permit Finaled. 5206 W PARDEE ST","address":"5206 West Pardee Street, CA, Los Angeles, 90045, US","ct":"2774.00","ev":"N","apc":"West Los Angeles","cpa":"Los Angeles International Airport","zone":"LAX","solar":"N","pin_nbr":"093B173   464","use_code":"60","geolocation":"POINT (-118.37058 33.94893)","status_date":"04/09/2020","permit_group":"Building","refresh_time":"06/10/2026","type_lat_lon":"ADDRESS","business_unit":"Plan Check at Counter"},"geometry":{"type":"Point","coordinates":[-118.37058,33.94893]}},{"type":"Feature","properties":{"date":"2017-05-19T00:00:00.000Z","year":2017,"description":"NEW 13' X 24' POOL WITH A 5' X 5' SPA INSIDE THE SHELL PER STANDARD PLAN #268","metadescription":"Swimming-Pool/Spa. 1 or 2 Family Dwelling. NEW 13' X 24' POOL WITH A 5' X 5' SPA INSIDE THE SHELL PER STANDARD PLAN #268. CofO Issued. 7122 S KNOWLTON PL","address":"7122 Knowlton Place, CA, Los Angeles, 90045, US","ct":"2761.00","ev":"N","apc":"West Los Angeles","cpa":"Westchester - Playa del Rey","zone":"R1-1","solar":"N","pin_nbr":"102B173   585","use_code":"20","geolocation":"POINT (-118.37112 33.97148)","status_date":"03/21/2023","permit_group":"Building","refresh_time":"06/10/2026","type_lat_lon":"ADDRESS","business_unit":"Plan Check at Counter"},"geometry":{"type":"Point","coordinates":[-118.37112,33.97148]}},{"type":"Feature","properties":{"date":"2017-05-19T00:00:00.000Z","year":2017,"description":"GRADING EXCAVATION FOR NEW POOL AND SPA.","metadescription":"Grading. 1 or 2 Family Dwelling. GRADING EXCAVATION FOR NEW POOL AND SPA.. Permit Finaled. 7122 S KNOWLTON PL","address":"7122 Knowlton Place, CA, Los Angeles, 90045, US","ct":"2761.00","ev":"N","apc":"West Los Angeles","cpa":"Westchester - Playa del Rey","zone":"R1-1","solar":"N","pin_nbr":"102B173   585","use_code":"70","geolocation":"POINT (-118.37112 33.97148)","status_date":"10/16/2017","permit_group":"Building","refresh_time":"06/10/2026","type_lat_lon":"ADDRESS","business_unit":"Plan Check at Counter"},"geometry":{"type":"Point","coordinates":[-118.37112,33.97148]}},{"type":"Feature","properties":{"date":"2015-02-25T00:00:00.000Z","year":2015,"description":"NEW POOL CONSTRUCTION PER STANDARD PLAN #268.  POOL DIMENSIONS:  12' x 25' x 6'.","metadescription":"Swimming-Pool/Spa. 1 or 2 Family Dwelling. NEW POOL CONSTRUCTION PER STANDARD PLAN #268.  POOL DIMENSIONS:  12' x 25' x 6'.. CofO Issued. 7142 S GLASGOW AVE","address":"7142 Glasgow Avenue, CA, Los Angeles, 90045, US","ct":"2761.00","ev":"N","apc":"West Los Angeles","cpa":"Westchester - Playa del Rey","zone":"R1-1","solar":"N","pin_nbr":"099B173    53","use_code":"20","geolocation":"POINT (-118.37243 33.97095)","status_date":"08/03/2015","permit_group":"Building","refresh_time":"06/10/2026","type_lat_lon":"ADDRESS","business_unit":"Plan Check at Counter"},"geometry":{"type":"Point","coordinates":[-118.37243,33.97095]}},{"type":"Feature","properties":{"date":"2015-02-25T00:00:00.000Z","year":2015,"description":"EXCAVATION AND BACKFILL FOR NEW POOL CONSTRUCTION PER STANDARD PLAN.  POOL DIMENSIONS:  12' x 25' x 6'.","metadescription":"Grading. 1 or 2 Family Dwelling. EXCAVATION AND BACKFILL FOR NEW POOL CONSTRUCTION PER STANDARD PLAN.  POOL DIMENSIONS:  12' x 25' x 6'.. Permit Finaled. 7142 S GLASGOW AVE","address":"7142 Glasgow Avenue, CA, Los Angeles, 90045, US","ct":"2761.00","ev":"N","apc":"West Los Angeles","cpa":"Westchester - Playa del Rey","zone":"R1-1","solar":"N","pin_nbr":"099B173    53","use_code":"70","geolocation":"POINT (-118.37243 33.97095)","status_date":"06/25/2015","permit_group":"Building","refresh_time":"06/10/2026","type_lat_lon":"ADDRESS","business_unit":"Plan Check at Counter"},"geometry":{"type":"Point","coordinates":[-118.37243,33.97095]}},{"type":"Feature","properties":{"date":"2014-08-05T00:00:00.000Z","year":2014,"description":"Repair deck & wall around pool/spa area per engineer's plans.","metadescription":"Bldg-Alter/Repair. Apartment. Repair deck & wall around pool/spa area per engineer's plans.. Permit Finaled. 7001 S LA CIENEGA BLVD 1-54","address":"1-54, 7001 South La Cienega Boulevard, CA, Los Angeles, 90045, US","ct":"2761.00","ev":"N","apc":"West Los Angeles","cpa":"Westchester - Playa del Rey","zone":"R3-1","solar":"N","pin_nbr":"102B173   329","use_code":"35","geolocation":"POINT (-118.3705 33.97365)","status_date":"03/31/2015","permit_group":"Building","refresh_time":"06/10/2026","type_lat_lon":"ADDRESS","business_unit":"Plan Check at Counter"},"geometry":{"type":"Point","coordinates":[-118.3705,33.97365]}},{"type":"Feature","properties":{"date":"2014-01-13T00:00:00.000Z","year":2014,"description":"Backfill existing swimming pool (BACKFILLING WITH STRUCTURAL COMPACTED FILL) per city standard P/BC 2011-111. Pool shall will be removed.","metadescription":"Grading. 1 or 2 Family Dwelling. Backfill existing swimming pool (BACKFILLING WITH STRUCTURAL COMPACTED FILL) per city standard P/BC 2011-111. Pool shall will be removed.. Permit Finaled. 8926 S HAAS AVE","address":"8926 Haas Avenue, CA, Los Angeles, 90047, US","ct":"2384.00","ev":"N","apc":"South Los Angeles","cpa":"South Los Angeles","zone":"R1-1","solar":"N","pin_nbr":"096A191   276","use_code":"60","geolocation":"POINT (-118.31651 33.95554)","status_date":"03/13/2014","permit_group":"Building","refresh_time":"06/10/2026","type_lat_lon":"ADDRESS","business_unit":"Plan Check at Counter"},"geometry":{"type":"Point","coordinates":[-118.31651,33.95554]}},{"type":"Feature","properties":{"date":"2013-02-12T00:00:00.000Z","year":2013,"description":"BACKFILLING EXISTING SWIMMING POOL WITH UNCERTIFIED FILL AND LEAVING THE POOL SHELL IN-PLACE PER P/BC 2011-111","metadescription":"Grading. 1 or 2 Family Dwelling. BACKFILLING EXISTING SWIMMING POOL WITH UNCERTIFIED FILL AND LEAVING THE POOL SHELL IN-PLACE PER P/BC 2011-111. Permit Expired. 7750 S TOLAND AVE","address":"7750 Toland Avenue, CA, Los Angeles, 90045, US","ct":"2771.00","ev":"N","apc":"West Los Angeles","cpa":"Westchester - Playa del Rey","zone":"R1-1","solar":"N","pin_nbr":"099B173   393","use_code":"70","geolocation":"POINT (-118.37551 33.96698)","status_date":"03/09/2015","permit_group":"Building","refresh_time":"06/10/2026","type_lat_lon":"ADDRESS","business_unit":"Plan Check at Counter"},"geometry":{"type":"Point","coordinates":[-118.37551,33.96698]}},{"type":"Feature","properties":{"date":"2010-03-09T00:00:00.000Z","year":2010,"description":"SWIMMING POOL AND SPA,   PER   STANDARD  PLAN  # 268","metadescription":"Swimming-Pool/Spa. 1 or 2 Family Dwelling. SWIMMING POOL AND SPA,   PER   STANDARD  PLAN  # 268. CofO Issued. 3433 W 78TH PL","address":"3429 West 78Th Place, CA, Los Angeles, 90043, US","ct":"2352.02","ev":"N","apc":"South Los Angeles","cpa":"West Adams - Baldwin Hills - Leimert","zone":"R1-1","solar":"N","pin_nbr":"099B185   310","use_code":"20","geolocation":"POINT (-118.33205 33.96821)","status_date":"10/01/2012","permit_group":"Building","refresh_time":"06/10/2026","type_lat_lon":"ADDRESS","business_unit":"Plan Check at Counter"},"geometry":{"type":"Point","coordinates":[-118.33205,33.96821]}},{"type":"Feature","properties":{"date":"2006-10-04T00:00:00.000Z","year":2006,"description":"BACKFILL (E) 15' X 30' POOL SHELL WITH UNCERTIFIED FILL","metadescription":"Grading. 1 or 2 Family Dwelling. BACKFILL (E) 15' X 30' POOL SHELL WITH UNCERTIFIED FILL. Permit Finaled. 3620 W 63RD ST","address":"3620 West 63Rd Street, CA, Los Angeles, 90043, US","ct":"2349.00","ev":"N","apc":"South Los Angeles","cpa":"West Adams - Baldwin Hills - Leimert","zone":"R1-1","solar":"N","pin_nbr":"105B185   910","use_code":"60","geolocation":"POINT (-118.33603 33.98257)","status_date":"12/07/2007","permit_group":"Building","refresh_time":"06/10/2026","type_lat_lon":"ADDRESS","business_unit":"Plan Check at Counter"},"geometry":{"type":"Point","coordinates":[-118.33603,33.98257]}},{"type":"Feature","properties":{"date":"2006-05-02T00:00:00.000Z","year":2006,"description":"NEW POOL/SPA PER LA CITY STANDARD PLAN #268","metadescription":"Swimming-Pool/Spa. 1 or 2 Family Dwelling. NEW POOL/SPA PER LA CITY STANDARD PLAN #268. CofO Issued. 9146 S CIMARRON ST","address":"9146 Cimarron Street, CA, Los Angeles, 90047, US","ct":"2384.00","ev":"N","apc":"South Los Angeles","cpa":"South Los Angeles","zone":"R1-1","solar":"N","pin_nbr":"094-5A191 122","use_code":"20","geolocation":"POINT (-118.31542 33.9532)","status_date":"09/05/2006","permit_group":"Building","refresh_time":"06/10/2026","type_lat_lon":"ADDRESS","business_unit":"Plan Check at Counter"},"geometry":{"type":"Point","coordinates":[-118.31542,33.9532]}},{"type":"Feature","properties":{"date":"2004-03-02T00:00:00.000Z","year":2004,"description":"NEW SWIMMING POOL AND SPA PER LA CITY STD PLAN# 268.","metadescription":"Swimming-Pool/Spa. 1 or 2 Family Dwelling. NEW SWIMMING POOL AND SPA PER LA CITY STD PLAN# 268.. Issued. 8936 S HAAS AVE","address":"8930 Haas Avenue, CA, Los Angeles, 90047, US","ct":"2384.00","ev":"N","apc":"South Los Angeles","cpa":"South Central Los Angeles","zone":"R1-1","solar":"N","pin_nbr":"096A191   300","use_code":"20","geolocation":"POINT (-118.31652 33.95526)","status_date":"03/02/2004","permit_group":"Building","refresh_time":"06/10/2026","type_lat_lon":"ADDRESS","business_unit":"Plan Check at Counter"},"geometry":{"type":"Point","coordinates":[-118.31652,33.95526]}},{"type":"Feature","properties":{"date":"2002-08-20T00:00:00.000Z","year":2002,"description":"New pool 28' x 10.5' per city standard plan #268.","metadescription":"Swimming-Pool/Spa. 1 or 2 Family Dwelling. New pool 28' x 10.5' per city standard plan #268.. Permit Finaled. 5412 W 76TH ST","address":"5412 West 76Th Street, CA, Los Angeles, 90045, US","ct":"2771.00","ev":"N","apc":"West Los Angeles","zone":"R1-1","solar":"N","pin_nbr":"099B173   319","use_code":"20","geolocation":"POINT (-118.37466 33.96798)","status_date":"10/04/2006","permit_group":"Building","refresh_time":"06/10/2026","type_lat_lon":"ADDRESS","business_unit":"Plan Check at Counter"},"geometry":{"type":"Point","coordinates":[-118.37466,33.96798]}},{"type":"Feature","properties":{"date":"2002-08-20T00:00:00.000Z","year":2002,"description":"Grading for a new pool 28' x 10.5' per city standard plan #268.","metadescription":"Grading. 1 or 2 Family Dwelling. Grading for a new pool 28' x 10.5' per city standard plan #268.. Permit Finaled. 5412 W 76TH ST","address":"5412 West 76Th Street, CA, Los Angeles, 90045, US","ct":"2771.00","ev":"N","apc":"West Los Angeles","zone":"R1-1","solar":"N","pin_nbr":"099B173   319","use_code":"70","geolocation":"POINT (-118.37466 33.96798)","status_date":"08/30/2002","permit_group":"Building","refresh_time":"06/10/2026","type_lat_lon":"ADDRESS","business_unit":"Express Permit"},"geometry":{"type":"Point","coordinates":[-118.37466,33.96798]}},{"type":"Feature","properties":{"date":"2002-04-02T00:00:00.000Z","year":2002,"description":"30 DAY PERMIT, ORDER DATED 10/25/01.  ALSO ORDER TO COMPLY 533848 FROM DAVID HUANG.       CONSTRUCT CHAIN LINK POOL ENCLOSURE.","metadescription":"Bldg-Alter/Repair. 1 or 2 Family Dwelling. 30 DAY PERMIT, ORDER DATED 10/25/01.  ALSO ORDER TO COMPLY 533848 FROM DAVID HUANG.       CONSTRUCT CHAIN LINK POOL ENCLOSURE.. Permit Expired. 9126 S VAN NESS AVE","address":"9126 South Van Ness Avenue, CA, Los Angeles, 90047, US","ct":"2384.00","ev":"N","apc":"South Los Angeles","zone":"R1-1","solar":"N","pin_nbr":"094-5A191  79","use_code":"1","geolocation":"POINT (-118.31758 33.95365)","status_date":"03/19/2007","permit_group":"Building","refresh_time":"06/10/2026","type_lat_lon":"ADDRESS","business_unit":"Express Permit"},"geometry":{"type":"Point","coordinates":[-118.31758,33.95365]}},{"type":"Feature","properties":{"date":"2000-04-20T00:00:00.000Z","year":2000,"description":"REMOVE POOL SHELL AND BACKFILL.","metadescription":"Grading. Apartment. REMOVE POOL SHELL AND BACKFILL.. Permit Finaled. 5216 W 97TH PL","address":"5216 West 97Th Place, CA, Los Angeles, 90045, US","ct":"2774.00","ev":"N","apc":"West Los Angeles","zone":"R3-1","solar":"N","pin_nbr":"093B173   605","use_code":"60","geolocation":"POINT (-118.37096 33.94755)","status_date":"06/28/2000","permit_group":"Building","refresh_time":"06/10/2026","type_lat_lon":"ADDRESS","business_unit":"Plan Check at Counter"},"geometry":{"type":"Point","coordinates":[-118.37096,33.94755]}},{"type":"Feature","properties":{"date":"1997-03-17T00:00:00.000Z","year":1997,"description":"Pool per LA std plan #268.","metadescription":"Swimming-Pool/Spa. 1 or 2 Family Dwelling. Pool per LA std plan #268.. Permit Closed. 5310 W 82ND ST","address":"5310 West 82Nd Street, CA, Los Angeles, 90045, US","ct":"2771.00","ev":"N","apc":"West Los Angeles","zone":"R1-1","solar":"N","pin_nbr":"099B173   758","use_code":"20","geolocation":"POINT (-118.37231 33.96389)","status_date":"07/22/1999","permit_group":"Building","refresh_time":"06/10/2026","type_lat_lon":"ADDRESS","business_unit":"Plan Check at Counter"},"geometry":{"type":"Point","coordinates":[-118.37231,33.96389]}}]}
