{"type":"FeatureCollection","features":[{"type":"Feature","properties":{"date":"2026-04-29T00:00:00.000Z","year":2026,"description":"SUPPLEMENTAL PERMIT #24016-10000-24775 TO REVISE SCOPE TO CONVERT RUMPUS ROOM AND UNPERMITTED ADDITION TO (N) DETACHED ADU. CHANGE EOR TO WFPP DESIGN ***PLAN CHECK ONY***","metadescription":"Bldg-Addition. 1 or 2 Family Dwelling. SUPPLEMENTAL PERMIT #24016-10000-24775 TO REVISE SCOPE TO CONVERT RUMPUS ROOM AND UNPERMITTED ADDITION TO (N) DETACHED ADU. CHANGE EOR TO WFPP DESIGN ***PLAN CHECK ONY***. Corrections Issued. 3631 W 64TH ST","address":"3631 West 64Th Street, CA, Los Angeles, 90043, US","ct":"2349.02","ev":"N","apc":"South Los Angeles","cpa":"West Adams - Baldwin Hills - Leimert","zone":"R1-1","solar":"N","pin_nbr":"105B185   972","status_date":"05/05/2026","permit_group":"Building","refresh_time":"06/10/2026","type_lat_lon":"ADDRESS","business_unit":"Expanded Counter Plan Check"},"geometry":{"type":"Point","coordinates":[-118.33644,33.98189]}},{"type":"Feature","properties":{"date":"2026-03-25T00:00:00.000Z","year":2026,"description":"ePlan: Convert (E) detached garage to ADU per LAMC 12.22 A.33(b)(1).  Design per WFPP.","metadescription":"Bldg-Alter/Repair. 1 or 2 Family Dwelling. ePlan: Convert (E) detached garage to ADU per LAMC 12.22 A.33(b)(1).  Design per WFPP.. Corrections Issued. 1951 W 94TH PL","address":"2001 West 94Th Place, CA, Los Angeles, 90047, US","ct":"2380.00","ev":"N","apc":"South Los Angeles","cpa":"South Los Angeles","zone":"R1-1","solar":"N","pin_nbr":"093A193    12","use_code":"1","status_date":"04/02/2026","construction":"Type V-B Construction","permit_group":"Building","refresh_time":"06/10/2026","type_lat_lon":"ADDRESS","business_unit":"Expanded Counter Plan Check","square_footage":"360"},"geometry":{"type":"Point","coordinates":[-118.31313,33.95062]}},{"type":"Feature","properties":{"date":"2025-11-25T00:00:00.000Z","year":2025,"description":"EPLAN. REMODEL AND (N)  ADDITION TO (E) SINGLE FAMILY DWELLING WITH ATTACHED GARAGE. CONVERT PART OF (E) GARAGE TO LIVING SPACE. CONVERT COVERED PATIO AND ADDITION TO NEW LIVING SPACE. WORK DONE PER ENGINEER DESIGN","metadescription":"Bldg-Addition. 1 or 2 Family Dwelling. EPLAN. REMODEL AND (N)  ADDITION TO (E) SINGLE FAMILY DWELLING WITH ATTACHED GARAGE. CONVERT PART OF (E) GARAGE TO LIVING SPACE. CONVERT COVERED PATIO AND ADDITION TO NEW LIVING SPACE. WORK DONE PER ENGINEER DESIGN. Issued. 5217 W GLASGOW WAY","address":"5217 Glasgow Way, CA, Los Angeles, 90045, US","ct":"2761.02","ev":"N","apc":"West Los Angeles","cpa":"Westchester - Playa del Rey","zone":"R1-1","solar":"N","pin_nbr":"102B173   510","use_code":"1","status_date":"11/25/2025","construction":"Type V-B Construction","permit_group":"Building","refresh_time":"06/10/2026","type_lat_lon":"ADDRESS","business_unit":"Regular Plan Check","square_footage":"2014"},"geometry":{"type":"Point","coordinates":[-118.37102,33.97232]}},{"type":"Feature","properties":{"date":"2025-11-19T00:00:00.000Z","year":2025,"description":"REMOVE POLE SIGN ISSUED & INSTALL ONE NEW NON-ILLUMINATED R06 - 1008, 6'-6\" X 10' 65 SQ. FT. POLE SIGN 8'-4\" ABOVE FINISHED GRADE (SINGLE FACED). NO CHANGES TO POLE OR FOOTINGS, ONLY CABINET BEING REPLACED.3 OF 3","metadescription":"Sign. Onsite. REMOVE POLE SIGN ISSUED & INSTALL ONE NEW NON-ILLUMINATED R06 - 1008, 6'-6\" X 10' 65 SQ. FT. POLE SIGN 8'-4\" ABOVE FINISHED GRADE (SINGLE FACED). NO CHANGES TO POLE OR FOOTINGS, ONLY CABINET BEING REPLACED.3 OF 3. Permit Finaled. 9523 S LA CIENEGA BLVD","address":"9523 South La Cienega Boulevard, CA, Los Angeles, 90045, US","ct":"2774.00","ev":"N","apc":"West Los Angeles","cpa":"Los Angeles International Airport","zone":"LAX","solar":"N","pin_nbr":"093B173   770","use_code":"19","status_date":"05/11/2026","permit_group":"Building","refresh_time":"06/10/2026","type_lat_lon":"ADDRESS","business_unit":"Regular Plan Check"},"geometry":{"type":"Point","coordinates":[-118.37046,33.94949]}},{"type":"Feature","properties":{"date":"2025-11-19T00:00:00.000Z","year":2025,"description":"REMOVE POLE SIGN CABINET PREVIOUSLY ISSUED & INSTALL ONE NEW NON ILLUMINATED R05-1001 4' X 6', 24 S.F., 8'-4\" ABOVE FINISHED GRADE, SINGLE FACED POLE SIGN. NO CHANGE TO POLE OR FOOTINGS, ONLY CABINET IS BEING REPLACED.APN: 4128-022-906  1 OF 3","metadescription":"Sign. Onsite. REMOVE POLE SIGN CABINET PREVIOUSLY ISSUED & INSTALL ONE NEW NON ILLUMINATED R05-1001 4' X 6', 24 S.F., 8'-4\" ABOVE FINISHED GRADE, SINGLE FACED POLE SIGN. NO CHANGE TO POLE OR FOOTINGS, ONLY CABINET IS BEING REPLACED.APN: 4128-022-906  1 OF 3. Permit Finaled. 9523 S LA CIENEGA BLVD","address":"9523 South La Cienega Boulevard, CA, Los Angeles, 90045, US","ct":"2774.00","ev":"N","apc":"West Los Angeles","cpa":"Los Angeles International Airport","zone":"LAX","solar":"N","pin_nbr":"093B173   770","use_code":"19","status_date":"05/11/2026","permit_group":"Building","refresh_time":"06/10/2026","type_lat_lon":"ADDRESS","business_unit":"Regular Plan Check"},"geometry":{"type":"Point","coordinates":[-118.37046,33.94949]}},{"type":"Feature","properties":{"date":"2025-11-19T00:00:00.000Z","year":2025,"description":"REMOVE POLE SIGN ISSUED & INSTALL ONE NEW NON-ILLUMINATED R06-1006, 6'-6\"' X 10' 66 SQ. FT. POLE SIGN 8'-4\" ABOVE FINISHED GRADE (SINGLE FACED). NO CHANGES TO POLE OR FOOTINGS, ONLY CABINET BEING REPLACED.2 OF 3","metadescription":"Sign. Onsite. REMOVE POLE SIGN ISSUED & INSTALL ONE NEW NON-ILLUMINATED R06-1006, 6'-6\"' X 10' 66 SQ. FT. POLE SIGN 8'-4\" ABOVE FINISHED GRADE (SINGLE FACED). NO CHANGES TO POLE OR FOOTINGS, ONLY CABINET BEING REPLACED.2 OF 3. Permit Finaled. 9523 S LA CIENEGA BLVD","address":"9523 South La Cienega Boulevard, CA, Los Angeles, 90045, US","ct":"2774.00","ev":"N","apc":"West Los Angeles","cpa":"Los Angeles International Airport","zone":"LAX","solar":"N","pin_nbr":"093B173   770","use_code":"19","status_date":"05/11/2026","permit_group":"Building","refresh_time":"06/10/2026","type_lat_lon":"ADDRESS","business_unit":"Regular Plan Check"},"geometry":{"type":"Point","coordinates":[-118.37046,33.94949]}},{"type":"Feature","properties":{"date":"2025-11-19T00:00:00.000Z","year":2025,"description":"REMOVE POLE SIGN CABINET PREVIOUSLY ISSUED & INSTALL ONE NEW NON ILLUMINATED R05-1002 4' X 6', 24 S.F., 8'-4\" ABOVE FINISHED GRADE, SINGLE FACED POLE SIGN. NO CHANGE TO POLE OR FOOTINGS, ONLY CABINET IS BEING REPLACED.APN: 4128-022-906 2 OF 3","metadescription":"Sign. Onsite. REMOVE POLE SIGN CABINET PREVIOUSLY ISSUED & INSTALL ONE NEW NON ILLUMINATED R05-1002 4' X 6', 24 S.F., 8'-4\" ABOVE FINISHED GRADE, SINGLE FACED POLE SIGN. NO CHANGE TO POLE OR FOOTINGS, ONLY CABINET IS BEING REPLACED.APN: 4128-022-906 2 OF 3. Permit Finaled. 9523 S LA CIENEGA BLVD","address":"9523 South La Cienega Boulevard, CA, Los Angeles, 90045, US","ct":"2774.00","ev":"N","apc":"West Los Angeles","cpa":"Los Angeles International Airport","zone":"LAX","solar":"N","pin_nbr":"093B173   770","use_code":"19","status_date":"05/11/2026","permit_group":"Building","refresh_time":"06/10/2026","type_lat_lon":"ADDRESS","business_unit":"Regular Plan Check"},"geometry":{"type":"Point","coordinates":[-118.37046,33.94949]}},{"type":"Feature","properties":{"date":"2025-11-19T00:00:00.000Z","year":2025,"description":"REMOVE POLE SIGN CABINET PREVIOUSLY ISSUED & INSTALL ONE NEW NON ILLUMINATED R05-1004 4' X 6', 24 S.F., 8'-4\" ABOVE FINISHED GRADE, SINGLE FACED POLE SIGN. NO CHANGE TO POLE OR FOOTINGS, ONLY CABINET IS BEING REPLACED.APN: 4128-022-906 3 OF 3","metadescription":"Sign. Onsite. REMOVE POLE SIGN CABINET PREVIOUSLY ISSUED & INSTALL ONE NEW NON ILLUMINATED R05-1004 4' X 6', 24 S.F., 8'-4\" ABOVE FINISHED GRADE, SINGLE FACED POLE SIGN. NO CHANGE TO POLE OR FOOTINGS, ONLY CABINET IS BEING REPLACED.APN: 4128-022-906 3 OF 3. Permit Finaled. 9523 S LA CIENEGA BLVD","address":"9523 South La Cienega Boulevard, CA, Los Angeles, 90045, US","ct":"2774.00","ev":"N","apc":"West Los Angeles","cpa":"Los Angeles International Airport","zone":"LAX","solar":"N","pin_nbr":"093B173   770","use_code":"19","status_date":"05/11/2026","permit_group":"Building","refresh_time":"06/10/2026","type_lat_lon":"ADDRESS","business_unit":"Regular Plan Check"},"geometry":{"type":"Point","coordinates":[-118.37046,33.94949]}},{"type":"Feature","properties":{"date":"2025-11-19T00:00:00.000Z","year":2025,"description":"REMOVE POLE SIGN ISSUED & INSTALL ONE NEW NON-ILLUMINATED R05 - 1007, 4' X 6' 24 SQ. FT. POLE SIGN 8'-4\" ABOVE FINISHED GRADE (SINGLE FACED). NO CHANGES TO POLE OR FOOTINGS, ONLY CABINET BEING REPLACED.1 OF 3","metadescription":"Sign. Onsite. REMOVE POLE SIGN ISSUED & INSTALL ONE NEW NON-ILLUMINATED R05 - 1007, 4' X 6' 24 SQ. FT. POLE SIGN 8'-4\" ABOVE FINISHED GRADE (SINGLE FACED). NO CHANGES TO POLE OR FOOTINGS, ONLY CABINET BEING REPLACED.1 OF 3. Permit Finaled. 9523 S LA CIENEGA BLVD","address":"9523 South La Cienega Boulevard, CA, Los Angeles, 90045, US","ct":"2774.00","ev":"N","apc":"West Los Angeles","cpa":"Los Angeles International Airport","zone":"LAX","solar":"N","pin_nbr":"093B173   770","use_code":"19","status_date":"05/11/2026","permit_group":"Building","refresh_time":"06/10/2026","type_lat_lon":"ADDRESS","business_unit":"Regular Plan Check"},"geometry":{"type":"Point","coordinates":[-118.37046,33.94949]}},{"type":"Feature","properties":{"date":"2025-11-17T00:00:00.000Z","year":2025,"description":"Install a new non illuminated cabinet sign to replace a previously permitted sign that has been removed. The new sign will attach to the previously permitted pole and foundation. The sign designation R06-1003. No expedited fee. Department error","metadescription":"Sign. Onsite. Install a new non illuminated cabinet sign to replace a previously permitted sign that has been removed. The new sign will attach to the previously permitted pole and foundation. The sign designation R06-1003. No expedited fee. Department error. Permit Finaled. 9523 S LA CIENEGA BLVD","address":"9523 South La Cienega Boulevard, CA, Los Angeles, 90045, US","ct":"2774.00","ev":"N","apc":"West Los Angeles","cpa":"Los Angeles International Airport","zone":"LAX","solar":"N","pin_nbr":"093B173   770","use_code":"19","status_date":"05/11/2026","permit_group":"Building","refresh_time":"06/10/2026","type_lat_lon":"ADDRESS","business_unit":"Regular Plan Check"},"geometry":{"type":"Point","coordinates":[-118.37046,33.94949]}},{"type":"Feature","properties":{"date":"2025-11-17T00:00:00.000Z","year":2025,"description":"Install a new non-illuminated cabinet sign to replace a previously permitted sign that has been removed. The new sign will attach to the previously permitted pole and foundationThis sign designation: R06-1001Previous pole sign permit: 21048-30000-02469No expedited fee. Department error","metadescription":"Sign. Onsite. Install a new non-illuminated cabinet sign to replace a previously permitted sign that has been removed. The new sign will attach to the previously permitted pole and foundationThis sign designation: R06-1001Previous pole sign permit: 21048-30000-02469No expedited fee. Department error. Permit Finaled. 9523 S LA CIENEGA BLVD","address":"9523 South La Cienega Boulevard, CA, Los Angeles, 90045, US","ct":"2774.00","ev":"N","apc":"West Los Angeles","cpa":"Los Angeles International Airport","zone":"LAX","solar":"N","pin_nbr":"093B173   770","use_code":"19","status_date":"05/11/2026","permit_group":"Building","refresh_time":"06/10/2026","type_lat_lon":"ADDRESS","business_unit":"Regular Plan Check"},"geometry":{"type":"Point","coordinates":[-118.37046,33.94949]}},{"type":"Feature","properties":{"date":"2025-11-17T00:00:00.000Z","year":2025,"description":"Install a new non-illuminated cabinet sign to replace a previously permitted sign that has been removed. The new sign will attach to the previously permitted pole and foundation.Sign designation: R06-1004Previous pole sign permit 21048-30000-02472No expedited fee. Department error","metadescription":"Sign. Onsite. Install a new non-illuminated cabinet sign to replace a previously permitted sign that has been removed. The new sign will attach to the previously permitted pole and foundation.Sign designation: R06-1004Previous pole sign permit 21048-30000-02472No expedited fee. Department error. Permit Finaled. 9523 S LA CIENEGA BLVD","address":"9523 South La Cienega Boulevard, CA, Los Angeles, 90045, US","ct":"2774.00","ev":"N","apc":"West Los Angeles","cpa":"Los Angeles International Airport","zone":"LAX","solar":"N","pin_nbr":"093B173   770","use_code":"19","status_date":"05/11/2026","permit_group":"Building","refresh_time":"06/10/2026","type_lat_lon":"ADDRESS","business_unit":"Regular Plan Check"},"geometry":{"type":"Point","coordinates":[-118.37046,33.94949]}},{"type":"Feature","properties":{"date":"2025-09-22T00:00:00.000Z","year":2025,"description":"EPLAN. SUPPLEMENTAL PERMIT TO 24014-10000-05736:  Redesign plans due to non conforming wall that fall on site. Portion of footing to remain. Change in building height. Floor area increased due to change in floor plans","metadescription":"Bldg-Addition. 1 or 2 Family Dwelling. EPLAN. SUPPLEMENTAL PERMIT TO 24014-10000-05736:  Redesign plans due to non conforming wall that fall on site. Portion of footing to remain. Change in building height. Floor area increased due to change in floor plans. Issued. 5511-5513 W 78TH ST","address":"5511 West 78Th Street, CA, Los Angeles, 90045, US","ct":"2771.00","ev":"N","apc":"West Los Angeles","cpa":"Westchester - Playa del Rey","zone":"R1-1","solar":"N","pin_nbr":"099B173   545","use_code":"1","status_date":"09/22/2025","permit_group":"Building","refresh_time":"06/10/2026","type_lat_lon":"ADDRESS","business_unit":"Regular Plan Check","square_footage":"15"},"geometry":{"type":"Point","coordinates":[-118.37593,33.96557]}},{"type":"Feature","properties":{"date":"2025-05-06T00:00:00.000Z","year":2025,"description":"ATTN:  QUAN NGHIEMUSE OF LAND permit update submittal due to reduction is total site parking from 375 parking spaces to 371 parking spaces.  4 parking spaces were eliminated due to power pole location and accommodation of LADWP transformer.  There is no change in disabled access path-of-travel and/or designation of parking spaces.  There is no change in site landscaping, irrigation, or vehicular circulation.PRIOR PERMITS:  17020-10000-03629, 17020-10000-03630, 17020-10002-03629","metadescription":"Nonbldg-Alter/Repair. Commercial. ATTN:  QUAN NGHIEMUSE OF LAND permit update submittal due to reduction is total site parking from 375 parking spaces to 371 parking spaces.  4 parking spaces were eliminated due to power pole location and accommodation of LADWP transformer.  There is no change in disabled access path-of-travel and/or designation of parking spaces.  There is no change in site landscaping, irrigation, or vehicular circulation.PRIOR PERMITS:  17020-10000-03629, 17020-10000-03630, 17020-10002-03629. Issued. 6823 S LA CIENEGA BLVD","address":"6823 South La Cienega Boulevard, CA, Los Angeles, 90045, US","ct":"2761.02","ev":"N","apc":"West Los Angeles","cpa":"Westchester - Playa del Rey","zone":"C2-1VL","solar":"N","pin_nbr":"102B173  7211","use_code":"61","status_date":"05/06/2025","construction":"Type V-B Construction","permit_group":"Building","refresh_time":"06/10/2026","type_lat_lon":"ADDRESS","business_unit":"Expanded Counter Plan Check","square_footage":"0"},"geometry":{"type":"Point","coordinates":[-118.37052,33.97634]}},{"type":"Feature","properties":{"date":"2025-04-22T00:00:00.000Z","year":2025,"description":"NEW REAR ADDITION TO SFD TO BECOME NEW MASTER BATHROOM AND WALK IN CLOSET AND ENCLOSE EXISTING COVERED FRONT PORCH TO BECOME NEW ENTRY FOR SFD. REMODEL SFD. ALL WORK PER ENGINEER DESIGN.","metadescription":"Bldg-Addition. 1 or 2 Family Dwelling. NEW REAR ADDITION TO SFD TO BECOME NEW MASTER BATHROOM AND WALK IN CLOSET AND ENCLOSE EXISTING COVERED FRONT PORCH TO BECOME NEW ENTRY FOR SFD. REMODEL SFD. ALL WORK PER ENGINEER DESIGN.. Issued. 6325 S LONG ST","address":"6325 Long Street, CA, Los Angeles, 90043, US","ct":"2351.00","ev":"N","apc":"South Los Angeles","cpa":"West Adams - Baldwin Hills - Leimert","zone":"R1-1","solar":"N","pin_nbr":"105B185   969","use_code":"1","status_date":"04/22/2025","construction":"Type V-B Construction","permit_group":"Building","refresh_time":"06/10/2026","type_lat_lon":"ADDRESS","business_unit":"Expanded Counter Plan Check","square_footage":"206"},"geometry":{"type":"Point","coordinates":[-118.33869,33.9822]}},{"type":"Feature","properties":{"date":"2025-02-04T00:00:00.000Z","year":2025,"description":"EPLAN: CONVERT EXISTING GARAGE ATTACHED TO THE REAR BUILDING INTO A NEW 1012.50 SF ADU PER LAMC 12.22 A.33(c) AND (d). WORK DONE PER ENGINEER DESIGN.","metadescription":"Bldg-Alter/Repair. 1 or 2 Family Dwelling. EPLAN: CONVERT EXISTING GARAGE ATTACHED TO THE REAR BUILDING INTO A NEW 1012.50 SF ADU PER LAMC 12.22 A.33(c) AND (d). WORK DONE PER ENGINEER DESIGN.. CofO Issued. 7049-7049 1/2 S LA CIENEGA BLVD","address":"1-4, 7051 South La Cienega Boulevard, CA, Los Angeles, 90045, US","ct":"2761.02","ev":"N","apc":"West Los Angeles","cpa":"Westchester - Playa del Rey","zone":"R3-1","solar":"N","pin_nbr":"102B173   462","use_code":"1","adu_changed":"1","status_date":"01/15/2026","construction":"Type V-B Construction","permit_group":"Building","refresh_time":"06/10/2026","type_lat_lon":"ADDRESS","business_unit":"Expanded Counter Plan Check","square_footage":"1012.5"},"geometry":{"type":"Point","coordinates":[-118.37053,33.97265]}},{"type":"Feature","properties":{"date":"2025-01-21T00:00:00.000Z","year":2025,"description":"One story addition and interior remodel to (E) Single Family Dwelling. Work per Engineered design.","metadescription":"Bldg-Addition. 1 or 2 Family Dwelling. One story addition and interior remodel to (E) Single Family Dwelling. Work per Engineered design.. CofO Issued. 5412 W 82ND ST","address":"5412 West 82Nd Street, CA, Los Angeles, 90045, US","ct":"2771.00","ev":"N","apc":"West Los Angeles","cpa":"Westchester - Playa del Rey","zone":"R1-1","solar":"N","height":"15.92","pin_nbr":"099B173   767","use_code":"1","status_date":"10/02/2025","construction":"Type V-B Construction","permit_group":"Building","refresh_time":"06/10/2026","type_lat_lon":"ADDRESS","business_unit":"Expanded Counter Plan Check","square_footage":"1383"},"geometry":{"type":"Point","coordinates":[-118.37403,33.96389]}},{"type":"Feature","properties":{"date":"2025-01-20T00:00:00.000Z","year":2025,"description":"Supplemental to 22014-10000-01190: for changes to dimensions and design.updated use code and structural inventoryAddition and conversion of a detached Rec room into an attached ADU. 800sf per ordinance","metadescription":"Bldg-Addition. 1 or 2 Family Dwelling. Supplemental to 22014-10000-01190: for changes to dimensions and design.updated use code and structural inventoryAddition and conversion of a detached Rec room into an attached ADU. 800sf per ordinance. Permit Finaled. 5412-5414 W 77TH ST","address":"5412 West 77Th Street, CA, Los Angeles, 90045, US","ct":"2771.00","ev":"N","apc":"West Los Angeles","cpa":"Westchester - Playa del Rey","zone":"R1-1","solar":"N","pin_nbr":"099B173   366","use_code":"1","status_date":"01/27/2025","construction":"Type V-B Construction","permit_group":"Building","refresh_time":"06/10/2026","type_lat_lon":"BUILDING","business_unit":"Expanded Counter Plan Check","square_footage":"251"},"geometry":{"type":"Point","coordinates":[-118.37541932,33.96730916]}},{"type":"Feature","properties":{"date":"2024-10-01T00:00:00.000Z","year":2024,"description":"INSTALL, ONE, NEW ILLUMINATED CHANNEL LETTER WALL SIGN @ 3'-6\" X 10' (35 SQ. FT.)","metadescription":"Sign. Onsite. INSTALL, ONE, NEW ILLUMINATED CHANNEL LETTER WALL SIGN @ 3'-6\" X 10' (35 SQ. FT.). Issued. 6855 S LA CIENEGA BLVD","address":"6855 South La Cienega Boulevard, CA, Los Angeles, 90045, US","ct":"2761.02","ev":"N","apc":"West Los Angeles","cpa":"Westchester - Playa del Rey","zone":"C2-1VL","solar":"N","pin_nbr":"102B173  7214","use_code":"19","status_date":"10/01/2024","permit_group":"Building","refresh_time":"06/10/2026","type_lat_lon":"ADDRESS","business_unit":"Plan Check at Counter"},"geometry":{"type":"Point","coordinates":[-118.37051,33.97564]}},{"type":"Feature","properties":{"date":"2024-05-20T00:00:00.000Z","year":2024,"description":"Eplan:  PLAN CHECK ONLY:  Supplement permit for Soft STory Application Number: 23016-10000-27316; Soft-Story Retrofit Design change and change of engineer of record.","metadescription":"Bldg-Alter/Repair. Apartment. Eplan:  PLAN CHECK ONLY:  Supplement permit for Soft STory Application Number: 23016-10000-27316; Soft-Story Retrofit Design change and change of engineer of record.. Verifications in Progress. 7033 S GLASGOW AVE","address":"7033 Glasgow Avenue, CA, Los Angeles, 90045, US","ct":"2761.02","ev":"N","apc":"West Los Angeles","cpa":"Westchester - Playa del Rey","zone":"R3-1","solar":"N","pin_nbr":"102B173   435","use_code":"5","status_date":"07/09/2024","permit_group":"Building","refresh_time":"06/10/2026","type_lat_lon":"ADDRESS","business_unit":"Regular Plan Check"},"geometry":{"type":"Point","coordinates":[-118.37238,33.97297]}},{"type":"Feature","properties":{"date":"2023-12-13T00:00:00.000Z","year":2023,"description":"ePlan: MAJOR REMODEL TO (E) SFD INLCUDING NEW ROOF FRAMING, NEW FOUNDATION, AND NEW SLABS ON GRADE. 69 SF ADDITION TO FRONT, 95 SF ADDITION TO (E) ATTACHED GARAGE, 1587 SF ADDITION TO REAR, 191 SF ADDITION OF ATTACHED TRELLIS PATIO COVER AT REAR OF (E) SFD. ALL WORK PER ENGINEERED DESIGN. INTERIOR REMODEL THROUGHOUT.\" NFPA - 13D FIRE SPINKLERES REQUIRED THROUGH OUT\"","metadescription":"Bldg-Addition. 1 or 2 Family Dwelling. ePlan: MAJOR REMODEL TO (E) SFD INLCUDING NEW ROOF FRAMING, NEW FOUNDATION, AND NEW SLABS ON GRADE. 69 SF ADDITION TO FRONT, 95 SF ADDITION TO (E) ATTACHED GARAGE, 1587 SF ADDITION TO REAR, 191 SF ADDITION OF ATTACHED TRELLIS PATIO COVER AT REAR OF (E) SFD. ALL WORK PER ENGINEERED DESIGN. INTERIOR REMODEL THROUGHOUT.\" NFPA - 13D FIRE SPINKLERES REQUIRED THROUGH OUT\". CofO Issued. 7812 S HINDRY AVE","address":"7812 Hindry Avenue, CA, Los Angeles, 90045, US","ct":"2771.00","ev":"N","apc":"West Los Angeles","cpa":"Westchester - Playa del Rey","zone":"R1-1","solar":"N","height":"18.67","pin_nbr":"099B173   569","use_code":"1","status_date":"08/27/2024","construction":"Type V-B Construction","permit_group":"Building","refresh_time":"06/10/2026","type_lat_lon":"BUILDING","business_unit":"Expanded Counter Plan Check","square_footage":"1747"},"geometry":{"type":"Point","coordinates":[-118.37341227,33.96552568]}},{"type":"Feature","properties":{"date":"2023-08-25T00:00:00.000Z","year":2023,"description":"SUPPLEMENTAL TO 21014-10000-06121 EXISTING ROOF TO REMAIN AT EXISTING HOME AND NEW ROOF DESIGN AT ADDITIONAL AREA. TOTAL SQ. FT. REMAINING THE SAMENO CHANGE IN FLOOR AREA, HEIGHT OF BUILDING","metadescription":"Bldg-Alter/Repair. 1 or 2 Family Dwelling. SUPPLEMENTAL TO 21014-10000-06121 EXISTING ROOF TO REMAIN AT EXISTING HOME AND NEW ROOF DESIGN AT ADDITIONAL AREA. TOTAL SQ. FT. REMAINING THE SAMENO CHANGE IN FLOOR AREA, HEIGHT OF BUILDING. Permit Finaled. 7799-7801 S HINDRY AVE","address":"7801 Hindry Avenue, CA, Los Angeles, 90045, US","ct":"2771.00","ev":"N","apc":"West Los Angeles","cpa":"Westchester - Playa del Rey","zone":"R1-1","solar":"N","pin_nbr":"099B173   552","use_code":"1","adu_changed":"0","status_date":"10/02/2025","permit_group":"Building","refresh_time":"06/10/2026","type_lat_lon":"BUILDING","business_unit":"Regular Plan Check"},"geometry":{"type":"Point","coordinates":[-118.37390545,33.9656835]}},{"type":"Feature","properties":{"date":"2023-07-05T00:00:00.000Z","year":2023,"description":"INTERIOR REMODEL TO (E) APARTMENT, RELOCATE THE KITCHEN, REMOVE WINDOW, AND CONVERT THE (E) KITCHEN INTO A BEDROOM. ALL WORK PER DESIGN","metadescription":"Bldg-Alter/Repair. Apartment. INTERIOR REMODEL TO (E) APARTMENT, RELOCATE THE KITCHEN, REMOVE WINDOW, AND CONVERT THE (E) KITCHEN INTO A BEDROOM. ALL WORK PER DESIGN. Issued. 3525 W 63RD ST #1","address":"3525 63Rd Street, CA, Los Angeles, 90043, US","ct":"2349.02","ev":"N","apc":"South Los Angeles","cpa":"West Adams - Baldwin Hills - Leimert","zone":"R3-1","solar":"N","pin_nbr":"105B185   811","use_code":"5","status_date":"07/05/2023","permit_group":"Building","refresh_time":"06/10/2026","type_lat_lon":"ADDRESS","business_unit":"Plan Check at Counter"},"geometry":{"type":"Point","coordinates":[-118.33461,33.98301]}},{"type":"Feature","properties":{"date":"2022-08-05T00:00:00.000Z","year":2022,"description":"ADDITION TO EXISTING ONE STORY SINGLE FAMILY DEWELLING PER ENGINEER DESIGN","metadescription":"Bldg-Addition. 1 or 2 Family Dwelling. ADDITION TO EXISTING ONE STORY SINGLE FAMILY DEWELLING PER ENGINEER DESIGN. Issued. 2046 W 92ND ST","address":"2046 West 92Nd Street, CA, Los Angeles, 90047, US","ct":"2380.00","ev":"N","apc":"South Los Angeles","cpa":"South Los Angeles","zone":"R1-1","solar":"N","pin_nbr":"094-5A191 159","use_code":"1","status_date":"08/05/2022","construction":"Type V-B Construction","permit_group":"Building","refresh_time":"06/10/2026","type_lat_lon":"ADDRESS","business_unit":"Expanded Counter Plan Check","square_footage":"414.5"},"geometry":{"type":"Point","coordinates":[-118.31497,33.95257]}},{"type":"Feature","properties":{"date":"2022-05-16T00:00:00.000Z","year":2022,"description":"Remodel (E) Single family dwelling. Per engineering design.","metadescription":"Bldg-Alter/Repair. 1 or 2 Family Dwelling. Remodel (E) Single family dwelling. Per engineering design.. Permit Finaled. 5225 W GLASGOW WAY","address":"5221 Glasgow Way, CA, Los Angeles, 90045, US","ct":"2761.00","ev":"N","apc":"West Los Angeles","cpa":"Westchester - Playa del Rey","zone":"R1-1","solar":"N","pin_nbr":"102B173   467","use_code":"1","status_date":"08/22/2022","permit_group":"Building","refresh_time":"06/10/2026","type_lat_lon":"ADDRESS","business_unit":"Plan Check at Counter"},"geometry":{"type":"Point","coordinates":[-118.37116,33.97248]}},{"type":"Feature","properties":{"date":"2022-05-10T00:00:00.000Z","year":2022,"description":"INSTALL (3) ILLUMINATED CHANNEL LETTER WALL SIGNS SIGNS A, C -2'-7\" H X 19'-1 1/4\" W (50.15 SF EACH)SIGN B - 3'-1 3/4\" H X 22'-11 1/8\" W (7212 SF EACH)172.42 SF TOTAL","metadescription":"Sign. Onsite. INSTALL (3) ILLUMINATED CHANNEL LETTER WALL SIGNS SIGNS A, C -2'-7\" H X 19'-1 1/4\" W (50.15 SF EACH)SIGN B - 3'-1 3/4\" H X 22'-11 1/8\" W (7212 SF EACH)172.42 SF TOTAL. Issued. 6841 S LA CIENEGA BLVD","address":"6841 South La Cienega Boulevard, CA, Los Angeles, 90045, US","ct":"2761.00","ev":"N","apc":"West Los Angeles","cpa":"Westchester - Playa del Rey","zone":"C2-1VL","solar":"N","pin_nbr":"102B173  7213","use_code":"19","status_date":"05/10/2022","permit_group":"Building","refresh_time":"06/10/2026","type_lat_lon":"ADDRESS","business_unit":"Plan Check at Counter"},"geometry":{"type":"Point","coordinates":[-118.37052,33.97614]}},{"type":"Feature","properties":{"date":"2022-05-04T00:00:00.000Z","year":2022,"description":"PROPOSE ONE 17'-5\"X3'-11\" (68.5SF) FRONT LIT CHANNEL LETTERS WALL SIGN AND ONE 2'-4\"X1'-1\" (2.5SF) BACKLIT CHANNEL LETTERS WALL SIGN.","metadescription":"Sign. Onsite. PROPOSE ONE 17'-5\"X3'-11\" (68.5SF) FRONT LIT CHANNEL LETTERS WALL SIGN AND ONE 2'-4\"X1'-1\" (2.5SF) BACKLIT CHANNEL LETTERS WALL SIGN.. Permit Expired. 7872 S CRENSHAW BLVD","address":"7862 Crenshaw Boulevard, CA, Los Angeles, 90043, US","ct":"2352.02","ev":"N","apc":"South Los Angeles","cpa":"West Adams - Baldwin Hills - Leimert","zone":"C2-1VL-CPIO","solar":"N","pin_nbr":"099B185   420","use_code":"19","status_date":"01/15/2026","permit_group":"Building","refresh_time":"06/10/2026","type_lat_lon":"ADDRESS","business_unit":"Plan Check at Counter"},"geometry":{"type":"Point","coordinates":[-118.33065,33.96747]}},{"type":"Feature","properties":{"date":"2020-12-15T00:00:00.000Z","year":2020,"description":"(#4) INSTALL ONE (1) NON-ILLUMINATED WALL SIGN ON CLEARANCE BAR 3\" X 9\" (0.19 SQFT), 9'0\" FROM GRADE.","metadescription":"Sign. Onsite. (#4) INSTALL ONE (1) NON-ILLUMINATED WALL SIGN ON CLEARANCE BAR 3\" X 9\" (0.19 SQFT), 9'0\" FROM GRADE.. Permit Finaled. 6801 S LA CIENEGA BLVD","address":"6801 South La Cienega Boulevard, CA, Los Angeles, 90045, US","ct":"2761.00","ev":"N","apc":"West Los Angeles","cpa":"Westchester - Playa del Rey","zone":"C2-1VL","solar":"N","pin_nbr":"102B173   100","use_code":"19","status_date":"01/05/2021","permit_group":"Building","refresh_time":"06/10/2026","type_lat_lon":"ADDRESS","business_unit":"Plan Check at Counter"},"geometry":{"type":"Point","coordinates":[-118.37043,33.97696]}},{"type":"Feature","properties":{"date":"2020-12-15T00:00:00.000Z","year":2020,"description":"(#3) INSTALL ONE (1) NON-ILLUMINATED WALL SIGN ON CLEARANCE BAR 3\" X 9\" (0.19 SQFT), 9'0\" FROM GRADE.","metadescription":"Sign. Onsite. (#3) INSTALL ONE (1) NON-ILLUMINATED WALL SIGN ON CLEARANCE BAR 3\" X 9\" (0.19 SQFT), 9'0\" FROM GRADE.. Permit Finaled. 6801 S LA CIENEGA BLVD","address":"6801 South La Cienega Boulevard, CA, Los Angeles, 90045, US","ct":"2761.00","ev":"N","apc":"West Los Angeles","cpa":"Westchester - Playa del Rey","zone":"C2-1VL","solar":"N","pin_nbr":"102B173   100","use_code":"19","status_date":"01/05/2021","permit_group":"Building","refresh_time":"06/10/2026","type_lat_lon":"ADDRESS","business_unit":"Plan Check at Counter"},"geometry":{"type":"Point","coordinates":[-118.37043,33.97696]}},{"type":"Feature","properties":{"date":"2020-12-15T00:00:00.000Z","year":2020,"description":"(#4) INSTALL ONE (1) CLEARANCE BAR FOR WALL SIGN","metadescription":"Nonbldg-New. Commercial. (#4) INSTALL ONE (1) CLEARANCE BAR FOR WALL SIGN. Permit Finaled. 6801 S LA CIENEGA BLVD","address":"6801 South La Cienega Boulevard, CA, Los Angeles, 90045, US","ct":"2761.00","ev":"N","apc":"West Los Angeles","cpa":"Westchester - Playa del Rey","zone":"C2-1VL","solar":"N","pin_nbr":"102B173   100","use_code":"23","status_date":"12/17/2020","construction":"Type V-B Construction","permit_group":"Building","refresh_time":"06/10/2026","type_lat_lon":"ADDRESS","business_unit":"Plan Check at Counter","square_footage":"0"},"geometry":{"type":"Point","coordinates":[-118.37043,33.97696]}},{"type":"Feature","properties":{"date":"2020-12-09T00:00:00.000Z","year":2020,"description":"(#3) INSTALL ONE (1) CLEARANCE BAR FOR WALL SIGN.","metadescription":"Nonbldg-New. Commercial. (#3) INSTALL ONE (1) CLEARANCE BAR FOR WALL SIGN.. Permit Finaled. 6801 S LA CIENEGA BLVD","address":"6801 South La Cienega Boulevard, CA, Los Angeles, 90045, US","ct":"2761.00","ev":"N","apc":"West Los Angeles","cpa":"Westchester - Playa del Rey","zone":"C2-1VL","solar":"N","pin_nbr":"102B173   100","use_code":"23","status_date":"12/11/2020","construction":"Type V-B Construction","permit_group":"Building","refresh_time":"06/10/2026","type_lat_lon":"ADDRESS","business_unit":"Plan Check at Counter","square_footage":"0"},"geometry":{"type":"Point","coordinates":[-118.37043,33.97696]}},{"type":"Feature","properties":{"date":"2020-12-07T00:00:00.000Z","year":2020,"description":"SUPPLEMENTAL PERMIT - RELOCATION OF INFORMATION SIGN \"F\"","metadescription":"Sign. Onsite. SUPPLEMENTAL PERMIT - RELOCATION OF INFORMATION SIGN \"F\". Permit Finaled. 6801 S LA CIENEGA BLVD","address":"6801 South La Cienega Boulevard, CA, Los Angeles, 90045, US","ct":"2761.00","ev":"N","apc":"West Los Angeles","cpa":"Westchester - Playa del Rey","zone":"C2-1VL","solar":"N","pin_nbr":"102B173   100","use_code":"19","status_date":"12/15/2020","permit_group":"Building","refresh_time":"06/10/2026","type_lat_lon":"ADDRESS","business_unit":"Plan Check at Counter"},"geometry":{"type":"Point","coordinates":[-118.37043,33.97696]}},{"type":"Feature","properties":{"date":"2020-10-07T00:00:00.000Z","year":2020,"description":"SUPPLEMENTAL TO PERMIT #19048-10000-01179 TO REVISE LOCATION OF POLE SIGN. NO CHANGE TO AREA OR DIMENSIONS.","metadescription":"Sign. Onsite. SUPPLEMENTAL TO PERMIT #19048-10000-01179 TO REVISE LOCATION OF POLE SIGN. NO CHANGE TO AREA OR DIMENSIONS.. Permit Finaled. 6801 S LA CIENEGA BLVD","address":"6801 South La Cienega Boulevard, CA, Los Angeles, 90045, US","ct":"2761.00","ev":"N","apc":"West Los Angeles","cpa":"Westchester - Playa del Rey","zone":"C2-1VL","solar":"N","pin_nbr":"102B173   100","use_code":"19","status_date":"12/15/2020","permit_group":"Building","refresh_time":"06/10/2026","type_lat_lon":"ADDRESS","business_unit":"Plan Check at Counter"},"geometry":{"type":"Point","coordinates":[-118.37043,33.97696]}},{"type":"Feature","properties":{"date":"2020-08-19T00:00:00.000Z","year":2020,"description":"INSTALL (2), NEW , ON-SITE , ILLUMINATED  CHANNEL LETTER WALL SIGNS @ 72.41\" X 337.1\" EACH  (169.5 SQ.FT. )","metadescription":"Sign. Onsite. INSTALL (2), NEW , ON-SITE , ILLUMINATED  CHANNEL LETTER WALL SIGNS @ 72.41\" X 337.1\" EACH  (169.5 SQ.FT. ). Permit Finaled. 6855 S LA CIENEGA BLVD","address":"6855 South La Cienega Boulevard, CA, Los Angeles, 90045, US","ct":"2761.00","ev":"N","apc":"West Los Angeles","cpa":"Westchester - Playa del Rey","zone":"C2-1VL","solar":"N","pin_nbr":"102B173   135","use_code":"19","status_date":"01/06/2021","permit_group":"Building","refresh_time":"06/10/2026","type_lat_lon":"ADDRESS","business_unit":"Plan Check at Counter"},"geometry":{"type":"Point","coordinates":[-118.37051,33.97564]}},{"type":"Feature","properties":{"date":"2020-02-28T00:00:00.000Z","year":2020,"description":"Addition and alteration to (E) single family dwelling. Per engineering design.","metadescription":"Bldg-Addition. 1 or 2 Family Dwelling. Addition and alteration to (E) single family dwelling. Per engineering design.. CofO Issued. 5400 W 82ND ST","address":"5400 West 82Nd Street, CA, Los Angeles, 90045, US","ct":"2771.00","ev":"N","apc":"West Los Angeles","cpa":"Westchester - Playa del Rey","zone":"R1-1","solar":"N","pin_nbr":"099B173   765","use_code":"1","status_date":"09/08/2020","construction":"Type V-B Construction","permit_group":"Building","refresh_time":"06/10/2026","type_lat_lon":"BUILDING","business_unit":"Expanded Counter Plan Check","square_footage":"1694"},"geometry":{"type":"Point","coordinates":[-118.37375291,33.9637923]}},{"type":"Feature","properties":{"date":"2020-01-31T00:00:00.000Z","year":2020,"description":"Interior alteration to (E) condominium unit.  Remove interior wall & replace with (N) steel beam and wood column per engineer design.","metadescription":"Bldg-Alter/Repair. Apartment. Interior alteration to (E) condominium unit.  Remove interior wall & replace with (N) steel beam and wood column per engineer design.. Permit Finaled. 7001 S LA CIENEGA BLVD 214","address":"1-54, 7001 South La Cienega Boulevard, CA, Los Angeles, 90045, US","ct":"2761.00","ev":"N","apc":"West Los Angeles","cpa":"Westchester - Playa del Rey","zone":"R3-1","solar":"N","pin_nbr":"102B173   329","use_code":"35","status_date":"06/27/2020","permit_group":"Building","refresh_time":"06/10/2026","type_lat_lon":"ADDRESS","business_unit":"Plan Check at Counter"},"geometry":{"type":"Point","coordinates":[-118.3705,33.97365]}},{"type":"Feature","properties":{"date":"2019-09-19T00:00:00.000Z","year":2019,"description":"CONVERT (E) (18'x15')GARAGE TO ACCESSORY DWELLING UNIT AND  ADD (13'x15') GARAGE per AB 494 and SB 229AND REMOVE (18'x5') FROM (E) GARAGE. ALL WORK PER WOOD FRAME PRESCRIPTIVE DESIGN.","metadescription":"Bldg-Addition. 1 or 2 Family Dwelling. CONVERT (E) (18'x15')GARAGE TO ACCESSORY DWELLING UNIT AND  ADD (13'x15') GARAGE per AB 494 and SB 229AND REMOVE (18'x5') FROM (E) GARAGE. ALL WORK PER WOOD FRAME PRESCRIPTIVE DESIGN.. CofO Issued. 2022 W 92ND ST","address":"2020 West 92Nd Street, CA, Los Angeles, 90047, US","ct":"2380.00","ev":"N","apc":"South Los Angeles","cpa":"South Los Angeles","zone":"R1-1","solar":"N","pin_nbr":"094-5A191 164","use_code":"1","geolocation":"POINT (-118.31417627 33.95232828)","status_date":"01/15/2021","construction":"Type V-B Construction","permit_group":"Building","refresh_time":"06/10/2026","type_lat_lon":"BUILDING","business_unit":"Expanded Counter Plan Check","square_footage":"465"},"geometry":{"type":"Point","coordinates":[-118.31417627,33.95232828]}},{"type":"Feature","properties":{"date":"2019-08-29T00:00:00.000Z","year":2019,"description":"INSTALL ONE NEW ILLUMINATED MONUMENT SIGN. 7.5' X 10' PER ENGINEERING","metadescription":"Sign. Onsite. INSTALL ONE NEW ILLUMINATED MONUMENT SIGN. 7.5' X 10' PER ENGINEERING. Issued. 6823 S LA CIENEGA BLVD","address":"6823 South La Cienega Boulevard, CA, Los Angeles, 90045, US","ct":"2761.00","ev":"N","apc":"West Los Angeles","cpa":"Westchester - Playa del Rey","zone":"C2-1VL","solar":"N","pin_nbr":"102B173   135","use_code":"19","geolocation":"POINT (-118.37052 33.97634)","status_date":"08/29/2019","permit_group":"Building","refresh_time":"06/10/2026","type_lat_lon":"ADDRESS","business_unit":"Plan Check at Counter"},"geometry":{"type":"Point","coordinates":[-118.37052,33.97634]}},{"type":"Feature","properties":{"date":"2019-08-20T00:00:00.000Z","year":2019,"description":"Supplemental permit to 19016-30000-18814 to revise scope of work  for interior renovation to update kitchen and master suite, as well as adding a powder room/laundry room within the (e) square footage. Replacing exterior doors at (e) living room and master bedroom by (n) bigger doors. Per engineering design.","metadescription":"Bldg-Alter/Repair. 1 or 2 Family Dwelling. Supplemental permit to 19016-30000-18814 to revise scope of work  for interior renovation to update kitchen and master suite, as well as adding a powder room/laundry room within the (e) square footage. Replacing exterior doors at (e) living room and master bedroom by (n) bigger doors. Per engineering design.. Permit Finaled. 7158 S KNOWLTON PL","address":"7164 Knowlton Place, CA, Los Angeles, 90045, US","ct":"2761.00","ev":"N","apc":"West Los Angeles","cpa":"Westchester - Playa del Rey","zone":"R1-1","solar":"N","pin_nbr":"099B173    83","use_code":"1","geolocation":"POINT (-118.3716 33.97053)","status_date":"11/09/2019","permit_group":"Building","refresh_time":"06/10/2026","type_lat_lon":"ADDRESS","business_unit":"Plan Check at Counter"},"geometry":{"type":"Point","coordinates":[-118.3716,33.97053]}},{"type":"Feature","properties":{"date":"2019-07-26T00:00:00.000Z","year":2019,"description":"Addition to rear of (E) 1 story SFD. Per engineered design.","metadescription":"Bldg-Addition. 1 or 2 Family Dwelling. Addition to rear of (E) 1 story SFD. Per engineered design.. CofO Issued. 7128 S KNOWLTON PL","address":"7128 Knowlton Place, CA, Los Angeles, 90045, US","ct":"2761.00","ev":"N","apc":"West Los Angeles","cpa":"Westchester - Playa del Rey","zone":"R1-1","solar":"N","pin_nbr":"102B173   842","use_code":"1","geolocation":"POINT (-118.37101014 33.97139526)","status_date":"02/20/2020","construction":"Type V-B Construction","permit_group":"Building","refresh_time":"06/10/2026","type_lat_lon":"BUILDING","business_unit":"Expanded Counter Plan Check","square_footage":"1726"},"geometry":{"type":"Point","coordinates":[-118.37101014,33.97139526]}},{"type":"Feature","properties":{"date":"2019-07-11T00:00:00.000Z","year":2019,"description":"Interior remodel to (e) 1-story s.f.d. Remodel area include kitchen, 2 bathrooms, master bedroom, and laundry room.  (e) windows to be replaced w/new. Per engineered design.","metadescription":"Bldg-Alter/Repair. 1 or 2 Family Dwelling. Interior remodel to (e) 1-story s.f.d. Remodel area include kitchen, 2 bathrooms, master bedroom, and laundry room.  (e) windows to be replaced w/new. Per engineered design.. Permit Finaled. 7158 S KNOWLTON PL","address":"7164 Knowlton Place, CA, Los Angeles, 90045, US","ct":"2761.00","ev":"N","apc":"West Los Angeles","cpa":"Westchester - Playa del Rey","zone":"R1-1","solar":"N","pin_nbr":"099B173    83","use_code":"1","geolocation":"POINT (-118.3716 33.97053)","status_date":"11/23/2019","permit_group":"Building","refresh_time":"06/10/2026","type_lat_lon":"ADDRESS","business_unit":"Expanded Counter Plan Check"},"geometry":{"type":"Point","coordinates":[-118.3716,33.97053]}},{"type":"Feature","properties":{"date":"2019-04-30T00:00:00.000Z","year":2019,"description":"[3] NEW ILLUMINATED INFROMATION SIGMS 1'-2\"x 2'-7\", 3.18 SQFT, MAX HEIGHT: 1'-2\"[1] NON ILLUMINATED INFROMATION SIGN, 1' x 2'-7\", 2.6 SQFT, 15' ABOVE GRADE (TO THE BOTTOM OF SIGN)","metadescription":"Sign. Onsite. [3] NEW ILLUMINATED INFROMATION SIGMS 1'-2\"x 2'-7\", 3.18 SQFT, MAX HEIGHT: 1'-2\"[1] NON ILLUMINATED INFROMATION SIGN, 1' x 2'-7\", 2.6 SQFT, 15' ABOVE GRADE (TO THE BOTTOM OF SIGN). Permit Closed. 6801 S LA CIENEGA BLVD","address":"6801 South La Cienega Boulevard, CA, Los Angeles, 90045, US","ct":"2761.00","ev":"N","apc":"West Los Angeles","cpa":"Westchester - Playa del Rey","zone":"C2-1VL","solar":"N","pin_nbr":"102B173   100","use_code":"19","geolocation":"POINT (-118.37043 33.97696)","status_date":"12/15/2020","permit_group":"Building","refresh_time":"06/10/2026","type_lat_lon":"ADDRESS","business_unit":"Plan Check at Counter"},"geometry":{"type":"Point","coordinates":[-118.37043,33.97696]}},{"type":"Feature","properties":{"date":"2019-04-16T00:00:00.000Z","year":2019,"description":"(5) ILLUMINATED WALL SIGNS -  (4) \"CHICK-FIL-A\"  5' X 11'9\",  (1) LOGO CABINET 5' X 5'","metadescription":"Sign. Onsite. (5) ILLUMINATED WALL SIGNS -  (4) \"CHICK-FIL-A\"  5' X 11'9\",  (1) LOGO CABINET 5' X 5'. Permit Finaled. 6801 S LA CIENEGA BLVD","address":"6801 South La Cienega Boulevard, CA, Los Angeles, 90045, US","ct":"2761.00","ev":"N","apc":"West Los Angeles","cpa":"Westchester - Playa del Rey","zone":"C2-1VL","solar":"N","pin_nbr":"102B173   100","use_code":"19","geolocation":"POINT (-118.37043 33.97696)","status_date":"12/15/2020","permit_group":"Building","refresh_time":"06/10/2026","type_lat_lon":"ADDRESS","business_unit":"Plan Check at Counter"},"geometry":{"type":"Point","coordinates":[-118.37043,33.97696]}},{"type":"Feature","properties":{"date":"2018-11-21T00:00:00.000Z","year":2018,"description":"ADD IRREGULAR 25'-7\" X 34'-6\" FOR (N) BEDROOMS/BATHROOMS/CLOSETS TO AN (E) 1-STORY SFD. ALL WORK PER DESIGN.","metadescription":"Bldg-Addition. 1 or 2 Family Dwelling. ADD IRREGULAR 25'-7\" X 34'-6\" FOR (N) BEDROOMS/BATHROOMS/CLOSETS TO AN (E) 1-STORY SFD. ALL WORK PER DESIGN.. CofO Issued. 7860 S TOLAND AVE","address":"7860 Toland Avenue, CA, Los Angeles, 90045, US","ct":"2771.00","ev":"N","apc":"West Los Angeles","cpa":"Westchester - Playa del Rey","zone":"R1-1","solar":"N","pin_nbr":"099B173   701","use_code":"1","geolocation":"POINT (-118.374199 33.96446265)","status_date":"03/29/2023","construction":"Type V-B Construction","permit_group":"Building","refresh_time":"06/10/2026","type_lat_lon":"BUILDING","business_unit":"Appointment Plan Check","square_footage":"656"},"geometry":{"type":"Point","coordinates":[-118.374199,33.96446265]}},{"type":"Feature","properties":{"date":"2018-10-22T00:00:00.000Z","year":2018,"description":"BLOCK WALL - 8' ht. x 68' long per engr's design","metadescription":"Nonbldg-New. Commercial. BLOCK WALL - 8' ht. x 68' long per engr's design. Permit Expired. 6537 S VICTORIA AVE","address":"6537 South Victoria Avenue, CA, Los Angeles, 90043, US","ct":"2349.02","ev":"N","apc":"South Los Angeles","cpa":"West Adams - Baldwin Hills - Leimert","zone":"OS-1XL","solar":"N","height":"8","pin_nbr":"102B185    48","use_code":"23","geolocation":"POINT (-118.33253 33.9795)","status_date":"03/24/2026","permit_group":"Building","refresh_time":"06/10/2026","type_lat_lon":"ADDRESS","business_unit":"Regular Plan Check"},"geometry":{"type":"Point","coordinates":[-118.33253,33.9795]}},{"type":"Feature","properties":{"date":"2018-10-03T00:00:00.000Z","year":2018,"description":"SUPPLEMENTAL TO 18014-70000-04537 TO REVISE FRAMING PLAN (FLOOR JOIST AND SHEAR WALL) OF ORIGINAL PLAN PER ENGINEER DESIGN.  NO OTHER CHANGE","metadescription":"Bldg-Alter/Repair. Apartment. SUPPLEMENTAL TO 18014-70000-04537 TO REVISE FRAMING PLAN (FLOOR JOIST AND SHEAR WALL) OF ORIGINAL PLAN PER ENGINEER DESIGN.  NO OTHER CHANGE. Permit Finaled. 6941 S GLASGOW AVE 1-4","address":"6941 Glasgow Avenue, CA, Los Angeles, 90045, US","ct":"2761.00","ev":"N","apc":"West Los Angeles","cpa":"Westchester - Playa del Rey","zone":"R3-1","solar":"N","pin_nbr":"102B173   331","use_code":"5","geolocation":"POINT (-118.37237 33.97412)","status_date":"02/10/2022","permit_group":"Building","refresh_time":"06/10/2026","type_lat_lon":"ADDRESS","business_unit":"Plan Check at Counter"},"geometry":{"type":"Point","coordinates":[-118.37237,33.97412]}},{"type":"Feature","properties":{"date":"2018-09-10T00:00:00.000Z","year":2018,"description":"ADDITION TO (E) APARTMENT AT UNIT 6941 FOR A (N) BATHROOM.  PER ENGINEER DESIGN","metadescription":"Bldg-Addition. Apartment. ADDITION TO (E) APARTMENT AT UNIT 6941 FOR A (N) BATHROOM.  PER ENGINEER DESIGN. CofO Issued. 6941 S GLASGOW AVE","address":"1-4, 6939 Glasgow Avenue, CA, Los Angeles, 90045, US","ct":"2761.00","ev":"N","apc":"West Los Angeles","cpa":"Westchester - Playa del Rey","zone":"R3-1","solar":"N","pin_nbr":"102B173   331","use_code":"5","geolocation":"POINT (-118.37253496 33.97415259)","status_date":"02/11/2022","construction":"Type V-B Construction","permit_group":"Building","refresh_time":"06/10/2026","type_lat_lon":"BUILDING","business_unit":"Plan Check at Counter","square_footage":"64"},"geometry":{"type":"Point","coordinates":[-118.37253496,33.97415259]}},{"type":"Feature","properties":{"date":"2018-06-21T00:00:00.000Z","year":2018,"description":"REMOVE (1) 14 X 48  SINGLE FACE BILLBOARD (672 SQ FT)  42' OVERALL HEIGHT; ORIGINAL PERMIT 1996LA 54180","metadescription":"Sign. Onsite. REMOVE (1) 14 X 48  SINGLE FACE BILLBOARD (672 SQ FT)  42' OVERALL HEIGHT; ORIGINAL PERMIT 1996LA 54180. Permit Finaled. 6825 S LA CIENEGA BLVD","address":"6841 South La Cienega Boulevard, CA, Los Angeles, 90045, US","ct":"2761.00","ev":"N","apc":"West Los Angeles","cpa":"Westchester - Playa del Rey","zone":"C2-1VL","solar":"N","pin_nbr":"102B173   135","use_code":"19","geolocation":"POINT (-118.37041 33.97622)","status_date":"07/11/2018","permit_group":"Building","refresh_time":"06/10/2026","type_lat_lon":"ADDRESS","business_unit":"Plan Check at Counter"},"geometry":{"type":"Point","coordinates":[-118.37041,33.97622]}},{"type":"Feature","properties":{"date":"2018-03-06T00:00:00.000Z","year":2018,"description":"FOUNDATION REPAIR. REMOVE AND REPLACE PORTION OF EXISTING FOUNDATION. REPLACING A DAMAGED HEADER WITH A NEW HEADER AT THE CLOSET OF THE MASTER BEDROOM. WORK DONE PER ENGINEER DESIGN","metadescription":"Bldg-Alter/Repair. 1 or 2 Family Dwelling. FOUNDATION REPAIR. REMOVE AND REPLACE PORTION OF EXISTING FOUNDATION. REPLACING A DAMAGED HEADER WITH A NEW HEADER AT THE CLOSET OF THE MASTER BEDROOM. WORK DONE PER ENGINEER DESIGN. Issued. 6303 S RIMPAU BLVD","address":"6303 South Rimpau Boulevard, CA, Los Angeles, 90043, US","ct":"2351.00","ev":"N","apc":"South Los Angeles","cpa":"West Adams - Baldwin Hills - Leimert","zone":"R1-1","solar":"N","pin_nbr":"105B181  1094","use_code":"1","geolocation":"POINT (-118.33973 33.98275)","status_date":"03/06/2018","permit_group":"Building","refresh_time":"06/10/2026","type_lat_lon":"ADDRESS","business_unit":"Plan Check at Counter"},"geometry":{"type":"Point","coordinates":[-118.33973,33.98275]}},{"type":"Feature","properties":{"date":"2017-11-15T00:00:00.000Z","year":2017,"description":"NEW WALL SIGN (8' X 19')  <<ART PANEL WITH CIRCLES & TRIANGLES>>","metadescription":"Sign. Onsite. NEW WALL SIGN (8' X 19')  <<ART PANEL WITH CIRCLES & TRIANGLES>>. Issued. 6570 S WEST BLVD","address":"6576 West Boulevard, CA, Los Angeles, 90043, US","ct":"2349.02","ev":"N","apc":"South Los Angeles","cpa":"West Adams - Baldwin Hills - Leimert","zone":"C2-1VL-CPIO","solar":"N","pin_nbr":"102B185    90","use_code":"19","geolocation":"POINT (-118.33503 33.97915)","status_date":"11/15/2017","permit_group":"Building","refresh_time":"06/10/2026","type_lat_lon":"ADDRESS","business_unit":"Plan Check at Counter"},"geometry":{"type":"Point","coordinates":[-118.33503,33.97915]}},{"type":"Feature","properties":{"date":"2017-02-27T00:00:00.000Z","year":2017,"description":"REMOVE (E) WALL BETWEEN KITCHEN AND LIVING ROOM AND REMODEL KITCHEN. ALL WORK PER DESIGN.","metadescription":"Bldg-Alter/Repair. 1 or 2 Family Dwelling. REMOVE (E) WALL BETWEEN KITCHEN AND LIVING ROOM AND REMODEL KITCHEN. ALL WORK PER DESIGN.. Permit Finaled. 5255 W GLASGOW WAY","address":"5255 Glasgow Way, CA, Los Angeles, 90045, US","ct":"2761.00","ev":"N","apc":"West Los Angeles","cpa":"Westchester - Playa del Rey","zone":"R1-1","solar":"N","pin_nbr":"102B173   490","use_code":"1","geolocation":"POINT (-118.37199 33.97244)","status_date":"05/23/2017","permit_group":"Building","refresh_time":"06/10/2026","type_lat_lon":"ADDRESS","business_unit":"Plan Check at Counter"},"geometry":{"type":"Point","coordinates":[-118.37199,33.97244]}},{"type":"Feature","properties":{"date":"2017-01-13T00:00:00.000Z","year":2017,"description":"(7) TEMPORARY WALL SIGNS (6'X20') ON TEMPRARY SOLID WOOD FENCE ON VACCANT LOT, RENEWAL.","metadescription":"Sign. Onsite. (7) TEMPORARY WALL SIGNS (6'X20') ON TEMPRARY SOLID WOOD FENCE ON VACCANT LOT, RENEWAL.. Permit Closed. 6801 S LA CIENEGA BLVD","address":"6801 South La Cienega Boulevard, CA, Los Angeles, 90045, US","ct":"2761.00","ev":"N","apc":"West Los Angeles","cpa":"Westchester - Playa del Rey","zone":"C2-1VL","solar":"N","pin_nbr":"102B173   100","use_code":"19","geolocation":"POINT (-118.37043 33.97696)","status_date":"01/24/2018","permit_group":"Building","refresh_time":"06/10/2026","type_lat_lon":"ADDRESS","business_unit":"Plan Check at Counter"},"geometry":{"type":"Point","coordinates":[-118.37043,33.97696]}},{"type":"Feature","properties":{"date":"2015-10-05T00:00:00.000Z","year":2015,"description":"ONE STORY ADDITION TO SFD:  ADD312 S.F.  NEW FAMILY ROOM/ENTERTAINMENT AT REAR OF RESIDENCE AND ADD 112 S.F. NEW WALK-IN CLOSET IN FRONT PER ENGINEER'S DESIGN.","metadescription":"Bldg-Addition. 1 or 2 Family Dwelling. ONE STORY ADDITION TO SFD:  ADD312 S.F.  NEW FAMILY ROOM/ENTERTAINMENT AT REAR OF RESIDENCE AND ADD 112 S.F. NEW WALK-IN CLOSET IN FRONT PER ENGINEER'S DESIGN.. Issued. 5517 W 82ND ST","address":"5517 West 82Nd Street, CA, Los Angeles, 90045, US","ct":"2771.00","ev":"N","apc":"West Los Angeles","cpa":"Westchester - Playa del Rey","zone":"R1-1","solar":"N","height":"16","pin_nbr":"099B173   719","use_code":"1","geolocation":"POINT (-118.37602249 33.96420931)","status_date":"10/05/2015","construction":"Type V-B Construction","permit_group":"Building","refresh_time":"06/10/2026","type_lat_lon":"BUILDING","business_unit":"Plan Check at Counter","square_footage":"1783"},"geometry":{"type":"Point","coordinates":[-118.37602249,33.96420931]}},{"type":"Feature","properties":{"date":"2014-09-05T00:00:00.000Z","year":2014,"description":"(7) TEMPORARY SIGNS (6' X 20') ON TEMPORARY SOLID WOOD FENCE SURROUNDING CONSTRUCTION SITE, PER ORDINANCE #179267 FOR A PERIOD OF NO MORE 2 YEARS FROM DATE ON WHICH PERMIT IS ISSUED.","metadescription":"Sign. Onsite. (7) TEMPORARY SIGNS (6' X 20') ON TEMPORARY SOLID WOOD FENCE SURROUNDING CONSTRUCTION SITE, PER ORDINANCE #179267 FOR A PERIOD OF NO MORE 2 YEARS FROM DATE ON WHICH PERMIT IS ISSUED.. Permit Expired. 6801 S LA CIENEGA BLVD","address":"6801 South La Cienega Boulevard, CA, Los Angeles, 90045, US","ct":"2761.00","ev":"N","apc":"West Los Angeles","cpa":"Westchester - Playa del Rey","zone":"C2-1VL","solar":"N","pin_nbr":"102B173   100","use_code":"19","geolocation":"POINT (-118.37043 33.97696)","status_date":"12/14/2016","permit_group":"Building","refresh_time":"06/10/2026","type_lat_lon":"ADDRESS","business_unit":"Plan Check at Counter"},"geometry":{"type":"Point","coordinates":[-118.37043,33.97696]}},{"type":"Feature","properties":{"date":"2013-03-19T00:00:00.000Z","year":2013,"description":"DEMOLITION/TAKE-DOWN OF OFF-SITE BILLBOARD SIGN.","metadescription":"Sign. Offsite. DEMOLITION/TAKE-DOWN OF OFF-SITE BILLBOARD SIGN.. Permit Finaled. 6854 S WEST BLVD","address":"6848 West Boulevard, CA, Los Angeles, 90043, US","ct":"2352.02","ev":"N","apc":"South Los Angeles","cpa":"West Adams - Baldwin Hills - Leimert","zone":"MR1-1VL","solar":"N","pin_nbr":"102B185   692","use_code":"19","geolocation":"POINT (-118.33505 33.97585)","status_date":"04/01/2013","permit_group":"Building","refresh_time":"06/10/2026","type_lat_lon":"ADDRESS","business_unit":"Regular Plan Check"},"geometry":{"type":"Point","coordinates":[-118.33505,33.97585]}},{"type":"Feature","properties":{"date":"2013-02-01T00:00:00.000Z","year":2013,"description":"CONSTRUCT ADDITION OF 499 SF TO ADD  NEW BEDROOM W/ BATHROOM AND EXTEND KITCHEN PER ENGINEER'S DESIGN; CONVERT (E) KITCHEN TO DINING ROOM.","metadescription":"Bldg-Addition. 1 or 2 Family Dwelling. CONSTRUCT ADDITION OF 499 SF TO ADD  NEW BEDROOM W/ BATHROOM AND EXTEND KITCHEN PER ENGINEER'S DESIGN; CONVERT (E) KITCHEN TO DINING ROOM.. CofO Issued. 7612 S MIDFIELD AVE","address":"7612 Midfield Avenue, CA, Inglewood, 90302, US","ct":"2771.00","ev":"N","apc":"West Los Angeles","cpa":"Westchester - Playa del Rey","zone":"R1-1","solar":"N","height":"13.75","pin_nbr":"099B173   296","use_code":"1","geolocation":"POINT (-118.37313 33.96802)","status_date":"05/07/2013","construction":"Type V-B Construction","permit_group":"Building","refresh_time":"06/10/2026","type_lat_lon":"ADDRESS","business_unit":"Plan Check at Counter","square_footage":"1311"},"geometry":{"type":"Point","coordinates":[-118.37313,33.96802]}},{"type":"Feature","properties":{"date":"2009-12-21T00:00:00.000Z","year":2009,"description":"Enclose existing 4' x 15' porch at front to turn it into a closet, replace existing fireplace, remove three non-bearing walls, and install new 4\" x 10\" beam per engineered design.  Includes related havc, and electrial.","metadescription":"Bldg-Alter/Repair. 1 or 2 Family Dwelling. Enclose existing 4' x 15' porch at front to turn it into a closet, replace existing fireplace, remove three non-bearing walls, and install new 4\" x 10\" beam per engineered design.  Includes related havc, and electrial.. Permit Finaled. 2158 W 81ST ST","address":"2158 West 81St Street, CA, Los Angeles, 90047, US","ct":"2381.00","ev":"N","apc":"South Los Angeles","cpa":"South Los Angeles","zone":"RD1.5-1","solar":"N","pin_nbr":"099B189   661","use_code":"2","geolocation":"POINT (-118.31748 33.96537)","status_date":"10/11/2012","permit_group":"Building","refresh_time":"06/10/2026","type_lat_lon":"ADDRESS","business_unit":"Plan Check at Counter"},"geometry":{"type":"Point","coordinates":[-118.31748,33.96537]}},{"type":"Feature","properties":{"date":"2009-09-04T00:00:00.000Z","year":2009,"description":"18'-0\" x 19'-6\" storage room addition at rear of existing detached garage per engineered design.  Related electrical.","metadescription":"Bldg-Addition. 1 or 2 Family Dwelling. 18'-0\" x 19'-6\" storage room addition at rear of existing detached garage per engineered design.  Related electrical.. Permit Expired. 8916 S VAN NESS AVE","address":"8916 South Van Ness Avenue, CA, Los Angeles, 90047, US","ct":"2384.00","ev":"N","apc":"South Los Angeles","cpa":"South Los Angeles","zone":"R1-1","solar":"N","pin_nbr":"096A191   256","use_code":"7","geolocation":"POINT (-118.31757 33.95573)","status_date":"05/21/2012","construction":"Type V-B Construction","permit_group":"Building","refresh_time":"06/10/2026","type_lat_lon":"ADDRESS","business_unit":"Plan Check at Counter","square_footage":"0"},"geometry":{"type":"Point","coordinates":[-118.31757,33.95573]}},{"type":"Feature","properties":{"date":"2009-05-20T00:00:00.000Z","year":2009,"description":"FIRST STORY 370 SQ. FT ADDITION AND ADD NEW SECOND STORY 596 SQ. FT WITH NEW DECK 154 SQ. FT. TO THE EXISTING SIGNLE FAMILY DWELLING.","metadescription":"Bldg-Addition. 1 or 2 Family Dwelling. FIRST STORY 370 SQ. FT ADDITION AND ADD NEW SECOND STORY 596 SQ. FT WITH NEW DECK 154 SQ. FT. TO THE EXISTING SIGNLE FAMILY DWELLING.. CofO Issued. 4141 W 64TH ST","address":"6330 Mecham Way, CA, Los Angeles, 90043, US","ct":"2351.00","ev":"N","apc":"South Los Angeles","cpa":"West Adams - Baldwin Hills - Leimert","zone":"R1-1","solar":"N","height":"21","pin_nbr":"105B181  1206","use_code":"1","geolocation":"POINT (-118.34707 33.98181)","status_date":"01/31/2018","construction":"Type V-B Construction","permit_group":"Building","refresh_time":"06/10/2026","type_lat_lon":"ADDRESS","business_unit":"Regular Plan Check","square_footage":"1396"},"geometry":{"type":"Point","coordinates":[-118.34707,33.98181]}},{"type":"Feature","properties":{"date":"2008-12-09T00:00:00.000Z","year":2008,"description":"TWO SETS LTRS;  NO ILLUM; WALL SIGN","metadescription":"Sign. Onsite. TWO SETS LTRS;  NO ILLUM; WALL SIGN. Permit Finaled. 8400 S ISIS AVE","address":"8320 Isis Avenue, CA, Los Angeles, 90045, US","ct":"2771.00","ev":"N","apc":"West Los Angeles","cpa":"Westchester - Playa del Rey","zone":"M2-1","solar":"N","pin_nbr":"096B173    60","use_code":"19","geolocation":"POINT (-118.37515 33.96213)","status_date":"03/18/2009","permit_group":"Building","refresh_time":"06/10/2026","type_lat_lon":"ADDRESS","business_unit":"Plan Check at Counter"},"geometry":{"type":"Point","coordinates":[-118.37515,33.96213]}},{"type":"Feature","properties":{"date":"2008-10-27T00:00:00.000Z","year":2008,"description":"GROUND FLOOR REMODEL OF 2ND STORY ADDITION 2 BEDROOMS 2 BATHROOMS PLAYROOM, GYM.   METHANE SITE DESIGN EXEMPT DUE TO ADDITION ONLY.","metadescription":"Bldg-Addition. 1 or 2 Family Dwelling. GROUND FLOOR REMODEL OF 2ND STORY ADDITION 2 BEDROOMS 2 BATHROOMS PLAYROOM, GYM.   METHANE SITE DESIGN EXEMPT DUE TO ADDITION ONLY.. CofO Issued. 7165 S KNOWLTON PL","address":"7171 Knowlton Place, CA, Los Angeles, 90045, US","ct":"2761.00","ev":"N","apc":"West Los Angeles","cpa":"Westchester - Playa del Rey","zone":"R1-1","solar":"N","height":"25","pin_nbr":"099B173    77","use_code":"1","geolocation":"POINT (-118.37196 33.97048)","status_date":"06/24/2009","construction":"Type V-B Construction","permit_group":"Building","refresh_time":"06/10/2026","type_lat_lon":"ADDRESS","business_unit":"Regular Plan Check","square_footage":"3390"},"geometry":{"type":"Point","coordinates":[-118.37196,33.97048]}},{"type":"Feature","properties":{"date":"2006-09-19T00:00:00.000Z","year":2006,"description":"INSTALLATION OF PALLET RACKS FOR STORAGE OF OFFICE + BATHROOM SUPPLIES.  NO CHANGE OF PARKING REQUIREMENT.  RACK IS DESIGNED FOR 400LB/LEVEL","metadescription":"Bldg-Alter/Repair. Commercial. INSTALLATION OF PALLET RACKS FOR STORAGE OF OFFICE + BATHROOM SUPPLIES.  NO CHANGE OF PARKING REQUIREMENT.  RACK IS DESIGNED FOR 400LB/LEVEL. Permit Finaled. 5450 W 83RD ST","address":"5450 West 83Rd Street, CA, Los Angeles, 90045, US","ct":"2771.00","ev":"N","apc":"West Los Angeles","cpa":"Westchester - Playa del Rey","zone":"M2-1","solar":"N","pin_nbr":"099B173   827","use_code":"22","geolocation":"POINT (-118.37482 33.96341)","status_date":"01/26/2009","permit_group":"Building","refresh_time":"06/10/2026","type_lat_lon":"ADDRESS","business_unit":"Regular Plan Check"},"geometry":{"type":"Point","coordinates":[-118.37482,33.96341]}},{"type":"Feature","properties":{"date":"2005-10-07T00:00:00.000Z","year":2005,"description":"Supplemental permit to the original PCIS 04014-30001-09745 to revise the location of the collar tie and  the holdown detail as per Architect's design.  No change in plot plan.","metadescription":"Bldg-Alter/Repair. 1 or 2 Family Dwelling. Supplemental permit to the original PCIS 04014-30001-09745 to revise the location of the collar tie and  the holdown detail as per Architect's design.  No change in plot plan.. Permit Finaled. 5407 W 77TH ST","address":"5401 West 77Th Street, CA, Los Angeles, 90045, US","ct":"2771.00","ev":"N","apc":"West Los Angeles","cpa":"Westchester - Playa del Rey","zone":"R1-1","solar":"N","pin_nbr":"099B173   345","use_code":"1","geolocation":"POINT (-118.37492 33.96752)","status_date":"02/01/2006","permit_group":"Building","refresh_time":"06/10/2026","type_lat_lon":"ADDRESS","business_unit":"Plan Check at Counter"},"geometry":{"type":"Point","coordinates":[-118.37492,33.96752]}},{"type":"Feature","properties":{"date":"2003-05-22T00:00:00.000Z","year":2003,"description":"PROPOSED (3) ILLUMINATED WALL SIGNS: (1) 3' x 14' FRONTS VAN NESS AVE. READS \"CLEANERS\",  (1) 3' x 10' FRONTS VAN NESS AVE. READS \"FOR LEASE\" & (1) 3' x 10' FRONTS CENTURY BLVD READS \"EZ CASH\".","metadescription":"Sign. Onsite. PROPOSED (3) ILLUMINATED WALL SIGNS: (1) 3' x 14' FRONTS VAN NESS AVE. READS \"CLEANERS\",  (1) 3' x 10' FRONTS VAN NESS AVE. READS \"FOR LEASE\" & (1) 3' x 10' FRONTS CENTURY BLVD READS \"EZ CASH\".. Permit Finaled. 2157 W CENTURY BLVD","address":"2157 West Century Boulevard, CA, Los Angeles, 90047, US","ct":"2380.00","ev":"N","apc":"South Los Angeles","cpa":"South Central Los Angeles","zone":"C2-1VL","solar":"N","pin_nbr":"091-5A191  53","use_code":"19","geolocation":"POINT (-118.3173 33.94563)","status_date":"07/16/2003","permit_group":"Building","refresh_time":"06/10/2026","type_lat_lon":"ADDRESS","business_unit":"Plan Check at Counter"},"geometry":{"type":"Point","coordinates":[-118.3173,33.94563]}}]}
