{"type":"FeatureCollection","features":[{"type":"Feature","properties":{"date":"2024-06-03T00:00:00.000Z","year":2024,"description":"SUPPLEMENTAL TO PERMIT 23047 10000 01788 TO ADD DRIVEWAY GATE AS PART OF THE POOL ENCLOSURE AND ALARMS TO ALL STRUCTURES.  NO CHNAGE IN THE INVENTORY.","metadescription":"Swimming-Pool/Spa. 1 or 2 Family Dwelling. SUPPLEMENTAL TO PERMIT 23047 10000 01788 TO ADD DRIVEWAY GATE AS PART OF THE POOL ENCLOSURE AND ALARMS TO ALL STRUCTURES.  NO CHNAGE IN THE INVENTORY.. Permit Finaled. 971 N SAN PASCUAL AVE","address":"971 San Pascual Avenue, CA, Los Angeles, 90042, US","ct":"1831.04","ev":"N","hl":"YES","apc":"East Los Angeles","cpa":"Northeast Los Angeles","zone":"R1-1-HCR","solar":"N","pin_nbr":"156A235   217","use_code":"20","status_date":"07/09/2024","permit_group":"Building","refresh_time":"06/10/2026","type_lat_lon":"ADDRESS","business_unit":"Plan Check at Counter"},"geometry":{"type":"Point","coordinates":[-118.16919,34.12082]}},{"type":"Feature","properties":{"date":"2015-03-13T00:00:00.000Z","year":2015,"description":"(N) 20' X 40' 4 CAR GARAGE WITH PROPOSED DRIVEWAY","metadescription":"Bldg-New. 1 or 2 Family Dwelling. (N) 20' X 40' 4 CAR GARAGE WITH PROPOSED DRIVEWAY. Issued. 5648-5648 1/2 E BERKSHIRE DR","address":"5648 1/2 Berkshire Drive, CA, Los Angeles, 90032, US","ct":"2011.20","ev":"N","apc":"East Los Angeles","cpa":"Northeast Los Angeles","zone":"R1-1","solar":"N","height":"11.75","pin_nbr":"147A239   125","use_code":"7","geolocation":"POINT (-118.15713 34.09754)","status_date":"03/13/2015","construction":"Type V-B Construction","permit_group":"Building","refresh_time":"06/10/2026","type_lat_lon":"ADDRESS","business_unit":"Regular Plan Check","square_footage":"0"},"geometry":{"type":"Point","coordinates":[-118.15713,34.09754]}}]}
