{"type":"FeatureCollection","features":[{"type":"Feature","properties":{"date":"2022-11-03T00:00:00.000Z","year":2022,"description":"New 3-story (31'-6\"x27'-1\"), 1777 SQFT single family dwelling with attached 2 car garage (419 SQFT) and UNCOVERED roof deck (4 of 4) w/ NFPA13D sprinklers throughout. Small lot subdivision pursuant to Tentative Tract Map No. / Parcel Map No. AA-2018-5571-PMLA-SL . A Certificate of Occupancy (temporary or Final) shall not be issued until after the final map has been recorded.","metadescription":"Bldg-New. 1 or 2 Family Dwelling. New 3-story (31'-6\"x27'-1\"), 1777 SQFT single family dwelling with attached 2 car garage (419 SQFT) and UNCOVERED roof deck (4 of 4) w/ NFPA13D sprinklers throughout. Small lot subdivision pursuant to Tentative Tract Map No. / Parcel Map No. AA-2018-5571-PMLA-SL . A Certificate of Occupancy (temporary or Final) shall not be issued until after the final map has been recorded.. CofO Issued. 714 1/2 N CHESTNUT AVE","address":"709 North Bridewell Street, CA, Los Angeles, 90042, US","ct":"1831.03","ev":"N","apc":"East Los Angeles","cpa":"Northeast Los Angeles","zone":"RD1.5-1","solar":"N","height":"39.5","pin_nbr":"154-5A235 237","use_code":"1","status_date":"01/28/2026","construction":"Type V-B Construction","permit_group":"Building","refresh_time":"06/10/2026","type_lat_lon":"ADDRESS","business_unit":"Regular Plan Check","square_footage":"1777"},"geometry":{"type":"Point","coordinates":[-118.17156,34.11684]}},{"type":"Feature","properties":{"date":"2018-02-07T00:00:00.000Z","year":2018,"description":"PROPOSED 4-STORY SFD WITH ATTACHED GARAGE PURSUANT TO TENTATIVE PARCEL MAP VTT 73755-SL.  A CERTIFICATE OF OCCUPANCY (TEMP. OR FINAL) SHALL NOT BE ISSUDED PRIOR TO MAP RECORDATION.  (PARCEL 5)","metadescription":"Bldg-New. 1 or 2 Family Dwelling. PROPOSED 4-STORY SFD WITH ATTACHED GARAGE PURSUANT TO TENTATIVE PARCEL MAP VTT 73755-SL.  A CERTIFICATE OF OCCUPANCY (TEMP. OR FINAL) SHALL NOT BE ISSUDED PRIOR TO MAP RECORDATION.  (PARCEL 5). CofO Issued. 812 N CHESTNUT AVE","address":"814 Chestnut Avenue, CA, Los Angeles, 90042, US","ct":"1831.03","ev":"N","apc":"East Los Angeles","cpa":"Northeast Los Angeles","zone":"RD1.5-1","solar":"N","height":"41","pin_nbr":"154-5A235 175","use_code":"1","geolocation":"POINT (-118.17062 34.11756)","status_date":"07/14/2025","construction":"Type V-B Construction","permit_group":"Building","refresh_time":"06/10/2026","type_lat_lon":"ADDRESS","business_unit":"Regular Plan Check","square_footage":"1350"},"geometry":{"type":"Point","coordinates":[-118.17062,34.11756]}}]}
