{"type":"FeatureCollection","features":[{"type":"Feature","properties":{"date":"2024-06-13T00:00:00.000Z","year":2024,"description":"EPLAN. Supplemenatal to 23016-10000-01441:+Structural revisions  +Change proposed bathroom layouts+Change portion of kitchen and pantry layout+Add new electrical fireplace in (E)family room+Change doors to bathrooms and close off two windows+Expand closet in (E)bathroom+Expand slider door size","metadescription":"Bldg-Alter/Repair. 1 or 2 Family Dwelling. EPLAN. Supplemenatal to 23016-10000-01441:+Structural revisions  +Change proposed bathroom layouts+Change portion of kitchen and pantry layout+Add new electrical fireplace in (E)family room+Change doors to bathrooms and close off two windows+Expand closet in (E)bathroom+Expand slider door size. Permit Finaled. 1713 W 247TH PL","address":"1713 247Th Place, CA, Lomita, 90717, US","ct":"2933.02","ev":"N","apc":"Harbor","cpa":"Wilmington - Harbor City","zone":"R1-1XL","solar":"N","pin_nbr":"039B193   447","use_code":"1","status_date":"10/09/2024","permit_group":"Building","refresh_time":"06/10/2026","type_lat_lon":"ADDRESS","business_unit":"Expanded Counter Plan Check"},"geometry":{"type":"Point","coordinates":[-118.30838,33.80029]}},{"type":"Feature","properties":{"date":"2024-06-12T00:00:00.000Z","year":2024,"description":"EPLAN. Supplemenatal to 23016-10000-01441: +Change proposed bathroom layouts+Change portion of kitchen and pantry layout+Add new electrical fireplace in (E)family room+Change doors to bathrooms and close off two windows+Expand closet in (E)bathroom","metadescription":"Bldg-Alter/Repair. 1 or 2 Family Dwelling. EPLAN. Supplemenatal to 23016-10000-01441: +Change proposed bathroom layouts+Change portion of kitchen and pantry layout+Add new electrical fireplace in (E)family room+Change doors to bathrooms and close off two windows+Expand closet in (E)bathroom. Permit Finaled. 1713 W 247TH PL","address":"1713 247Th Place, CA, Lomita, 90717, US","ct":"2933.02","ev":"N","apc":"Harbor","cpa":"Wilmington - Harbor City","zone":"R1-1XL","solar":"N","pin_nbr":"039B193   447","use_code":"1","status_date":"10/09/2024","permit_group":"Building","refresh_time":"06/10/2026","type_lat_lon":"ADDRESS","business_unit":"Plan Check at Counter"},"geometry":{"type":"Point","coordinates":[-118.30838,33.80029]}},{"type":"Feature","properties":{"date":"2023-02-01T00:00:00.000Z","year":2023,"description":"TENANT IMPROVEMENT TO EXISTING MCDONALD'S RESTAURANT-NEW FRONT COUNTER-NEW VALANCE-NEW ORDER READY BOARD & KITCHEN EQUIPMENT-NEW INTERIOR WALL/DOOR & WINDOW-RELOCATE EXISTING WINDOW & TRELLIS","metadescription":"Bldg-Addition. Commercial. TENANT IMPROVEMENT TO EXISTING MCDONALD'S RESTAURANT-NEW FRONT COUNTER-NEW VALANCE-NEW ORDER READY BOARD & KITCHEN EQUIPMENT-NEW INTERIOR WALL/DOOR & WINDOW-RELOCATE EXISTING WINDOW & TRELLIS. Permit Finaled. 1728 W LOMITA BLVD","address":"1728 Lomita Boulevard, CA, Lomita, 90717, US","ct":"2933.02","ev":"N","apc":"Harbor","cpa":"Wilmington - Harbor City","zone":"[Q]C2-1VL","solar":"N","pin_nbr":"036B193   950","use_code":"17","status_date":"04/20/2023","construction":"Type V-B Construction","permit_group":"Building","refresh_time":"06/10/2026","type_lat_lon":"ADDRESS","business_unit":"Regular Plan Check","square_footage":"0"},"geometry":{"type":"Point","coordinates":[-118.30846,33.79764]}},{"type":"Feature","properties":{"date":"2011-12-20T00:00:00.000Z","year":2011,"description":"CHANGE OUT 10 WINDOWS AND 1 DOOR (SAME SIZE/TYPE FOR RESIDENTIAL BUILDINGS ONLY)","metadescription":"Bldg-Alter/Repair. 1 or 2 Family Dwelling. CHANGE OUT 10 WINDOWS AND 1 DOOR (SAME SIZE/TYPE FOR RESIDENTIAL BUILDINGS ONLY). Permit Finaled. 1731 W 251ST ST","address":"1729 251St Street, CA, Lomita, 90717, US","ct":"2933.02","ev":"N","apc":"Harbor","cpa":"Wilmington - Harbor City","zone":"R2-1XL","solar":"N","pin_nbr":"036B193    82","use_code":"1","geolocation":"POINT (-118.30868 33.7969)","status_date":"02/13/2012","permit_group":"Building","refresh_time":"06/10/2026","type_lat_lon":"ADDRESS","business_unit":"Express Permit"},"geometry":{"type":"Point","coordinates":[-118.30868,33.7969]}},{"type":"Feature","properties":{"date":"1998-11-18T00:00:00.000Z","year":1998,"description":"REPLACE (1) WINDOW (SAME SIZE), REPLACE 2 DOORS W/FRENCH DOORS(SAME SIZE) REMOVE 6' OF WALL TO CREATE A 9' OPENING PER TYPE V SHEET","metadescription":"Bldg-Alter/Repair. 1 or 2 Family Dwelling. REPLACE (1) WINDOW (SAME SIZE), REPLACE 2 DOORS W/FRENCH DOORS(SAME SIZE) REMOVE 6' OF WALL TO CREATE A 9' OPENING PER TYPE V SHEET. Permit Closed. 1725 W 248TH ST","address":"1725 248Th Street, CA, Lomita, 90717, US","ct":"2933.02","ev":"N","apc":"Harbor","solar":"N","pin_nbr":"039B193   531","use_code":"1","geolocation":"POINT (-118.30875 33.79955)","status_date":"12/14/1999","permit_group":"Building","refresh_time":"06/10/2026","type_lat_lon":"ADDRESS","business_unit":"Plan Check at Counter"},"geometry":{"type":"Point","coordinates":[-118.30875,33.79955]}}]}
