{"type":"FeatureCollection","features":[{"type":"Feature","properties":{"date":"2018-02-27T00:00:00.000Z","year":2018,"description":"Reroof with 20 sqrs COMP SHINGLE roofing. Existing solid sheathing.Re-roof with Class A or B material weighing less than 6 pounds per sq. ft. For residential roof replacement > 50% of the total roof area, apply Cool Roof Product labeled and certified by Cool Roof Rating Council (CRRC). Cool Roof may be required for non-residential buildings per Title 24, Part 6, Section 149(b).","metadescription":"Bldg-Alter/Repair. 1 or 2 Family Dwelling. Reroof with 20 sqrs COMP SHINGLE roofing. Existing solid sheathing.Re-roof with Class A or B material weighing less than 6 pounds per sq. ft. For residential roof replacement > 50% of the total roof area, apply Cool Roof Product labeled and certified by Cool Roof Rating Council (CRRC). Cool Roof may be required for non-residential buildings per Title 24, Part 6, Section 149(b).. Permit Finaled. 1725 W 247TH PL","address":"1725 247Th Place, CA, Lomita, 90717, US","ct":"2933.02","ev":"N","apc":"Harbor","cpa":"Wilmington - Harbor City","zone":"R1-1XL","solar":"N","pin_nbr":"039B193   445","use_code":"1","geolocation":"POINT (-118.30875 33.80029)","status_date":"04/27/2018","permit_group":"Building","refresh_time":"06/10/2026","type_lat_lon":"ADDRESS","business_unit":"Express Permit"},"geometry":{"type":"Point","coordinates":[-118.30875,33.80029]}},{"type":"Feature","properties":{"date":"2017-01-24T00:00:00.000Z","year":2017,"description":"Reroof with 25 sqrs COMP SHINGLE roofing. Existing solid sheathing.Re-roof with Class A or B material weighing less than 6 pounds per sq. ft. For residential roof replacement > 50% of the total roof area, apply Cool Roof Product labeled and certified by Cool Roof Rating Council (CRRC). Cool Roof may be required for non-residential buildings per Title 24, Part 6, Section 149(b).","metadescription":"Bldg-Alter/Repair. 1 or 2 Family Dwelling. Reroof with 25 sqrs COMP SHINGLE roofing. Existing solid sheathing.Re-roof with Class A or B material weighing less than 6 pounds per sq. ft. For residential roof replacement > 50% of the total roof area, apply Cool Roof Product labeled and certified by Cool Roof Rating Council (CRRC). Cool Roof may be required for non-residential buildings per Title 24, Part 6, Section 149(b).. Permit Closed. 1718 W 248TH ST","address":"1718 248Th Street, CA, Lomita, 90717, US","ct":"2933.02","ev":"N","apc":"Harbor","cpa":"Wilmington - Harbor City","zone":"R1-1XL","solar":"N","pin_nbr":"039B193   575","use_code":"1","geolocation":"POINT (-118.30856 33.79935)","status_date":"04/06/2017","permit_group":"Building","refresh_time":"06/10/2026","type_lat_lon":"ADDRESS","business_unit":"Express Permit"},"geometry":{"type":"Point","coordinates":[-118.30856,33.79935]}},{"type":"Feature","properties":{"date":"2017-01-23T00:00:00.000Z","year":2017,"description":"Reroof with 25 sqrs COMP SHINGLE roofing over new solid sheathing.Re-roof with Class A or B material weighing less than 6 pounds per sq. ft. For residential roof replacement > 50% of the total roof area, apply Cool Roof Product labeled and certified by Cool Roof Rating Council (CRRC). Cool Roof may be required for non-residential buildings per Title 24, Part 6, Section 149(b).","metadescription":"Bldg-Alter/Repair. 1 or 2 Family Dwelling. Reroof with 25 sqrs COMP SHINGLE roofing over new solid sheathing.Re-roof with Class A or B material weighing less than 6 pounds per sq. ft. For residential roof replacement > 50% of the total roof area, apply Cool Roof Product labeled and certified by Cool Roof Rating Council (CRRC). Cool Roof may be required for non-residential buildings per Title 24, Part 6, Section 149(b).. Issued. 1718 W 248TH ST","address":"1718 248Th Street, CA, Lomita, 90717, US","ct":"2933.02","ev":"N","apc":"Harbor","cpa":"Wilmington - Harbor City","zone":"R1-1XL","solar":"N","pin_nbr":"039B193   575","use_code":"1","geolocation":"POINT (-118.30856 33.79935)","status_date":"01/23/2017","permit_group":"Building","refresh_time":"06/10/2026","type_lat_lon":"ADDRESS","business_unit":"Express Permit"},"geometry":{"type":"Point","coordinates":[-118.30856,33.79935]}},{"type":"Feature","properties":{"date":"2016-06-01T00:00:00.000Z","year":2016,"description":"RE-ROOF  15  SQUARES WITH CLASS A OR B MATERIAL WEIGHING LESS THAN 6 POUNDS PER. SQ FT. FOR RESIDENTIAL ROOF REPLACEMENT > 50% OF THE TOTAL ROOF AREA, APPLY COOL ROOF PRODUCT LABELED AND CERTIFIED BY COOL ROOF COUNCIL (CCRC). TEAR OFF EXISTING ROOFING.","metadescription":"Bldg-Alter/Repair. 1 or 2 Family Dwelling. RE-ROOF  15  SQUARES WITH CLASS A OR B MATERIAL WEIGHING LESS THAN 6 POUNDS PER. SQ FT. FOR RESIDENTIAL ROOF REPLACEMENT > 50% OF THE TOTAL ROOF AREA, APPLY COOL ROOF PRODUCT LABELED AND CERTIFIED BY COOL ROOF COUNCIL (CCRC). TEAR OFF EXISTING ROOFING.. Permit Finaled. 24713 S WESTERN AVE","address":"24713 Western Avenue, CA, Lomita, 90717, US","ct":"2933.02","ev":"N","apc":"Harbor","cpa":"Wilmington - Harbor City","zone":"R1-1XL","solar":"N","pin_nbr":"039B193   449","use_code":"1","geolocation":"POINT (-118.30784 33.80054)","status_date":"06/15/2016","permit_group":"Building","refresh_time":"06/10/2026","type_lat_lon":"ADDRESS","business_unit":"Express Permit"},"geometry":{"type":"Point","coordinates":[-118.30784,33.80054]}},{"type":"Feature","properties":{"date":"2015-06-04T00:00:00.000Z","year":2015,"description":"Reroof with 21 sqrs COMP SHINGLE roofing. Existing solid sheathing.Re-roof with Class A or B material weighing less than 6 pounds per sq. ft. For residential roof replacement > 50% of the total roof area, apply Cool Roof Product labeled and certified by Cool Roof Rating Council (CRRC). Cool Roof may be required for non-residential buildings per Title 24, Part 6, Section 149(b).","metadescription":"Bldg-Alter/Repair. 1 or 2 Family Dwelling. Reroof with 21 sqrs COMP SHINGLE roofing. Existing solid sheathing.Re-roof with Class A or B material weighing less than 6 pounds per sq. ft. For residential roof replacement > 50% of the total roof area, apply Cool Roof Product labeled and certified by Cool Roof Rating Council (CRRC). Cool Roof may be required for non-residential buildings per Title 24, Part 6, Section 149(b).. Permit Finaled. 1718 W 247TH PL","address":"1718 247Th Place, CA, Lomita, 90717, US","ct":"2933.02","ev":"N","apc":"Harbor","cpa":"Wilmington - Harbor City","zone":"R1-1XL","solar":"N","pin_nbr":"039B193   492","use_code":"1","geolocation":"POINT (-118.30856 33.8001)","status_date":"06/29/2015","permit_group":"Building","refresh_time":"06/10/2026","type_lat_lon":"ADDRESS","business_unit":"Express Permit"},"geometry":{"type":"Point","coordinates":[-118.30856,33.8001]}},{"type":"Feature","properties":{"date":"2011-12-20T00:00:00.000Z","year":2011,"description":"CHANGE OUT 10 WINDOWS AND 1 DOOR (SAME SIZE/TYPE FOR RESIDENTIAL BUILDINGS ONLY)","metadescription":"Bldg-Alter/Repair. 1 or 2 Family Dwelling. CHANGE OUT 10 WINDOWS AND 1 DOOR (SAME SIZE/TYPE FOR RESIDENTIAL BUILDINGS ONLY). Permit Finaled. 1731 W 251ST ST","address":"1729 251St Street, CA, Lomita, 90717, US","ct":"2933.02","ev":"N","apc":"Harbor","cpa":"Wilmington - Harbor City","zone":"R2-1XL","solar":"N","pin_nbr":"036B193    82","use_code":"1","geolocation":"POINT (-118.30868 33.7969)","status_date":"02/13/2012","permit_group":"Building","refresh_time":"06/10/2026","type_lat_lon":"ADDRESS","business_unit":"Express Permit"},"geometry":{"type":"Point","coordinates":[-118.30868,33.7969]}}]}
