{"type":"FeatureCollection","features":[{"type":"Feature","properties":{"date":"2021-04-19T00:00:00.000Z","year":2021,"description":"FIRE DAMAGED REPAIR OF ROOF FRAMING AND CEILING AND REMODEL INTERIOR OF (E) 1 STORY SFD.","metadescription":"Bldg-Alter/Repair. 1 or 2 Family Dwelling. FIRE DAMAGED REPAIR OF ROOF FRAMING AND CEILING AND REMODEL INTERIOR OF (E) 1 STORY SFD.. Permit Finaled. 1729 W 251ST ST","address":"1729 251St Street, CA, Lomita, 90717, US","ct":"2933.02","ev":"N","apc":"Harbor","cpa":"Wilmington - Harbor City","zone":"R2-1XL","solar":"N","pin_nbr":"036B193    82","use_code":"1","status_date":"07/19/2022","permit_group":"Building","refresh_time":"06/10/2026","type_lat_lon":"ADDRESS","business_unit":"Regular Plan Check"},"geometry":{"type":"Point","coordinates":[-118.30846,33.7969]}},{"type":"Feature","properties":{"date":"2018-02-27T00:00:00.000Z","year":2018,"description":"Reroof with 20 sqrs COMP SHINGLE roofing. Existing solid sheathing.Re-roof with Class A or B material weighing less than 6 pounds per sq. ft. For residential roof replacement > 50% of the total roof area, apply Cool Roof Product labeled and certified by Cool Roof Rating Council (CRRC). Cool Roof may be required for non-residential buildings per Title 24, Part 6, Section 149(b).","metadescription":"Bldg-Alter/Repair. 1 or 2 Family Dwelling. Reroof with 20 sqrs COMP SHINGLE roofing. Existing solid sheathing.Re-roof with Class A or B material weighing less than 6 pounds per sq. ft. For residential roof replacement > 50% of the total roof area, apply Cool Roof Product labeled and certified by Cool Roof Rating Council (CRRC). Cool Roof may be required for non-residential buildings per Title 24, Part 6, Section 149(b).. Permit Finaled. 1725 W 247TH PL","address":"1725 247Th Place, CA, Lomita, 90717, US","ct":"2933.02","ev":"N","apc":"Harbor","cpa":"Wilmington - Harbor City","zone":"R1-1XL","solar":"N","pin_nbr":"039B193   445","use_code":"1","geolocation":"POINT (-118.30875 33.80029)","status_date":"04/27/2018","permit_group":"Building","refresh_time":"06/10/2026","type_lat_lon":"ADDRESS","business_unit":"Express Permit"},"geometry":{"type":"Point","coordinates":[-118.30875,33.80029]}},{"type":"Feature","properties":{"date":"2017-01-24T00:00:00.000Z","year":2017,"description":"Reroof with 25 sqrs COMP SHINGLE roofing. Existing solid sheathing.Re-roof with Class A or B material weighing less than 6 pounds per sq. ft. For residential roof replacement > 50% of the total roof area, apply Cool Roof Product labeled and certified by Cool Roof Rating Council (CRRC). Cool Roof may be required for non-residential buildings per Title 24, Part 6, Section 149(b).","metadescription":"Bldg-Alter/Repair. 1 or 2 Family Dwelling. Reroof with 25 sqrs COMP SHINGLE roofing. Existing solid sheathing.Re-roof with Class A or B material weighing less than 6 pounds per sq. ft. For residential roof replacement > 50% of the total roof area, apply Cool Roof Product labeled and certified by Cool Roof Rating Council (CRRC). Cool Roof may be required for non-residential buildings per Title 24, Part 6, Section 149(b).. Permit Closed. 1718 W 248TH ST","address":"1718 248Th Street, CA, Lomita, 90717, US","ct":"2933.02","ev":"N","apc":"Harbor","cpa":"Wilmington - Harbor City","zone":"R1-1XL","solar":"N","pin_nbr":"039B193   575","use_code":"1","geolocation":"POINT (-118.30856 33.79935)","status_date":"04/06/2017","permit_group":"Building","refresh_time":"06/10/2026","type_lat_lon":"ADDRESS","business_unit":"Express Permit"},"geometry":{"type":"Point","coordinates":[-118.30856,33.79935]}},{"type":"Feature","properties":{"date":"2017-01-23T00:00:00.000Z","year":2017,"description":"Reroof with 25 sqrs COMP SHINGLE roofing over new solid sheathing.Re-roof with Class A or B material weighing less than 6 pounds per sq. ft. For residential roof replacement > 50% of the total roof area, apply Cool Roof Product labeled and certified by Cool Roof Rating Council (CRRC). Cool Roof may be required for non-residential buildings per Title 24, Part 6, Section 149(b).","metadescription":"Bldg-Alter/Repair. 1 or 2 Family Dwelling. Reroof with 25 sqrs COMP SHINGLE roofing over new solid sheathing.Re-roof with Class A or B material weighing less than 6 pounds per sq. ft. For residential roof replacement > 50% of the total roof area, apply Cool Roof Product labeled and certified by Cool Roof Rating Council (CRRC). Cool Roof may be required for non-residential buildings per Title 24, Part 6, Section 149(b).. Issued. 1718 W 248TH ST","address":"1718 248Th Street, CA, Lomita, 90717, US","ct":"2933.02","ev":"N","apc":"Harbor","cpa":"Wilmington - Harbor City","zone":"R1-1XL","solar":"N","pin_nbr":"039B193   575","use_code":"1","geolocation":"POINT (-118.30856 33.79935)","status_date":"01/23/2017","permit_group":"Building","refresh_time":"06/10/2026","type_lat_lon":"ADDRESS","business_unit":"Express Permit"},"geometry":{"type":"Point","coordinates":[-118.30856,33.79935]}},{"type":"Feature","properties":{"date":"2016-06-01T00:00:00.000Z","year":2016,"description":"RE-ROOF  15  SQUARES WITH CLASS A OR B MATERIAL WEIGHING LESS THAN 6 POUNDS PER. SQ FT. FOR RESIDENTIAL ROOF REPLACEMENT > 50% OF THE TOTAL ROOF AREA, APPLY COOL ROOF PRODUCT LABELED AND CERTIFIED BY COOL ROOF COUNCIL (CCRC). TEAR OFF EXISTING ROOFING.","metadescription":"Bldg-Alter/Repair. 1 or 2 Family Dwelling. RE-ROOF  15  SQUARES WITH CLASS A OR B MATERIAL WEIGHING LESS THAN 6 POUNDS PER. SQ FT. FOR RESIDENTIAL ROOF REPLACEMENT > 50% OF THE TOTAL ROOF AREA, APPLY COOL ROOF PRODUCT LABELED AND CERTIFIED BY COOL ROOF COUNCIL (CCRC). TEAR OFF EXISTING ROOFING.. Permit Finaled. 24713 S WESTERN AVE","address":"24713 Western Avenue, CA, Lomita, 90717, US","ct":"2933.02","ev":"N","apc":"Harbor","cpa":"Wilmington - Harbor City","zone":"R1-1XL","solar":"N","pin_nbr":"039B193   449","use_code":"1","geolocation":"POINT (-118.30784 33.80054)","status_date":"06/15/2016","permit_group":"Building","refresh_time":"06/10/2026","type_lat_lon":"ADDRESS","business_unit":"Express Permit"},"geometry":{"type":"Point","coordinates":[-118.30784,33.80054]}},{"type":"Feature","properties":{"date":"2015-06-04T00:00:00.000Z","year":2015,"description":"Reroof with 21 sqrs COMP SHINGLE roofing. Existing solid sheathing.Re-roof with Class A or B material weighing less than 6 pounds per sq. ft. For residential roof replacement > 50% of the total roof area, apply Cool Roof Product labeled and certified by Cool Roof Rating Council (CRRC). Cool Roof may be required for non-residential buildings per Title 24, Part 6, Section 149(b).","metadescription":"Bldg-Alter/Repair. 1 or 2 Family Dwelling. Reroof with 21 sqrs COMP SHINGLE roofing. Existing solid sheathing.Re-roof with Class A or B material weighing less than 6 pounds per sq. ft. For residential roof replacement > 50% of the total roof area, apply Cool Roof Product labeled and certified by Cool Roof Rating Council (CRRC). Cool Roof may be required for non-residential buildings per Title 24, Part 6, Section 149(b).. Permit Finaled. 1718 W 247TH PL","address":"1718 247Th Place, CA, Lomita, 90717, US","ct":"2933.02","ev":"N","apc":"Harbor","cpa":"Wilmington - Harbor City","zone":"R1-1XL","solar":"N","pin_nbr":"039B193   492","use_code":"1","geolocation":"POINT (-118.30856 33.8001)","status_date":"06/29/2015","permit_group":"Building","refresh_time":"06/10/2026","type_lat_lon":"ADDRESS","business_unit":"Express Permit"},"geometry":{"type":"Point","coordinates":[-118.30856,33.8001]}},{"type":"Feature","properties":{"date":"2015-01-12T00:00:00.000Z","year":2015,"description":"TEAR OFF EXISTING ROOFING. RE-ROOF W/CLASS 'A' OR 'B' MATERIALS WEIGHING LESS THAN 6 POUNDS PER SQ. FT.","metadescription":"Bldg-Alter/Repair. 1 or 2 Family Dwelling. TEAR OFF EXISTING ROOFING. RE-ROOF W/CLASS 'A' OR 'B' MATERIALS WEIGHING LESS THAN 6 POUNDS PER SQ. FT.. Permit Finaled. 1700 W 247TH PL","address":"1700 247Th Place, CA, Lomita, 90717, US","ct":"2933.02","ev":"N","apc":"Harbor","cpa":"Wilmington - Harbor City","zone":"R1-1XL","solar":"N","pin_nbr":"039B193   495","use_code":"1","geolocation":"POINT (-118.30802 33.8001)","status_date":"01/27/2015","permit_group":"Building","refresh_time":"06/10/2026","type_lat_lon":"ADDRESS","business_unit":"Express Permit"},"geometry":{"type":"Point","coordinates":[-118.30802,33.8001]}},{"type":"Feature","properties":{"date":"2014-10-14T00:00:00.000Z","year":2014,"description":"TEAR OFF EXISTING ROOFING. RE-ROOF 24 SQUARES W/CLASS 'A' OR 'B' MATERIALS WEIGHING LESS THAN 6 POUNDS PER SQ. FT. INSTALL BUILT UP ROOF/HOT MOP (MAX. 1 OVERLAY).","metadescription":"Bldg-Alter/Repair. Apartment. TEAR OFF EXISTING ROOFING. RE-ROOF 24 SQUARES W/CLASS 'A' OR 'B' MATERIALS WEIGHING LESS THAN 6 POUNDS PER SQ. FT. INSTALL BUILT UP ROOF/HOT MOP (MAX. 1 OVERLAY).. Permit Finaled. 1709 W 251ST ST 1-6","address":"1-6, 1709 251St Street, CA, Lomita, 90717, US","ct":"2933.02","ev":"N","apc":"Harbor","cpa":"Wilmington - Harbor City","zone":"[Q]R3-1VL","solar":"N","pin_nbr":"036B193    85","use_code":"5","geolocation":"POINT (-118.30802 33.79688)","status_date":"10/21/2014","permit_group":"Building","refresh_time":"06/10/2026","type_lat_lon":"ADDRESS","business_unit":"Express Permit"},"geometry":{"type":"Point","coordinates":[-118.30802,33.79688]}},{"type":"Feature","properties":{"date":"2013-10-31T00:00:00.000Z","year":2013,"description":"REROOF 17 SQUARES W/CLASS 'A' OR 'B' MATERIALS WEIGHING LESS THAN 6 POUNDS PER SQ.FT.  INSTALL FIBERGLASS OR ASPH. SHINGLES.","metadescription":"Bldg-Alter/Repair. 1 or 2 Family Dwelling. REROOF 17 SQUARES W/CLASS 'A' OR 'B' MATERIALS WEIGHING LESS THAN 6 POUNDS PER SQ.FT.  INSTALL FIBERGLASS OR ASPH. SHINGLES.. Permit Finaled. 1707 W 247TH ST","address":"1707 247Th Street, CA, Lomita, 90717, US","ct":"2933.02","ev":"N","apc":"Harbor","cpa":"Wilmington - Harbor City","zone":"R1-1XL","solar":"N","pin_nbr":"039B193   385","use_code":"1","geolocation":"POINT (-118.30818 33.80106)","status_date":"11/07/2013","permit_group":"Building","refresh_time":"06/10/2026","type_lat_lon":"ADDRESS","business_unit":"Express Permit"},"geometry":{"type":"Point","coordinates":[-118.30818,33.80106]}},{"type":"Feature","properties":{"date":"2013-05-21T00:00:00.000Z","year":2013,"description":"RE-ROOF # 18   SQUARES W/CLASS 'A' OR 'B' MATERIALS WEIGHING LESS THAN 6 LBS PER SQ FT.  TEAR OFF EXISITING ROOFING, FIBERGLASS OR ASPHALT SHINGLES (MAX 2 OVERLAYS).","metadescription":"Bldg-Alter/Repair. 1 or 2 Family Dwelling. RE-ROOF # 18   SQUARES W/CLASS 'A' OR 'B' MATERIALS WEIGHING LESS THAN 6 LBS PER SQ FT.  TEAR OFF EXISITING ROOFING, FIBERGLASS OR ASPHALT SHINGLES (MAX 2 OVERLAYS).. Permit Finaled. 1713 W 247TH PL","address":"1713 247Th Place, CA, Lomita, 90717, US","ct":"2933.02","ev":"N","apc":"Harbor","cpa":"Wilmington - Harbor City","zone":"R1-1XL","solar":"N","pin_nbr":"039B193   447","use_code":"1","geolocation":"POINT (-118.30838 33.80029)","status_date":"06/07/2013","permit_group":"Building","refresh_time":"06/10/2026","type_lat_lon":"ADDRESS","business_unit":"Express Permit"},"geometry":{"type":"Point","coordinates":[-118.30838,33.80029]}},{"type":"Feature","properties":{"date":"2013-03-08T00:00:00.000Z","year":2013,"description":"REROOF 260 SQUARES W/CLASS 'A' OR 'B' MATERIALS WEIGHING LESS THAN 6 POUNDS PER SQ.FT.  TEAR OFF EXISTING ROOFING.  \"COOL ROOF\" MAY BE REQUIRED PER TITLE 24, PART 6, SECTION 149(b), LABELED AND CERTIFIED BY CRRC PER SECTION 10-111.","metadescription":"Bldg-Alter/Repair. Commercial. REROOF 260 SQUARES W/CLASS 'A' OR 'B' MATERIALS WEIGHING LESS THAN 6 POUNDS PER SQ.FT.  TEAR OFF EXISTING ROOFING.  \"COOL ROOF\" MAY BE REQUIRED PER TITLE 24, PART 6, SECTION 149(b), LABELED AND CERTIFIED BY CRRC PER SECTION 10-111.. Permit Finaled. 24911 S WESTERN AVE","address":"24827 Western Avenue, CA, Lomita, 90717, US","ct":"2933.02","ev":"N","apc":"Harbor","cpa":"Wilmington - Harbor City","zone":"[Q]C2-1VL, [Q]P-1VL","solar":"N","pin_nbr":"039B193   649","use_code":"22","geolocation":"POINT (-118.30784 33.79838)","status_date":"04/08/2013","permit_group":"Building","refresh_time":"06/10/2026","type_lat_lon":"ADDRESS","business_unit":"Express Permit"},"geometry":{"type":"Point","coordinates":[-118.30784,33.79838]}},{"type":"Feature","properties":{"date":"2013-02-28T00:00:00.000Z","year":2013,"description":"REROOF 40 SQUARES W/CLASS 'A' OR 'B' MATERIALS WEIGHING LESS THAN 6 POUNDS PER SQ.FT.  TEAR OFF EXISTING ROOFNIG.","metadescription":"Bldg-Alter/Repair. 1 or 2 Family Dwelling. REROOF 40 SQUARES W/CLASS 'A' OR 'B' MATERIALS WEIGHING LESS THAN 6 POUNDS PER SQ.FT.  TEAR OFF EXISTING ROOFNIG.. Permit Finaled. 1706 W 247TH ST","address":"1706 247Th Street, CA, Lomita, 90717, US","ct":"2933.02","ev":"N","apc":"Harbor","cpa":"Wilmington - Harbor City","zone":"R1-1XL","solar":"N","pin_nbr":"039B193   407","use_code":"1","geolocation":"POINT (-118.30805 33.80081)","status_date":"03/13/2013","permit_group":"Building","refresh_time":"06/10/2026","type_lat_lon":"ADDRESS","business_unit":"Express Permit"},"geometry":{"type":"Point","coordinates":[-118.30805,33.80081]}},{"type":"Feature","properties":{"date":"2013-02-13T00:00:00.000Z","year":2013,"description":"INSTALL (8) NEW MECHANICAL UNITS ON ROOF OF EXISTING BLDG.","metadescription":"Bldg-Alter/Repair. Commercial. INSTALL (8) NEW MECHANICAL UNITS ON ROOF OF EXISTING BLDG.. Permit Finaled. 24911 S WESTERN AVE","address":"24827 Western Avenue, CA, Lomita, 90717, US","ct":"2933.02","ev":"N","apc":"Harbor","cpa":"Wilmington - Harbor City","zone":"[Q]C2-1VL, [Q]P-1VL","solar":"N","pin_nbr":"039B193   649","use_code":"16","geolocation":"POINT (-118.30784 33.79838)","status_date":"06/17/2013","permit_group":"Building","refresh_time":"06/10/2026","type_lat_lon":"ADDRESS","business_unit":"Plan Check at Counter"},"geometry":{"type":"Point","coordinates":[-118.30784,33.79838]}},{"type":"Feature","properties":{"date":"2012-01-30T00:00:00.000Z","year":2012,"description":"RE-ROOF 13 SQUARES W/CLASS 'A' MATERIALS WEIGHING LESS THAN 6 POUNDS PER SQ. FT. INSTALL FIBERGLASS OR ASPHALT SHINGLES (MAX. 2 OVERLAYS).","metadescription":"Bldg-Alter/Repair. Apartment. RE-ROOF 13 SQUARES W/CLASS 'A' MATERIALS WEIGHING LESS THAN 6 POUNDS PER SQ. FT. INSTALL FIBERGLASS OR ASPHALT SHINGLES (MAX. 2 OVERLAYS).. Permit Finaled. 25120 S WESTERN AVE","address":"25120 Western Avenue, CA, Harbor City, 90710, US","ct":"2933.02","ev":"N","apc":"Harbor","cpa":"Wilmington - Harbor City","zone":"[Q]R3-1VL","solar":"N","pin_nbr":"036B193   139","use_code":"5","geolocation":"POINT (-118.30738 33.79614)","status_date":"02/20/2014","permit_group":"Building","refresh_time":"06/10/2026","type_lat_lon":"ADDRESS","business_unit":"Express Permit"},"geometry":{"type":"Point","coordinates":[-118.30738,33.79614]}},{"type":"Feature","properties":{"date":"2011-12-19T00:00:00.000Z","year":2011,"description":"TEAR OFF 27 SQUARES OF EXISTING MODIFIED ROOFING. INSTALL NEW MODIFIED ROOF TO 1 STORY 4 PLEX.","metadescription":"Bldg-Alter/Repair. Apartment. TEAR OFF 27 SQUARES OF EXISTING MODIFIED ROOFING. INSTALL NEW MODIFIED ROOF TO 1 STORY 4 PLEX.. Permit Finaled. 25017 1/2 S WESTERN AVE","address":"25015 Western Avenue, CA, Lomita, 90717, US","ct":"2933.02","ev":"N","apc":"Harbor","cpa":"Wilmington - Harbor City","zone":"[Q]R3-1VL","solar":"N","pin_nbr":"036B193    85","use_code":"5","geolocation":"POINT (-118.30777 33.79717)","status_date":"01/03/2012","permit_group":"Building","refresh_time":"06/10/2026","type_lat_lon":"ADDRESS","business_unit":"Express Permit"},"geometry":{"type":"Point","coordinates":[-118.30777,33.79717]}},{"type":"Feature","properties":{"date":"2011-08-30T00:00:00.000Z","year":2011,"description":"Reroof with 90 sqrs BUILT UP roofing. Existing solid sheathing.","metadescription":"Bldg-Alter/Repair. Apartment. Reroof with 90 sqrs BUILT UP roofing. Existing solid sheathing.. Permit Finaled. 1717 W 252ND ST","address":"1717 252Nd Street, CA, Lomita, 90717, US","ct":"2933.02","ev":"N","apc":"Harbor","cpa":"Wilmington - Harbor City","zone":"(T)(Q)R2-1XL","solar":"N","pin_nbr":"036B193   202","use_code":"35","geolocation":"POINT (-118.30837 33.79589)","status_date":"09/19/2013","permit_group":"Building","refresh_time":"06/10/2026","type_lat_lon":"ADDRESS","business_unit":"Express Permit"},"geometry":{"type":"Point","coordinates":[-118.30837,33.79589]}},{"type":"Feature","properties":{"date":"2011-04-04T00:00:00.000Z","year":2011,"description":"Reroof with 40 sqrs BUILT UP roofing. Existing solid sheathing.","metadescription":"Bldg-Alter/Repair. Commercial. Reroof with 40 sqrs BUILT UP roofing. Existing solid sheathing.. Permit Finaled. 1728 W LOMITA BLVD","address":"1728 Lomita Boulevard, CA, Lomita, 90717, US","ct":"2933.02","ev":"N","apc":"Harbor","cpa":"Wilmington - Harbor City","zone":"[Q]C2-1VL","solar":"N","pin_nbr":"036B193   950","use_code":"17","geolocation":"POINT (-118.30846 33.79764)","status_date":"05/02/2012","permit_group":"Building","refresh_time":"06/10/2026","type_lat_lon":"ADDRESS","business_unit":"Express Permit"},"geometry":{"type":"Point","coordinates":[-118.30846,33.79764]}},{"type":"Feature","properties":{"date":"2011-02-07T00:00:00.000Z","year":2011,"description":"RE-ROOF 18 SQUARES WITH CLASS 'A' MATERIALS.  INSTALL MODIFIED BITUMEN.","metadescription":"Bldg-Alter/Repair. 1 or 2 Family Dwelling. RE-ROOF 18 SQUARES WITH CLASS 'A' MATERIALS.  INSTALL MODIFIED BITUMEN.. Permit Finaled. 1700 W 247TH ST","address":"1700 247Th Street, CA, Lomita, 90717, US","ct":"2933.02","ev":"N","apc":"Harbor","cpa":"Wilmington - Harbor City","zone":"R1-1XL","solar":"N","pin_nbr":"039B193   408","use_code":"1","geolocation":"POINT (-118.308 33.80085)","status_date":"04/14/2011","permit_group":"Building","refresh_time":"06/10/2026","type_lat_lon":"ADDRESS","business_unit":"Express Permit"},"geometry":{"type":"Point","coordinates":[-118.308,33.80085]}},{"type":"Feature","properties":{"date":"2010-10-19T00:00:00.000Z","year":2010,"description":"TEAR OFF EXISTING MATERIAL AND REROOF","metadescription":"Bldg-Alter/Repair. 1 or 2 Family Dwelling. TEAR OFF EXISTING MATERIAL AND REROOF. Permit Finaled. 1707 W 247TH PL","address":"1707 247Th Place, CA, Lomita, 90717, US","ct":"2933.02","ev":"N","apc":"Harbor","cpa":"Wilmington - Harbor City","zone":"R1-1XL","solar":"N","pin_nbr":"039B193   448","use_code":"1","geolocation":"POINT (-118.30819 33.80029)","status_date":"11/24/2010","permit_group":"Building","refresh_time":"06/10/2026","type_lat_lon":"ADDRESS","business_unit":"Express Permit"},"geometry":{"type":"Point","coordinates":[-118.30819,33.80029]}},{"type":"Feature","properties":{"date":"2009-08-07T00:00:00.000Z","year":2009,"description":"TEAR OFF EXISTING ROOFING.  RE-ROOF WITH CLASS 'A' MATERIAL.  INSTALL FIBERGLASS OR ASPHALT SHINGLES (MAX. 2 OVERLAYS TOTAL).  (18 SQUARES)","metadescription":"Bldg-Alter/Repair. 1 or 2 Family Dwelling. TEAR OFF EXISTING ROOFING.  RE-ROOF WITH CLASS 'A' MATERIAL.  INSTALL FIBERGLASS OR ASPHALT SHINGLES (MAX. 2 OVERLAYS TOTAL).  (18 SQUARES). Permit Finaled. 1712 W 252ND ST","address":"1712 252Nd Street, CA, Lomita, 90717, US","ct":"2933.04","ev":"N","apc":"Harbor","cpa":"Wilmington - Harbor City","zone":"R2-1XL","solar":"N","pin_nbr":"036B193   244","use_code":"1","geolocation":"POINT (-118.3081 33.79561)","status_date":"08/31/2009","permit_group":"Building","refresh_time":"06/10/2026","type_lat_lon":"ADDRESS","business_unit":"Express Permit"},"geometry":{"type":"Point","coordinates":[-118.3081,33.79561]}},{"type":"Feature","properties":{"date":"2006-05-08T00:00:00.000Z","year":2006,"description":"Supplemental permit PCIS 06014-70000-01508.  Revised roof framing .  Also,  provide laundry area (washer & dryer)  at garage and install a new pre-fab fireplace.","metadescription":"Bldg-Alter/Repair. 1 or 2 Family Dwelling. Supplemental permit PCIS 06014-70000-01508.  Revised roof framing .  Also,  provide laundry area (washer & dryer)  at garage and install a new pre-fab fireplace.. Permit Finaled. 1725 W 247TH ST","address":"1725 247Th Street, CA, Lomita, 90717, US","ct":"2933.02","ev":"N","apc":"Harbor","cpa":"Wilmington - Harbor City","zone":"R1-1XL","solar":"N","pin_nbr":"039B193   382","use_code":"1","geolocation":"POINT (-118.30875 33.80106)","status_date":"02/25/2010","permit_group":"Building","refresh_time":"06/10/2026","type_lat_lon":"ADDRESS","business_unit":"Plan Check at Counter"},"geometry":{"type":"Point","coordinates":[-118.30875,33.80106]}},{"type":"Feature","properties":{"date":"2005-09-26T00:00:00.000Z","year":2005,"description":"1-STORY ADDITION  (Enlarging 2 Beds / Garage, Adding 1 Bath, & Changing Rear Flat Roof To Vaulted-Ceiling)  &  PARTIAL REMODEL EXIST'G RESIDENCE.   Related Elec., Hvac., & Plumb.","metadescription":"Bldg-Addition. 1 or 2 Family Dwelling. 1-STORY ADDITION  (Enlarging 2 Beds / Garage, Adding 1 Bath, & Changing Rear Flat Roof To Vaulted-Ceiling)  &  PARTIAL REMODEL EXIST'G RESIDENCE.   Related Elec., Hvac., & Plumb.. CofO Issued. 1648 W 249TH ST","address":"1648 249Th Street, CA, Harbor City, 90710, US","ct":"2933.02","ev":"N","apc":"Harbor","cpa":"Wilmington - Harbor City","zone":"R1-1XL","solar":"N","pin_nbr":"039B193   650","use_code":"1","geolocation":"POINT (-118.30724948 33.79847938)","status_date":"08/17/2015","construction":"Type V-N Construction","permit_group":"Building","refresh_time":"06/10/2026","type_lat_lon":"BUILDING","business_unit":"Plan Check at Counter","square_footage":"357"},"geometry":{"type":"Point","coordinates":[-118.30724948,33.79847938]}},{"type":"Feature","properties":{"date":"2003-11-12T00:00:00.000Z","year":2003,"description":"Reroof with 8 sqrs COMP SHINGLE roofing. Existing solid sheathing.","metadescription":"Bldg-Alter/Repair. 1 or 2 Family Dwelling. Reroof with 8 sqrs COMP SHINGLE roofing. Existing solid sheathing.. Permit Finaled. 1728 W 251ST ST","address":"1728 251St Street, CA, Lomita, 90717, US","ct":"2933.02","ev":"N","apc":"Harbor","cpa":"Wilmington - Harbor City","zone":"R2-1XL","solar":"N","pin_nbr":"036B193   136","use_code":"1","geolocation":"POINT (-118.30857 33.79667)","status_date":"07/01/2008","permit_group":"Building","refresh_time":"06/10/2026","type_lat_lon":"ADDRESS","business_unit":"Express Permit"},"geometry":{"type":"Point","coordinates":[-118.30857,33.79667]}},{"type":"Feature","properties":{"date":"2003-11-12T00:00:00.000Z","year":2003,"description":"Reroof with 25 sqrs COMP SHINGLE roofing. Existing solid sheathing.","metadescription":"Bldg-Alter/Repair. 1 or 2 Family Dwelling. Reroof with 25 sqrs COMP SHINGLE roofing. Existing solid sheathing.. Permit Finaled. 1732 W 251ST ST","address":"1728 251St Street, CA, Lomita, 90717, US","ct":"2933.02","ev":"N","apc":"Harbor","zone":"R2-1XL","solar":"N","pin_nbr":"036B193   135","use_code":"1","geolocation":"POINT (-118.30863 33.79668)","status_date":"07/01/2008","permit_group":"Building","refresh_time":"06/10/2026","type_lat_lon":"ADDRESS","business_unit":"Express Permit"},"geometry":{"type":"Point","coordinates":[-118.30863,33.79668]}},{"type":"Feature","properties":{"date":"1999-05-12T00:00:00.000Z","year":1999,"description":"tear off, reroof w/comp.shing. -15sqrs.-sfd/5-sqrs.-gar.","metadescription":"Bldg-Alter/Repair. 1 or 2 Family Dwelling. tear off, reroof w/comp.shing. -15sqrs.-sfd/5-sqrs.-gar.. Permit Finaled. 1719 W 248TH ST","address":"1719 248Th Street, CA, Lomita, 90717, US","ct":"2933.02","ev":"N","apc":"Harbor","solar":"N","pin_nbr":"039B193   532","use_code":"1","geolocation":"POINT (-118.30857 33.79955)","status_date":"02/22/2001","permit_group":"Building","refresh_time":"06/10/2026","type_lat_lon":"ADDRESS","business_unit":"Express Permit"},"geometry":{"type":"Point","coordinates":[-118.30857,33.79955]}},{"type":"Feature","properties":{"date":"1999-04-30T00:00:00.000Z","year":1999,"description":"tear off, reroof built up tar and gravel 14sqrs.","metadescription":"Bldg-Alter/Repair. 1 or 2 Family Dwelling. tear off, reroof built up tar and gravel 14sqrs.. Permit Closed. 1724 W 248TH ST","address":"1724 248Th Street, CA, Lomita, 90717, US","ct":"2933.02","ev":"N","apc":"Harbor","solar":"N","pin_nbr":"039B193   574","use_code":"1","geolocation":"POINT (-118.30874 33.79935)","status_date":"12/14/1999","permit_group":"Building","refresh_time":"06/10/2026","type_lat_lon":"ADDRESS","business_unit":"Express Permit"},"geometry":{"type":"Point","coordinates":[-118.30874,33.79935]}}]}
